{
"type": "FeatureCollection",
"name": "0e94863c4996_visibility",
"crs": { "type": "name", "properties": { "name": "urn:ogc:def:crs:OGC:1.3:CRS84" } },
"features": [
{ "type": "Feature", "properties": { "visible_points": 0, "total_points": 55, "visibility_pct": 0.0 }, "geometry": { "type": "Point", "coordinates": [ -2.554099805630492, 53.77199030506474 ] } },
{ "type": "Feature", "properties": { "visible_points": 0, "total_points": 63, "visibility_pct": 0.0 }, "geometry": { "type": "Point", "coordinates": [ -2.553889581483954, 53.77199127589958 ] } },
{ "type": "Feature", "properties": { "visible_points": 5, "total_points": 71, "visibility_pct": 7.042253521126761 }, "geometry": { "type": "Point", "coordinates": [ -2.553679357325082, 53.771992246365819 ] } },
{ "type": "Feature", "properties": { "visible_points": 0, "total_points": 55, "visibility_pct": 0.0 }, "geometry": { "type": "Point", "coordinates": [ -2.552418012113247, 53.771998061422252 ] } },
{ "type": "Feature", "properties": { "visible_points": 2, "total_points": 46, "visibility_pct": 4.3478260869565215 }, "geometry": { "type": "Point", "coordinates": [ -2.552207787868214, 53.771999029308162 ] } },
{ "type": "Feature", "properties": { "visible_points": 2, "total_points": 55, "visibility_pct": 3.6363636363636362 }, "geometry": { "type": "Point", "coordinates": [ -2.554206340736568, 53.772097668483902 ] } },
{ "type": "Feature", "properties": { "visible_points": 4, "total_points": 62, "visibility_pct": 6.4516129032258061 }, "geometry": { "type": "Point", "coordinates": [ -2.553996116056079, 53.772098639507171 ] } },
{ "type": "Feature", "properties": { "visible_points": 4, "total_points": 70, "visibility_pct": 5.7142857142857144 }, "geometry": { "type": "Point", "coordinates": [ -2.553785891363266, 53.772099610161831 ] } },
{ "type": "Feature", "properties": { "visible_points": 8, "total_points": 78, "visibility_pct": 10.256410256410255 }, "geometry": { "type": "Point", "coordinates": [ -2.553575666658127, 53.772100580447876 ] } },
{ "type": "Feature", "properties": { "visible_points": 4, "total_points": 71, "visibility_pct": 5.6338028169014089 }, "geometry": { "type": "Point", "coordinates": [ -2.552734767714388, 53.772104457905868 ] } },
{ "type": "Feature", "properties": { "visible_points": 0, "total_points": 62, "visibility_pct": 0.0 }, "geometry": { "type": "Point", "coordinates": [ -2.552524542947687, 53.772105426348809 ] } },
{ "type": "Feature", "properties": { "visible_points": 0, "total_points": 53, "visibility_pct": 0.0 }, "geometry": { "type": "Point", "coordinates": [ -2.552314318168685, 53.772106394423155 ] } },
{ "type": "Feature", "properties": { "visible_points": 0, "total_points": 60, "visibility_pct": 0.0 }, "geometry": { "type": "Point", "coordinates": [ -2.55410265117448, 53.772206003016507 ] } },
{ "type": "Feature", "properties": { "visible_points": 11, "total_points": 67, "visibility_pct": 16.417910447761194 }, "geometry": { "type": "Point", "coordinates": [ -2.553892425947708, 53.772206973859596 ] } },
{ "type": "Feature", "properties": { "visible_points": 8, "total_points": 75, "visibility_pct": 10.666666666666668 }, "geometry": { "type": "Point", "coordinates": [ -2.553682200708614, 53.772207944334077 ] } },
{ "type": "Feature", "properties": { "visible_points": 8, "total_points": 83, "visibility_pct": 9.6385542168674707 }, "geometry": { "type": "Point", "coordinates": [ -2.553471975457194, 53.772208914439922 ] } },
{ "type": "Feature", "properties": { "visible_points": 13, "total_points": 86, "visibility_pct": 15.11627906976744 }, "geometry": { "type": "Point", "coordinates": [ -2.55326175019346, 53.772209884177151 ] } },
{ "type": "Feature", "properties": { "visible_points": 10, "total_points": 85, "visibility_pct": 11.76470588235294 }, "geometry": { "type": "Point", "coordinates": [ -2.553051524917405, 53.772210853545772 ] } },
{ "type": "Feature", "properties": { "visible_points": 0, "total_points": 76, "visibility_pct": 0.0 }, "geometry": { "type": "Point", "coordinates": [ -2.552841299629038, 53.772211822545771 ] } },
{ "type": "Feature", "properties": { "visible_points": 4, "total_points": 67, "visibility_pct": 5.9701492537313428 }, "geometry": { "type": "Point", "coordinates": [ -2.552631074328376, 53.772212791177139 ] } },
{ "type": "Feature", "properties": { "visible_points": 6, "total_points": 58, "visibility_pct": 10.344827586206897 }, "geometry": { "type": "Point", "coordinates": [ -2.552420849015402, 53.772213759439893 ] } },
{ "type": "Feature", "properties": { "visible_points": 0, "total_points": 50, "visibility_pct": 0.0 }, "geometry": { "type": "Point", "coordinates": [ -2.552210623690137, 53.772214727334031 ] } },
{ "type": "Feature", "properties": { "visible_points": 4, "total_points": 57, "visibility_pct": 7.0175438596491224 }, "geometry": { "type": "Point", "coordinates": [ -2.554209186839142, 53.772313366427603 ] } },
{ "type": "Feature", "properties": { "visible_points": 1, "total_points": 64, "visibility_pct": 1.5625 }, "geometry": { "type": "Point", "coordinates": [ -2.553998961078418, 53.7723143374591 ] } },
{ "type": "Feature", "properties": { "visible_points": 2, "total_points": 71, "visibility_pct": 2.8169014084507045 }, "geometry": { "type": "Point", "coordinates": [ -2.553788735305371, 53.772315308122018 ] } },
{ "type": "Feature", "properties": { "visible_points": 0, "total_points": 79, "visibility_pct": 0.0 }, "geometry": { "type": "Point", "coordinates": [ -2.553578509519992, 53.772316278416305 ] } },
{ "type": "Feature", "properties": { "visible_points": 2, "total_points": 84, "visibility_pct": 2.3809523809523809 }, "geometry": { "type": "Point", "coordinates": [ -2.553368283722295, 53.772317248341956 ] } },
{ "type": "Feature", "properties": { "visible_points": 8, "total_points": 84, "visibility_pct": 9.5238095238095237 }, "geometry": { "type": "Point", "coordinates": [ -2.553158057912277, 53.772318217898992 ] } },
{ "type": "Feature", "properties": { "visible_points": 10, "total_points": 80, "visibility_pct": 12.5 }, "geometry": { "type": "Point", "coordinates": [ -2.552947832089948, 53.772319187087426 ] } },
{ "type": "Feature", "properties": { "visible_points": 7, "total_points": 71, "visibility_pct": 9.8591549295774641 }, "geometry": { "type": "Point", "coordinates": [ -2.552737606255311, 53.772320155907217 ] } },
{ "type": "Feature", "properties": { "visible_points": 11, "total_points": 62, "visibility_pct": 17.741935483870968 }, "geometry": { "type": "Point", "coordinates": [ -2.552527380408374, 53.772321124358399 ] } },
{ "type": "Feature", "properties": { "visible_points": 9, "total_points": 54, "visibility_pct": 16.666666666666664 }, "geometry": { "type": "Point", "coordinates": [ -2.552317154549133, 53.772322092440952 ] } },
{ "type": "Feature", "properties": { "visible_points": 2, "total_points": 59, "visibility_pct": 3.3898305084745761 }, "geometry": { "type": "Point", "coordinates": [ -2.554105496755399, 53.772421700960372 ] } },
{ "type": "Feature", "properties": { "visible_points": 0, "total_points": 67, "visibility_pct": 0.0 }, "geometry": { "type": "Point", "coordinates": [ -2.553895270448394, 53.772422671811704 ] } },
{ "type": "Feature", "properties": { "visible_points": 0, "total_points": 74, "visibility_pct": 0.0 }, "geometry": { "type": "Point", "coordinates": [ -2.553685044129054, 53.77242364229442 ] } },
{ "type": "Feature", "properties": { "visible_points": 1, "total_points": 79, "visibility_pct": 1.2658227848101267 }, "geometry": { "type": "Point", "coordinates": [ -2.553474817797391, 53.772424612408514 ] } },
{ "type": "Feature", "properties": { "visible_points": 9, "total_points": 79, "visibility_pct": 11.39240506329114 }, "geometry": { "type": "Point", "coordinates": [ -2.553264591453413, 53.772425582153971 ] } },
{ "type": "Feature", "properties": { "visible_points": 13, "total_points": 77, "visibility_pct": 16.883116883116884 }, "geometry": { "type": "Point", "coordinates": [ -2.553054365097112, 53.77242655153082 ] } },
{ "type": "Feature", "properties": { "visible_points": 13, "total_points": 72, "visibility_pct": 18.055555555555554 }, "geometry": { "type": "Point", "coordinates": [ -2.552844138728509, 53.772427520539054 ] } },
{ "type": "Feature", "properties": { "visible_points": 15, "total_points": 65, "visibility_pct": 23.076923076923077 }, "geometry": { "type": "Point", "coordinates": [ -2.552633912347596, 53.772428489178658 ] } },
{ "type": "Feature", "properties": { "visible_points": 6, "total_points": 58, "visibility_pct": 10.344827586206897 }, "geometry": { "type": "Point", "coordinates": [ -2.554001806137687, 53.772530035403157 ] } },
{ "type": "Feature", "properties": { "visible_points": 3, "total_points": 65, "visibility_pct": 4.6153846153846159 }, "geometry": { "type": "Point", "coordinates": [ -2.55379157928439, 53.772531006074303 ] } },
{ "type": "Feature", "properties": { "visible_points": 0, "total_points": 71, "visibility_pct": 0.0 }, "geometry": { "type": "Point", "coordinates": [ -2.553371125540812, 53.772532946310712 ] } },
{ "type": "Feature", "properties": { "visible_points": 9, "total_points": 70, "visibility_pct": 12.857142857142856 }, "geometry": { "type": "Point", "coordinates": [ -2.553160898650548, 53.772533915875982 ] } },
{ "type": "Feature", "properties": { "visible_points": 10, "total_points": 68, "visibility_pct": 14.705882352941178 }, "geometry": { "type": "Point", "coordinates": [ -2.552950671747968, 53.772534885072645 ] } }
]
}
