{
"type": "FeatureCollection",
"name": "BLACK_28_walking",
"crs": { "type": "name", "properties": { "name": "urn:ogc:def:crs:OGC:1.3:CRS84" } },
"features": [
{"type":"Feature","properties":{"highway":"path","name":null,"category":"Shared path"},"geometry":{"type":"MultiLineString","coordinates":[[[-3.03149,53.8695966],[-3.0316895,53.8695044],[-3.0318576,53.8694268],[-3.0329835,53.8689065],[-3.0330337,53.8689156]]]}},
{"type":"Feature","properties":{"highway":"footway","name":null,"category":"Footpath (pedestrian only)"},"geometry":{"type":"MultiLineString","coordinates":[[[-3.0433415,53.8785299],[-3.0433498,53.8784877],[-3.0433652,53.8783882],[-3.0433912,53.8782504],[-3.0434167,53.8781015],[-3.0434248,53.878035],[-3.0434332,53.8780079],[-3.0435618,53.8774629]]]}},
{"type":"Feature","properties":{"highway":"path","name":null,"category":"Shared path"},"geometry":{"type":"MultiLineString","coordinates":[[[-3.0318576,53.8694268],[-3.0319094,53.8692826]]]}},
{"type":"Feature","properties":{"highway":"path","name":null,"category":"Shared path"},"geometry":{"type":"MultiLineString","coordinates":[[[-3.0316895,53.8695044],[-3.031346,53.8694972]]]}},
{"type":"Feature","properties":{"highway":"path","name":null,"category":"Shared path"},"geometry":{"type":"MultiLineString","coordinates":[[[-3.032088,53.8684314],[-3.0314096,53.8687202],[-3.0312152,53.869286],[-3.0311633,53.8693586]]]}},
{"type":"Feature","properties":{"highway":"path","name":null,"category":"Shared path"},"geometry":{"type":"MultiLineString","coordinates":[[[-3.0321876,53.8701686],[-3.0321481,53.870102],[-3.03149,53.8695966],[-3.031346,53.8694972],[-3.0312962,53.8694607],[-3.0312069,53.869417]]]}},
{"type":"Feature","properties":{"highway":"path","name":null,"category":"Shared path"},"geometry":{"type":"MultiLineString","coordinates":[[[-3.0314096,53.8687202],[-3.0314448,53.8687446],[-3.0315041,53.8688028]]]}},
{"type":"Feature","properties":{"highway":"path","name":null,"category":"Shared path"},"geometry":{"type":"MultiLineString","coordinates":[[[-3.0313714,53.8692124],[-3.0312591,53.8692661],[-3.0312152,53.869286]]]}},
{"type":"Feature","properties":{"highway":"path","name":null,"category":"Shared path"},"geometry":{"type":"MultiLineString","coordinates":[[[-3.0457325,53.8715906],[-3.0450027,53.8715428]]]}},
{"type":"Feature","properties":{"highway":"path","name":null,"category":"Shared path"},"geometry":{"type":"MultiLineString","coordinates":[[[-3.045621,53.8720874],[-3.0456433,53.8720027],[-3.0457325,53.8715906],[-3.045805,53.8713113],[-3.045845,53.8710814],[-3.0458523,53.870982],[-3.0458993,53.870638],[-3.0459034,53.8706089]]]}},
{"type":"Feature","properties":{"highway":"path","name":null,"category":"Shared path"},"geometry":{"type":"MultiLineString","coordinates":[[[-3.0465357,53.8678238],[-3.0466611,53.8678844],[-3.0467223,53.8679045],[-3.0467834,53.8679244],[-3.0468682,53.8679641],[-3.0470195,53.8680601],[-3.0471504,53.8681521],[-3.0472073,53.868202],[-3.0472496,53.8682391],[-3.0473569,53.8683324],[-3.0474266,53.8684368],[-3.0474588,53.868557],[-3.0474481,53.8686787],[-3.0473998,53.8688733],[-3.0473113,53.8690741],[-3.0472255,53.8692418],[-3.0471611,53.8694205],[-3.0470806,53.8697763],[-3.0470109,53.8700894],[-3.0469738,53.8701702],[-3.0469412,53.8702413],[-3.0468624,53.870418]]]}},
{"type":"Feature","properties":{"highway":"path","name":null,"category":"Shared path"},"geometry":{"type":"MultiLineString","coordinates":[[[-3.0464491,53.8710165],[-3.0462894,53.8710605],[-3.0461741,53.8710858],[-3.0460185,53.8710937],[-3.045845,53.8710814],[-3.0457252,53.8710072],[-3.0456012,53.8709078],[-3.0454472,53.8707848],[-3.0451721,53.8706398],[-3.0449288,53.8705378],[-3.0446948,53.8704423]]]}},
{"type":"Feature","properties":{"highway":"path","name":null,"category":"Shared path"},"geometry":{"type":"MultiLineString","coordinates":[[[-3.0396065,53.8788526],[-3.0394507,53.8788324],[-3.0394047,53.8788259],[-3.0392951,53.8788025]]]}},
{"type":"Feature","properties":{"highway":"footway","name":null,"category":"Footpath (pedestrian only)"},"geometry":{"type":"MultiLineString","coordinates":[[[-3.0432455,53.8738403],[-3.0431148,53.8738414],[-3.0430253,53.8738464],[-3.0429278,53.8738511]]]}},
{"type":"Feature","properties":{"highway":"path","name":null,"category":"Shared path"},"geometry":{"type":"MultiLineString","coordinates":[[[-3.0504376,53.8579318],[-3.0503996,53.8580845],[-3.0503616,53.8582369],[-3.0502174,53.8585709],[-3.0500603,53.8589039],[-3.0500461,53.8589341],[-3.0500317,53.8591809],[-3.0498942,53.8596325],[-3.0497544,53.8600919],[-3.0497026,53.860195],[-3.0495471,53.8605047],[-3.0495545,53.8607486],[-3.0494819,53.8609873],[-3.0492822,53.8617292],[-3.0492573,53.861822],[-3.0492536,53.8618608],[-3.0492502,53.8618974],[-3.0492145,53.8622827],[-3.0488828,53.8634733],[-3.0488458,53.8635956]]]}},
{"type":"Feature","properties":{"highway":"path","name":null,"category":"Shared path"},"geometry":{"type":"MultiLineString","coordinates":[[[-3.0493256,53.8634941],[-3.0489636,53.8637116]]]}},
{"type":"Feature","properties":{"highway":"path","name":null,"category":"Shared path"},"geometry":{"type":"MultiLineString","coordinates":[[[-3.0497984,53.8617664],[-3.0492822,53.8617292]]]}},
{"type":"Feature","properties":{"highway":"path","name":null,"category":"Shared path"},"geometry":{"type":"MultiLineString","coordinates":[[[-3.0491748,53.8640261],[-3.0489636,53.8637116]]]}},
{"type":"Feature","properties":{"highway":"path","name":null,"category":"Shared path"},"geometry":{"type":"MultiLineString","coordinates":[[[-3.0501925,53.8602996],[-3.0498832,53.8605673]]]}},
{"type":"Feature","properties":{"highway":"path","name":null,"category":"Shared path"},"geometry":{"type":"MultiLineString","coordinates":[[[-3.0506059,53.8587296],[-3.0502034,53.8589406],[-3.0500603,53.8589039]]]}},
{"type":"Feature","properties":{"highway":"path","name":null,"category":"Shared path"},"geometry":{"type":"MultiLineString","coordinates":[[[-3.0486258,53.8642914],[-3.0486259,53.8639015],[-3.0487372,53.8637126],[-3.0488458,53.8635956]]]}},
{"type":"Feature","properties":{"highway":"path","name":null,"category":"Shared path"},"geometry":{"type":"MultiLineString","coordinates":[[[-3.0485654,53.864675],[-3.0485278,53.8648974],[-3.0483207,53.8652915],[-3.0482188,53.8653704],[-3.0480848,53.865459],[-3.0479538,53.8655426],[-3.047848,53.8655908],[-3.0477771,53.8656373],[-3.047738,53.8656909],[-3.0477222,53.8657145]]]}},
{"type":"Feature","properties":{"highway":"path","name":null,"category":"Shared path"},"geometry":{"type":"MultiLineString","coordinates":[[[-3.0491263,53.8618397],[-3.048883,53.8618167],[-3.0488211,53.8618113],[-3.0486957,53.8617958]]]}},
{"type":"Feature","properties":{"highway":"path","name":null,"category":"Shared path"},"geometry":{"type":"MultiLineString","coordinates":[[[-3.0497026,53.860195],[-3.0498222,53.8602619],[-3.0498832,53.8605673],[-3.0499861,53.8610825]]]}},
{"type":"Feature","properties":{"highway":"path","name":null,"category":"Shared path"},"geometry":{"type":"MultiLineString","coordinates":[[[-3.0492573,53.861822],[-3.049135,53.8618109],[-3.0491263,53.8618397],[-3.0491114,53.8618886],[-3.0492502,53.8618974]]]}},
{"type":"Feature","properties":{"highway":"path","name":null,"category":"Shared path"},"geometry":{"type":"MultiLineString","coordinates":[[[-3.048117,53.8635646],[-3.0482244,53.8635799],[-3.0482132,53.863615],[-3.0482072,53.8636394],[-3.0482604,53.8636449],[-3.0483104,53.8636513],[-3.0483363,53.8636541]]]}},
{"type":"Feature","properties":{"highway":"footway","name":null,"category":"Footpath (pedestrian only)"},"geometry":{"type":"MultiLineString","coordinates":[[[-3.0473246,53.8616587],[-3.0483948,53.8617616]]]}},
{"type":"Feature","properties":{"highway":"footway","name":null,"category":"Footpath (pedestrian only)"},"geometry":{"type":"MultiLineString","coordinates":[[[-3.0490094,53.8663577],[-3.0490682,53.8664914],[-3.048977,53.8667144],[-3.0487329,53.8671351],[-3.048631,53.8672854],[-3.0485505,53.8674088],[-3.0485162,53.8675933],[-3.0484217,53.8681015],[-3.0483172,53.8685014],[-3.0481428,53.869169],[-3.0480936,53.8693931],[-3.0479845,53.8698902],[-3.0479119,53.870261],[-3.0478954,53.8703969],[-3.0478998,53.8706154],[-3.0478799,53.8710779],[-3.0478182,53.8715839],[-3.0478,53.8716615],[-3.0477834,53.8717326],[-3.0477914,53.8718196],[-3.0479229,53.8719729],[-3.0480596,53.8720678],[-3.0481643,53.8722323],[-3.0481428,53.8723509],[-3.0480865,53.8724948],[-3.0479416,53.8726545],[-3.0478826,53.8727716],[-3.0478853,53.8729708],[-3.047889,53.8730152],[-3.0479121,53.8732934],[-3.0479453,53.8737473],[-3.0479631,53.8739908],[-3.0479738,53.8743007],[-3.0478948,53.8746127],[-3.0478048,53.874968],[-3.0476064,53.8757129],[-3.0475871,53.8761777],[-3.0476139,53.8763516],[-3.0476031,53.8765579],[-3.0475636,53.8773109],[-3.0475334,53.877887],[-3.0475361,53.8779961],[-3.0475549,53.8780641],[-3.0476059,53.8781226],[-3.0476837,53.8781795],[-3.0477346,53.8782349],[-3.0477534,53.8782902],[-3.0477373,53.8783392],[-3.0476944,53.8783851],[-3.04763,53.8784199],[-3.0475817,53.8784578],[-3.0475254,53.8785211],[-3.0474905,53.878597],[-3.0474744,53.8786634],[-3.047475,53.8786733],[-3.0474718,53.8787282],[-3.0474879,53.8788025],[-3.0475334,53.8788689],[-3.0476166,53.878929],[-3.0476595,53.8789859],[-3.0476649,53.8790476],[-3.0476407,53.8791108],[-3.047563,53.8791614],[-3.0475227,53.8792057],[-3.0474771,53.8792658],[-3.0474503,53.8793496],[-3.0474396,53.8794318],[-3.0474583,53.8794935],[-3.0475093,53.8795599],[-3.047579,53.8796373],[-3.0476488,53.879699],[-3.0476595,53.8797622],[-3.0476381,53.8798271],[-3.0475817,53.8798761],[-3.0475039,53.8799298],[-3.0474557,53.8799868],[-3.0474181,53.8800627],[-3.0474074,53.8801306],[-3.0474208,53.8802129],[-3.0474047,53.8803109],[-3.0474096,53.8806496],[-3.0474208,53.881435],[-3.0473832,53.8814888],[-3.0473832,53.8815457],[-3.0474315,53.88159],[-3.0474503,53.8828516],[-3.0474035,53.8833464],[-3.0473992,53.8834063]]]}},
{"type":"Feature","properties":{"highway":"path","name":null,"category":"Shared path"},"geometry":{"type":"MultiLineString","coordinates":[[[-3.0432581,53.8669956],[-3.0425394,53.8663578]]]}},
{"type":"Feature","properties":{"highway":"path","name":null,"category":"Shared path"},"geometry":{"type":"MultiLineString","coordinates":[[[-3.0488082,53.8656267],[-3.0486461,53.8657735],[-3.0483953,53.8658911]]]}},
{"type":"Feature","properties":{"highway":"path","name":null,"category":"Shared path"},"geometry":{"type":"MultiLineString","coordinates":[[[-3.0488824,53.8661189],[-3.0486731,53.86598],[-3.0485215,53.8658986],[-3.0483953,53.8658911]]]}},
{"type":"Feature","properties":{"highway":"path","name":null,"category":"Shared path"},"geometry":{"type":"MultiLineString","coordinates":[[[-3.0488458,53.8635956],[-3.0487957,53.8637207],[-3.0487424,53.8639134],[-3.0487302,53.8639568],[-3.0486972,53.8640673],[-3.0486258,53.8642914]]]}},
{"type":"Feature","properties":{"highway":"path","name":null,"category":"Shared path"},"geometry":{"type":"MultiLineString","coordinates":[[[-3.0486258,53.8642914],[-3.0485654,53.864675],[-3.0486531,53.8647837],[-3.0484454,53.8655095],[-3.0484356,53.8656615],[-3.0484075,53.8657055],[-3.0483511,53.8658279],[-3.0483953,53.8658911],[-3.0484272,53.8660161]]]}},
{"type":"Feature","properties":{"highway":"path","name":null,"category":"Shared path"},"geometry":{"type":"MultiLineString","coordinates":[[[-3.0429884,53.8671352],[-3.0436389,53.8675821]]]}},
{"type":"Feature","properties":{"highway":"footway","name":null,"category":"Footpath (pedestrian only)"},"geometry":{"type":"MultiLineString","coordinates":[[[-3.0475496,53.8609845],[-3.0470886,53.8609317],[-3.0470485,53.8610345],[-3.0466834,53.8609962],[-3.0465394,53.8610133]]]}},
{"type":"Feature","properties":{"highway":"footway","name":null,"category":"Footpath (pedestrian only)"},"geometry":{"type":"MultiLineString","coordinates":[[[-3.0371485,53.8764412],[-3.0371254,53.8764959]]]}},
{"type":"Feature","properties":{"highway":"footway","name":null,"category":"Footpath (pedestrian only)"},"geometry":{"type":"MultiLineString","coordinates":[[[-3.0447713,53.8795095],[-3.0448183,53.8795919],[-3.0447856,53.8796231]]]}},
{"type":"Feature","properties":{"highway":"track","name":null,"category":"Track"},"geometry":{"type":"MultiLineString","coordinates":[[[-3.0408338,53.8631414],[-3.0406702,53.8631304],[-3.0405629,53.8630892]]]}},
{"type":"Feature","properties":{"highway":"track","name":null,"category":"Track"},"geometry":{"type":"MultiLineString","coordinates":[[[-3.0425697,53.8627425],[-3.0420247,53.8627903],[-3.0415687,53.8628994],[-3.0412468,53.8629722],[-3.0410564,53.8630592],[-3.0408338,53.8631414],[-3.0405602,53.8632822]]]}},
{"type":"Feature","properties":{"highway":"track","name":null,"category":"Track"},"geometry":{"type":"MultiLineString","coordinates":[[[-3.0405387,53.8617352],[-3.0403349,53.8617653]]]}},
{"type":"Feature","properties":{"highway":"track","name":null,"category":"Track"},"geometry":{"type":"MultiLineString","coordinates":[[[-3.0411389,53.8623647],[-3.040166,53.8621688]]]}},
{"type":"Feature","properties":{"highway":"track","name":null,"category":"Track"},"geometry":{"type":"MultiLineString","coordinates":[[[-3.0429045,53.8633982],[-3.0428883,53.8629766],[-3.0427381,53.8628425],[-3.0425697,53.8627425],[-3.0423331,53.8626021],[-3.041971,53.8624138],[-3.0417082,53.862311],[-3.0415151,53.8622367],[-3.0412174,53.8621459]]]}},
{"type":"Feature","properties":{"highway":"track","name":null,"category":"Track"},"geometry":{"type":"MultiLineString","coordinates":[[[-3.0404529,53.8614224],[-3.0404869,53.8615421],[-3.0405387,53.8617352],[-3.0407211,53.8618302],[-3.041161,53.8619883],[-3.0412254,53.8621117],[-3.0412174,53.8621459],[-3.0411798,53.8623063],[-3.0411389,53.8623647],[-3.0410913,53.8624328],[-3.0407184,53.8629406],[-3.0405629,53.8630892],[-3.0405387,53.8632205],[-3.0405602,53.8632822],[-3.0404261,53.8633581],[-3.0402491,53.8634451],[-3.0403134,53.8635748],[-3.0401847,53.8637267],[-3.0401069,53.8638342],[-3.0400103,53.8639718],[-3.0399864,53.8640936]]]}},
{"type":"Feature","properties":{"highway":"track","name":null,"category":"Track"},"geometry":{"type":"MultiLineString","coordinates":[[[-3.0410552,53.8642772],[-3.0406085,53.8642676],[-3.0403698,53.8642534],[-3.0402839,53.8642249],[-3.0400908,53.8641506],[-3.0399864,53.8640936],[-3.0399111,53.8640525],[-3.0398065,53.8639592],[-3.0397448,53.8638975],[-3.0397368,53.8637346],[-3.0397207,53.8635258],[-3.0397233,53.8633961],[-3.0397502,53.8631051],[-3.0399057,53.8627159],[-3.0400801,53.8623569],[-3.040166,53.8621688],[-3.0402571,53.8619693],[-3.0403349,53.8617653],[-3.040292,53.8616973],[-3.0402518,53.8616801],[-3.0400381,53.8615885],[-3.0399549,53.8615412]]]}},
{"type":"Feature","properties":{"highway":"footway","name":null,"category":"Footpath (pedestrian only)"},"geometry":{"type":"MultiLineString","coordinates":[[[-3.0457134,53.8731489],[-3.0460185,53.8732128],[-3.0462384,53.8732586],[-3.0464959,53.8733045],[-3.0465844,53.873325],[-3.046689,53.8733725],[-3.0467722,53.8734215],[-3.0468473,53.8735021],[-3.0469063,53.8735939],[-3.0469519,53.8736587],[-3.0469921,53.8737061],[-3.0470485,53.8737607]]]}},
{"type":"Feature","properties":{"highway":"footway","name":null,"category":"Footpath (pedestrian only)"},"geometry":{"type":"MultiLineString","coordinates":[[[-3.0472963,53.8733174],[-3.0472174,53.8733416],[-3.0471544,53.8733669],[-3.04709,53.8733827],[-3.0469653,53.8733693],[-3.0468687,53.8733527],[-3.0467387,53.8733242],[-3.0466394,53.8732966],[-3.0465093,53.8732602],[-3.0464423,53.8732278],[-3.0463578,53.8731811],[-3.046272,53.8731289],[-3.046225,53.8730744],[-3.0461673,53.872989],[-3.0461486,53.8729479],[-3.0461137,53.8728846],[-3.0460466,53.8728135],[-3.0459394,53.8727099],[-3.0458508,53.8726411],[-3.0457956,53.8726196]]]}},
{"type":"Feature","properties":{"highway":"footway","name":null,"category":"Footpath (pedestrian only)"},"geometry":{"type":"MultiLineString","coordinates":[[[-3.0476393,53.8736626],[-3.04755,53.8736626],[-3.0474669,53.8736626]]]}},
{"type":"Feature","properties":{"highway":"footway","name":null,"category":"Footpath (pedestrian only)"},"geometry":{"type":"MultiLineString","coordinates":[[[-3.0470485,53.8737607],[-3.0470753,53.873771],[-3.0471222,53.8737805],[-3.0471705,53.8737899],[-3.0472215,53.8737955],[-3.0472711,53.8737915],[-3.047314,53.8737852],[-3.0473582,53.8737678],[-3.0473958,53.8737449],[-3.0474293,53.8737283],[-3.0474454,53.8737077],[-3.0474629,53.8736848],[-3.0474669,53.8736706],[-3.0474669,53.8736626],[-3.0474669,53.8736453],[-3.0474535,53.8736073],[-3.0474414,53.8735725],[-3.0474159,53.8735591],[-3.0473837,53.8735306],[-3.0473489,53.8735069],[-3.0473328,53.8734863],[-3.0473113,53.8734444],[-3.0473019,53.8733922],[-3.0473006,53.8733661],[-3.0473033,53.8733337],[-3.0472963,53.8733174],[-3.0472912,53.8733053],[-3.0472764,53.8732697],[-3.0472577,53.8732444],[-3.0472389,53.8732199],[-3.0472107,53.8732001],[-3.0471919,53.8731843],[-3.0471913,53.8731514]]]}},
{"type":"Feature","properties":{"highway":"path","name":null,"category":"Shared path"},"geometry":{"type":"MultiLineString","coordinates":[[[-3.0468171,53.8705092],[-3.0466917,53.8705639],[-3.0465201,53.8706003],[-3.0463672,53.8706271],[-3.0462787,53.8706382],[-3.046166,53.8706461],[-3.0460078,53.8706414],[-3.0458993,53.870638]]]}},
{"type":"Feature","properties":{"highway":"path","name":null,"category":"Shared path"},"geometry":{"type":"MultiLineString","coordinates":[[[-3.0439199,53.8705333],[-3.0437788,53.8704864],[-3.0436876,53.8704484],[-3.0436447,53.8704184],[-3.0436125,53.8703915],[-3.0435696,53.8703504],[-3.0435401,53.8703061],[-3.0435133,53.8702587],[-3.0434945,53.8702191],[-3.0434704,53.8701432],[-3.0434668,53.8700895]]]}},
{"type":"Feature","properties":{"highway":"path","name":null,"category":"Shared path"},"geometry":{"type":"MultiLineString","coordinates":[[[-3.0431811,53.8705301],[-3.043406,53.8705402],[-3.0437118,53.8705465],[-3.0439199,53.8705333],[-3.0439612,53.8705307],[-3.0443904,53.8704864],[-3.0446948,53.8704423],[-3.0448625,53.8703899],[-3.0450207,53.8703393],[-3.045187,53.8703219],[-3.0453506,53.8703409],[-3.0456301,53.870391]]]}},
{"type":"Feature","properties":{"highway":"path","name":null,"category":"Shared path"},"geometry":{"type":"MultiLineString","coordinates":[[[-3.046357,53.8682976],[-3.0464315,53.8682675],[-3.0465174,53.8682296],[-3.0466166,53.8681995],[-3.0467105,53.8681742],[-3.0468446,53.8681505],[-3.0469331,53.8681537],[-3.0470404,53.8681632],[-3.0472073,53.868202]]]}},
{"type":"Feature","properties":{"highway":"path","name":null,"category":"Shared path"},"geometry":{"type":"MultiLineString","coordinates":[[[-3.0470724,53.8702963],[-3.0470136,53.8702334],[-3.0469738,53.8701702]]]}},
{"type":"Feature","properties":{"highway":"path","name":null,"category":"Shared path"},"geometry":{"type":"MultiLineString","coordinates":[[[-3.0482021,53.867531],[-3.0481074,53.8675261],[-3.0479272,53.86751],[-3.0477974,53.8675013],[-3.0476144,53.8675699],[-3.0470663,53.8678534],[-3.0468682,53.8679641],[-3.0467507,53.8680303],[-3.0464718,53.8682154],[-3.046357,53.8682976],[-3.0463216,53.8683229],[-3.0462089,53.8683798],[-3.0459943,53.8685048],[-3.0458629,53.8686013],[-3.0457395,53.8687041],[-3.0456349,53.8687895],[-3.0455169,53.868897],[-3.0453882,53.8690567],[-3.0453023,53.8691548],[-3.0452272,53.8692544],[-3.0451334,53.8693509],[-3.0450448,53.8694142],[-3.0449027,53.8694758],[-3.0447391,53.8695375],[-3.0445164,53.8696039],[-3.0443046,53.8696561],[-3.0440417,53.8697273],[-3.043862,53.8697874],[-3.0436555,53.8698839],[-3.0435482,53.8699708],[-3.0434668,53.8700895],[-3.0434409,53.8701274],[-3.0433041,53.870363],[-3.0432236,53.8704864],[-3.0431811,53.8705301],[-3.04288,53.870618],[-3.0427475,53.870666]]]}},
{"type":"Feature","properties":{"highway":"footway","name":null,"category":"Footpath (pedestrian only)"},"geometry":{"type":"MultiLineString","coordinates":[[[-3.0458808,53.8745021],[-3.0460118,53.8744936],[-3.0461781,53.8744944],[-3.0463323,53.874496],[-3.0465093,53.8744984],[-3.0467279,53.8745205],[-3.046921,53.8745458],[-3.0470557,53.874577]]]}},
{"type":"Feature","properties":{"highway":"footway","name":null,"category":"Footpath (pedestrian only)"},"geometry":{"type":"MultiLineString","coordinates":[[[-3.0464508,53.8752763],[-3.0462201,53.8752979]]]}},
{"type":"Feature","properties":{"highway":"footway","name":null,"category":"Footpath (pedestrian only)"},"geometry":{"type":"MultiLineString","coordinates":[[[-3.0472801,53.8756115],[-3.0471705,53.8756029],[-3.0470753,53.8755982],[-3.0469707,53.8755942],[-3.0468218,53.8755903],[-3.04674,53.8755831],[-3.0466622,53.8755681],[-3.0466072,53.8755444],[-3.0465522,53.8754954],[-3.0464973,53.8753966],[-3.0464637,53.8753033],[-3.0464508,53.8752763],[-3.0464262,53.875225],[-3.0463779,53.8751135],[-3.0463403,53.8750344],[-3.0462343,53.8748003]]]}},
{"type":"Feature","properties":{"highway":"footway","name":null,"category":"Footpath (pedestrian only)"},"geometry":{"type":"MultiLineString","coordinates":[[[-3.0456387,53.8736534],[-3.045761,53.8736951],[-3.0458173,53.8737354],[-3.0458669,53.8737812],[-3.0459206,53.8738485],[-3.0459796,53.8739267],[-3.0460587,53.8740153],[-3.0461231,53.8740864],[-3.046221,53.8741489],[-3.0463269,53.8742145],[-3.0464503,53.8742873],[-3.0466086,53.8743727],[-3.0467628,53.8744478],[-3.0469975,53.8745403],[-3.0470557,53.874577],[-3.0470927,53.8746004],[-3.0472027,53.8747032],[-3.047259,53.874787],[-3.0472979,53.8749245],[-3.0472885,53.8750843],[-3.047263,53.8751926],[-3.0472201,53.8753373],[-3.0471919,53.8754574],[-3.0471732,53.8755839],[-3.0471705,53.8756029]]]}},
{"type":"Feature","properties":{"highway":"path","name":null,"category":"Shared path"},"geometry":{"type":"MultiLineString","coordinates":[[[-3.0490094,53.8663577],[-3.0489662,53.8660596],[-3.0489531,53.8658975],[-3.0489394,53.8657291],[-3.0489367,53.8654286],[-3.0490816,53.8649462],[-3.0492452,53.8644226],[-3.0495134,53.863298],[-3.0500472,53.861354],[-3.0503583,53.8601582],[-3.0506614,53.8590429],[-3.0507526,53.8586411],[-3.050884,53.8583801],[-3.0510315,53.8581855],[-3.0511495,53.8579846],[-3.0511832,53.8578743],[-3.0511978,53.8578264],[-3.0512125,53.8576449],[-3.0512139,53.8576271],[-3.0511753,53.8575741],[-3.0511603,53.8574816],[-3.0512273,53.8571731],[-3.0513293,53.8568757],[-3.0516699,53.8559154],[-3.0521339,53.8549298],[-3.0523941,53.8542922],[-3.0525298,53.8534789]]]}},
{"type":"Feature","properties":{"highway":"path","name":null,"category":"Shared path"},"geometry":{"type":"MultiLineString","coordinates":[[[-3.0483363,53.8636541],[-3.0483611,53.8636575],[-3.0483491,53.8636913],[-3.0483829,53.8636952],[-3.0483991,53.8636656],[-3.048504,53.8636794],[-3.0487372,53.8637126],[-3.0487957,53.8637207],[-3.0489636,53.8637116],[-3.0492549,53.8637448]]]}},
{"type":"Feature","properties":{"highway":"path","name":null,"category":"Shared path"},"geometry":{"type":"MultiLineString","coordinates":[[[-3.047848,53.8655908],[-3.0477111,53.8655747],[-3.0476462,53.8655668],[-3.0475166,53.8655506]]]}},
{"type":"Feature","properties":{"highway":"path","name":null,"category":"Shared path"},"geometry":{"type":"MultiLineString","coordinates":[[[-3.0489561,53.8617823],[-3.0489513,53.861798],[-3.0488907,53.861793],[-3.0488279,53.8617873],[-3.048703,53.8617719]]]}},
{"type":"Feature","properties":{"highway":"footway","name":null,"category":"Footpath (pedestrian only)"},"geometry":{"type":"MultiLineString","coordinates":[[[-3.0488365,53.8613365],[-3.0489644,53.8613477],[-3.0490345,53.8613548],[-3.049103,53.8613714],[-3.049095,53.8613928]]]}},
{"type":"Feature","properties":{"highway":"footway","name":null,"category":"Footpath (pedestrian only)"},"geometry":{"type":"MultiLineString","coordinates":[[[-3.0473287,53.8728902],[-3.0472416,53.8728119],[-3.0471168,53.8726885],[-3.0470417,53.8726031],[-3.0469881,53.8725256],[-3.0469251,53.8724719],[-3.0468017,53.8723952],[-3.0466555,53.8723375],[-3.0465831,53.8723153],[-3.0464758,53.8722892],[-3.0464409,53.8722623],[-3.0462545,53.8722449],[-3.0462696,53.87216]]]}},
{"type":"Feature","properties":{"highway":"path","name":null,"category":"Shared path"},"geometry":{"type":"MultiLineString","coordinates":[[[-3.0489803,53.8662914],[-3.0490094,53.8663577]]]}},
{"type":"Feature","properties":{"highway":"path","name":null,"category":"Shared path"},"geometry":{"type":"MultiLineString","coordinates":[[[-3.0485505,53.8674088],[-3.04858,53.8672031],[-3.0486685,53.8670323],[-3.0487919,53.8668062],[-3.0488884,53.866648],[-3.0489877,53.8664914],[-3.0490094,53.8663577]]]}},
{"type":"Feature","properties":{"highway":"path","name":"Lower Walk","category":"Shared path"},"geometry":{"type":"MultiLineString","coordinates":[[[-3.0487024,53.8664705],[-3.0489803,53.8662914],[-3.0488824,53.8661189],[-3.0488253,53.8660181],[-3.0487953,53.8657232],[-3.0488082,53.8656267],[-3.0488503,53.8653103],[-3.0490704,53.864393],[-3.0491748,53.8640261],[-3.0492549,53.8637448],[-3.0493105,53.8635494],[-3.0493256,53.8634941],[-3.0497984,53.8617664],[-3.0499861,53.8610825],[-3.0500457,53.8608653],[-3.0501925,53.8602996],[-3.0506059,53.8587296],[-3.050806,53.8581986],[-3.0508748,53.8580927],[-3.050921,53.8580216],[-3.0509572,53.8578879],[-3.050996,53.8577444],[-3.050991,53.85747],[-3.0512111,53.8568387],[-3.0514285,53.8562413],[-3.0516212,53.8557118],[-3.0519564,53.85493],[-3.0523615,53.8539328],[-3.0525298,53.8534789]]]}},
{"type":"Feature","properties":{"highway":"path","name":"The Courtyard","category":"Shared path"},"geometry":{"type":"MultiLineString","coordinates":[[[-3.0385364,53.8718046],[-3.0385174,53.8715939]]]}},
{"type":"Feature","properties":{"highway":"footway","name":null,"category":"Footpath (pedestrian only)"},"geometry":{"type":"MultiLineString","coordinates":[[[-3.0434818,53.8755168],[-3.0433664,53.8755128],[-3.043096,53.8754701],[-3.0429999,53.8754496]]]}},
{"type":"Feature","properties":{"highway":"footway","name":null,"category":"Footpath (pedestrian only)"},"geometry":{"type":"MultiLineString","coordinates":[[[-3.0349271,53.8629558],[-3.0348959,53.8630398],[-3.0349205,53.8632887],[-3.0349369,53.8635231],[-3.0349574,53.8638168],[-3.0349949,53.8639515],[-3.0349918,53.8642607],[-3.0350456,53.8644465],[-3.0351389,53.8646162],[-3.0352799,53.8646963],[-3.0356918,53.8647317],[-3.0361351,53.8647644],[-3.036732,53.8648103],[-3.0374164,53.8648432],[-3.0376088,53.8648576],[-3.0383295,53.8649142]]]}},
{"type":"Feature","properties":{"highway":"footway","name":null,"category":"Footpath (pedestrian only)"},"geometry":{"type":"MultiLineString","coordinates":[[[-3.0417321,53.8771867],[-3.0418275,53.8769462],[-3.0417837,53.87692]]]}},
{"type":"Feature","properties":{"highway":"path","name":null,"category":"Shared path"},"geometry":{"type":"MultiLineString","coordinates":[[[-3.0475706,53.8662159],[-3.047542,53.8662126],[-3.0475176,53.8662109],[-3.0474583,53.8662039],[-3.0474332,53.8662004],[-3.0473832,53.8661946],[-3.0473068,53.8661857]]]}},
{"type":"Feature","properties":{"highway":"footway","name":null,"category":"Footpath (pedestrian only)"},"geometry":{"type":"MultiLineString","coordinates":[[[-3.046644,53.8739469],[-3.0470485,53.8737607]]]}},
{"type":"Feature","properties":{"highway":"footway","name":null,"category":"Footpath (pedestrian only)"},"geometry":{"type":"MultiLineString","coordinates":[[[-3.0467499,53.87401],[-3.0463269,53.8742145]]]}},
{"type":"Feature","properties":{"highway":"footway","name":null,"category":"Footpath (pedestrian only)"},"geometry":{"type":"MultiLineString","coordinates":[[[-3.0461231,53.8740864],[-3.0457182,53.8741491]]]}},
{"type":"Feature","properties":{"highway":"footway","name":null,"category":"Footpath (pedestrian only)"},"geometry":{"type":"MultiLineString","coordinates":[[[-3.0388859,53.8658071],[-3.0390904,53.8657964]]]}},
{"type":"Feature","properties":{"highway":"footway","name":null,"category":"Footpath (pedestrian only)"},"geometry":{"type":"MultiLineString","coordinates":[[[-3.0389296,53.8665005],[-3.0391473,53.8665039]]]}},
{"type":"Feature","properties":{"highway":"footway","name":null,"category":"Footpath (pedestrian only)"},"geometry":{"type":"MultiLineString","coordinates":[[[-3.039441,53.8666369],[-3.0391302,53.8666385]]]}},
{"type":"Feature","properties":{"highway":"path","name":null,"category":"Shared path"},"geometry":{"type":"MultiLineString","coordinates":[[[-3.0498942,53.8596325],[-3.0498373,53.8596263]]]}},
{"type":"Feature","properties":{"highway":"path","name":null,"category":"Shared path"},"geometry":{"type":"MultiLineString","coordinates":[[[-3.0492536,53.8618608],[-3.0492064,53.8618561]]]}},
{"type":"Feature","properties":{"highway":"path","name":null,"category":"Shared path"},"geometry":{"type":"MultiLineString","coordinates":[[[-3.0487302,53.8639568],[-3.0487193,53.8639521]]]}},
{"type":"Feature","properties":{"highway":"footway","name":null,"category":"Footpath (pedestrian only)"},"geometry":{"type":"MultiLineString","coordinates":[[[-3.0392973,53.8662728],[-3.0391386,53.8662745],[-3.0389655,53.8662763],[-3.0389628,53.8661876],[-3.0389603,53.866102],[-3.0391232,53.8661003],[-3.0392921,53.8660986],[-3.039295,53.8661876],[-3.0392973,53.8662728]]]}},
{"type":"Feature","properties":{"highway":"path","name":null,"category":"Shared path"},"geometry":{"type":"MultiLineString","coordinates":[[[-3.0476536,53.8659764],[-3.0477284,53.8659801],[-3.0477874,53.8659774],[-3.0478443,53.8659704],[-3.0479255,53.8659517],[-3.0479842,53.8659305],[-3.0481082,53.8658758]]]}},
{"type":"Feature","properties":{"highway":"footway","name":null,"category":"Footpath (pedestrian only)"},"geometry":{"type":"MultiLineString","coordinates":[[[-3.0340199,53.8659642],[-3.0339176,53.8659545],[-3.033782,53.8659435]]]}},
{"type":"Feature","properties":{"highway":"footway","name":null,"category":"Footpath (pedestrian only)"},"geometry":{"type":"MultiLineString","coordinates":[[[-3.033782,53.8659435],[-3.0336379,53.8659294],[-3.0335269,53.8659193],[-3.0333785,53.8659078]]]}},
{"type":"Feature","properties":{"highway":"footway","name":null,"category":"Footpath (pedestrian only)"},"geometry":{"type":"MultiLineString","coordinates":[[[-3.0333785,53.8659078],[-3.0332549,53.8658953],[-3.0331023,53.8658798],[-3.032999,53.8658694]]]}},
{"type":"Feature","properties":{"highway":"footway","name":null,"category":"Footpath (pedestrian only)"},"geometry":{"type":"MultiLineString","coordinates":[[[-3.0350804,53.8659055],[-3.035092,53.8658455],[-3.0351041,53.8657829],[-3.0351281,53.8656664]]]}},
{"type":"Feature","properties":{"highway":"footway","name":null,"category":"Footpath (pedestrian only)"},"geometry":{"type":"MultiLineString","coordinates":[[[-3.0349653,53.8657707],[-3.0351041,53.8657829]]]}},
{"type":"Feature","properties":{"highway":"pedestrian","name":"Princess Road","category":"Pedestrian area/street"},"geometry":{"type":"MultiLineString","coordinates":[[[-3.0449431,53.8776711],[-3.0448998,53.8777633],[-3.0447624,53.8780471],[-3.0446297,53.8783201]]]}},
{"type":"Feature","properties":{"highway":"pedestrian","name":null,"category":"Pedestrian area/street"},"geometry":{"type":"MultiLineString","coordinates":[[[-3.0448683,53.8780623],[-3.0447624,53.8780471]]]}}
]
}
