{
"type": "FeatureCollection",
"name": "0f1a8259e299_visibility",
"crs": { "type": "name", "properties": { "name": "urn:ogc:def:crs:OGC:1.3:CRS84" } },
"features": [
{ "type": "Feature", "properties": { "visible_points": 13, "total_points": 58, "visibility_pct": 22.413793103448278 }, "geometry": { "type": "Point", "coordinates": [ -3.069824748768585, 53.40497867404094 ] } },
{ "type": "Feature", "properties": { "visible_points": 17, "total_points": 53, "visibility_pct": 32.075471698113205 }, "geometry": { "type": "Point", "coordinates": [ -3.069616367246953, 53.40498054101819 ] } },
{ "type": "Feature", "properties": { "visible_points": 2, "total_points": 71, "visibility_pct": 2.8169014084507045 }, "geometry": { "type": "Point", "coordinates": [ -3.070140024937419, 53.405083718955737 ] } },
{ "type": "Feature", "properties": { "visible_points": 17, "total_points": 67, "visibility_pct": 25.373134328358208 }, "geometry": { "type": "Point", "coordinates": [ -3.069931642931495, 53.405085586469873 ] } },
{ "type": "Feature", "properties": { "visible_points": 16, "total_points": 62, "visibility_pct": 25.806451612903224 }, "geometry": { "type": "Point", "coordinates": [ -3.06972326090259, 53.405087453619807 ] } },
{ "type": "Feature", "properties": { "visible_points": 13, "total_points": 56, "visibility_pct": 23.214285714285715 }, "geometry": { "type": "Point", "coordinates": [ -3.069514878850705, 53.405089320405551 ] } },
{ "type": "Feature", "properties": { "visible_points": 0, "total_points": 78, "visibility_pct": 0.0 }, "geometry": { "type": "Point", "coordinates": [ -3.070455302628046, 53.405188763077717 ] } },
{ "type": "Feature", "properties": { "visible_points": 17, "total_points": 80, "visibility_pct": 21.25 }, "geometry": { "type": "Point", "coordinates": [ -3.070246920137854, 53.405190631128754 ] } },
{ "type": "Feature", "properties": { "visible_points": 18, "total_points": 75, "visibility_pct": 24.0 }, "geometry": { "type": "Point", "coordinates": [ -3.070038537624665, 53.40519249881558 ] } },
{ "type": "Feature", "properties": { "visible_points": 14, "total_points": 70, "visibility_pct": 20.0 }, "geometry": { "type": "Point", "coordinates": [ -3.069830155088485, 53.405194366138204 ] } },
{ "type": "Feature", "properties": { "visible_points": 3, "total_points": 63, "visibility_pct": 4.7619047619047619 }, "geometry": { "type": "Point", "coordinates": [ -3.069621772529321, 53.405196233096618 ] } },
{ "type": "Feature", "properties": { "visible_points": 13, "total_points": 56, "visibility_pct": 23.214285714285715 }, "geometry": { "type": "Point", "coordinates": [ -3.069413389947179, 53.405198099690807 ] } },
{ "type": "Feature", "properties": { "visible_points": 0, "total_points": 83, "visibility_pct": 0.0 }, "geometry": { "type": "Point", "coordinates": [ -3.070562198866017, 53.405295674994804 ] } },
{ "type": "Feature", "properties": { "visible_points": 19, "total_points": 86, "visibility_pct": 22.093023255813954 }, "geometry": { "type": "Point", "coordinates": [ -3.070353815868555, 53.405297543218524 ] } },
{ "type": "Feature", "properties": { "visible_points": 17, "total_points": 84, "visibility_pct": 20.238095238095237 }, "geometry": { "type": "Point", "coordinates": [ -3.070145432848093, 53.405299411078047 ] } },
{ "type": "Feature", "properties": { "visible_points": 17, "total_points": 78, "visibility_pct": 21.794871794871796 }, "geometry": { "type": "Point", "coordinates": [ -3.069937049804639, 53.405301278573347 ] } },
{ "type": "Feature", "properties": { "visible_points": 14, "total_points": 71, "visibility_pct": 19.718309859154928 }, "geometry": { "type": "Point", "coordinates": [ -3.069728666738194, 53.40530314570443 ] } },
{ "type": "Feature", "properties": { "visible_points": 12, "total_points": 63, "visibility_pct": 19.047619047619047 }, "geometry": { "type": "Point", "coordinates": [ -3.069520283648771, 53.405305012471317 ] } },
{ "type": "Feature", "properties": { "visible_points": 7, "total_points": 54, "visibility_pct": 12.962962962962962 }, "geometry": { "type": "Point", "coordinates": [ -3.069311900536369, 53.405306878873965 ] } },
{ "type": "Feature", "properties": { "visible_points": 0, "total_points": 80, "visibility_pct": 0.0 }, "geometry": { "type": "Point", "coordinates": [ -3.070877479115992, 53.405400718068023 ] } },
{ "type": "Feature", "properties": { "visible_points": 14, "total_points": 85, "visibility_pct": 16.470588235294116 }, "geometry": { "type": "Point", "coordinates": [ -3.070669095634263, 53.405402586828643 ] } },
{ "type": "Feature", "properties": { "visible_points": 18, "total_points": 88, "visibility_pct": 20.454545454545457 }, "geometry": { "type": "Point", "coordinates": [ -3.070460712129517, 53.40540445522506 ] } },
{ "type": "Feature", "properties": { "visible_points": 15, "total_points": 89, "visibility_pct": 16.853932584269664 }, "geometry": { "type": "Point", "coordinates": [ -3.070252328601786, 53.405406323257253 ] } },
{ "type": "Feature", "properties": { "visible_points": 18, "total_points": 85, "visibility_pct": 21.176470588235293 }, "geometry": { "type": "Point", "coordinates": [ -3.070043945051051, 53.405408190925243 ] } },
{ "type": "Feature", "properties": { "visible_points": 16, "total_points": 78, "visibility_pct": 20.512820512820511 }, "geometry": { "type": "Point", "coordinates": [ -3.069835561477333, 53.405410058229009 ] } },
{ "type": "Feature", "properties": { "visible_points": 2, "total_points": 70, "visibility_pct": 2.8571428571428572 }, "geometry": { "type": "Point", "coordinates": [ -3.069627177880626, 53.405411925168565 ] } },
{ "type": "Feature", "properties": { "visible_points": 0, "total_points": 84, "visibility_pct": 0.0 }, "geometry": { "type": "Point", "coordinates": [ -3.070984376921777, 53.405507629645925 ] } },
{ "type": "Feature", "properties": { "visible_points": 24, "total_points": 87, "visibility_pct": 27.586206896551722 }, "geometry": { "type": "Point", "coordinates": [ -3.070775992932774, 53.405509498579256 ] } },
{ "type": "Feature", "properties": { "visible_points": 21, "total_points": 89, "visibility_pct": 23.595505617977526 }, "geometry": { "type": "Point", "coordinates": [ -3.070567608920758, 53.405511367148335 ] } },
{ "type": "Feature", "properties": { "visible_points": 21, "total_points": 89, "visibility_pct": 23.595505617977526 }, "geometry": { "type": "Point", "coordinates": [ -3.070359224885749, 53.405513235353226 ] } },
{ "type": "Feature", "properties": { "visible_points": 22, "total_points": 87, "visibility_pct": 25.287356321839084 }, "geometry": { "type": "Point", "coordinates": [ -3.070150840827738, 53.405515103193899 ] } },
{ "type": "Feature", "properties": { "visible_points": 17, "total_points": 82, "visibility_pct": 20.73170731707317 }, "geometry": { "type": "Point", "coordinates": [ -3.069942456746733, 53.405516970670348 ] } },
{ "type": "Feature", "properties": { "visible_points": 0, "total_points": 73, "visibility_pct": 0.0 }, "geometry": { "type": "Point", "coordinates": [ -3.069734072642743, 53.405518837782573 ] } },
{ "type": "Feature", "properties": { "visible_points": 0, "total_points": 81, "visibility_pct": 0.0 }, "geometry": { "type": "Point", "coordinates": [ -3.07129965973111, 53.405612671670369 ] } },
{ "type": "Feature", "properties": { "visible_points": 17, "total_points": 86, "visibility_pct": 19.767441860465116 }, "geometry": { "type": "Point", "coordinates": [ -3.071091275257846, 53.405614541140594 ] } },
{ "type": "Feature", "properties": { "visible_points": 24, "total_points": 89, "visibility_pct": 26.966292134831459 }, "geometry": { "type": "Point", "coordinates": [ -3.070882890761565, 53.405616410246594 ] } },
{ "type": "Feature", "properties": { "visible_points": 20, "total_points": 90, "visibility_pct": 22.222222222222221 }, "geometry": { "type": "Point", "coordinates": [ -3.070674506242273, 53.405618278988378 ] } },
{ "type": "Feature", "properties": { "visible_points": 22, "total_points": 89, "visibility_pct": 24.719101123595504 }, "geometry": { "type": "Point", "coordinates": [ -3.070466121699985, 53.405620147365951 ] } },
{ "type": "Feature", "properties": { "visible_points": 19, "total_points": 86, "visibility_pct": 22.093023255813954 }, "geometry": { "type": "Point", "coordinates": [ -3.07025773713469, 53.405622015379294 ] } },
{ "type": "Feature", "properties": { "visible_points": 3, "total_points": 82, "visibility_pct": 3.6585365853658534 }, "geometry": { "type": "Point", "coordinates": [ -3.070049352546405, 53.405623883028426 ] } },
{ "type": "Feature", "properties": { "visible_points": 0, "total_points": 85, "visibility_pct": 0.0 }, "geometry": { "type": "Point", "coordinates": [ -3.071406559104734, 53.405719582909086 ] } },
{ "type": "Feature", "properties": { "visible_points": 17, "total_points": 88, "visibility_pct": 19.318181818181817 }, "geometry": { "type": "Point", "coordinates": [ -3.071198174124199, 53.405721452552001 ] } },
{ "type": "Feature", "properties": { "visible_points": 18, "total_points": 90, "visibility_pct": 20.0 }, "geometry": { "type": "Point", "coordinates": [ -3.070989789120637, 53.405723321830692 ] } },
{ "type": "Feature", "properties": { "visible_points": 24, "total_points": 90, "visibility_pct": 26.666666666666668 }, "geometry": { "type": "Point", "coordinates": [ -3.070781404094074, 53.405725190745166 ] } },
{ "type": "Feature", "properties": { "visible_points": 21, "total_points": 88, "visibility_pct": 23.863636363636363 }, "geometry": { "type": "Point", "coordinates": [ -3.070573019044495, 53.405727059295423 ] } },
{ "type": "Feature", "properties": { "visible_points": 18, "total_points": 84, "visibility_pct": 21.428571428571427 }, "geometry": { "type": "Point", "coordinates": [ -3.070364633971923, 53.405728927481462 ] } },
{ "type": "Feature", "properties": { "visible_points": 0, "total_points": 79, "visibility_pct": 0.0 }, "geometry": { "type": "Point", "coordinates": [ -3.070156248876347, 53.405730795303285 ] } },
{ "type": "Feature", "properties": { "visible_points": 1, "total_points": 82, "visibility_pct": 1.2195121951219512 }, "geometry": { "type": "Point", "coordinates": [ -3.071721844473448, 53.405824623884719 ] } },
{ "type": "Feature", "properties": { "visible_points": 16, "total_points": 87, "visibility_pct": 18.390804597701148 }, "geometry": { "type": "Point", "coordinates": [ -3.071513459008652, 53.405826494064527 ] } },
{ "type": "Feature", "properties": { "visible_points": 13, "total_points": 90, "visibility_pct": 14.444444444444443 }, "geometry": { "type": "Point", "coordinates": [ -3.071305073520833, 53.405828363880154 ] } },
{ "type": "Feature", "properties": { "visible_points": 18, "total_points": 91, "visibility_pct": 19.780219780219781 }, "geometry": { "type": "Point", "coordinates": [ -3.071096688010001, 53.405830233331535 ] } },
{ "type": "Feature", "properties": { "visible_points": 25, "total_points": 90, "visibility_pct": 27.777777777777779 }, "geometry": { "type": "Point", "coordinates": [ -3.070888302476152, 53.405832102418692 ] } },
{ "type": "Feature", "properties": { "visible_points": 17, "total_points": 87, "visibility_pct": 19.540229885057471 }, "geometry": { "type": "Point", "coordinates": [ -3.070679916919296, 53.405833971141654 ] } },
{ "type": "Feature", "properties": { "visible_points": 0, "total_points": 82, "visibility_pct": 0.0 }, "geometry": { "type": "Point", "coordinates": [ -3.070471531339433, 53.405835839500376 ] } },
{ "type": "Feature", "properties": { "visible_points": 9, "total_points": 86, "visibility_pct": 10.465116279069768 }, "geometry": { "type": "Point", "coordinates": [ -3.071828745414935, 53.405931534784209 ] } },
{ "type": "Feature", "properties": { "visible_points": 20, "total_points": 89, "visibility_pct": 22.471910112359549 }, "geometry": { "type": "Point", "coordinates": [ -3.071620359442866, 53.405933405136736 ] } },
{ "type": "Feature", "properties": { "visible_points": 15, "total_points": 91, "visibility_pct": 16.483516483516482 }, "geometry": { "type": "Point", "coordinates": [ -3.071411973447766, 53.405935275125046 ] } },
{ "type": "Feature", "properties": { "visible_points": 18, "total_points": 91, "visibility_pct": 19.780219780219781 }, "geometry": { "type": "Point", "coordinates": [ -3.071203587429653, 53.405937144749132 ] } },
{ "type": "Feature", "properties": { "visible_points": 23, "total_points": 89, "visibility_pct": 25.842696629213485 }, "geometry": { "type": "Point", "coordinates": [ -3.070995201388524, 53.405939014008993 ] } },
{ "type": "Feature", "properties": { "visible_points": 16, "total_points": 85, "visibility_pct": 18.823529411764707 }, "geometry": { "type": "Point", "coordinates": [ -3.070786815324381, 53.405940882904645 ] } },
{ "type": "Feature", "properties": { "visible_points": 0, "total_points": 79, "visibility_pct": 0.0 }, "geometry": { "type": "Point", "coordinates": [ -3.070578429237233, 53.405942751436051 ] } },
{ "type": "Feature", "properties": { "visible_points": 1, "total_points": 82, "visibility_pct": 1.2195121951219512 }, "geometry": { "type": "Point", "coordinates": [ -3.07214403334304, 53.40603657471101 ] } },
{ "type": "Feature", "properties": { "visible_points": 19, "total_points": 88, "visibility_pct": 21.59090909090909 }, "geometry": { "type": "Point", "coordinates": [ -3.071935646886724, 53.406038445600473 ] } },
{ "type": "Feature", "properties": { "visible_points": 17, "total_points": 91, "visibility_pct": 18.681318681318682 }, "geometry": { "type": "Point", "coordinates": [ -3.07172726040737, 53.406040316125676 ] } },
{ "type": "Feature", "properties": { "visible_points": 17, "total_points": 92, "visibility_pct": 18.478260869565215 }, "geometry": { "type": "Point", "coordinates": [ -3.071518873905002, 53.406042186286697 ] } },
{ "type": "Feature", "properties": { "visible_points": 17, "total_points": 91, "visibility_pct": 18.681318681318682 }, "geometry": { "type": "Point", "coordinates": [ -3.071310487379602, 53.406044056083466 ] } },
{ "type": "Feature", "properties": { "visible_points": 15, "total_points": 88, "visibility_pct": 17.045454545454543 }, "geometry": { "type": "Point", "coordinates": [ -3.071102100831188, 53.406045925516018 ] } },
{ "type": "Feature", "properties": { "visible_points": 0, "total_points": 83, "visibility_pct": 0.0 }, "geometry": { "type": "Point", "coordinates": [ -3.070893714259755, 53.406047794584353 ] } },
{ "type": "Feature", "properties": { "visible_points": 0, "total_points": 71, "visibility_pct": 0.0 }, "geometry": { "type": "Point", "coordinates": [ -3.072459322792969, 53.40614161384493 ] } },
{ "type": "Feature", "properties": { "visible_points": 0, "total_points": 80, "visibility_pct": 0.0 }, "geometry": { "type": "Point", "coordinates": [ -3.072250935852411, 53.406143485271294 ] } },
{ "type": "Feature", "properties": { "visible_points": 17, "total_points": 88, "visibility_pct": 19.318181818181817 }, "geometry": { "type": "Point", "coordinates": [ -3.072042548888816, 53.406145356333454 ] } },
{ "type": "Feature", "properties": { "visible_points": 13, "total_points": 91, "visibility_pct": 14.285714285714285 }, "geometry": { "type": "Point", "coordinates": [ -3.071834161902188, 53.406147227031383 ] } },
{ "type": "Feature", "properties": { "visible_points": 19, "total_points": 91, "visibility_pct": 20.87912087912088 }, "geometry": { "type": "Point", "coordinates": [ -3.071625774892533, 53.406149097365073 ] } },
{ "type": "Feature", "properties": { "visible_points": 18, "total_points": 89, "visibility_pct": 20.224719101123593 }, "geometry": { "type": "Point", "coordinates": [ -3.071417387859852, 53.406150967334568 ] } },
{ "type": "Feature", "properties": { "visible_points": 12, "total_points": 86, "visibility_pct": 13.953488372093023 }, "geometry": { "type": "Point", "coordinates": [ -3.071209000804147, 53.406152836939818 ] } },
{ "type": "Feature", "properties": { "visible_points": 4, "total_points": 69, "visibility_pct": 5.7971014492753623 }, "geometry": { "type": "Point", "coordinates": [ -3.072566226339927, 53.406248524149241 ] } },
{ "type": "Feature", "properties": { "visible_points": 14, "total_points": 78, "visibility_pct": 17.948717948717949 }, "geometry": { "type": "Point", "coordinates": [ -3.072357838892096, 53.406250395748337 ] } },
{ "type": "Feature", "properties": { "visible_points": 12, "total_points": 85, "visibility_pct": 14.117647058823529 }, "geometry": { "type": "Point", "coordinates": [ -3.072149451421224, 53.406252266983195 ] } },
{ "type": "Feature", "properties": { "visible_points": 12, "total_points": 90, "visibility_pct": 13.333333333333334 }, "geometry": { "type": "Point", "coordinates": [ -3.071941063927316, 53.406254137853814 ] } },
{ "type": "Feature", "properties": { "visible_points": 15, "total_points": 90, "visibility_pct": 16.666666666666664 }, "geometry": { "type": "Point", "coordinates": [ -3.071732676410373, 53.406256008360209 ] } },
{ "type": "Feature", "properties": { "visible_points": 8, "total_points": 87, "visibility_pct": 9.1954022988505741 }, "geometry": { "type": "Point", "coordinates": [ -3.071524288870407, 53.406257878502402 ] } },
{ "type": "Feature", "properties": { "visible_points": 0, "total_points": 82, "visibility_pct": 0.0 }, "geometry": { "type": "Point", "coordinates": [ -3.071315901307415, 53.406259748280341 ] } },
{ "type": "Feature", "properties": { "visible_points": 7, "total_points": 62, "visibility_pct": 11.29032258064516 }, "geometry": { "type": "Point", "coordinates": [ -3.072673130417209, 53.406355434370312 ] } },
{ "type": "Feature", "properties": { "visible_points": 9, "total_points": 71, "visibility_pct": 12.676056338028168 }, "geometry": { "type": "Point", "coordinates": [ -3.072464742462102, 53.406357306142105 ] } },
{ "type": "Feature", "properties": { "visible_points": 7, "total_points": 78, "visibility_pct": 8.9743589743589745 }, "geometry": { "type": "Point", "coordinates": [ -3.072256354483946, 53.406359177549668 ] } },
{ "type": "Feature", "properties": { "visible_points": 11, "total_points": 85, "visibility_pct": 12.941176470588237 }, "geometry": { "type": "Point", "coordinates": [ -3.072047966482751, 53.406361048592998 ] } },
{ "type": "Feature", "properties": { "visible_points": 13, "total_points": 88, "visibility_pct": 14.772727272727273 }, "geometry": { "type": "Point", "coordinates": [ -3.071839578458529, 53.406362919272098 ] } },
{ "type": "Feature", "properties": { "visible_points": 2, "total_points": 85, "visibility_pct": 2.3529411764705883 }, "geometry": { "type": "Point", "coordinates": [ -3.071631190411271, 53.406364789586974 ] } },
{ "type": "Feature", "properties": { "visible_points": 0, "total_points": 63, "visibility_pct": 0.0 }, "geometry": { "type": "Point", "coordinates": [ -3.072571646562425, 53.406464216452605 ] } },
{ "type": "Feature", "properties": { "visible_points": 5, "total_points": 70, "visibility_pct": 7.1428571428571423 }, "geometry": { "type": "Point", "coordinates": [ -3.072363258076988, 53.406466088032886 ] } },
{ "type": "Feature", "properties": { "visible_points": 10, "total_points": 76, "visibility_pct": 13.157894736842104 }, "geometry": { "type": "Point", "coordinates": [ -3.07215486956851, 53.406467959248907 ] } },
{ "type": "Feature", "properties": { "visible_points": 7, "total_points": 81, "visibility_pct": 8.6419753086419746 }, "geometry": { "type": "Point", "coordinates": [ -3.071946481036996, 53.406469830100725 ] } },
{ "type": "Feature", "properties": { "visible_points": 0, "total_points": 80, "visibility_pct": 0.0 }, "geometry": { "type": "Point", "coordinates": [ -3.071738092482447, 53.406471700588291 ] } },
{ "type": "Feature", "properties": { "visible_points": 4, "total_points": 55, "visibility_pct": 7.2727272727272725 }, "geometry": { "type": "Point", "coordinates": [ -3.072678551193078, 53.40657112667985 ] } },
{ "type": "Feature", "properties": { "visible_points": 7, "total_points": 62, "visibility_pct": 11.29032258064516 }, "geometry": { "type": "Point", "coordinates": [ -3.072470162200357, 53.406572998432821 ] } },
{ "type": "Feature", "properties": { "visible_points": 7, "total_points": 67, "visibility_pct": 10.44776119402985 }, "geometry": { "type": "Point", "coordinates": [ -3.072261773184587, 53.406574869821569 ] } },
{ "type": "Feature", "properties": { "visible_points": 0, "total_points": 72, "visibility_pct": 0.0 }, "geometry": { "type": "Point", "coordinates": [ -3.072053384145788, 53.406576740846084 ] } },
{ "type": "Feature", "properties": { "visible_points": 4, "total_points": 53, "visibility_pct": 7.5471698113207548 }, "geometry": { "type": "Point", "coordinates": [ -3.072577066854052, 53.40667990874951 ] } },
{ "type": "Feature", "properties": { "visible_points": 0, "total_points": 58, "visibility_pct": 0.0 }, "geometry": { "type": "Point", "coordinates": [ -3.072368677330994, 53.406681780310954 ] } },
{ "type": "Feature", "properties": { "visible_points": 0, "total_points": 62, "visibility_pct": 0.0 }, "geometry": { "type": "Point", "coordinates": [ -3.072160287784899, 53.406683651508182 ] } },
{ "type": "Feature", "properties": { "visible_points": 2, "total_points": 49, "visibility_pct": 4.0816326530612246 }, "geometry": { "type": "Point", "coordinates": [ -3.072475582007731, 53.4067886907171 ] } }
]
}
