{
"type": "FeatureCollection",
"name": "7c1c1baeb14d_foliage",
"crs": { "type": "name", "properties": { "name": "urn:ogc:def:crs:OGC:1.3:CRS84" } },
"features": [
{ "type": "Feature", "properties": { "max_height": 14.582000732421875, "mean_height": 5.9675602912902832, "std_height": 4.1366004943847656, "count_pixels": 42, "percent_cover": 0.30975735673722249, "percent_above_0.1m": 100.0, "low_level_<0.5": 0.0, "mid_level_0.5-2": 14.285714285714285, "tall_2+": 83.333333333333343 }, "geometry": { "type": "Point", "coordinates": [ -2.979413670858358, 53.306829089877304 ] } },
{ "type": "Feature", "properties": { "max_height": 0.001251220703125, "mean_height": 6.5071639255620539e-05, "std_height": 0.00044162399717606604, "count_pixels": 43, "percent_cover": 0.31713253189763257, "percent_above_0.1m": 0.0, "low_level_<0.5": 0.0, "mid_level_0.5-2": 0.0, "tall_2+": 0.0 }, "geometry": { "type": "Point", "coordinates": [ -2.979205759122164, 53.306830798523457 ] } },
{ "type": "Feature", "properties": { "max_height": 13.266750335693359, "mean_height": 0.86998945474624634, "std_height": 2.5698583126068115, "count_pixels": 43, "percent_cover": 0.31713253189763257, "percent_above_0.1m": 18.604651162790699, "low_level_<0.5": 0.0, "mid_level_0.5-2": 4.6511627906976747, "tall_2+": 11.627906976744185 }, "geometry": { "type": "Point", "coordinates": [ -2.978997847364852, 53.306832506807289 ] } },
{ "type": "Feature", "properties": { "max_height": 6.9975013732910156, "mean_height": 1.7707748413085938, "std_height": 1.3246192932128906, "count_pixels": 42, "percent_cover": 0.30975735673722249, "percent_above_0.1m": 97.61904761904762, "low_level_<0.5": 9.5238095238095237, "mid_level_0.5-2": 57.142857142857139, "tall_2+": 30.952380952380953 }, "geometry": { "type": "Point", "coordinates": [ -2.979520096409822, 53.306936085557062 ] } },
{ "type": "Feature", "properties": { "max_height": 12.551752090454102, "mean_height": 2.1280372142791748, "std_height": 3.5890719890594482, "count_pixels": 41, "percent_cover": 0.30238218157681246, "percent_above_0.1m": 48.780487804878049, "low_level_<0.5": 7.3170731707317067, "mid_level_0.5-2": 12.195121951219512, "tall_2+": 26.829268292682929 }, "geometry": { "type": "Point", "coordinates": [ -2.979312184162293, 53.306937794392041 ] } },
{ "type": "Feature", "properties": { "max_height": 0.002750396728515625, "mean_height": 0.00029963982524350286, "std_height": 0.00079664739314466715, "count_pixels": 41, "percent_cover": 0.30238218157681246, "percent_above_0.1m": 0.0, "low_level_<0.5": 0.0, "mid_level_0.5-2": 0.0, "tall_2+": 0.0 }, "geometry": { "type": "Point", "coordinates": [ -2.979104271893631, 53.30693950286468 ] } },
{ "type": "Feature", "properties": { "max_height": 19.918252944946289, "mean_height": 4.129694938659668, "std_height": 5.3251762390136719, "count_pixels": 40, "percent_cover": 0.29500700641640237, "percent_above_0.1m": 50.0, "low_level_<0.5": 0.0, "mid_level_0.5-2": 5.0, "tall_2+": 45.0 }, "geometry": { "type": "Point", "coordinates": [ -2.97889635960385, 53.306941210975005 ] } },
{ "type": "Feature", "properties": { "max_height": 0.043003082275390625, "mean_height": 0.0019885539077222347, "std_height": 0.0084584290161728859, "count_pixels": 40, "percent_cover": 0.29500700641640237, "percent_above_0.1m": 0.0, "low_level_<0.5": 0.0, "mid_level_0.5-2": 0.0, "tall_2+": 0.0 }, "geometry": { "type": "Point", "coordinates": [ -2.978688447292948, 53.30694291872296 ] } },
{ "type": "Feature", "properties": { "max_height": 16.257251739501953, "mean_height": 7.7957205772399902, "std_height": 4.4240179061889648, "count_pixels": 42, "percent_cover": 0.30975735673722249, "percent_above_0.1m": 100.0, "low_level_<0.5": 2.3809523809523809, "mid_level_0.5-2": 7.1428571428571423, "tall_2+": 90.476190476190482 }, "geometry": { "type": "Point", "coordinates": [ -2.979626522493747, 53.307043081136527 ] } },
{ "type": "Feature", "properties": { "max_height": 15.5260009765625, "mean_height": 9.2381086349487305, "std_height": 3.4834222793579102, "count_pixels": 42, "percent_cover": 0.30975735673722249, "percent_above_0.1m": 100.0, "low_level_<0.5": 0.0, "mid_level_0.5-2": 2.3809523809523809, "tall_2+": 97.61904761904762 }, "geometry": { "type": "Point", "coordinates": [ -2.979418609734874, 53.307044790160326 ] } },
{ "type": "Feature", "properties": { "max_height": 12.128751754760742, "mean_height": 2.6607625484466553, "std_height": 3.1744251251220703, "count_pixels": 43, "percent_cover": 0.31713253189763257, "percent_above_0.1m": 58.139534883720934, "low_level_<0.5": 2.3255813953488373, "mid_level_0.5-2": 13.953488372093023, "tall_2+": 41.860465116279073 }, "geometry": { "type": "Point", "coordinates": [ -2.97921069695487, 53.307046498821798 ] } },
{ "type": "Feature", "properties": { "max_height": 10.487001419067383, "mean_height": 0.83569300174713135, "std_height": 2.4147279262542725, "count_pixels": 43, "percent_cover": 0.31713253189763257, "percent_above_0.1m": 16.279069767441861, "low_level_<0.5": 0.0, "mid_level_0.5-2": 4.6511627906976747, "tall_2+": 11.627906976744185 }, "geometry": { "type": "Point", "coordinates": [ -2.979002784153741, 53.307048207120921 ] } },
{ "type": "Feature", "properties": { "max_height": 20.208002090454102, "mean_height": 6.7912077903747559, "std_height": 7.6484894752502441, "count_pixels": 40, "percent_cover": 0.29500700641640237, "percent_above_0.1m": 57.5, "low_level_<0.5": 5.0, "mid_level_0.5-2": 2.5, "tall_2+": 50.0 }, "geometry": { "type": "Point", "coordinates": [ -2.978794871331489, 53.307049915057711 ] } },
{ "type": "Feature", "properties": { "max_height": 6.2712497711181641, "mean_height": 0.31182649731636047, "std_height": 1.2067689895629883, "count_pixels": 43, "percent_cover": 0.31713253189763257, "percent_above_0.1m": 9.3023255813953494, "low_level_<0.5": 0.0, "mid_level_0.5-2": 4.6511627906976747, "tall_2+": 4.6511627906976747 }, "geometry": { "type": "Point", "coordinates": [ -2.978586958488122, 53.307051622632173 ] } },
{ "type": "Feature", "properties": { "max_height": 0.018001556396484375, "mean_height": 0.00091951945796608925, "std_height": 0.003367832163348794, "count_pixels": 43, "percent_cover": 0.31713253189763257, "percent_above_0.1m": 0.0, "low_level_<0.5": 0.0, "mid_level_0.5-2": 0.0, "tall_2+": 0.0 }, "geometry": { "type": "Point", "coordinates": [ -2.978379045623641, 53.307053329844287 ] } },
{ "type": "Feature", "properties": { "max_height": 0.84125137329101562, "mean_height": 0.034691538661718369, "std_height": 0.13727843761444092, "count_pixels": 42, "percent_cover": 0.30975735673722249, "percent_above_0.1m": 9.5238095238095237, "low_level_<0.5": 4.7619047619047619, "mid_level_0.5-2": 2.3809523809523809, "tall_2+": 0.0 }, "geometry": { "type": "Point", "coordinates": [ -2.97817113273805, 53.307055036694088 ] } },
{ "type": "Feature", "properties": { "max_height": 8.4987506866455078, "mean_height": 3.7206079959869385, "std_height": 2.4348297119140625, "count_pixels": 42, "percent_cover": 0.30975735673722249, "percent_above_0.1m": 95.238095238095227, "low_level_<0.5": 4.7619047619047619, "mid_level_0.5-2": 19.047619047619047, "tall_2+": 71.428571428571431 }, "geometry": { "type": "Point", "coordinates": [ -2.979732949110138, 53.307150076615699 ] } },
{ "type": "Feature", "properties": { "max_height": 12.020750045776367, "mean_height": 4.9542570114135742, "std_height": 2.9839494228363037, "count_pixels": 42, "percent_cover": 0.30975735673722249, "percent_above_0.1m": 100.0, "low_level_<0.5": 0.0, "mid_level_0.5-2": 11.904761904761903, "tall_2+": 88.095238095238088 }, "geometry": { "type": "Point", "coordinates": [ -2.979525035839923, 53.307151785828324 ] } },
{ "type": "Feature", "properties": { "max_height": 11.863252639770508, "mean_height": 2.0029582977294922, "std_height": 2.9329626560211182, "count_pixels": 41, "percent_cover": 0.30238218157681246, "percent_above_0.1m": 63.414634146341463, "low_level_<0.5": 14.634146341463413, "mid_level_0.5-2": 12.195121951219512, "tall_2+": 34.146341463414636 }, "geometry": { "type": "Point", "coordinates": [ -2.97931712254857, 53.307153494678609 ] } },
{ "type": "Feature", "properties": { "max_height": 6.1527519226074219, "mean_height": 1.2525073289871216, "std_height": 1.819884181022644, "count_pixels": 41, "percent_cover": 0.30238218157681246, "percent_above_0.1m": 60.975609756097562, "low_level_<0.5": 19.512195121951219, "mid_level_0.5-2": 14.634146341463413, "tall_2+": 24.390243902439025 }, "geometry": { "type": "Point", "coordinates": [ -2.979109209236092, 53.307155203166559 ] } },
{ "type": "Feature", "properties": { "max_height": 2.5082511901855469, "mean_height": 0.25393229722976685, "std_height": 0.57987356185913086, "count_pixels": 40, "percent_cover": 0.29500700641640237, "percent_above_0.1m": 30.0, "low_level_<0.5": 10.0, "mid_level_0.5-2": 10.0, "tall_2+": 5.0 }, "geometry": { "type": "Point", "coordinates": [ -2.978901295902488, 53.307156911292175 ] } },
{ "type": "Feature", "properties": { "max_height": 9.7587509155273438, "mean_height": 2.8064262866973877, "std_height": 3.6274275779724121, "count_pixels": 40, "percent_cover": 0.29500700641640237, "percent_above_0.1m": 50.0, "low_level_<0.5": 2.5, "mid_level_0.5-2": 10.0, "tall_2+": 37.5 }, "geometry": { "type": "Point", "coordinates": [ -2.978693382547769, 53.307158619055457 ] } },
{ "type": "Feature", "properties": { "max_height": 18.529750823974609, "mean_height": 10.743545532226562, "std_height": 6.7874388694763184, "count_pixels": 41, "percent_cover": 0.30238218157681246, "percent_above_0.1m": 82.926829268292678, "low_level_<0.5": 0.0, "mid_level_0.5-2": 7.3170731707317067, "tall_2+": 75.609756097560975 }, "geometry": { "type": "Point", "coordinates": [ -2.978485469171928, 53.307160326456383 ] } },
{ "type": "Feature", "properties": { "max_height": 18.126001358032227, "mean_height": 5.9822273254394531, "std_height": 7.0821571350097656, "count_pixels": 41, "percent_cover": 0.30238218157681246, "percent_above_0.1m": 51.219512195121951, "low_level_<0.5": 0.0, "mid_level_0.5-2": 2.4390243902439024, "tall_2+": 48.780487804878049 }, "geometry": { "type": "Point", "coordinates": [ -2.97827755577498, 53.307162033494997 ] } },
{ "type": "Feature", "properties": { "max_height": 3.9907512664794922, "mean_height": 0.52647727727890015, "std_height": 0.9290807843208313, "count_pixels": 42, "percent_cover": 0.30975735673722249, "percent_above_0.1m": 38.095238095238095, "low_level_<0.5": 7.1428571428571423, "mid_level_0.5-2": 19.047619047619047, "tall_2+": 9.5238095238095237 }, "geometry": { "type": "Point", "coordinates": [ -2.978069642356931, 53.307163740171262 ] } },
{ "type": "Feature", "properties": { "max_height": 16.814502716064453, "mean_height": 3.29669189453125, "std_height": 5.346005916595459, "count_pixels": 42, "percent_cover": 0.30975735673722249, "percent_above_0.1m": 45.238095238095241, "low_level_<0.5": 7.1428571428571423, "mid_level_0.5-2": 4.7619047619047619, "tall_2+": 30.952380952380953 }, "geometry": { "type": "Point", "coordinates": [ -2.97786172891777, 53.307165446485179 ] } },
{ "type": "Feature", "properties": { "max_height": 15.647003173828125, "mean_height": 6.5441470146179199, "std_height": 5.4027628898620605, "count_pixels": 41, "percent_cover": 0.30238218157681246, "percent_above_0.1m": 78.048780487804876, "low_level_<0.5": 2.4390243902439024, "mid_level_0.5-2": 7.3170731707317067, "tall_2+": 68.292682926829272 }, "geometry": { "type": "Point", "coordinates": [ -2.980047290019425, 53.307255362230762 ] } },
{ "type": "Feature", "properties": { "max_height": 15.696001052856445, "mean_height": 10.263769149780273, "std_height": 3.7782731056213379, "count_pixels": 41, "percent_cover": 0.30238218157681246, "percent_above_0.1m": 100.0, "low_level_<0.5": 0.0, "mid_level_0.5-2": 2.4390243902439024, "tall_2+": 97.560975609756099 }, "geometry": { "type": "Point", "coordinates": [ -2.979839376258997, 53.307257071994556 ] } },
{ "type": "Feature", "properties": { "max_height": 15.633752822875977, "mean_height": 10.233853340148926, "std_height": 3.1564686298370361, "count_pixels": 42, "percent_cover": 0.30975735673722249, "percent_above_0.1m": 100.0, "low_level_<0.5": 0.0, "mid_level_0.5-2": 0.0, "tall_2+": 100.0 }, "geometry": { "type": "Point", "coordinates": [ -2.979631462477438, 53.307258781396023 ] } },
{ "type": "Feature", "properties": { "max_height": 7.4575023651123047, "mean_height": 1.4229178428649902, "std_height": 2.3044078350067139, "count_pixels": 42, "percent_cover": 0.30975735673722249, "percent_above_0.1m": 50.0, "low_level_<0.5": 14.285714285714285, "mid_level_0.5-2": 7.1428571428571423, "tall_2+": 26.190476190476193 }, "geometry": { "type": "Point", "coordinates": [ -2.979423548674736, 53.307260490435127 ] } },
{ "type": "Feature", "properties": { "max_height": 6.7065029144287109, "mean_height": 1.5955767631530762, "std_height": 2.2443060874938965, "count_pixels": 43, "percent_cover": 0.31713253189763257, "percent_above_0.1m": 53.488372093023251, "low_level_<0.5": 6.9767441860465116, "mid_level_0.5-2": 18.604651162790699, "tall_2+": 25.581395348837212 }, "geometry": { "type": "Point", "coordinates": [ -2.979215634850906, 53.307262199111896 ] } },
{ "type": "Feature", "properties": { "max_height": 2.7435016632080078, "mean_height": 0.43830123543739319, "std_height": 0.7239224910736084, "count_pixels": 40, "percent_cover": 0.29500700641640237, "percent_above_0.1m": 47.5, "low_level_<0.5": 17.5, "mid_level_0.5-2": 17.5, "tall_2+": 7.5 }, "geometry": { "type": "Point", "coordinates": [ -2.978799807139872, 53.307265615378441 ] } },
{ "type": "Feature", "properties": { "max_height": 16.020751953125, "mean_height": 5.6733851432800293, "std_height": 4.1041431427001953, "count_pixels": 43, "percent_cover": 0.31713253189763257, "percent_above_0.1m": 97.674418604651152, "low_level_<0.5": 4.6511627906976747, "mid_level_0.5-2": 11.627906976744185, "tall_2+": 81.395348837209298 }, "geometry": { "type": "Point", "coordinates": [ -2.978591893252674, 53.307267322968201 ] } },
{ "type": "Feature", "properties": { "max_height": 18.573501586914062, "mean_height": 10.891158103942871, "std_height": 6.4312286376953125, "count_pixels": 43, "percent_cover": 0.31713253189763257, "percent_above_0.1m": 90.697674418604649, "low_level_<0.5": 2.3255813953488373, "mid_level_0.5-2": 4.6511627906976747, "tall_2+": 83.720930232558146 }, "geometry": { "type": "Point", "coordinates": [ -2.978383979344369, 53.307269030195606 ] } },
{ "type": "Feature", "properties": { "max_height": 17.986751556396484, "mean_height": 11.375216484069824, "std_height": 4.0684823989868164, "count_pixels": 42, "percent_cover": 0.30975735673722249, "percent_above_0.1m": 100.0, "low_level_<0.5": 0.0, "mid_level_0.5-2": 2.3809523809523809, "tall_2+": 97.61904761904762 }, "geometry": { "type": "Point", "coordinates": [ -2.978176065414949, 53.307270737060698 ] } },
{ "type": "Feature", "properties": { "max_height": 14.118499755859375, "mean_height": 3.8427455425262451, "std_height": 4.5626077651977539, "count_pixels": 42, "percent_cover": 0.30975735673722249, "percent_above_0.1m": 61.904761904761905, "low_level_<0.5": 2.3809523809523809, "mid_level_0.5-2": 9.5238095238095237, "tall_2+": 50.0 }, "geometry": { "type": "Point", "coordinates": [ -2.977968151464427, 53.307272443563427 ] } },
{ "type": "Feature", "properties": { "max_height": 15.99275016784668, "mean_height": 6.2657084465026855, "std_height": 6.1075177192687988, "count_pixels": 41, "percent_cover": 0.30238218157681246, "percent_above_0.1m": 68.292682926829272, "low_level_<0.5": 2.4390243902439024, "mid_level_0.5-2": 7.3170731707317067, "tall_2+": 58.536585365853654 }, "geometry": { "type": "Point", "coordinates": [ -2.977760237492809, 53.307274149703836 ] } },
{ "type": "Feature", "properties": { "max_height": 9.3642501831054688, "mean_height": 0.46480098366737366, "std_height": 1.7066671848297119, "count_pixels": 40, "percent_cover": 0.29500700641640237, "percent_above_0.1m": 12.5, "low_level_<0.5": 2.5, "mid_level_0.5-2": 2.5, "tall_2+": 7.5 }, "geometry": { "type": "Point", "coordinates": [ -2.977552323500091, 53.307275855481898 ] } },
{ "type": "Feature", "properties": { "max_height": 9.9370021820068359, "mean_height": 4.1393322944641113, "std_height": 2.8746695518493652, "count_pixels": 40, "percent_cover": 0.29500700641640237, "percent_above_0.1m": 95.0, "low_level_<0.5": 2.5, "mid_level_0.5-2": 17.5, "tall_2+": 75.0 }, "geometry": { "type": "Point", "coordinates": [ -2.98036163246273, 53.307360647005552 ] } },
{ "type": "Feature", "properties": { "max_height": 16.485752105712891, "mean_height": 8.1502342224121094, "std_height": 4.9224796295166016, "count_pixels": 43, "percent_cover": 0.31713253189763257, "percent_above_0.1m": 93.023255813953483, "low_level_<0.5": 0.0, "mid_level_0.5-2": 9.3023255813953494, "tall_2+": 83.720930232558146 }, "geometry": { "type": "Point", "coordinates": [ -2.980153718212107, 53.3073623573205 ] } },
{ "type": "Feature", "properties": { "max_height": 13.791252136230469, "mean_height": 8.3044376373291016, "std_height": 3.3703618049621582, "count_pixels": 43, "percent_cover": 0.31713253189763257, "percent_above_0.1m": 97.674418604651152, "low_level_<0.5": 0.0, "mid_level_0.5-2": 2.3255813953488373, "tall_2+": 95.348837209302332 }, "geometry": { "type": "Point", "coordinates": [ -2.979945803940336, 53.307364067273134 ] } },
{ "type": "Feature", "properties": { "max_height": 10.169002532958984, "mean_height": 3.3889477252960205, "std_height": 2.89662766456604, "count_pixels": 42, "percent_cover": 0.30975735673722249, "percent_above_0.1m": 88.095238095238088, "low_level_<0.5": 9.5238095238095237, "mid_level_0.5-2": 16.666666666666664, "tall_2+": 61.904761904761905 }, "geometry": { "type": "Point", "coordinates": [ -2.979737889647421, 53.307365776863421 ] } },
{ "type": "Feature", "properties": { "max_height": 10.037252426147461, "mean_height": 1.8191442489624023, "std_height": 2.9474616050720215, "count_pixels": 42, "percent_cover": 0.30975735673722249, "percent_above_0.1m": 38.095238095238095, "low_level_<0.5": 0.0, "mid_level_0.5-2": 11.904761904761903, "tall_2+": 26.190476190476193 }, "geometry": { "type": "Point", "coordinates": [ -2.979529975333371, 53.307367486091351 ] } },
{ "type": "Feature", "properties": { "max_height": 16.74150276184082, "mean_height": 0.94747704267501831, "std_height": 2.9132277965545654, "count_pixels": 41, "percent_cover": 0.30238218157681246, "percent_above_0.1m": 24.390243902439025, "low_level_<0.5": 7.3170731707317067, "mid_level_0.5-2": 4.8780487804878048, "tall_2+": 12.195121951219512 }, "geometry": { "type": "Point", "coordinates": [ -2.979322060998189, 53.307369194956941 ] } },
{ "type": "Feature", "properties": { "max_height": 5.3720016479492188, "mean_height": 1.854013204574585, "std_height": 1.6503863334655762, "count_pixels": 41, "percent_cover": 0.30238218157681246, "percent_above_0.1m": 85.365853658536579, "low_level_<0.5": 7.3170731707317067, "mid_level_0.5-2": 39.024390243902438, "tall_2+": 36.585365853658537 }, "geometry": { "type": "Point", "coordinates": [ -2.978490403446211, 53.307376026795943 ] } },
{ "type": "Feature", "properties": { "max_height": 13.015750885009766, "mean_height": 5.3449459075927734, "std_height": 4.5165128707885742, "count_pixels": 41, "percent_cover": 0.30238218157681246, "percent_above_0.1m": 73.170731707317074, "low_level_<0.5": 2.4390243902439024, "mid_level_0.5-2": 7.3170731707317067, "tall_2+": 63.414634146341463 }, "geometry": { "type": "Point", "coordinates": [ -2.978282489005428, 53.307377733849847 ] } },
{ "type": "Feature", "properties": { "max_height": 16.921255111694336, "mean_height": 6.6596860885620117, "std_height": 5.3114151954650879, "count_pixels": 42, "percent_cover": 0.30975735673722249, "percent_above_0.1m": 73.80952380952381, "low_level_<0.5": 0.0, "mid_level_0.5-2": 4.7619047619047619, "tall_2+": 69.047619047619051 }, "geometry": { "type": "Point", "coordinates": [ -2.97807457454354, 53.307379440541389 ] } },
{ "type": "Feature", "properties": { "max_height": 1.4890003204345703, "mean_height": 0.043643634766340256, "std_height": 0.22790704667568207, "count_pixels": 42, "percent_cover": 0.30975735673722249, "percent_above_0.1m": 4.7619047619047619, "low_level_<0.5": 2.3809523809523809, "mid_level_0.5-2": 2.3809523809523809, "tall_2+": 0.0 }, "geometry": { "type": "Point", "coordinates": [ -2.977866660060551, 53.307381146870611 ] } },
{ "type": "Feature", "properties": { "max_height": 16.783500671386719, "mean_height": 10.22244930267334, "std_height": 4.891273021697998, "count_pixels": 43, "percent_cover": 0.31713253189763257, "percent_above_0.1m": 97.674418604651152, "low_level_<0.5": 0.0, "mid_level_0.5-2": 6.9767441860465116, "tall_2+": 90.697674418604649 }, "geometry": { "type": "Point", "coordinates": [ -2.97765874555646, 53.307382852837485 ] } },
{ "type": "Feature", "properties": { "max_height": 5.6737518310546875, "mean_height": 2.1906635761260986, "std_height": 2.1569881439208984, "count_pixels": 40, "percent_cover": 0.29500700641640237, "percent_above_0.1m": 60.0, "low_level_<0.5": 5.0, "mid_level_0.5-2": 2.5, "tall_2+": 52.5 }, "geometry": { "type": "Point", "coordinates": [ -2.97745083103128, 53.307384558442024 ] } },
{ "type": "Feature", "properties": { "max_height": 0.80675125122070312, "mean_height": 0.046053465455770493, "std_height": 0.14804010093212128, "count_pixels": 43, "percent_cover": 0.31713253189763257, "percent_above_0.1m": 9.3023255813953494, "low_level_<0.5": 6.9767441860465116, "mid_level_0.5-2": 2.3255813953488373, "tall_2+": 0.0 }, "geometry": { "type": "Point", "coordinates": [ -2.977242916485011, 53.307386263684215 ] } },
{ "type": "Feature", "properties": { "max_height": 15.695499420166016, "mean_height": 8.5435390472412109, "std_height": 4.0064935684204102, "count_pixels": 40, "percent_cover": 0.29500700641640237, "percent_above_0.1m": 97.5, "low_level_<0.5": 0.0, "mid_level_0.5-2": 5.0, "tall_2+": 90.0 }, "geometry": { "type": "Point", "coordinates": [ -2.980468061699236, 53.307467641806142 ] } },
{ "type": "Feature", "properties": { "max_height": 16.707754135131836, "mean_height": 10.208613395690918, "std_height": 3.7973868846893311, "count_pixels": 40, "percent_cover": 0.29500700641640237, "percent_above_0.1m": 100.0, "low_level_<0.5": 0.0, "mid_level_0.5-2": 0.0, "tall_2+": 100.0 }, "geometry": { "type": "Point", "coordinates": [ -2.980260146937268, 53.307469352309937 ] } },
{ "type": "Feature", "properties": { "max_height": 11.02850341796875, "mean_height": 6.3586053848266602, "std_height": 2.8948333263397217, "count_pixels": 41, "percent_cover": 0.30238218157681246, "percent_above_0.1m": 97.560975609756099, "low_level_<0.5": 2.4390243902439024, "mid_level_0.5-2": 2.4390243902439024, "tall_2+": 92.682926829268297 }, "geometry": { "type": "Point", "coordinates": [ -2.980052232154149, 53.307471062451384 ] } },
{ "type": "Feature", "properties": { "max_height": 9.6497535705566406, "mean_height": 2.0609221458435059, "std_height": 3.0717756748199463, "count_pixels": 41, "percent_cover": 0.30238218157681246, "percent_above_0.1m": 43.902439024390247, "low_level_<0.5": 0.0, "mid_level_0.5-2": 12.195121951219512, "tall_2+": 31.707317073170731 }, "geometry": { "type": "Point", "coordinates": [ -2.979844317349884, 53.30747277223049 ] } },
{ "type": "Feature", "properties": { "max_height": 0.62075042724609375, "mean_height": 0.024018969386816025, "std_height": 0.11045654118061066, "count_pixels": 42, "percent_cover": 0.30975735673722249, "percent_above_0.1m": 4.7619047619047619, "low_level_<0.5": 2.3809523809523809, "mid_level_0.5-2": 2.3809523809523809, "tall_2+": 0.0 }, "geometry": { "type": "Point", "coordinates": [ -2.979636402524483, 53.307474481647255 ] } },
{ "type": "Feature", "properties": { "max_height": 12.196502685546875, "mean_height": 2.556793212890625, "std_height": 2.7390613555908203, "count_pixels": 42, "percent_cover": 0.30975735673722249, "percent_above_0.1m": 76.19047619047619, "low_level_<0.5": 2.3809523809523809, "mid_level_0.5-2": 23.809523809523807, "tall_2+": 50.0 }, "geometry": { "type": "Point", "coordinates": [ -2.979428487677943, 53.307476190701692 ] } },
{ "type": "Feature", "properties": { "max_height": 2.2762527465820312, "mean_height": 0.21760581433773041, "std_height": 0.52548003196716309, "count_pixels": 43, "percent_cover": 0.31713253189763257, "percent_above_0.1m": 20.930232558139537, "low_level_<0.5": 4.6511627906976747, "mid_level_0.5-2": 11.627906976744185, "tall_2+": 4.6511627906976747 }, "geometry": { "type": "Point", "coordinates": [ -2.979220572810275, 53.307477899393774 ] } },
{ "type": "Feature", "properties": { "max_height": 6.2735023498535156, "mean_height": 1.8972744941711426, "std_height": 2.2473721504211426, "count_pixels": 43, "percent_cover": 0.31713253189763257, "percent_above_0.1m": 81.395348837209298, "low_level_<0.5": 20.930232558139537, "mid_level_0.5-2": 20.930232558139537, "tall_2+": 34.883720930232556 }, "geometry": { "type": "Point", "coordinates": [ -2.97838891312837, 53.307484730538704 ] } },
{ "type": "Feature", "properties": { "max_height": 5.7255001068115234, "mean_height": 0.84234637022018433, "std_height": 1.4837534427642822, "count_pixels": 42, "percent_cover": 0.30975735673722249, "percent_above_0.1m": 42.857142857142854, "low_level_<0.5": 2.3809523809523809, "mid_level_0.5-2": 26.190476190476193, "tall_2+": 14.285714285714285 }, "geometry": { "type": "Point", "coordinates": [ -2.978180998155112, 53.307486437419094 ] } },
{ "type": "Feature", "properties": { "max_height": 10.865001678466797, "mean_height": 2.6337389945983887, "std_height": 3.5295689105987549, "count_pixels": 42, "percent_cover": 0.30975735673722249, "percent_above_0.1m": 52.380952380952387, "low_level_<0.5": 4.7619047619047619, "mid_level_0.5-2": 11.904761904761903, "tall_2+": 35.714285714285715 }, "geometry": { "type": "Point", "coordinates": [ -2.977973083160751, 53.307488143937107 ] } },
{ "type": "Feature", "properties": { "max_height": 11.042751312255859, "mean_height": 3.8349707126617432, "std_height": 4.3920755386352539, "count_pixels": 41, "percent_cover": 0.30238218157681246, "percent_above_0.1m": 56.09756097560976, "low_level_<0.5": 4.8780487804878048, "mid_level_0.5-2": 4.8780487804878048, "tall_2+": 46.341463414634148 }, "geometry": { "type": "Point", "coordinates": [ -2.977765168145287, 53.307489850092807 ] } },
{ "type": "Feature", "properties": { "max_height": 5.2237491607666016, "mean_height": 1.8669824600219727, "std_height": 1.5602205991744995, "count_pixels": 40, "percent_cover": 0.29500700641640237, "percent_above_0.1m": 82.5, "low_level_<0.5": 10.0, "mid_level_0.5-2": 22.5, "tall_2+": 47.5 }, "geometry": { "type": "Point", "coordinates": [ -2.977557253108729, 53.307491555886159 ] } },
{ "type": "Feature", "properties": { "max_height": 5.4572525024414062, "mean_height": 0.92696970701217651, "std_height": 1.3230636119842529, "count_pixels": 40, "percent_cover": 0.29500700641640237, "percent_above_0.1m": 75.0, "low_level_<0.5": 20.0, "mid_level_0.5-2": 35.0, "tall_2+": 15.0 }, "geometry": { "type": "Point", "coordinates": [ -2.977349338051078, 53.30749326131717 ] } },
{ "type": "Feature", "properties": { "max_height": 1.7485008239746094, "mean_height": 0.31849512457847595, "std_height": 0.50202465057373047, "count_pixels": 41, "percent_cover": 0.30238218157681246, "percent_above_0.1m": 34.146341463414636, "low_level_<0.5": 7.3170731707317067, "mid_level_0.5-2": 26.829268292682929, "tall_2+": 0.0 }, "geometry": { "type": "Point", "coordinates": [ -2.977141422972343, 53.307494966385832 ] } },
{ "type": "Feature", "properties": { "max_height": 14.741500854492188, "mean_height": 5.2787809371948242, "std_height": 3.2326159477233887, "count_pixels": 42, "percent_cover": 0.30975735673722249, "percent_above_0.1m": 97.61904761904762, "low_level_<0.5": 0.0, "mid_level_0.5-2": 14.285714285714285, "tall_2+": 83.333333333333343 }, "geometry": { "type": "Point", "coordinates": [ -2.980782406720395, 53.307572925451474 ] } },
{ "type": "Feature", "properties": { "max_height": 16.68275260925293, "mean_height": 6.8623847961425781, "std_height": 4.6477193832397461, "count_pixels": 43, "percent_cover": 0.31713253189763257, "percent_above_0.1m": 97.674418604651152, "low_level_<0.5": 9.3023255813953494, "mid_level_0.5-2": 4.6511627906976747, "tall_2+": 83.720930232558146 }, "geometry": { "type": "Point", "coordinates": [ -2.980574491468233, 53.307574636506438 ] } },
{ "type": "Feature", "properties": { "max_height": 18.192750930786133, "mean_height": 7.4370207786560059, "std_height": 4.3275985717773438, "count_pixels": 40, "percent_cover": 0.29500700641640237, "percent_above_0.1m": 100.0, "low_level_<0.5": 0.0, "mid_level_0.5-2": 10.0, "tall_2+": 90.0 }, "geometry": { "type": "Point", "coordinates": [ -2.980366576194915, 53.30757634719906 ] } },
{ "type": "Feature", "properties": { "max_height": 12.217502593994141, "mean_height": 3.2783851623535156, "std_height": 4.2145719528198242, "count_pixels": 43, "percent_cover": 0.31713253189763257, "percent_above_0.1m": 51.162790697674424, "low_level_<0.5": 4.6511627906976747, "mid_level_0.5-2": 2.3255813953488373, "tall_2+": 44.186046511627907 }, "geometry": { "type": "Point", "coordinates": [ -2.980158660900447, 53.307578057529334 ] } },
{ "type": "Feature", "properties": { "max_height": 0.40650177001953125, "mean_height": 0.018233675509691238, "std_height": 0.082504734396934509, "count_pixels": 43, "percent_cover": 0.31713253189763257, "percent_above_0.1m": 4.6511627906976747, "low_level_<0.5": 4.6511627906976747, "mid_level_0.5-2": 0.0, "tall_2+": 0.0 }, "geometry": { "type": "Point", "coordinates": [ -2.979950745584834, 53.30757976749728 ] } },
{ "type": "Feature", "properties": { "max_height": 0.28275299072265625, "mean_height": 0.00677508395165205, "std_height": 0.04310288280248642, "count_pixels": 42, "percent_cover": 0.30975735673722249, "percent_above_0.1m": 2.3809523809523809, "low_level_<0.5": 2.3809523809523809, "mid_level_0.5-2": 0.0, "tall_2+": 0.0 }, "geometry": { "type": "Point", "coordinates": [ -2.979742830248072, 53.307581477102872 ] } },
{ "type": "Feature", "properties": { "max_height": 4.0560016632080078, "mean_height": 0.88644760847091675, "std_height": 0.90499693155288696, "count_pixels": 42, "percent_cover": 0.30975735673722249, "percent_above_0.1m": 73.80952380952381, "low_level_<0.5": 14.285714285714285, "mid_level_0.5-2": 40.476190476190474, "tall_2+": 16.666666666666664 }, "geometry": { "type": "Point", "coordinates": [ -2.979534914890175, 53.307583186346136 ] } },
{ "type": "Feature", "properties": { "max_height": 5.1035003662109375, "mean_height": 0.77704876661300659, "std_height": 1.3009051084518433, "count_pixels": 42, "percent_cover": 0.30975735673722249, "percent_above_0.1m": 54.761904761904766, "low_level_<0.5": 14.285714285714285, "mid_level_0.5-2": 26.190476190476193, "tall_2+": 11.904761904761903 }, "geometry": { "type": "Point", "coordinates": [ -2.978079506793412, 53.307595140903317 ] } },
{ "type": "Feature", "properties": { "max_height": 10.711000442504883, "mean_height": 6.0659952163696289, "std_height": 3.1558864116668701, "count_pixels": 42, "percent_cover": 0.30975735673722249, "percent_above_0.1m": 100.0, "low_level_<0.5": 2.3809523809523809, "mid_level_0.5-2": 11.904761904761903, "tall_2+": 85.714285714285708 }, "geometry": { "type": "Point", "coordinates": [ -2.977871591266573, 53.307596847247829 ] } },
{ "type": "Feature", "properties": { "max_height": 12.679000854492188, "mean_height": 7.0815997123718262, "std_height": 3.1752285957336426, "count_pixels": 43, "percent_cover": 0.31713253189763257, "percent_above_0.1m": 100.0, "low_level_<0.5": 0.0, "mid_level_0.5-2": 2.3255813953488373, "tall_2+": 97.674418604651152 }, "geometry": { "type": "Point", "coordinates": [ -2.977663675718635, 53.307598553229994 ] } },
{ "type": "Feature", "properties": { "max_height": 18.331752777099609, "mean_height": 10.317400932312012, "std_height": 5.637291431427002, "count_pixels": 42, "percent_cover": 0.30975735673722249, "percent_above_0.1m": 97.61904761904762, "low_level_<0.5": 0.0, "mid_level_0.5-2": 9.5238095238095237, "tall_2+": 88.095238095238088 }, "geometry": { "type": "Point", "coordinates": [ -2.980888837533229, 53.307679919862615 ] } },
{ "type": "Feature", "properties": { "max_height": 15.576251983642578, "mean_height": 9.7169532775878906, "std_height": 3.4202563762664795, "count_pixels": 41, "percent_cover": 0.30238218157681246, "percent_above_0.1m": 100.0, "low_level_<0.5": 0.0, "mid_level_0.5-2": 2.4390243902439024, "tall_2+": 97.560975609756099 }, "geometry": { "type": "Point", "coordinates": [ -2.980680921769719, 53.307681631106412 ] } },
{ "type": "Feature", "properties": { "max_height": 14.923501968383789, "mean_height": 5.7571821212768555, "std_height": 3.9692089557647705, "count_pixels": 40, "percent_cover": 0.29500700641640237, "percent_above_0.1m": 97.5, "low_level_<0.5": 5.0, "mid_level_0.5-2": 15.0, "tall_2+": 77.5 }, "geometry": { "type": "Point", "coordinates": [ -2.980473005985054, 53.307683341987868 ] } },
{ "type": "Feature", "properties": { "max_height": 12.585750579833984, "mean_height": 3.3774700164794922, "std_height": 4.2907710075378418, "count_pixels": 40, "percent_cover": 0.29500700641640237, "percent_above_0.1m": 57.5, "low_level_<0.5": 5.0, "mid_level_0.5-2": 12.5, "tall_2+": 40.0 }, "geometry": { "type": "Point", "coordinates": [ -2.98026509017923, 53.307685052506983 ] } },
{ "type": "Feature", "properties": { "max_height": 2.3970012664794922, "mean_height": 0.33318430185317993, "std_height": 0.72911614179611206, "count_pixels": 41, "percent_cover": 0.30238218157681246, "percent_above_0.1m": 21.951219512195124, "low_level_<0.5": 2.4390243902439024, "mid_level_0.5-2": 9.7560975609756095, "tall_2+": 9.7560975609756095 }, "geometry": { "type": "Point", "coordinates": [ -2.98005717435226, 53.307686762663764 ] } },
{ "type": "Feature", "properties": { "max_height": 2.4020023345947266, "mean_height": 0.56498903036117554, "std_height": 0.69950342178344727, "count_pixels": 41, "percent_cover": 0.30238218157681246, "percent_above_0.1m": 53.658536585365859, "low_level_<0.5": 7.3170731707317067, "mid_level_0.5-2": 36.585365853658537, "tall_2+": 4.8780487804878048 }, "geometry": { "type": "Point", "coordinates": [ -2.979849258504147, 53.307688472458182 ] } },
{ "type": "Feature", "properties": { "max_height": 2.9480018615722656, "mean_height": 0.96884047985076904, "std_height": 0.92027378082275391, "count_pixels": 42, "percent_cover": 0.30975735673722249, "percent_above_0.1m": 73.80952380952381, "low_level_<0.5": 9.5238095238095237, "mid_level_0.5-2": 40.476190476190474, "tall_2+": 21.428571428571427 }, "geometry": { "type": "Point", "coordinates": [ -2.97964134263489, 53.30769018189028 ] } },
{ "type": "Feature", "properties": { "max_height": 15.087751388549805, "mean_height": 7.3848586082458496, "std_height": 5.3089032173156738, "count_pixels": 42, "percent_cover": 0.30975735673722249, "percent_above_0.1m": 97.61904761904762, "low_level_<0.5": 9.5238095238095237, "mid_level_0.5-2": 4.7619047619047619, "tall_2+": 76.19047619047619 }, "geometry": { "type": "Point", "coordinates": [ -2.980995268878559, 53.307786914173448 ] } },
{ "type": "Feature", "properties": { "max_height": 18.344753265380859, "mean_height": 12.335047721862793, "std_height": 3.130446195602417, "count_pixels": 42, "percent_cover": 0.30975735673722249, "percent_above_0.1m": 100.0, "low_level_<0.5": 0.0, "mid_level_0.5-2": 0.0, "tall_2+": 100.0 }, "geometry": { "type": "Point", "coordinates": [ -2.980787352603704, 53.307788625606094 ] } },
{ "type": "Feature", "properties": { "max_height": 8.7240028381347656, "mean_height": 1.218384861946106, "std_height": 2.0465946197509766, "count_pixels": 43, "percent_cover": 0.31713253189763257, "percent_above_0.1m": 65.116279069767444, "low_level_<0.5": 13.953488372093023, "mid_level_0.5-2": 30.232558139534881, "tall_2+": 16.279069767441861 }, "geometry": { "type": "Point", "coordinates": [ -2.980579436307686, 53.307790336676391 ] } },
{ "type": "Feature", "properties": { "max_height": 2.0300025939941406, "mean_height": 0.21784515678882599, "std_height": 0.37347668409347534, "count_pixels": 40, "percent_cover": 0.29500700641640237, "percent_above_0.1m": 42.5, "low_level_<0.5": 20.0, "mid_level_0.5-2": 15.0, "tall_2+": 2.5 }, "geometry": { "type": "Point", "coordinates": [ -2.980371519990511, 53.307792047384325 ] } },
{ "type": "Feature", "properties": { "max_height": 6.5790023803710938, "mean_height": 1.3498905897140503, "std_height": 1.5536996126174927, "count_pixels": 43, "percent_cover": 0.31713253189763257, "percent_above_0.1m": 72.093023255813947, "low_level_<0.5": 18.604651162790699, "mid_level_0.5-2": 25.581395348837212, "tall_2+": 27.906976744186046 }, "geometry": { "type": "Point", "coordinates": [ -2.980163603652181, 53.307793757729947 ] } },
{ "type": "Feature", "properties": { "max_height": 5.3222503662109375, "mean_height": 1.1742510795593262, "std_height": 1.227219820022583, "count_pixels": 43, "percent_cover": 0.31713253189763257, "percent_above_0.1m": 79.069767441860463, "low_level_<0.5": 9.3023255813953494, "mid_level_0.5-2": 41.860465116279073, "tall_2+": 23.255813953488371 }, "geometry": { "type": "Point", "coordinates": [ -2.979955687292708, 53.307795467713206 ] } },
{ "type": "Feature", "properties": { "max_height": 16.159503936767578, "mean_height": 9.8472633361816406, "std_height": 4.0828342437744141, "count_pixels": 42, "percent_cover": 0.30975735673722249, "percent_above_0.1m": 100.0, "low_level_<0.5": 2.3809523809523809, "mid_level_0.5-2": 0.0, "tall_2+": 97.61904761904762 }, "geometry": { "type": "Point", "coordinates": [ -2.981101700756398, 53.307893908383967 ] } },
{ "type": "Feature", "properties": { "max_height": 13.803750991821289, "mean_height": 9.5286617279052734, "std_height": 3.7689182758331299, "count_pixels": 42, "percent_cover": 0.30975735673722249, "percent_above_0.1m": 100.0, "low_level_<0.5": 0.0, "mid_level_0.5-2": 7.1428571428571423, "tall_2+": 92.857142857142861 }, "geometry": { "type": "Point", "coordinates": [ -2.980893783970187, 53.307895620005461 ] } },
{ "type": "Feature", "properties": { "max_height": 7.2187519073486328, "mean_height": 1.3992073535919189, "std_height": 2.0442254543304443, "count_pixels": 40, "percent_cover": 0.29500700641640237, "percent_above_0.1m": 55.000000000000007, "low_level_<0.5": 7.5, "mid_level_0.5-2": 12.5, "tall_2+": 30.0 }, "geometry": { "type": "Point", "coordinates": [ -2.980270033484598, 53.307900752695815 ] } },
{ "type": "Feature", "properties": { "max_height": 6.8742523193359375, "mean_height": 3.1485929489135742, "std_height": 2.3435797691345215, "count_pixels": 41, "percent_cover": 0.30238218157681246, "percent_above_0.1m": 90.243902439024396, "low_level_<0.5": 7.3170731707317067, "mid_level_0.5-2": 19.512195121951219, "tall_2+": 63.414634146341463 }, "geometry": { "type": "Point", "coordinates": [ -2.980062116613763, 53.307902462867922 ] } },
{ "type": "Feature", "properties": { "max_height": 6.7982501983642578, "mean_height": 1.2390593290328979, "std_height": 1.9588210582733154, "count_pixels": 43, "percent_cover": 0.31713253189763257, "percent_above_0.1m": 65.116279069767444, "low_level_<0.5": 16.279069767441861, "mid_level_0.5-2": 20.930232558139537, "tall_2+": 20.930232558139537 }, "geometry": { "type": "Point", "coordinates": [ -2.980168546467315, 53.308009457922331 ] } }
]
}
