{
"type": "FeatureCollection",
"name": "ddb69c94043c_foliage",
"crs": { "type": "name", "properties": { "name": "urn:ogc:def:crs:OGC:1.3:CRS84" } },
"features": [
{ "type": "Feature", "properties": { "max_height": 8.57550048828125, "mean_height": 3.9729824066162109, "std_height": 3.1173567771911621, "count_pixels": 43, "percent_cover": 0.52045509561849435, "percent_above_0.1m": 83.720930232558146, "low_level_<0.5": 9.3023255813953494, "mid_level_0.5-2": 13.953488372093023, "tall_2+": 60.465116279069761 }, "geometry": { "type": "Point", "coordinates": [ -3.064599709042651, 53.420394557025354 ] } },
{ "type": "Feature", "properties": { "max_height": 6.8159999847412109, "mean_height": 1.6123538017272949, "std_height": 1.7948659658432007, "count_pixels": 41, "percent_cover": 0.49624788186879693, "percent_above_0.1m": 92.682926829268297, "low_level_<0.5": 21.951219512195124, "mid_level_0.5-2": 34.146341463414636, "tall_2+": 29.268292682926827 }, "geometry": { "type": "Point", "coordinates": [ -3.064391252119739, 53.420396414007456 ] } },
{ "type": "Feature", "properties": { "max_height": 2.230250358581543, "mean_height": 0.35555547475814819, "std_height": 0.50474989414215088, "count_pixels": 41, "percent_cover": 0.49624788186879693, "percent_above_0.1m": 48.780487804878049, "low_level_<0.5": 21.951219512195124, "mid_level_0.5-2": 21.951219512195124, "tall_2+": 2.4390243902439024 }, "geometry": { "type": "Point", "coordinates": [ -3.064182795173857, 53.420398270625739 ] } },
{ "type": "Feature", "properties": { "max_height": 3.8562507629394531, "mean_height": 0.81962239742279053, "std_height": 0.98948681354522705, "count_pixels": 41, "percent_cover": 0.49624788186879693, "percent_above_0.1m": 65.853658536585371, "low_level_<0.5": 17.073170731707318, "mid_level_0.5-2": 34.146341463414636, "tall_2+": 12.195121951219512 }, "geometry": { "type": "Point", "coordinates": [ -3.063974338205012, 53.42040012688016 ] } },
{ "type": "Feature", "properties": { "max_height": 6.7692508697509766, "mean_height": 3.2652046680450439, "std_height": 1.6644701957702637, "count_pixels": 38, "percent_cover": 0.45993706124425077, "percent_above_0.1m": 97.368421052631575, "low_level_<0.5": 5.2631578947368416, "mid_level_0.5-2": 21.052631578947366, "tall_2+": 71.05263157894737 }, "geometry": { "type": "Point", "coordinates": [ -3.063765881213212, 53.420401982770741 ] } },
{ "type": "Feature", "properties": { "max_height": 6.2579994201660156, "mean_height": 2.6383178234100342, "std_height": 1.7164081335067749, "count_pixels": 41, "percent_cover": 0.49624788186879693, "percent_above_0.1m": 92.682926829268297, "low_level_<0.5": 9.7560975609756095, "mid_level_0.5-2": 19.512195121951219, "tall_2+": 63.414634146341463 }, "geometry": { "type": "Point", "coordinates": [ -3.063140510100095, 53.420407548259426 ] } },
{ "type": "Feature", "properties": { "max_height": 7.7540006637573242, "mean_height": 2.8829367160797119, "std_height": 2.6173040866851807, "count_pixels": 43, "percent_cover": 0.52045509561849435, "percent_above_0.1m": 97.674418604651152, "low_level_<0.5": 11.627906976744185, "mid_level_0.5-2": 37.209302325581397, "tall_2+": 48.837209302325576 }, "geometry": { "type": "Point", "coordinates": [ -3.062932053016503, 53.420409402694617 ] } },
{ "type": "Feature", "properties": { "max_height": 8.381500244140625, "mean_height": 2.5548784732818604, "std_height": 3.1150379180908203, "count_pixels": 41, "percent_cover": 0.49624788186879693, "percent_above_0.1m": 53.658536585365859, "low_level_<0.5": 4.8780487804878048, "mid_level_0.5-2": 12.195121951219512, "tall_2+": 36.585365853658537 }, "geometry": { "type": "Point", "coordinates": [ -3.064706630629214, 53.420501469829581 ] } },
{ "type": "Feature", "properties": { "max_height": 7.6147499084472656, "mean_height": 0.98957985639572144, "std_height": 1.9279873371124268, "count_pixels": 41, "percent_cover": 0.49624788186879693, "percent_above_0.1m": 41.463414634146339, "low_level_<0.5": 9.7560975609756095, "mid_level_0.5-2": 17.073170731707318, "tall_2+": 14.634146341463413 }, "geometry": { "type": "Point", "coordinates": [ -3.064498173196361, 53.420503327000148 ] } },
{ "type": "Feature", "properties": { "max_height": 8.6007509231567383, "mean_height": 2.16318678855896, "std_height": 2.8708019256591797, "count_pixels": 43, "percent_cover": 0.52045509561849435, "percent_above_0.1m": 53.488372093023251, "low_level_<0.5": 4.6511627906976747, "mid_level_0.5-2": 6.9767441860465116, "tall_2+": 39.534883720930232 }, "geometry": { "type": "Point", "coordinates": [ -3.064289715740537, 53.420505183806895 ] } },
{ "type": "Feature", "properties": { "max_height": 5.7270011901855469, "mean_height": 0.35730868577957153, "std_height": 1.0390822887420654, "count_pixels": 43, "percent_cover": 0.52045509561849435, "percent_above_0.1m": 13.953488372093023, "low_level_<0.5": 4.6511627906976747, "mid_level_0.5-2": 4.6511627906976747, "tall_2+": 4.6511627906976747 }, "geometry": { "type": "Point", "coordinates": [ -3.06408125826175, 53.420507040249774 ] } },
{ "type": "Feature", "properties": { "max_height": 9.1077508926391602, "mean_height": 1.9806376695632935, "std_height": 2.9615147113800049, "count_pixels": 42, "percent_cover": 0.50835148874364555, "percent_above_0.1m": 45.238095238095241, "low_level_<0.5": 7.1428571428571423, "mid_level_0.5-2": 7.1428571428571423, "tall_2+": 30.952380952380953 }, "geometry": { "type": "Point", "coordinates": [ -3.063872800760003, 53.420508896328826 ] } },
{ "type": "Feature", "properties": { "max_height": 8.519251823425293, "mean_height": 2.8691258430480957, "std_height": 2.4708578586578369, "count_pixels": 42, "percent_cover": 0.50835148874364555, "percent_above_0.1m": 71.428571428571431, "low_level_<0.5": 2.3809523809523809, "mid_level_0.5-2": 9.5238095238095237, "tall_2+": 57.142857142857139 }, "geometry": { "type": "Point", "coordinates": [ -3.063664343235295, 53.420510752044017 ] } },
{ "type": "Feature", "properties": { "max_height": 6.6599998474121094, "mean_height": 2.1847853660583496, "std_height": 2.1431901454925537, "count_pixels": 43, "percent_cover": 0.52045509561849435, "percent_above_0.1m": 69.767441860465112, "low_level_<0.5": 6.9767441860465116, "mid_level_0.5-2": 18.604651162790699, "tall_2+": 44.186046511627907 }, "geometry": { "type": "Point", "coordinates": [ -3.063455885687638, 53.420512607395366 ] } },
{ "type": "Feature", "properties": { "max_height": 11.581501007080078, "mean_height": 4.4300646781921387, "std_height": 3.918250560760498, "count_pixels": 43, "percent_cover": 0.52045509561849435, "percent_above_0.1m": 79.069767441860463, "low_level_<0.5": 0.0, "mid_level_0.5-2": 13.953488372093023, "tall_2+": 62.790697674418603 }, "geometry": { "type": "Point", "coordinates": [ -3.063247428117029, 53.420514462382862 ] } },
{ "type": "Feature", "properties": { "max_height": 5.7365016937255859, "mean_height": 1.0824031829833984, "std_height": 1.7255430221557617, "count_pixels": 41, "percent_cover": 0.49624788186879693, "percent_above_0.1m": 34.146341463414636, "low_level_<0.5": 2.4390243902439024, "mid_level_0.5-2": 9.7560975609756095, "tall_2+": 21.951219512195124 }, "geometry": { "type": "Point", "coordinates": [ -3.063038970523478, 53.420516317006523 ] } },
{ "type": "Feature", "properties": { "max_height": 3.0552520751953125, "mean_height": 0.59093362092971802, "std_height": 0.76681977510452271, "count_pixels": 41, "percent_cover": 0.49624788186879693, "percent_above_0.1m": 46.341463414634148, "low_level_<0.5": 9.7560975609756095, "mid_level_0.5-2": 31.707317073170731, "tall_2+": 4.8780487804878048 }, "geometry": { "type": "Point", "coordinates": [ -3.062830512906987, 53.420518171266316 ] } },
{ "type": "Feature", "properties": { "max_height": 8.3755006790161133, "mean_height": 4.6845560073852539, "std_height": 2.6176388263702393, "count_pixels": 41, "percent_cover": 0.49624788186879693, "percent_above_0.1m": 92.682926829268297, "low_level_<0.5": 2.4390243902439024, "mid_level_0.5-2": 7.3170731707317067, "tall_2+": 80.487804878048792 }, "geometry": { "type": "Point", "coordinates": [ -3.062622055267566, 53.420520025162304 ] } },
{ "type": "Feature", "properties": { "max_height": 10.978002548217773, "mean_height": 3.9016921520233154, "std_height": 4.0228185653686523, "count_pixels": 43, "percent_cover": 0.52045509561849435, "percent_above_0.1m": 65.116279069767444, "low_level_<0.5": 9.3023255813953494, "mid_level_0.5-2": 6.9767441860465116, "tall_2+": 48.837209302325576 }, "geometry": { "type": "Point", "coordinates": [ -3.064605094805891, 53.4206102398933 ] } },
{ "type": "Feature", "properties": { "max_height": 9.9720010757446289, "mean_height": 2.232086181640625, "std_height": 3.0102100372314453, "count_pixels": 41, "percent_cover": 0.49624788186879693, "percent_above_0.1m": 48.780487804878049, "low_level_<0.5": 2.4390243902439024, "mid_level_0.5-2": 12.195121951219512, "tall_2+": 34.146341463414636 }, "geometry": { "type": "Point", "coordinates": [ -3.064396636840129, 53.420612096888505 ] } },
{ "type": "Feature", "properties": { "max_height": 0.09600067138671875, "mean_height": 0.071604147553443909, "std_height": 0.0072858412750065327, "count_pixels": 41, "percent_cover": 0.49624788186879693, "percent_above_0.1m": 0.0, "low_level_<0.5": 0.0, "mid_level_0.5-2": 0.0, "tall_2+": 0.0 }, "geometry": { "type": "Point", "coordinates": [ -3.064188178851389, 53.420613953519869 ] } },
{ "type": "Feature", "properties": { "max_height": 10.387750625610352, "mean_height": 5.9181103706359863, "std_height": 2.9339003562927246, "count_pixels": 41, "percent_cover": 0.49624788186879693, "percent_above_0.1m": 90.243902439024396, "low_level_<0.5": 0.0, "mid_level_0.5-2": 2.4390243902439024, "tall_2+": 85.365853658536579 }, "geometry": { "type": "Point", "coordinates": [ -3.063979720839692, 53.420615809787364 ] } },
{ "type": "Feature", "properties": { "max_height": 10.996500968933105, "mean_height": 4.4720072746276855, "std_height": 3.6526627540588379, "count_pixels": 38, "percent_cover": 0.45993706124425077, "percent_above_0.1m": 73.68421052631578, "low_level_<0.5": 2.6315789473684208, "mid_level_0.5-2": 7.8947368421052628, "tall_2+": 63.157894736842103 }, "geometry": { "type": "Point", "coordinates": [ -3.063771262805032, 53.420617665691019 ] } },
{ "type": "Feature", "properties": { "max_height": 2.111750602722168, "mean_height": 0.13768959045410156, "std_height": 0.3352431058883667, "count_pixels": 41, "percent_cover": 0.49624788186879693, "percent_above_0.1m": 4.8780487804878048, "low_level_<0.5": 0.0, "mid_level_0.5-2": 2.4390243902439024, "tall_2+": 2.4390243902439024 }, "geometry": { "type": "Point", "coordinates": [ -3.063562804747422, 53.42061952123084 ] } },
{ "type": "Feature", "properties": { "max_height": 11.002750396728516, "mean_height": 3.9363119602203369, "std_height": 3.4106760025024414, "count_pixels": 41, "percent_cover": 0.49624788186879693, "percent_above_0.1m": 82.926829268292678, "low_level_<0.5": 4.8780487804878048, "mid_level_0.5-2": 12.195121951219512, "tall_2+": 65.853658536585371 }, "geometry": { "type": "Point", "coordinates": [ -3.063354346666855, 53.420621376406793 ] } },
{ "type": "Feature", "properties": { "max_height": 11.539002418518066, "mean_height": 4.9465680122375488, "std_height": 4.3258252143859863, "count_pixels": 41, "percent_cover": 0.49624788186879693, "percent_above_0.1m": 63.414634146341463, "low_level_<0.5": 2.4390243902439024, "mid_level_0.5-2": 2.4390243902439024, "tall_2+": 58.536585365853654 }, "geometry": { "type": "Point", "coordinates": [ -3.063145888563348, 53.420623231218904 ] } },
{ "type": "Feature", "properties": { "max_height": 4.9420003890991211, "mean_height": 0.42176234722137451, "std_height": 1.1359500885009766, "count_pixels": 43, "percent_cover": 0.52045509561849435, "percent_above_0.1m": 11.627906976744185, "low_level_<0.5": 0.0, "mid_level_0.5-2": 2.3255813953488373, "tall_2+": 9.3023255813953494 }, "geometry": { "type": "Point", "coordinates": [ -3.062937430436895, 53.420625085667176 ] } },
{ "type": "Feature", "properties": { "max_height": 10.969002723693848, "mean_height": 5.6080532073974609, "std_height": 3.091301441192627, "count_pixels": 43, "percent_cover": 0.52045509561849435, "percent_above_0.1m": 93.023255813953483, "low_level_<0.5": 0.0, "mid_level_0.5-2": 2.3255813953488373, "tall_2+": 90.697674418604649 }, "geometry": { "type": "Point", "coordinates": [ -3.062728972287506, 53.420626939751585 ] } },
{ "type": "Feature", "properties": { "max_height": 13.162002563476562, "mean_height": 4.0676403045654297, "std_height": 4.1451430320739746, "count_pixels": 43, "percent_cover": 0.52045509561849435, "percent_above_0.1m": 93.023255813953483, "low_level_<0.5": 11.627906976744185, "mid_level_0.5-2": 32.558139534883722, "tall_2+": 48.837209302325576 }, "geometry": { "type": "Point", "coordinates": [ -3.06252051411519, 53.420628793472147 ] } },
{ "type": "Feature", "properties": { "max_height": 3.4550018310546875, "mean_height": 0.85559028387069702, "std_height": 0.94588321447372437, "count_pixels": 42, "percent_cover": 0.50835148874364555, "percent_above_0.1m": 76.19047619047619, "low_level_<0.5": 16.666666666666664, "mid_level_0.5-2": 38.095238095238095, "tall_2+": 14.285714285714285 }, "geometry": { "type": "Point", "coordinates": [ -3.062312055919937, 53.420630646828862 ] } },
{ "type": "Feature", "properties": { "max_height": 4.2347507476806641, "mean_height": 0.33341509103775024, "std_height": 0.71233099699020386, "count_pixels": 41, "percent_cover": 0.49624788186879693, "percent_above_0.1m": 34.146341463414636, "low_level_<0.5": 14.634146341463413, "mid_level_0.5-2": 14.634146341463413, "tall_2+": 2.4390243902439024 }, "geometry": { "type": "Point", "coordinates": [ -3.064503558472623, 53.420719009870602 ] } },
{ "type": "Feature", "properties": { "max_height": 6.746002197265625, "mean_height": 1.1287448406219482, "std_height": 1.8487255573272705, "count_pixels": 43, "percent_cover": 0.52045509561849435, "percent_above_0.1m": 39.534883720930232, "low_level_<0.5": 4.6511627906976747, "mid_level_0.5-2": 9.3023255813953494, "tall_2+": 23.255813953488371 }, "geometry": { "type": "Point", "coordinates": [ -3.064295099973936, 53.420720866690409 ] } },
{ "type": "Feature", "properties": { "max_height": 6.9387502670288086, "mean_height": 0.45234361290931702, "std_height": 1.4022929668426514, "count_pixels": 43, "percent_cover": 0.52045509561849435, "percent_above_0.1m": 11.627906976744185, "low_level_<0.5": 2.3255813953488373, "mid_level_0.5-2": 2.3255813953488373, "tall_2+": 6.9767441860465116 }, "geometry": { "type": "Point", "coordinates": [ -3.064086641452288, 53.420722723146383 ] } },
{ "type": "Feature", "properties": { "max_height": 8.00250244140625, "mean_height": 1.0515185594558716, "std_height": 1.9191726446151733, "count_pixels": 42, "percent_cover": 0.50835148874364555, "percent_above_0.1m": 33.333333333333329, "low_level_<0.5": 0.0, "mid_level_0.5-2": 9.5238095238095237, "tall_2+": 21.428571428571427 }, "geometry": { "type": "Point", "coordinates": [ -3.063878182907675, 53.420724579238495 ] } },
{ "type": "Feature", "properties": { "max_height": 7.7612504959106445, "mean_height": 0.56339943408966064, "std_height": 1.5302025079727173, "count_pixels": 42, "percent_cover": 0.50835148874364555, "percent_above_0.1m": 16.666666666666664, "low_level_<0.5": 2.3809523809523809, "mid_level_0.5-2": 2.3809523809523809, "tall_2+": 9.5238095238095237 }, "geometry": { "type": "Point", "coordinates": [ -3.063669724340106, 53.42072643496676 ] } },
{ "type": "Feature", "properties": { "max_height": 4.3707513809204102, "mean_height": 0.21418668329715729, "std_height": 0.67851340770721436, "count_pixels": 43, "percent_cover": 0.52045509561849435, "percent_above_0.1m": 6.9767441860465116, "low_level_<0.5": 0.0, "mid_level_0.5-2": 4.6511627906976747, "tall_2+": 2.3255813953488373 }, "geometry": { "type": "Point", "coordinates": [ -3.063461265749583, 53.420728290331191 ] } },
{ "type": "Feature", "properties": { "max_height": 13.20250129699707, "mean_height": 5.2442102432250977, "std_height": 4.7741742134094238, "count_pixels": 43, "percent_cover": 0.52045509561849435, "percent_above_0.1m": 69.767441860465112, "low_level_<0.5": 4.6511627906976747, "mid_level_0.5-2": 4.6511627906976747, "tall_2+": 60.465116279069761 }, "geometry": { "type": "Point", "coordinates": [ -3.063252807136114, 53.42073014533176 ] } },
{ "type": "Feature", "properties": { "max_height": 0.078250885009765625, "mean_height": 0.05638480931520462, "std_height": 0.0083808423951268196, "count_pixels": 41, "percent_cover": 0.49624788186879693, "percent_above_0.1m": 0.0, "low_level_<0.5": 0.0, "mid_level_0.5-2": 0.0, "tall_2+": 0.0 }, "geometry": { "type": "Point", "coordinates": [ -3.063044348499699, 53.420731999968467 ] } },
{ "type": "Feature", "properties": { "max_height": 12.73275089263916, "mean_height": 4.6705431938171387, "std_height": 4.0946135520935059, "count_pixels": 41, "percent_cover": 0.49624788186879693, "percent_above_0.1m": 70.731707317073173, "low_level_<0.5": 0.0, "mid_level_0.5-2": 7.3170731707317067, "tall_2+": 60.975609756097562 }, "geometry": { "type": "Point", "coordinates": [ -3.062835889840346, 53.420733854241341 ] } },
{ "type": "Feature", "properties": { "max_height": 13.937002182006836, "mean_height": 10.012361526489258, "std_height": 2.5976619720458984, "count_pixels": 41, "percent_cover": 0.49624788186879693, "percent_above_0.1m": 100.0, "low_level_<0.5": 0.0, "mid_level_0.5-2": 2.4390243902439024, "tall_2+": 97.560975609756099 }, "geometry": { "type": "Point", "coordinates": [ -3.062627431158054, 53.420735708150374 ] } },
{ "type": "Feature", "properties": { "max_height": 14.182750701904297, "mean_height": 4.4480929374694824, "std_height": 4.8892364501953125, "count_pixels": 41, "percent_cover": 0.49624788186879693, "percent_above_0.1m": 90.243902439024396, "low_level_<0.5": 12.195121951219512, "mid_level_0.5-2": 24.390243902439025, "tall_2+": 48.780487804878049 }, "geometry": { "type": "Point", "coordinates": [ -3.062418972452837, 53.420737561695539 ] } },
{ "type": "Feature", "properties": { "max_height": 5.9582509994506836, "mean_height": 1.4274395704269409, "std_height": 1.9179357290267944, "count_pixels": 41, "percent_cover": 0.49624788186879693, "percent_above_0.1m": 51.219512195121951, "low_level_<0.5": 2.4390243902439024, "mid_level_0.5-2": 26.829268292682929, "tall_2+": 21.951219512195124 }, "geometry": { "type": "Point", "coordinates": [ -3.06419356259779, 53.42082963640587 ] } },
{ "type": "Feature", "properties": { "max_height": 4.4152498245239258, "mean_height": 0.51656156778335571, "std_height": 1.1522982120513916, "count_pixels": 41, "percent_cover": 0.49624788186879693, "percent_above_0.1m": 17.073170731707318, "low_level_<0.5": 2.4390243902439024, "mid_level_0.5-2": 2.4390243902439024, "tall_2+": 12.195121951219512 }, "geometry": { "type": "Point", "coordinates": [ -3.063985103543223, 53.420831492686453 ] } },
{ "type": "Feature", "properties": { "max_height": 5.7535009384155273, "mean_height": 1.0369217395782471, "std_height": 1.6260043382644653, "count_pixels": 38, "percent_cover": 0.45993706124425077, "percent_above_0.1m": 39.473684210526315, "low_level_<0.5": 7.8947368421052628, "mid_level_0.5-2": 13.157894736842104, "tall_2+": 18.421052631578945 }, "geometry": { "type": "Point", "coordinates": [ -3.063776644465698, 53.420833348603168 ] } },
{ "type": "Feature", "properties": { "max_height": 5.01300048828125, "mean_height": 0.5815311074256897, "std_height": 1.171695351600647, "count_pixels": 41, "percent_cover": 0.49624788186879693, "percent_above_0.1m": 21.951219512195124, "low_level_<0.5": 0.0, "mid_level_0.5-2": 12.195121951219512, "tall_2+": 9.7560975609756095 }, "geometry": { "type": "Point", "coordinates": [ -3.063568185365214, 53.420835204156063 ] } },
{ "type": "Feature", "properties": { "max_height": 1.1850004196166992, "mean_height": 0.097994573414325714, "std_height": 0.17204767465591431, "count_pixels": 41, "percent_cover": 0.49624788186879693, "percent_above_0.1m": 2.4390243902439024, "low_level_<0.5": 0.0, "mid_level_0.5-2": 2.4390243902439024, "tall_2+": 0.0 }, "geometry": { "type": "Point", "coordinates": [ -3.06335972624178, 53.420837059345082 ] } },
{ "type": "Feature", "properties": { "max_height": 0.0787506103515625, "mean_height": 0.061500713229179382, "std_height": 0.0074689565226435661, "count_pixels": 41, "percent_cover": 0.49624788186879693, "percent_above_0.1m": 0.0, "low_level_<0.5": 0.0, "mid_level_0.5-2": 0.0, "tall_2+": 0.0 }, "geometry": { "type": "Point", "coordinates": [ -3.063151267095399, 53.420838914170261 ] } },
{ "type": "Feature", "properties": { "max_height": 10.678502082824707, "mean_height": 3.7467913627624512, "std_height": 3.6109633445739746, "count_pixels": 43, "percent_cover": 0.52045509561849435, "percent_above_0.1m": 69.767441860465112, "low_level_<0.5": 2.3255813953488373, "mid_level_0.5-2": 11.627906976744185, "tall_2+": 55.813953488372093 }, "geometry": { "type": "Point", "coordinates": [ -3.062942807926079, 53.420840768631606 ] } },
{ "type": "Feature", "properties": { "max_height": 12.976250648498535, "mean_height": 7.5167574882507324, "std_height": 3.5532734394073486, "count_pixels": 43, "percent_cover": 0.52045509561849435, "percent_above_0.1m": 95.348837209302332, "low_level_<0.5": 0.0, "mid_level_0.5-2": 6.9767441860465116, "tall_2+": 88.372093023255815 }, "geometry": { "type": "Point", "coordinates": [ -3.062734348733818, 53.420842622729062 ] } },
{ "type": "Feature", "properties": { "max_height": 13.225502014160156, "mean_height": 4.2733144760131836, "std_height": 4.2359704971313477, "count_pixels": 43, "percent_cover": 0.52045509561849435, "percent_above_0.1m": 72.093023255813947, "low_level_<0.5": 6.9767441860465116, "mid_level_0.5-2": 13.953488372093023, "tall_2+": 51.162790697674424 }, "geometry": { "type": "Point", "coordinates": [ -3.062525889518626, 53.42084447646269 ] } },
{ "type": "Feature", "properties": { "max_height": 5.6712512969970703, "mean_height": 0.69505876302719116, "std_height": 1.433465838432312, "count_pixels": 43, "percent_cover": 0.52045509561849435, "percent_above_0.1m": 44.186046511627907, "low_level_<0.5": 6.9767441860465116, "mid_level_0.5-2": 13.953488372093023, "tall_2+": 11.627906976744185 }, "geometry": { "type": "Point", "coordinates": [ -3.064092024711685, 53.420938406034864 ] } },
{ "type": "Feature", "properties": { "max_height": 6.2000007629394531, "mean_height": 1.1615364551544189, "std_height": 1.6594326496124268, "count_pixels": 42, "percent_cover": 0.50835148874364555, "percent_above_0.1m": 54.761904761904766, "low_level_<0.5": 9.5238095238095237, "mid_level_0.5-2": 23.809523809523807, "tall_2+": 21.428571428571427 }, "geometry": { "type": "Point", "coordinates": [ -3.0638835651242, 53.420940262140064 ] } },
{ "type": "Feature", "properties": { "max_height": 6.5725011825561523, "mean_height": 1.740839958190918, "std_height": 2.1361703872680664, "count_pixels": 42, "percent_cover": 0.50835148874364555, "percent_above_0.1m": 52.380952380952387, "low_level_<0.5": 4.7619047619047619, "mid_level_0.5-2": 16.666666666666664, "tall_2+": 30.952380952380953 }, "geometry": { "type": "Point", "coordinates": [ -3.063675105513751, 53.42094211788141 ] } },
{ "type": "Feature", "properties": { "max_height": 8.8792514801025391, "mean_height": 1.761157751083374, "std_height": 2.475022554397583, "count_pixels": 43, "percent_cover": 0.52045509561849435, "percent_above_0.1m": 48.837209302325576, "low_level_<0.5": 0.0, "mid_level_0.5-2": 23.255813953488371, "tall_2+": 25.581395348837212 }, "geometry": { "type": "Point", "coordinates": [ -3.063466645880352, 53.420943973258893 ] } },
{ "type": "Feature", "properties": { "max_height": 13.979750633239746, "mean_height": 4.8234076499938965, "std_height": 5.2787647247314453, "count_pixels": 43, "percent_cover": 0.52045509561849435, "percent_above_0.1m": 53.488372093023251, "low_level_<0.5": 0.0, "mid_level_0.5-2": 4.6511627906976747, "tall_2+": 48.837209302325576 }, "geometry": { "type": "Point", "coordinates": [ -3.063258186224006, 53.420945828272536 ] } },
{ "type": "Feature", "properties": { "max_height": 10.472501754760742, "mean_height": 4.5301351547241211, "std_height": 4.2057924270629883, "count_pixels": 41, "percent_cover": 0.49624788186879693, "percent_above_0.1m": 85.365853658536579, "low_level_<0.5": 7.3170731707317067, "mid_level_0.5-2": 19.512195121951219, "tall_2+": 53.658536585365859 }, "geometry": { "type": "Point", "coordinates": [ -3.063049726544713, 53.420947682922318 ] } },
{ "type": "Feature", "properties": { "max_height": 6.1562519073486328, "mean_height": 0.63730567693710327, "std_height": 1.1864150762557983, "count_pixels": 41, "percent_cover": 0.49624788186879693, "percent_above_0.1m": 51.219512195121951, "low_level_<0.5": 19.512195121951219, "mid_level_0.5-2": 14.634146341463413, "tall_2+": 9.7560975609756095 }, "geometry": { "type": "Point", "coordinates": [ -3.062841266842481, 53.420949537208244 ] } },
{ "type": "Feature", "properties": { "max_height": 12.711000442504883, "mean_height": 2.7906718254089355, "std_height": 3.742255687713623, "count_pixels": 41, "percent_cover": 0.49624788186879693, "percent_above_0.1m": 63.414634146341463, "low_level_<0.5": 14.634146341463413, "mid_level_0.5-2": 4.8780487804878048, "tall_2+": 41.463414634146339 }, "geometry": { "type": "Point", "coordinates": [ -3.062632807117316, 53.420951391130316 ] } },
{ "type": "Feature", "properties": { "max_height": 1.7757501602172852, "mean_height": 0.2268756628036499, "std_height": 0.33255657553672791, "count_pixels": 38, "percent_cover": 0.45993706124425077, "percent_above_0.1m": 34.210526315789473, "low_level_<0.5": 13.157894736842104, "mid_level_0.5-2": 15.789473684210526, "tall_2+": 0.0 }, "geometry": { "type": "Point", "coordinates": [ -3.063782026195204, 53.421049031507231 ] } },
{ "type": "Feature", "properties": { "max_height": 12.330500602722168, "mean_height": 4.9878482818603516, "std_height": 4.6525430679321289, "count_pixels": 41, "percent_cover": 0.49624788186879693, "percent_above_0.1m": 70.731707317073173, "low_level_<0.5": 2.4390243902439024, "mid_level_0.5-2": 12.195121951219512, "tall_2+": 56.09756097560976 }, "geometry": { "type": "Point", "coordinates": [ -3.063573566051836, 53.421050887073179 ] } },
{ "type": "Feature", "properties": { "max_height": 9.6579999923706055, "mean_height": 2.0132505893707275, "std_height": 2.6733572483062744, "count_pixels": 41, "percent_cover": 0.49624788186879693, "percent_above_0.1m": 58.536585365853654, "low_level_<0.5": 2.4390243902439024, "mid_level_0.5-2": 24.390243902439025, "tall_2+": 31.707317073170731 }, "geometry": { "type": "Point", "coordinates": [ -3.063365105885519, 53.421052742275286 ] } },
{ "type": "Feature", "properties": { "max_height": 12.91400146484375, "mean_height": 1.8141105175018311, "std_height": 3.3465237617492676, "count_pixels": 41, "percent_cover": 0.49624788186879693, "percent_above_0.1m": 43.902439024390247, "low_level_<0.5": 9.7560975609756095, "mid_level_0.5-2": 2.4390243902439024, "tall_2+": 26.829268292682929 }, "geometry": { "type": "Point", "coordinates": [ -3.063156645696254, 53.421054597113518 ] } },
{ "type": "Feature", "properties": { "max_height": 10.293251037597656, "mean_height": 2.2046403884887695, "std_height": 2.8790149688720703, "count_pixels": 43, "percent_cover": 0.52045509561849435, "percent_above_0.1m": 83.720930232558146, "low_level_<0.5": 16.279069767441861, "mid_level_0.5-2": 32.558139534883722, "tall_2+": 30.232558139534881 }, "geometry": { "type": "Point", "coordinates": [ -3.062739725248903, 53.421058305698445 ] } },
{ "type": "Feature", "properties": { "max_height": 9.9672508239746094, "mean_height": 1.8534650802612305, "std_height": 2.8315942287445068, "count_pixels": 42, "percent_cover": 0.50835148874364555, "percent_above_0.1m": 52.380952380952387, "low_level_<0.5": 4.7619047619047619, "mid_level_0.5-2": 14.285714285714285, "tall_2+": 28.571428571428569 }, "geometry": { "type": "Point", "coordinates": [ -3.063680486756235, 53.421157800787931 ] } },
{ "type": "Feature", "properties": { "max_height": 5.2252511978149414, "mean_height": 0.71181458234786987, "std_height": 1.2883976697921753, "count_pixels": 43, "percent_cover": 0.52045509561849435, "percent_above_0.1m": 46.511627906976742, "low_level_<0.5": 18.604651162790699, "mid_level_0.5-2": 9.3023255813953494, "tall_2+": 13.953488372093023 }, "geometry": { "type": "Point", "coordinates": [ -3.063472026079948, 53.421159656178489 ] } },
{ "type": "Feature", "properties": { "max_height": 4.8542509078979492, "mean_height": 0.29928550124168396, "std_height": 0.94637250900268555, "count_pixels": 43, "percent_cover": 0.52045509561849435, "percent_above_0.1m": 11.627906976744185, "low_level_<0.5": 2.3255813953488373, "mid_level_0.5-2": 2.3255813953488373, "tall_2+": 4.6511627906976747 }, "geometry": { "type": "Point", "coordinates": [ -3.063263565380705, 53.421161511205199 ] } },
{ "type": "Feature", "properties": { "max_height": 4.7950010299682617, "mean_height": 0.18734827637672424, "std_height": 0.72903084754943848, "count_pixels": 41, "percent_cover": 0.49624788186879693, "percent_above_0.1m": 12.195121951219512, "low_level_<0.5": 2.4390243902439024, "mid_level_0.5-2": 0.0, "tall_2+": 2.4390243902439024 }, "geometry": { "type": "Point", "coordinates": [ -3.063055104658523, 53.421163365868047 ] } },
{ "type": "Feature", "properties": { "max_height": 7.1107501983642578, "mean_height": 1.4621165990829468, "std_height": 2.4227707386016846, "count_pixels": 41, "percent_cover": 0.49624788186879693, "percent_above_0.1m": 39.024390243902438, "low_level_<0.5": 4.8780487804878048, "mid_level_0.5-2": 4.8780487804878048, "tall_2+": 24.390243902439025 }, "geometry": { "type": "Point", "coordinates": [ -3.063370485598076, 53.421268425197361 ] } },
{ "type": "Feature", "properties": { "max_height": 7.7990016937255859, "mean_height": 2.701775074005127, "std_height": 2.7029259204864502, "count_pixels": 41, "percent_cover": 0.49624788186879693, "percent_above_0.1m": 78.048780487804876, "low_level_<0.5": 12.195121951219512, "mid_level_0.5-2": 14.634146341463413, "tall_2+": 48.780487804878049 }, "geometry": { "type": "Point", "coordinates": [ -3.063162024365914, 53.42127028004866 ] } },
{ "type": "Feature", "properties": { "max_height": 9.8885002136230469, "mean_height": 2.6818149089813232, "std_height": 3.1543107032775879, "count_pixels": 43, "percent_cover": 0.52045509561849435, "percent_above_0.1m": 58.139534883720934, "low_level_<0.5": 2.3255813953488373, "mid_level_0.5-2": 13.953488372093023, "tall_2+": 41.860465116279073 }, "geometry": { "type": "Point", "coordinates": [ -3.062953563110806, 53.421272134536117 ] } },
{ "type": "Feature", "properties": { "max_height": 12.014999389648438, "mean_height": 3.6414895057678223, "std_height": 3.9181859493255615, "count_pixels": 43, "percent_cover": 0.52045509561849435, "percent_above_0.1m": 69.767441860465112, "low_level_<0.5": 6.9767441860465116, "mid_level_0.5-2": 6.9767441860465116, "tall_2+": 53.488372093023251 }, "geometry": { "type": "Point", "coordinates": [ -3.062745101832765, 53.421273988659713 ] } },
{ "type": "Feature", "properties": { "max_height": 3.6922512054443359, "mean_height": 0.27477395534515381, "std_height": 0.59236633777618408, "count_pixels": 43, "percent_cover": 0.52045509561849435, "percent_above_0.1m": 34.883720930232556, "low_level_<0.5": 13.953488372093023, "mid_level_0.5-2": 11.627906976744185, "tall_2+": 2.3255813953488373 }, "geometry": { "type": "Point", "coordinates": [ -3.063268944606217, 53.421377194129754 ] } },
{ "type": "Feature", "properties": { "max_height": 0.33425140380859375, "mean_height": 0.069153159856796265, "std_height": 0.043772973120212555, "count_pixels": 41, "percent_cover": 0.49624788186879693, "percent_above_0.1m": 2.4390243902439024, "low_level_<0.5": 2.4390243902439024, "mid_level_0.5-2": 0.0, "tall_2+": 0.0 }, "geometry": { "type": "Point", "coordinates": [ -3.063060482841134, 53.421379048805669 ] } },
{ "type": "Feature", "properties": { "max_height": 0.44175052642822266, "mean_height": 0.082183487713336945, "std_height": 0.061330404132604599, "count_pixels": 41, "percent_cover": 0.49624788186879693, "percent_above_0.1m": 7.3170731707317067, "low_level_<0.5": 4.8780487804878048, "mid_level_0.5-2": 0.0, "tall_2+": 0.0 }, "geometry": { "type": "Point", "coordinates": [ -3.062852021053101, 53.421380903117715 ] } },
{ "type": "Feature", "properties": { "max_height": 0.089000701904296875, "mean_height": 0.070884369313716888, "std_height": 0.0096892807632684708, "count_pixels": 43, "percent_cover": 0.52045509561849435, "percent_above_0.1m": 0.0, "low_level_<0.5": 0.0, "mid_level_0.5-2": 0.0, "tall_2+": 0.0 }, "geometry": { "type": "Point", "coordinates": [ -3.06295894080636, 53.421487817476205 ] } }
]
}
