{
"type": "FeatureCollection",
"name": "ffa61364e3c2_foliage",
"crs": { "type": "name", "properties": { "name": "urn:ogc:def:crs:OGC:1.3:CRS84" } },
"features": [
{ "type": "Feature", "properties": { "max_height": 3.7635021209716797, "mean_height": 0.58960843086242676, "std_height": 0.83004218339920044, "count_pixels": 42, "percent_cover": 1.2191582002902757, "percent_above_0.1m": 57.142857142857139, "low_level_<0.5": 23.809523809523807, "mid_level_0.5-2": 19.047619047619047, "tall_2+": 11.904761904761903 }, "geometry": { "type": "Point", "coordinates": [ -3.060832408706825, 53.420149261470648 ] } },
{ "type": "Feature", "properties": { "max_height": 5.7189998626708984, "mean_height": 2.324364185333252, "std_height": 2.0090503692626953, "count_pixels": 42, "percent_cover": 1.2191582002902757, "percent_above_0.1m": 76.19047619047619, "low_level_<0.5": 4.7619047619047619, "mid_level_0.5-2": 23.809523809523807, "tall_2+": 45.238095238095241 }, "geometry": { "type": "Point", "coordinates": [ -3.060623952718002, 53.420151111872507 ] } },
{ "type": "Feature", "properties": { "max_height": 7.6607513427734375, "mean_height": 3.1720254421234131, "std_height": 2.5945127010345459, "count_pixels": 42, "percent_cover": 1.2191582002902757, "percent_above_0.1m": 100.0, "low_level_<0.5": 7.1428571428571423, "mid_level_0.5-2": 33.333333333333329, "tall_2+": 57.142857142857139 }, "geometry": { "type": "Point", "coordinates": [ -3.060415496706291, 53.420152961910517 ] } },
{ "type": "Feature", "properties": { "max_height": 2.3035011291503906, "mean_height": 0.46129277348518372, "std_height": 0.61433500051498413, "count_pixels": 42, "percent_cover": 1.2191582002902757, "percent_above_0.1m": 50.0, "low_level_<0.5": 21.428571428571427, "mid_level_0.5-2": 21.428571428571427, "tall_2+": 4.7619047619047619 }, "geometry": { "type": "Point", "coordinates": [ -3.06093932037597, 53.420256177688039 ] } },
{ "type": "Feature", "properties": { "max_height": 4.1452503204345703, "mean_height": 0.50743597745895386, "std_height": 1.0216883420944214, "count_pixels": 42, "percent_cover": 1.2191582002902757, "percent_above_0.1m": 23.809523809523807, "low_level_<0.5": 2.3809523809523809, "mid_level_0.5-2": 9.5238095238095237, "tall_2+": 11.904761904761903 }, "geometry": { "type": "Point", "coordinates": [ -3.060730863877171, 53.420258028278326 ] } },
{ "type": "Feature", "properties": { "max_height": 5.6767501831054688, "mean_height": 1.0183972120285034, "std_height": 1.5702306032180786, "count_pixels": 41, "percent_cover": 1.1901306240928884, "percent_above_0.1m": 39.024390243902438, "low_level_<0.5": 4.8780487804878048, "mid_level_0.5-2": 12.195121951219512, "tall_2+": 21.951219512195124 }, "geometry": { "type": "Point", "coordinates": [ -3.060522407355484, 53.42025987850478 ] } },
{ "type": "Feature", "properties": { "max_height": 5.4235000610351562, "mean_height": 1.4324712753295898, "std_height": 1.7637553215026855, "count_pixels": 42, "percent_cover": 1.2191582002902757, "percent_above_0.1m": 61.904761904761905, "low_level_<0.5": 9.5238095238095237, "mid_level_0.5-2": 16.666666666666664, "tall_2+": 30.952380952380953 }, "geometry": { "type": "Point", "coordinates": [ -3.060313950810911, 53.420261728367386 ] } },
{ "type": "Feature", "properties": { "max_height": 2.3280029296875, "mean_height": 0.47907939553260803, "std_height": 0.54784828424453735, "count_pixels": 42, "percent_cover": 1.2191582002902757, "percent_above_0.1m": 59.523809523809526, "low_level_<0.5": 23.809523809523807, "mid_level_0.5-2": 33.333333333333329, "tall_2+": 2.3809523809523809 }, "geometry": { "type": "Point", "coordinates": [ -3.06010549424346, 53.420263577866159 ] } },
{ "type": "Feature", "properties": { "max_height": 2.7400016784667969, "mean_height": 0.38825103640556335, "std_height": 0.64690291881561279, "count_pixels": 41, "percent_cover": 1.1901306240928884, "percent_above_0.1m": 43.902439024390247, "low_level_<0.5": 19.512195121951219, "mid_level_0.5-2": 17.073170731707318, "tall_2+": 4.8780487804878048 }, "geometry": { "type": "Point", "coordinates": [ -3.061046232577972, 53.420363093805904 ] } },
{ "type": "Feature", "properties": { "max_height": 2.9937515258789062, "mean_height": 0.45652484893798828, "std_height": 0.76652485132217407, "count_pixels": 42, "percent_cover": 1.2191582002902757, "percent_above_0.1m": 30.952380952380953, "low_level_<0.5": 7.1428571428571423, "mid_level_0.5-2": 14.285714285714285, "tall_2+": 9.5238095238095237 }, "geometry": { "type": "Point", "coordinates": [ -3.060837775569201, 53.420364944584641 ] } },
{ "type": "Feature", "properties": { "max_height": 0.07975006103515625, "mean_height": 0.065090633928775787, "std_height": 0.0093390131369233131, "count_pixels": 42, "percent_cover": 1.2191582002902757, "percent_above_0.1m": 0.0, "low_level_<0.5": 0.0, "mid_level_0.5-2": 0.0, "tall_2+": 0.0 }, "geometry": { "type": "Point", "coordinates": [ -3.06062931853753, 53.420366794999531 ] } },
{ "type": "Feature", "properties": { "max_height": 0.0760040283203125, "mean_height": 0.047745566815137863, "std_height": 0.018695946782827377, "count_pixels": 42, "percent_cover": 1.2191582002902757, "percent_above_0.1m": 0.0, "low_level_<0.5": 0.0, "mid_level_0.5-2": 0.0, "tall_2+": 0.0 }, "geometry": { "type": "Point", "coordinates": [ -3.060420861482977, 53.420368645050566 ] } },
{ "type": "Feature", "properties": { "max_height": 2.6837539672851562, "mean_height": 0.60160309076309204, "std_height": 0.76288104057312012, "count_pixels": 42, "percent_cover": 1.2191582002902757, "percent_above_0.1m": 50.0, "low_level_<0.5": 11.904761904761903, "mid_level_0.5-2": 28.571428571428569, "tall_2+": 9.5238095238095237 }, "geometry": { "type": "Point", "coordinates": [ -3.060212404405543, 53.420370494737767 ] } },
{ "type": "Feature", "properties": { "max_height": 1.0440006256103516, "mean_height": 0.14792941510677338, "std_height": 0.23598168790340424, "count_pixels": 42, "percent_cover": 1.2191582002902757, "percent_above_0.1m": 14.285714285714285, "low_level_<0.5": 4.7619047619047619, "mid_level_0.5-2": 9.5238095238095237, "tall_2+": 0.0 }, "geometry": { "type": "Point", "coordinates": [ -3.061153145312845, 53.420470009824271 ] } },
{ "type": "Feature", "properties": { "max_height": 4.6775016784667969, "mean_height": 0.86703693866729736, "std_height": 1.3445497751235962, "count_pixels": 42, "percent_cover": 1.2191582002902757, "percent_above_0.1m": 42.857142857142854, "low_level_<0.5": 9.5238095238095237, "mid_level_0.5-2": 11.904761904761903, "tall_2+": 19.047619047619047 }, "geometry": { "type": "Point", "coordinates": [ -3.060944687794096, 53.420471860791437 ] } },
{ "type": "Feature", "properties": { "max_height": 0.07775115966796875, "mean_height": 0.06576906144618988, "std_height": 0.007157827727496624, "count_pixels": 42, "percent_cover": 1.2191582002902757, "percent_above_0.1m": 0.0, "low_level_<0.5": 0.0, "mid_level_0.5-2": 0.0, "tall_2+": 0.0 }, "geometry": { "type": "Point", "coordinates": [ -3.060736230252441, 53.420473711394784 ] } },
{ "type": "Feature", "properties": { "max_height": 0.14400100708007812, "mean_height": 0.054245181381702423, "std_height": 0.026522476226091385, "count_pixels": 41, "percent_cover": 1.1901306240928884, "percent_above_0.1m": 4.8780487804878048, "low_level_<0.5": 0.0, "mid_level_0.5-2": 0.0, "tall_2+": 0.0 }, "geometry": { "type": "Point", "coordinates": [ -3.060527772687905, 53.420475561634248 ] } },
{ "type": "Feature", "properties": { "max_height": 0.80900001525878906, "mean_height": 0.091531209647655487, "std_height": 0.12160609662532806, "count_pixels": 42, "percent_cover": 1.2191582002902757, "percent_above_0.1m": 9.5238095238095237, "low_level_<0.5": 4.7619047619047619, "mid_level_0.5-2": 2.3809523809523809, "tall_2+": 0.0 }, "geometry": { "type": "Point", "coordinates": [ -3.060319315100482, 53.420477411509893 ] } },
{ "type": "Feature", "properties": { "max_height": 0.582000732421875, "mean_height": 0.074179559946060181, "std_height": 0.079923652112483978, "count_pixels": 42, "percent_cover": 1.2191582002902757, "percent_above_0.1m": 2.3809523809523809, "low_level_<0.5": 0.0, "mid_level_0.5-2": 2.3809523809523809, "tall_2+": 0.0 }, "geometry": { "type": "Point", "coordinates": [ -3.061260058580591, 53.420576925743134 ] } },
{ "type": "Feature", "properties": { "max_height": 3.2427520751953125, "mean_height": 0.83379381895065308, "std_height": 0.99331504106521606, "count_pixels": 41, "percent_cover": 1.1901306240928884, "percent_above_0.1m": 56.09756097560976, "low_level_<0.5": 14.634146341463413, "mid_level_0.5-2": 21.951219512195124, "tall_2+": 19.512195121951219 }, "geometry": { "type": "Point", "coordinates": [ -3.061051600551856, 53.420578776898751 ] } },
{ "type": "Feature", "properties": { "max_height": 0.0787506103515625, "mean_height": 0.064197815954685211, "std_height": 0.0062668346799910069, "count_pixels": 42, "percent_cover": 1.2191582002902757, "percent_above_0.1m": 0.0, "low_level_<0.5": 0.0, "mid_level_0.5-2": 0.0, "tall_2+": 0.0 }, "geometry": { "type": "Point", "coordinates": [ -3.06084314250022, 53.420580627690512 ] } },
{ "type": "Feature", "properties": { "max_height": 0.08425140380859375, "mean_height": 0.055197760462760925, "std_height": 0.024384258314967155, "count_pixels": 42, "percent_cover": 1.2191582002902757, "percent_above_0.1m": 0.0, "low_level_<0.5": 0.0, "mid_level_0.5-2": 0.0, "tall_2+": 0.0 }, "geometry": { "type": "Point", "coordinates": [ -3.060634684425699, 53.42058247811844 ] } },
{ "type": "Feature", "properties": { "max_height": 1.1452522277832031, "mean_height": 0.096442088484764099, "std_height": 0.17896825075149536, "count_pixels": 42, "percent_cover": 1.2191582002902757, "percent_above_0.1m": 7.1428571428571423, "low_level_<0.5": 0.0, "mid_level_0.5-2": 4.7619047619047619, "tall_2+": 0.0 }, "geometry": { "type": "Point", "coordinates": [ -3.060426226328286, 53.420584328182521 ] } },
{ "type": "Feature", "properties": { "max_height": 5.2090015411376953, "mean_height": 0.26970958709716797, "std_height": 0.81203800439834595, "count_pixels": 42, "percent_cover": 1.2191582002902757, "percent_above_0.1m": 26.190476190476193, "low_level_<0.5": 16.666666666666664, "mid_level_0.5-2": 4.7619047619047619, "tall_2+": 2.3809523809523809 }, "geometry": { "type": "Point", "coordinates": [ -3.061158513842495, 53.420685692906538 ] } },
{ "type": "Feature", "properties": { "max_height": 6.0672512054443359, "mean_height": 0.74869173765182495, "std_height": 1.3872095346450806, "count_pixels": 42, "percent_cover": 1.2191582002902757, "percent_above_0.1m": 35.714285714285715, "low_level_<0.5": 2.3809523809523809, "mid_level_0.5-2": 11.904761904761903, "tall_2+": 16.666666666666664 }, "geometry": { "type": "Point", "coordinates": [ -3.060950055280875, 53.42068754388675 ] } },
{ "type": "Feature", "properties": { "max_height": 0.080501556396484375, "mean_height": 0.064536727964878082, "std_height": 0.0089332079514861107, "count_pixels": 42, "percent_cover": 1.2191582002902757, "percent_above_0.1m": 0.0, "low_level_<0.5": 0.0, "mid_level_0.5-2": 0.0, "tall_2+": 0.0 }, "geometry": { "type": "Point", "coordinates": [ -3.06074159669636, 53.420689394503121 ] } },
{ "type": "Feature", "properties": { "max_height": 0.099500656127929688, "mean_height": 0.065098926424980164, "std_height": 0.017396921291947365, "count_pixels": 41, "percent_cover": 1.1901306240928884, "percent_above_0.1m": 0.0, "low_level_<0.5": 0.0, "mid_level_0.5-2": 0.0, "tall_2+": 0.0 }, "geometry": { "type": "Point", "coordinates": [ -3.060533138088958, 53.420691244755631 ] } },
{ "type": "Feature", "properties": { "max_height": 6.6485023498535156, "mean_height": 1.4521597623825073, "std_height": 1.8977605104446411, "count_pixels": 41, "percent_cover": 1.1901306240928884, "percent_above_0.1m": 70.731707317073173, "low_level_<0.5": 9.7560975609756095, "mid_level_0.5-2": 21.951219512195124, "tall_2+": 29.268292682926827 }, "geometry": { "type": "Point", "coordinates": [ -3.061056968594403, 53.42079445998349 ] } },
{ "type": "Feature", "properties": { "max_height": 9.6160030364990234, "mean_height": 2.8628885746002197, "std_height": 2.97788405418396, "count_pixels": 42, "percent_cover": 1.2191582002902757, "percent_above_0.1m": 66.666666666666657, "low_level_<0.5": 4.7619047619047619, "mid_level_0.5-2": 11.904761904761903, "tall_2+": 50.0 }, "geometry": { "type": "Point", "coordinates": [ -3.060848509499898, 53.42079631078829 ] } },
{ "type": "Feature", "properties": { "max_height": 0.91699981689453125, "mean_height": 0.095144361257553101, "std_height": 0.14496506750583649, "count_pixels": 42, "percent_cover": 1.2191582002902757, "percent_above_0.1m": 11.904761904761903, "low_level_<0.5": 2.3809523809523809, "mid_level_0.5-2": 2.3809523809523809, "tall_2+": 0.0 }, "geometry": { "type": "Point", "coordinates": [ -3.0606400503825, 53.420798161229243 ] } },
{ "type": "Feature", "properties": { "max_height": 4.5915012359619141, "mean_height": 1.4791322946548462, "std_height": 1.1371954679489136, "count_pixels": 42, "percent_cover": 1.2191582002902757, "percent_above_0.1m": 83.333333333333343, "low_level_<0.5": 7.1428571428571423, "mid_level_0.5-2": 40.476190476190474, "tall_2+": 33.333333333333329 }, "geometry": { "type": "Point", "coordinates": [ -3.060746963208924, 53.420905077603351 ] } },
{ "type": "Feature", "properties": { "max_height": 7.3265018463134766, "mean_height": 1.0891354084014893, "std_height": 1.6897691488265991, "count_pixels": 41, "percent_cover": 1.1901306240928884, "percent_above_0.1m": 51.219512195121951, "low_level_<0.5": 9.7560975609756095, "mid_level_0.5-2": 17.073170731707318, "tall_2+": 21.951219512195124 }, "geometry": { "type": "Point", "coordinates": [ -3.060538503558643, 53.420906927868906 ] } }
]
}
