{
"type": "FeatureCollection",
"name": "WIRRA_56_walking",
"crs": { "type": "name", "properties": { "name": "urn:ogc:def:crs:OGC:1.3:CRS84" } },
"features": [
{"type":"Feature","properties":{"highway":"footway","name":null,"category":"Footpath (pedestrian only)"},"geometry":{"type":"MultiLineString","coordinates":[[[-3.0778977,53.4094664],[-3.077889,53.4094104],[-3.0778359,53.4091639]]]}},
{"type":"Feature","properties":{"highway":"footway","name":null,"category":"Footpath (pedestrian only)"},"geometry":{"type":"MultiLineString","coordinates":[[[-3.0678852,53.3956619],[-3.0679111,53.3956025],[-3.067944,53.39552],[-3.067971,53.3954898],[-3.0680352,53.3954637],[-3.0680949,53.3954476],[-3.0681399,53.3954355],[-3.0684033,53.3953529],[-3.0684472,53.3952563],[-3.0685248,53.3951355],[-3.0685518,53.395067],[-3.0685485,53.3949764],[-3.06893,53.3949925]]]}},
{"type":"Feature","properties":{"highway":"footway","name":null,"category":"Footpath (pedestrian only)"},"geometry":{"type":"MultiLineString","coordinates":[[[-3.0684033,53.3953529],[-3.0688287,53.3952442],[-3.0688965,53.3952304],[-3.0692036,53.3951677],[-3.0696493,53.3950549],[-3.0697236,53.3951355],[-3.0698418,53.3951697],[-3.0699498,53.3951838],[-3.070122,53.3951556],[-3.0703753,53.39521],[-3.0705914,53.3952804],[-3.0708345,53.3953429],[-3.0710405,53.3953751],[-3.0713444,53.3954375],[-3.0715605,53.3954878],[-3.0718442,53.3955362],[-3.0720806,53.3956086],[-3.0722832,53.3956751],[-3.0725263,53.3957113],[-3.0728099,53.3957415],[-3.0731307,53.3957254],[-3.0735354,53.3957094]]]}},
{"type":"Feature","properties":{"highway":"footway","name":"Vyner Road North footbridge","category":"Footpath (pedestrian only)"},"geometry":{"type":"MultiLineString","coordinates":[[[-3.0735354,53.3957094],[-3.0735769,53.3958552]]]}},
{"type":"Feature","properties":{"highway":"footway","name":null,"category":"Footpath (pedestrian only)"},"geometry":{"type":"MultiLineString","coordinates":[[[-3.0735769,53.3958552],[-3.0735832,53.3958744],[-3.0735731,53.3959207],[-3.0735258,53.3959771],[-3.0734515,53.3960536],[-3.0734279,53.3961321],[-3.0734313,53.3962308]]]}},
{"type":"Feature","properties":{"highway":"footway","name":null,"category":"Footpath (pedestrian only)"},"geometry":{"type":"MultiLineString","coordinates":[[[-3.0734313,53.3962308],[-3.0732701,53.3962597],[-3.0727568,53.3964389],[-3.0724698,53.3965054],[-3.0723212,53.3965436],[-3.0721895,53.3965597],[-3.0721051,53.396602],[-3.0720038,53.3966725],[-3.0718181,53.3967671],[-3.0717067,53.3968134],[-3.0716222,53.396898],[-3.0715176,53.3969342],[-3.0714163,53.3968718],[-3.0712945,53.3968029]]]}},
{"type":"Feature","properties":{"highway":"footway","name":null,"category":"Footpath (pedestrian only)"},"geometry":{"type":"MultiLineString","coordinates":[[[-3.0711846,53.3969368],[-3.0709604,53.3968658],[-3.0706801,53.3968033],[-3.0703897,53.3967369],[-3.0701432,53.3966725],[-3.0699001,53.3966],[-3.0696603,53.3965215],[-3.0694881,53.396449],[-3.0692146,53.3963866],[-3.0689816,53.3963201],[-3.0687452,53.3962456],[-3.0686,53.3961993],[-3.0683096,53.3961631],[-3.0681442,53.3961429],[-3.0679821,53.3960866],[-3.0679108,53.3960552],[-3.067891,53.3960317]]]}},
{"type":"Feature","properties":{"highway":"track","name":null,"category":"Track"},"geometry":{"type":"MultiLineString","coordinates":[[[-3.0672069,53.3961086],[-3.0672201,53.3962281],[-3.0672002,53.3964593],[-3.0671608,53.3967342]]]}},
{"type":"Feature","properties":{"highway":"footway","name":null,"category":"Footpath (pedestrian only)"},"geometry":{"type":"MultiLineString","coordinates":[[[-3.0671608,53.3967342],[-3.067426,53.3967342],[-3.0674131,53.3970255],[-3.0673872,53.397203],[-3.0670637,53.3971683],[-3.066986,53.3971702],[-3.0668372,53.3971644],[-3.0666366,53.3971239],[-3.0665557,53.3969946],[-3.0664651,53.3968191],[-3.0665844,53.3968289],[-3.0669763,53.3968576],[-3.066986,53.3971702]]]}},
{"type":"Feature","properties":{"highway":"footway","name":null,"category":"Footpath (pedestrian only)"},"geometry":{"type":"MultiLineString","coordinates":[[[-3.0671608,53.3967342],[-3.0671414,53.39686],[-3.0669763,53.3968576]]]}},
{"type":"Feature","properties":{"highway":"footway","name":null,"category":"Footpath (pedestrian only)"},"geometry":{"type":"MultiLineString","coordinates":[[[-3.0817992,53.4059238],[-3.0818396,53.4056576],[-3.0818338,53.4056172],[-3.0816005,53.4050153],[-3.0815999,53.404856],[-3.0815646,53.4047487],[-3.0815803,53.4046768],[-3.081584,53.4046655],[-3.0814403,53.4046481],[-3.0813899,53.4042271]]]}},
{"type":"Feature","properties":{"highway":"footway","name":null,"category":"Footpath (pedestrian only)"},"geometry":{"type":"MultiLineString","coordinates":[[[-3.0724689,53.4068874],[-3.0725009,53.4069179],[-3.0725405,53.4069369],[-3.0725854,53.4069369]]]}},
{"type":"Feature","properties":{"highway":"footway","name":"Eleanor Road","category":"Footpath (pedestrian only)"},"geometry":{"type":"MultiLineString","coordinates":[[[-3.0767282,53.4031432],[-3.0767097,53.4029848]]]}},
{"type":"Feature","properties":{"highway":"footway","name":"Thermopylae Pass","category":"Footpath (pedestrian only)"},"geometry":{"type":"MultiLineString","coordinates":[[[-3.0718542,53.3916888],[-3.0724977,53.3913594],[-3.0743216,53.3907675],[-3.0746727,53.3906289],[-3.0749853,53.3905584],[-3.0753874,53.3905323],[-3.0755067,53.3905212],[-3.0756309,53.3905048],[-3.076007,53.3904742],[-3.0765232,53.3903098],[-3.0770382,53.3900514],[-3.0779523,53.3896349]]]}},
{"type":"Feature","properties":{"highway":"footway","name":null,"category":"Footpath (pedestrian only)"},"geometry":{"type":"MultiLineString","coordinates":[[[-3.0733493,53.3872497],[-3.0734086,53.3872899],[-3.0736466,53.3881378],[-3.0737532,53.3885308],[-3.0738012,53.3886847],[-3.0737731,53.3888607],[-3.0741908,53.3894078],[-3.0744432,53.389726],[-3.0748241,53.3900491],[-3.0752264,53.3903626],[-3.0755067,53.3905212]]]}},
{"type":"Feature","properties":{"highway":"footway","name":null,"category":"Footpath (pedestrian only)"},"geometry":{"type":"MultiLineString","coordinates":[[[-3.075439,53.3913456],[-3.075433,53.3910456],[-3.0754705,53.390972],[-3.0756529,53.3908889],[-3.0756744,53.3906409],[-3.0756309,53.3905048]]]}},
{"type":"Feature","properties":{"highway":"footway","name":null,"category":"Footpath (pedestrian only)"},"geometry":{"type":"MultiLineString","coordinates":[[[-3.0735354,53.3957094],[-3.0735098,53.3956568],[-3.0731665,53.3953753],[-3.073188,53.3946844],[-3.0721052,53.3933807]]]}},
{"type":"Feature","properties":{"highway":"footway","name":null,"category":"Footpath (pedestrian only)"},"geometry":{"type":"MultiLineString","coordinates":[[[-3.0780361,53.4075337],[-3.0779397,53.407542],[-3.0778154,53.4075564]]]}},
{"type":"Feature","properties":{"highway":"footway","name":null,"category":"Footpath (pedestrian only)"},"geometry":{"type":"MultiLineString","coordinates":[[[-3.0830059,53.4038099],[-3.0829303,53.4042853]]]}},
{"type":"Feature","properties":{"highway":"footway","name":null,"category":"Footpath (pedestrian only)"},"geometry":{"type":"MultiLineString","coordinates":[[[-3.08161,53.4037774],[-3.0816408,53.4036892]]]}},
{"type":"Feature","properties":{"highway":"footway","name":null,"category":"Footpath (pedestrian only)"},"geometry":{"type":"MultiLineString","coordinates":[[[-3.0817249,53.4039937],[-3.0815748,53.4039584],[-3.08161,53.4037774],[-3.0811778,53.4036637],[-3.0812907,53.4031733]]]}},
{"type":"Feature","properties":{"highway":"footway","name":null,"category":"Footpath (pedestrian only)"},"geometry":{"type":"MultiLineString","coordinates":[[[-3.0575462,53.4028714],[-3.0576465,53.4029286],[-3.0576725,53.4029561],[-3.0576904,53.4029807],[-3.0577015,53.4030032],[-3.0577076,53.4030423],[-3.0577088,53.4030917],[-3.0577811,53.4034042],[-3.0576661,53.403483],[-3.0575861,53.4035398],[-3.0575118,53.4035858],[-3.0574671,53.4036097],[-3.0574304,53.4036312]]]}},
{"type":"Feature","properties":{"highway":"footway","name":null,"category":"Footpath (pedestrian only)"},"geometry":{"type":"MultiLineString","coordinates":[[[-3.0542271,53.3999718],[-3.0543282,53.3999703],[-3.0545611,53.3999668],[-3.0548395,53.3999623],[-3.0548888,53.3999615],[-3.0555203,53.3999426],[-3.0557665,53.399936],[-3.0558816,53.3998849],[-3.0558334,53.3992817],[-3.0554755,53.3992903],[-3.0548347,53.3993059],[-3.054185,53.399326],[-3.0538468,53.3993371],[-3.0538049,53.3993569],[-3.0538738,53.400179],[-3.0540631,53.4002206],[-3.0542414,53.4002404]]]}},
{"type":"Feature","properties":{"highway":"footway","name":null,"category":"Footpath (pedestrian only)"},"geometry":{"type":"MultiLineString","coordinates":[[[-3.0828044,53.391423],[-3.0821889,53.391431],[-3.0821372,53.3913694],[-3.0820683,53.3913046],[-3.0820774,53.3905688],[-3.0820813,53.3905077],[-3.0820823,53.3904348],[-3.0820792,53.3902939],[-3.0820871,53.3900181],[-3.0821454,53.3898404],[-3.0821447,53.3898342],[-3.0821193,53.3896128],[-3.082072,53.3894603],[-3.0821196,53.3893297]]]}},
{"type":"Feature","properties":{"highway":"footway","name":null,"category":"Footpath (pedestrian only)"},"geometry":{"type":"MultiLineString","coordinates":[[[-3.0801638,53.3972144],[-3.0800473,53.3973648]]]}},
{"type":"Feature","properties":{"highway":"footway","name":null,"category":"Footpath (pedestrian only)"},"geometry":{"type":"MultiLineString","coordinates":[[[-3.0828284,53.4002284],[-3.0827962,53.4001614],[-3.0827961,53.4000422],[-3.0827858,53.4000172],[-3.0827674,53.3999719],[-3.0827124,53.3999048],[-3.0825543,53.3997733]]]}},
{"type":"Feature","properties":{"highway":"footway","name":null,"category":"Footpath (pedestrian only)"},"geometry":{"type":"MultiLineString","coordinates":[[[-3.0828024,53.4003423],[-3.0825185,53.4005287],[-3.0824446,53.4005302],[-3.0823008,53.400613],[-3.0821782,53.4007]]]}},
{"type":"Feature","properties":{"highway":"footway","name":null,"category":"Footpath (pedestrian only)"},"geometry":{"type":"MultiLineString","coordinates":[[[-3.0830503,53.3897314],[-3.0830422,53.3895376],[-3.0830556,53.3894165],[-3.0830967,53.3893603]]]}},
{"type":"Feature","properties":{"highway":"footway","name":null,"category":"Footpath (pedestrian only)"},"geometry":{"type":"MultiLineString","coordinates":[[[-3.0824127,53.3996604],[-3.0824275,53.3997584]]]}},
{"type":"Feature","properties":{"highway":"footway","name":null,"category":"Footpath (pedestrian only)"},"geometry":{"type":"MultiLineString","coordinates":[[[-3.08273,53.3919248],[-3.0818644,53.3919413]]]}},
{"type":"Feature","properties":{"highway":"footway","name":null,"category":"Footpath (pedestrian only)"},"geometry":{"type":"MultiLineString","coordinates":[[[-3.0828517,53.3950971],[-3.0826779,53.3950943],[-3.0825021,53.3950982],[-3.0823375,53.3951305],[-3.0822238,53.3951583]]]}},
{"type":"Feature","properties":{"highway":"footway","name":null,"category":"Footpath (pedestrian only)"},"geometry":{"type":"MultiLineString","coordinates":[[[-3.0858882,53.3937393],[-3.0851258,53.3937507],[-3.0848176,53.3937556],[-3.0845416,53.3937592],[-3.0842593,53.3937641],[-3.0839415,53.3937691],[-3.0833612,53.3937776],[-3.083312,53.3937783],[-3.0829379,53.3937785],[-3.0829204,53.3937782],[-3.0827384,53.3937193],[-3.0827072,53.3937169],[-3.0824078,53.3936565],[-3.0821972,53.3936287],[-3.0820406,53.3936123]]]}},
{"type":"Feature","properties":{"highway":"footway","name":null,"category":"Footpath (pedestrian only)"},"geometry":{"type":"MultiLineString","coordinates":[[[-3.0818222,53.3892608],[-3.081749,53.389396],[-3.0817542,53.3896612],[-3.0817633,53.3900667],[-3.0817418,53.3905722],[-3.0817485,53.3909388],[-3.0817526,53.3911311],[-3.0817557,53.391231],[-3.0817552,53.3912937]]]}},
{"type":"Feature","properties":{"highway":"footway","name":null,"category":"Footpath (pedestrian only)"},"geometry":{"type":"MultiLineString","coordinates":[[[-3.0813803,53.4004154],[-3.0813492,53.4003419],[-3.0813418,53.4002528],[-3.0813365,53.4001616],[-3.0813512,53.4000625],[-3.0814149,53.399823],[-3.0814612,53.3997234],[-3.0816116,53.3994786]]]}},
{"type":"Feature","properties":{"highway":"footway","name":null,"category":"Footpath (pedestrian only)"},"geometry":{"type":"MultiLineString","coordinates":[[[-3.082013,53.4007077],[-3.0818272,53.40065],[-3.0816671,53.4005701],[-3.0813803,53.4004154],[-3.0808877,53.4005119],[-3.0807645,53.4005627],[-3.0806569,53.4006276],[-3.0805185,53.4007939],[-3.0805682,53.4008719]]]}},
{"type":"Feature","properties":{"highway":"footway","name":null,"category":"Footpath (pedestrian only)"},"geometry":{"type":"MultiLineString","coordinates":[[[-3.0827147,53.3956322],[-3.0827605,53.3955521],[-3.0827703,53.3955268],[-3.0827888,53.3954618],[-3.0827898,53.3953871],[-3.0827913,53.3952338],[-3.0828517,53.3950971],[-3.0828385,53.3946807],[-3.0828239,53.394612],[-3.0824345,53.3942126],[-3.0820406,53.3936123]]]}},
{"type":"Feature","properties":{"highway":"footway","name":null,"category":"Footpath (pedestrian only)"},"geometry":{"type":"MultiLineString","coordinates":[[[-3.0828385,53.3946807],[-3.0827025,53.3946742],[-3.0825859,53.3946456],[-3.0823395,53.3944205],[-3.0822193,53.3943637],[-3.0821464,53.3943466],[-3.0820076,53.3943258],[-3.0818835,53.3943099],[-3.0817463,53.3943002]]]}},
{"type":"Feature","properties":{"highway":"footway","name":null,"category":"Footpath (pedestrian only)"},"geometry":{"type":"MultiLineString","coordinates":[[[-3.0825686,53.3985444],[-3.0826537,53.3987125],[-3.0827204,53.3988443],[-3.0830262,53.3989466],[-3.0830996,53.3990771]]]}},
{"type":"Feature","properties":{"highway":"footway","name":null,"category":"Footpath (pedestrian only)"},"geometry":{"type":"MultiLineString","coordinates":[[[-3.0831659,53.3995978],[-3.0831527,53.3996452],[-3.0832065,53.3996519],[-3.0831661,53.3998331],[-3.0831536,53.3999946]]]}},
{"type":"Feature","properties":{"highway":"footway","name":null,"category":"Footpath (pedestrian only)"},"geometry":{"type":"MultiLineString","coordinates":[[[-3.0800519,53.3981893],[-3.0801526,53.3981064]]]}},
{"type":"Feature","properties":{"highway":"footway","name":null,"category":"Footpath (pedestrian only)"},"geometry":{"type":"MultiLineString","coordinates":[[[-3.0814612,53.3997234],[-3.0824275,53.3997584],[-3.0825543,53.3997733],[-3.0831661,53.3998331]]]}},
{"type":"Feature","properties":{"highway":"footway","name":null,"category":"Footpath (pedestrian only)"},"geometry":{"type":"MultiLineString","coordinates":[[[-3.0833022,53.3896818],[-3.0830967,53.3893603],[-3.0829725,53.3891934],[-3.0827416,53.3890373]]]}},
{"type":"Feature","properties":{"highway":"footway","name":null,"category":"Footpath (pedestrian only)"},"geometry":{"type":"MultiLineString","coordinates":[[[-3.0806006,53.3912521],[-3.0802461,53.3914576],[-3.0801248,53.3915293],[-3.0800589,53.3899439],[-3.0801225,53.38985],[-3.0801592,53.3897659],[-3.0801677,53.3899719],[-3.08018,53.3901875],[-3.0802016,53.3906082],[-3.0802461,53.3914576]]]}},
{"type":"Feature","properties":{"highway":"footway","name":null,"category":"Footpath (pedestrian only)"},"geometry":{"type":"MultiLineString","coordinates":[[[-3.0803881,53.4002695],[-3.0803225,53.3999989],[-3.0800813,53.3993859]]]}},
{"type":"Feature","properties":{"highway":"footway","name":null,"category":"Footpath (pedestrian only)"},"geometry":{"type":"MultiLineString","coordinates":[[[-3.0861646,53.3920002],[-3.08551,53.3920082],[-3.0852232,53.3920117],[-3.0845961,53.3920194],[-3.0841956,53.3920246],[-3.084194,53.3919606],[-3.0832568,53.3919651],[-3.0828813,53.391967],[-3.08273,53.3919248],[-3.0827358,53.3917912],[-3.0828356,53.3917862],[-3.0828365,53.3917737],[-3.0828392,53.3917379]]]}},
{"type":"Feature","properties":{"highway":"footway","name":null,"category":"Footpath (pedestrian only)"},"geometry":{"type":"MultiLineString","coordinates":[[[-3.0817418,53.3905722],[-3.0820774,53.3905688]]]}},
{"type":"Feature","properties":{"highway":"footway","name":null,"category":"Footpath (pedestrian only)"},"geometry":{"type":"MultiLineString","coordinates":[[[-3.0834375,53.3905771],[-3.0833534,53.3907353],[-3.0833498,53.3911782]]]}},
{"type":"Feature","properties":{"highway":"footway","name":null,"category":"Footpath (pedestrian only)"},"geometry":{"type":"MultiLineString","coordinates":[[[-3.083458,53.3922566],[-3.0832858,53.3922533],[-3.0832568,53.3919651]]]}},
{"type":"Feature","properties":{"highway":"footway","name":null,"category":"Footpath (pedestrian only)"},"geometry":{"type":"MultiLineString","coordinates":[[[-3.0786787,53.38887],[-3.0789988,53.3892864]]]}},
{"type":"Feature","properties":{"highway":"footway","name":null,"category":"Footpath (pedestrian only)"},"geometry":{"type":"MultiLineString","coordinates":[[[-3.0797086,53.3885495],[-3.0799802,53.3889313]]]}},
{"type":"Feature","properties":{"highway":"footway","name":null,"category":"Footpath (pedestrian only)"},"geometry":{"type":"MultiLineString","coordinates":[[[-3.0832957,53.3928473],[-3.083319,53.3935595],[-3.0827322,53.3935656],[-3.0827384,53.3937193],[-3.0827436,53.3938879],[-3.0828937,53.3938822],[-3.0829408,53.393883],[-3.0829379,53.3937785]]]}},
{"type":"Feature","properties":{"highway":"footway","name":null,"category":"Footpath (pedestrian only)"},"geometry":{"type":"MultiLineString","coordinates":[[[-3.0724122,53.4051501],[-3.0727357,53.4052054],[-3.0729733,53.4052216],[-3.0731125,53.4052321],[-3.0732622,53.4052359],[-3.0734111,53.4052288],[-3.0736167,53.4052049],[-3.0738128,53.4051639],[-3.0739465,53.4051317],[-3.0742009,53.4050529],[-3.0749959,53.4048719],[-3.0751989,53.4048418]]]}},
{"type":"Feature","properties":{"highway":"footway","name":null,"category":"Footpath (pedestrian only)"},"geometry":{"type":"MultiLineString","coordinates":[[[-3.0721052,53.3933807],[-3.0719707,53.3935314],[-3.0717993,53.3936414]]]}},
{"type":"Feature","properties":{"highway":"footway","name":"King George's Way","category":"Footpath (pedestrian only)"},"geometry":{"type":"MultiLineString","coordinates":[[[-3.0645087,53.3941592],[-3.0646693,53.3941852],[-3.0649552,53.3942281],[-3.0654878,53.3943909],[-3.0657466,53.3944337],[-3.0659816,53.3944996],[-3.0675649,53.3947043],[-3.067579,53.39458],[-3.0677331,53.3945654],[-3.0679398,53.3945717],[-3.0686125,53.3940758],[-3.0676852,53.3931214],[-3.0675958,53.3931084],[-3.0676337,53.3930825],[-3.0675702,53.3929844]]]}},
{"type":"Feature","properties":{"highway":"footway","name":null,"category":"Footpath (pedestrian only)"},"geometry":{"type":"MultiLineString","coordinates":[[[-3.0616302,53.3875339],[-3.0630388,53.3872703],[-3.0658902,53.3882908],[-3.0660482,53.3883397],[-3.0666196,53.3885772],[-3.066802,53.3886442],[-3.0672549,53.3887584],[-3.0676561,53.3888545],[-3.0680224,53.3889915],[-3.0682049,53.3890666]]]}},
{"type":"Feature","properties":{"highway":"footway","name":null,"category":"Footpath (pedestrian only)"},"geometry":{"type":"MultiLineString","coordinates":[[[-3.0682049,53.3890666],[-3.0676231,53.3898576],[-3.0667058,53.389976],[-3.0656651,53.3902479],[-3.0654559,53.3903119],[-3.0650214,53.390555],[-3.0646656,53.3907986],[-3.0641524,53.3909357],[-3.0635891,53.3910349],[-3.0628789,53.3912436],[-3.0625184,53.3913586]]]}},
{"type":"Feature","properties":{"highway":"footway","name":null,"category":"Footpath (pedestrian only)"},"geometry":{"type":"MultiLineString","coordinates":[[[-3.0755115,53.3847191],[-3.0761106,53.386013],[-3.0754213,53.3861809],[-3.0753264,53.3862018]]]}},
{"type":"Feature","properties":{"highway":"footway","name":null,"category":"Footpath (pedestrian only)"},"geometry":{"type":"MultiLineString","coordinates":[[[-3.0819741,53.3880855],[-3.0817014,53.3877083]]]}},
{"type":"Feature","properties":{"highway":"footway","name":null,"category":"Footpath (pedestrian only)"},"geometry":{"type":"MultiLineString","coordinates":[[[-3.0736466,53.3881378],[-3.0739909,53.3880383],[-3.0740275,53.38809],[-3.0742182,53.3880429],[-3.0743107,53.3881716],[-3.0744743,53.3882568]]]}},
{"type":"Feature","properties":{"highway":"footway","name":null,"category":"Footpath (pedestrian only)"},"geometry":{"type":"MultiLineString","coordinates":[[[-3.0568581,53.4006746],[-3.0569159,53.4007178],[-3.0572178,53.4006114],[-3.0573402,53.4005331],[-3.0576071,53.4004335],[-3.0576539,53.400416],[-3.0575922,53.4002299],[-3.0577836,53.4002005],[-3.0576971,53.3999609],[-3.0573277,53.4000087]]]}},
{"type":"Feature","properties":{"highway":"footway","name":null,"category":"Footpath (pedestrian only)"},"geometry":{"type":"MultiLineString","coordinates":[[[-3.0571443,53.4002741],[-3.0572715,53.4002388],[-3.0573953,53.40022]]]}},
{"type":"Feature","properties":{"highway":"footway","name":null,"category":"Footpath (pedestrian only)"},"geometry":{"type":"MultiLineString","coordinates":[[[-3.0575922,53.4002299],[-3.0574496,53.400251],[-3.0575316,53.4003286],[-3.0575058,53.4003407],[-3.0576071,53.4004335]]]}},
{"type":"Feature","properties":{"highway":"footway","name":null,"category":"Footpath (pedestrian only)"},"geometry":{"type":"MultiLineString","coordinates":[[[-3.0572195,53.4004053],[-3.0571836,53.4004217],[-3.0571213,53.4004581],[-3.0570734,53.4004858],[-3.0570354,53.4005046],[-3.0569399,53.4004111]]]}},
{"type":"Feature","properties":{"highway":"footway","name":null,"category":"Footpath (pedestrian only)"},"geometry":{"type":"MultiLineString","coordinates":[[[-3.0573402,53.4005331],[-3.0572195,53.4004053],[-3.0572588,53.4003932],[-3.0571443,53.4002741],[-3.0571185,53.4003069],[-3.0570006,53.4003464],[-3.0569793,53.4003912],[-3.0569399,53.4004111],[-3.056657,53.4005252]]]}},
{"type":"Feature","properties":{"highway":"footway","name":null,"category":"Footpath (pedestrian only)"},"geometry":{"type":"MultiLineString","coordinates":[[[-3.0576971,53.3999609],[-3.0577189,53.3999567],[-3.0578737,53.3997664],[-3.0578272,53.3996446],[-3.0578022,53.3995793],[-3.0577452,53.3995599]]]}},
{"type":"Feature","properties":{"highway":"footway","name":null,"category":"Footpath (pedestrian only)"},"geometry":{"type":"MultiLineString","coordinates":[[[-3.0611757,53.3987037],[-3.0611993,53.3987899],[-3.0612398,53.398841],[-3.0613175,53.3989106],[-3.0613826,53.3989347],[-3.0614,53.3989508],[-3.0613992,53.3989687],[-3.0613762,53.3989957],[-3.061377,53.3990617],[-3.0612703,53.3991083]]]}},
{"type":"Feature","properties":{"highway":"footway","name":null,"category":"Footpath (pedestrian only)"},"geometry":{"type":"MultiLineString","coordinates":[[[-3.0663697,53.4002606],[-3.0663104,53.4002751],[-3.0661676,53.4002533],[-3.0661041,53.4002552],[-3.0660073,53.4003157],[-3.0657724,53.4006762],[-3.0656257,53.4008176],[-3.0655067,53.4008886],[-3.0653638,53.4009349],[-3.0651036,53.4009879],[-3.0647307,53.4010059],[-3.0644165,53.4009955],[-3.0641801,53.4009785],[-3.0639714,53.4009368],[-3.0637033,53.400863],[-3.0635843,53.4008129],[-3.0629638,53.400609],[-3.0626274,53.4005026],[-3.0622593,53.4003427],[-3.0621216,53.4003757]]]}},
{"type":"Feature","properties":{"highway":"footway","name":null,"category":"Footpath (pedestrian only)"},"geometry":{"type":"MultiLineString","coordinates":[[[-3.0622935,53.3984718],[-3.0621653,53.3984724],[-3.0618825,53.3984729],[-3.0617305,53.3984857],[-3.061556,53.3985098],[-3.0613696,53.3985541],[-3.0612997,53.3985813],[-3.061245,53.3986135],[-3.061191,53.3986686],[-3.0611757,53.3987037],[-3.0611617,53.3987356],[-3.0611358,53.3987457],[-3.0611065,53.3987996],[-3.0610954,53.3988729],[-3.0611041,53.398921],[-3.0611192,53.3989735],[-3.0611763,53.3990466],[-3.0612144,53.3990839],[-3.0612703,53.3991083],[-3.0612794,53.3991123],[-3.0613334,53.3991532],[-3.0614702,53.3992017],[-3.0615956,53.3992391],[-3.0617329,53.3992727],[-3.0619138,53.399303]]]}},
{"type":"Feature","properties":{"highway":"footway","name":null,"category":"Footpath (pedestrian only)"},"geometry":{"type":"MultiLineString","coordinates":[[[-3.0656177,53.3976791],[-3.0656363,53.39783],[-3.0656544,53.3979774],[-3.0656622,53.3980179],[-3.0656989,53.3980702],[-3.0657411,53.3981094],[-3.0657956,53.3981339],[-3.065879,53.3981584],[-3.0659824,53.3981677],[-3.0660791,53.3981568]]]}},
{"type":"Feature","properties":{"highway":"footway","name":null,"category":"Footpath (pedestrian only)"},"geometry":{"type":"MultiLineString","coordinates":[[[-3.065631,53.3974176],[-3.0657122,53.3974146],[-3.0657689,53.3974173],[-3.0658434,53.3974298],[-3.0659201,53.397457],[-3.065979,53.3974862],[-3.0660213,53.3975326],[-3.0660457,53.3976572],[-3.0656177,53.3976791],[-3.0655799,53.3974514]]]}},
{"type":"Feature","properties":{"highway":"footway","name":null,"category":"Footpath (pedestrian only)"},"geometry":{"type":"MultiLineString","coordinates":[[[-3.0663612,53.3988598],[-3.0663515,53.3990457],[-3.0663348,53.3992731],[-3.0663148,53.3995356],[-3.0662692,53.3994846],[-3.0662314,53.3994488],[-3.066168,53.3994289],[-3.0660591,53.3994077],[-3.0658667,53.399403],[-3.0657467,53.399411],[-3.0656889,53.3994057],[-3.0656598,53.399405],[-3.0656325,53.3993991],[-3.0656097,53.3993884],[-3.0655934,53.399374],[-3.0655855,53.3993573],[-3.0654654,53.3984866],[-3.064935,53.3985118],[-3.0649,53.3985141]]]}},
{"type":"Feature","properties":{"highway":"footway","name":null,"category":"Footpath (pedestrian only)"},"geometry":{"type":"MultiLineString","coordinates":[[[-3.0645503,53.3964109],[-3.0646047,53.3967776]]]}},
{"type":"Feature","properties":{"highway":"footway","name":null,"category":"Footpath (pedestrian only)"},"geometry":{"type":"MultiLineString","coordinates":[[[-3.0647961,53.397873],[-3.0656363,53.39783]]]}},
{"type":"Feature","properties":{"highway":"footway","name":null,"category":"Footpath (pedestrian only)"},"geometry":{"type":"MultiLineString","coordinates":[[[-3.0646649,53.39746],[-3.0638849,53.3975041]]]}},
{"type":"Feature","properties":{"highway":"footway","name":null,"category":"Footpath (pedestrian only)"},"geometry":{"type":"MultiLineString","coordinates":[[[-3.0646626,53.3971494],[-3.0646047,53.3967776]]]}},
{"type":"Feature","properties":{"highway":"footway","name":null,"category":"Footpath (pedestrian only)"},"geometry":{"type":"MultiLineString","coordinates":[[[-3.0655743,53.3973871],[-3.0655554,53.3972664]]]}},
{"type":"Feature","properties":{"highway":"footway","name":null,"category":"Footpath (pedestrian only)"},"geometry":{"type":"MultiLineString","coordinates":[[[-3.0644636,53.396094],[-3.0636798,53.3961338]]]}},
{"type":"Feature","properties":{"highway":"footway","name":null,"category":"Footpath (pedestrian only)"},"geometry":{"type":"MultiLineString","coordinates":[[[-3.0638321,53.3974766],[-3.0638154,53.3973513]]]}},
{"type":"Feature","properties":{"highway":"footway","name":null,"category":"Footpath (pedestrian only)"},"geometry":{"type":"MultiLineString","coordinates":[[[-3.0661247,53.3981249],[-3.0660457,53.3976572]]]}},
{"type":"Feature","properties":{"highway":"footway","name":null,"category":"Footpath (pedestrian only)"},"geometry":{"type":"MultiLineString","coordinates":[[[-3.0647594,53.3978949],[-3.0648494,53.3984872]]]}},
{"type":"Feature","properties":{"highway":"footway","name":null,"category":"Footpath (pedestrian only)"},"geometry":{"type":"MultiLineString","coordinates":[[[-3.0668336,53.3981182],[-3.0668902,53.3984853],[-3.0668918,53.3985809],[-3.0668431,53.3986962],[-3.066766,53.3987993],[-3.0667204,53.3989475],[-3.0667173,53.3990684],[-3.0667251,53.3991364],[-3.0668022,53.3992939],[-3.0668478,53.3994298],[-3.0668242,53.3997589],[-3.0668236,53.3998174],[-3.0668226,53.3999164],[-3.0667692,53.3999876],[-3.0666056,53.4000687],[-3.0664846,53.4000931],[-3.0663368,53.4000978],[-3.0662721,53.4000961],[-3.0662267,53.400095],[-3.0661355,53.4001193],[-3.0660758,53.40017]]]}},
{"type":"Feature","properties":{"highway":"footway","name":null,"category":"Footpath (pedestrian only)"},"geometry":{"type":"MultiLineString","coordinates":[[[-3.0632628,53.3969621],[-3.0632515,53.3968441],[-3.0631794,53.3963187]]]}},
{"type":"Feature","properties":{"highway":"footway","name":null,"category":"Footpath (pedestrian only)"},"geometry":{"type":"MultiLineString","coordinates":[[[-3.063786,53.3975081],[-3.0633529,53.3975309],[-3.0633307,53.3973752]]]}},
{"type":"Feature","properties":{"highway":"footway","name":null,"category":"Footpath (pedestrian only)"},"geometry":{"type":"MultiLineString","coordinates":[[[-3.0653386,53.3960522],[-3.0645759,53.396088],[-3.0645548,53.39609]]]}},
{"type":"Feature","properties":{"highway":"footway","name":null,"category":"Footpath (pedestrian only)"},"geometry":{"type":"MultiLineString","coordinates":[[[-3.0635942,53.3961371],[-3.0631528,53.3961623],[-3.0631461,53.3961252]]]}},
{"type":"Feature","properties":{"highway":"footway","name":null,"category":"Footpath (pedestrian only)"},"geometry":{"type":"MultiLineString","coordinates":[[[-3.0645426,53.3963486],[-3.0645286,53.3962484],[-3.0645125,53.3961192]]]}},
{"type":"Feature","properties":{"highway":"footway","name":null,"category":"Footpath (pedestrian only)"},"geometry":{"type":"MultiLineString","coordinates":[[[-3.0661781,53.3981521],[-3.0668336,53.3981182],[-3.0668273,53.3980404]]]}},
{"type":"Feature","properties":{"highway":"footway","name":null,"category":"Footpath (pedestrian only)"},"geometry":{"type":"MultiLineString","coordinates":[[[-3.0648044,53.3985174],[-3.0640867,53.3985562],[-3.0640422,53.3985601]]]}},
{"type":"Feature","properties":{"highway":"footway","name":null,"category":"Footpath (pedestrian only)"},"geometry":{"type":"MultiLineString","coordinates":[[[-3.0662721,53.4000961],[-3.0663115,53.3995792],[-3.0663148,53.3995356]]]}},
{"type":"Feature","properties":{"highway":"footway","name":null,"category":"Footpath (pedestrian only)"},"geometry":{"type":"MultiLineString","coordinates":[[[-3.0636397,53.396161],[-3.0636586,53.3962926],[-3.0637386,53.3968202]]]}},
{"type":"Feature","properties":{"highway":"footway","name":null,"category":"Footpath (pedestrian only)"},"geometry":{"type":"MultiLineString","coordinates":[[[-3.0639633,53.3985621],[-3.0635319,53.398586],[-3.0631361,53.3986079]]]}},
{"type":"Feature","properties":{"highway":"footway","name":null,"category":"Footpath (pedestrian only)"},"geometry":{"type":"MultiLineString","coordinates":[[[-3.0654341,53.3964374],[-3.0654038,53.3962039],[-3.0653875,53.3960781]]]}},
{"type":"Feature","properties":{"highway":"footway","name":null,"category":"Footpath (pedestrian only)"},"geometry":{"type":"MultiLineString","coordinates":[[[-3.0655232,53.3974209],[-3.0647738,53.3974574],[-3.0647449,53.397456]]]}},
{"type":"Feature","properties":{"highway":"footway","name":null,"category":"Footpath (pedestrian only)"},"geometry":{"type":"MultiLineString","coordinates":[[[-3.0639433,53.3979168],[-3.0646826,53.3978803],[-3.0647227,53.397873]]]}},
{"type":"Feature","properties":{"highway":"footway","name":null,"category":"Footpath (pedestrian only)"},"geometry":{"type":"MultiLineString","coordinates":[[[-3.0630216,53.3971524],[-3.0633029,53.3971385],[-3.0633307,53.3973752],[-3.0638154,53.3973513]]]}},
{"type":"Feature","properties":{"highway":"footway","name":null,"category":"Footpath (pedestrian only)"},"geometry":{"type":"MultiLineString","coordinates":[[[-3.0638499,53.3979168],[-3.063821,53.3979148],[-3.0634407,53.3979168],[-3.0627203,53.3979241]]]}},
{"type":"Feature","properties":{"highway":"footway","name":null,"category":"Footpath (pedestrian only)"},"geometry":{"type":"MultiLineString","coordinates":[[[-3.0647015,53.3974342],[-3.0646838,53.3973082],[-3.0655554,53.3972664],[-3.0655239,53.3970248]]]}},
{"type":"Feature","properties":{"highway":"footway","name":null,"category":"Footpath (pedestrian only)"},"geometry":{"type":"MultiLineString","coordinates":[[[-3.0646704,53.3972064],[-3.0646838,53.3973082],[-3.0638154,53.3973513],[-3.0637386,53.3968202]]]}},
{"type":"Feature","properties":{"highway":"footway","name":null,"category":"Footpath (pedestrian only)"},"geometry":{"type":"MultiLineString","coordinates":[[[-3.0631528,53.3961623],[-3.0631794,53.3963187],[-3.0636586,53.3962926],[-3.0645286,53.3962484],[-3.0654038,53.3962039]]]}},
{"type":"Feature","properties":{"highway":"footway","name":null,"category":"Footpath (pedestrian only)"},"geometry":{"type":"MultiLineString","coordinates":[[[-3.0635319,53.398586],[-3.0634407,53.3979168],[-3.0634118,53.3977487],[-3.0633696,53.397638],[-3.0633529,53.3975309]]]}},
{"type":"Feature","properties":{"highway":"footway","name":null,"category":"Footpath (pedestrian only)"},"geometry":{"type":"MultiLineString","coordinates":[[[-3.0663115,53.3995792],[-3.0664107,53.399585],[-3.0665239,53.3995981],[-3.0666685,53.3996543],[-3.0667503,53.399719],[-3.0668236,53.3998174]]]}},
{"type":"Feature","properties":{"highway":"footway","name":null,"category":"Footpath (pedestrian only)"},"geometry":{"type":"MultiLineString","coordinates":[[[-3.063976,53.3985785],[-3.0639633,53.3985621],[-3.0639737,53.3985452],[-3.0640011,53.3985376],[-3.0640295,53.3985438],[-3.0640422,53.3985601],[-3.0640318,53.3985771],[-3.0640044,53.3985847],[-3.063976,53.3985785]]]}},
{"type":"Feature","properties":{"highway":"footway","name":null,"category":"Footpath (pedestrian only)"},"geometry":{"type":"MultiLineString","coordinates":[[[-3.0645122,53.3964034],[-3.0644942,53.3963821],[-3.0645067,53.3963593],[-3.0645426,53.3963486],[-3.0645806,53.3963561],[-3.0645987,53.3963774],[-3.0645861,53.3964001],[-3.0645503,53.3964109],[-3.0645122,53.3964034]]]}},
{"type":"Feature","properties":{"highway":"footway","name":null,"category":"Footpath (pedestrian only)"},"geometry":{"type":"MultiLineString","coordinates":[[[-3.0646355,53.3971997],[-3.0646187,53.3971803],[-3.06463,53.3971594],[-3.0646626,53.3971494],[-3.0646976,53.3971561],[-3.0647143,53.3971756],[-3.0647031,53.3971964],[-3.0646704,53.3972064],[-3.0646355,53.3971997]]]}},
{"type":"Feature","properties":{"highway":"footway","name":null,"category":"Footpath (pedestrian only)"},"geometry":{"type":"MultiLineString","coordinates":[[[-3.0636087,53.3961547],[-3.0635942,53.3961371],[-3.0636047,53.3961186],[-3.0636342,53.3961099],[-3.0636653,53.3961162],[-3.0636798,53.3961338],[-3.0636692,53.3961523],[-3.0636397,53.396161],[-3.0636087,53.3961547]]]}},
{"type":"Feature","properties":{"highway":"footway","name":null,"category":"Footpath (pedestrian only)"},"geometry":{"type":"MultiLineString","coordinates":[[[-3.0655409,53.3974431],[-3.0655232,53.3974209],[-3.065537,53.3973977],[-3.0655743,53.3973871],[-3.0656133,53.3973953],[-3.065631,53.3974176],[-3.0656172,53.3974408],[-3.0655799,53.3974514],[-3.0655409,53.3974431]]]}},
{"type":"Feature","properties":{"highway":"footway","name":null,"category":"Footpath (pedestrian only)"},"geometry":{"type":"MultiLineString","coordinates":[[[-3.0660963,53.3981769],[-3.0660791,53.3981568],[-3.0660908,53.3981352],[-3.0661247,53.3981249],[-3.0661608,53.3981319],[-3.0661781,53.3981521],[-3.0661663,53.3981737],[-3.0661325,53.3981839],[-3.0660963,53.3981769]]]}},
{"type":"Feature","properties":{"highway":"footway","name":null,"category":"Footpath (pedestrian only)"},"geometry":{"type":"MultiLineString","coordinates":[[[-3.0638632,53.3979438],[-3.0638499,53.3979168],[-3.0638601,53.3979035],[-3.0638932,53.3978942],[-3.0639277,53.3979016],[-3.0639433,53.3979168],[-3.0639308,53.397942],[-3.0638977,53.3979512],[-3.0638632,53.3979438]]]}},
{"type":"Feature","properties":{"highway":"footway","name":null,"category":"Footpath (pedestrian only)"},"geometry":{"type":"MultiLineString","coordinates":[[[-3.0648204,53.3985371],[-3.0648044,53.3985174],[-3.0648164,53.3984967],[-3.0648494,53.3984872],[-3.064884,53.3984944],[-3.0649,53.3985141],[-3.064888,53.3985347],[-3.064855,53.3985442],[-3.0648204,53.3985371]]]}},
{"type":"Feature","properties":{"highway":"footway","name":null,"category":"Footpath (pedestrian only)"},"geometry":{"type":"MultiLineString","coordinates":[[[-3.0646789,53.3974763],[-3.0646649,53.39746],[-3.0646742,53.3974426],[-3.0647015,53.3974342],[-3.0647308,53.3974397],[-3.0647449,53.397456],[-3.0647355,53.3974735],[-3.0647082,53.3974819],[-3.0646789,53.3974763]]]}},
{"type":"Feature","properties":{"highway":"footway","name":null,"category":"Footpath (pedestrian only)"},"geometry":{"type":"MultiLineString","coordinates":[[[-3.0647334,53.3978885],[-3.0647227,53.397873],[-3.0647334,53.3978576],[-3.0647594,53.3978511],[-3.0647853,53.3978576],[-3.0647961,53.397873],[-3.0647853,53.3978885],[-3.0647594,53.3978949],[-3.0647334,53.3978885]]]}},
{"type":"Feature","properties":{"highway":"footway","name":null,"category":"Footpath (pedestrian only)"},"geometry":{"type":"MultiLineString","coordinates":[[[-3.0653541,53.3960712],[-3.0653386,53.3960522],[-3.0653502,53.3960323],[-3.065382,53.3960231],[-3.0654154,53.39603],[-3.0654309,53.3960489],[-3.0654194,53.3960689],[-3.0653875,53.3960781],[-3.0653541,53.3960712]]]}},
{"type":"Feature","properties":{"highway":"footway","name":null,"category":"Footpath (pedestrian only)"},"geometry":{"type":"MultiLineString","coordinates":[[[-3.0644793,53.3961126],[-3.0644636,53.396094],[-3.0644746,53.3960742],[-3.0645059,53.3960648],[-3.0645391,53.3960714],[-3.0645548,53.39609],[-3.0645438,53.3961098],[-3.0645125,53.3961192],[-3.0644793,53.3961126]]]}},
{"type":"Feature","properties":{"highway":"footway","name":null,"category":"Footpath (pedestrian only)"},"geometry":{"type":"MultiLineString","coordinates":[[[-3.0638028,53.3975284],[-3.063786,53.3975081],[-3.0637981,53.3974866],[-3.0638321,53.3974766],[-3.0638681,53.3974838],[-3.0638849,53.3975041],[-3.0638728,53.3975255],[-3.0638388,53.3975356],[-3.0638028,53.3975284]]]}},
{"type":"Feature","properties":{"highway":"footway","name":null,"category":"Footpath (pedestrian only)"},"geometry":{"type":"MultiLineString","coordinates":[[[-3.0661325,53.3981839],[-3.0662103,53.3986629],[-3.0662481,53.3987491],[-3.0662892,53.3988015],[-3.0663612,53.3988598],[-3.0663971,53.398889],[-3.066635,53.399065],[-3.0666706,53.3990845],[-3.0667251,53.3991364]]]}},
{"type":"Feature","properties":{"highway":"footway","name":null,"category":"Footpath (pedestrian only)"},"geometry":{"type":"MultiLineString","coordinates":[[[-3.0625059,53.3947163],[-3.0623563,53.3946628],[-3.0622707,53.3946507],[-3.0620923,53.3946521],[-3.0619497,53.394616],[-3.0617879,53.3945734],[-3.0617166,53.394567],[-3.0616179,53.394577],[-3.0613791,53.394642]]]}},
{"type":"Feature","properties":{"highway":"footway","name":null,"category":"Footpath (pedestrian only)"},"geometry":{"type":"MultiLineString","coordinates":[[[-3.0578272,53.3996446],[-3.0581719,53.3996007]]]}},
{"type":"Feature","properties":{"highway":"footway","name":null,"category":"Footpath (pedestrian only)"},"geometry":{"type":"MultiLineString","coordinates":[[[-3.0573906,53.3996775],[-3.0572973,53.3995166],[-3.0571664,53.3995189]]]}},
{"type":"Feature","properties":{"highway":"footway","name":null,"category":"Footpath (pedestrian only)"},"geometry":{"type":"MultiLineString","coordinates":[[[-3.0572973,53.3995166],[-3.0573045,53.3994909],[-3.0574296,53.3993362]]]}},
{"type":"Feature","properties":{"highway":"footway","name":null,"category":"Footpath (pedestrian only)"},"geometry":{"type":"MultiLineString","coordinates":[[[-3.0572557,53.3997055],[-3.0571729,53.3995579],[-3.0571664,53.3995189],[-3.0571621,53.399493],[-3.0571729,53.3994702],[-3.0572935,53.3993001]]]}},
{"type":"Feature","properties":{"highway":"footway","name":null,"category":"Footpath (pedestrian only)"},"geometry":{"type":"MultiLineString","coordinates":[[[-3.0831506,53.3911805],[-3.0831658,53.3914716],[-3.0831811,53.3917709]]]}},
{"type":"Feature","properties":{"highway":"footway","name":null,"category":"Footpath (pedestrian only)"},"geometry":{"type":"MultiLineString","coordinates":[[[-3.0833752,53.3917694],[-3.0831811,53.3917709],[-3.0828365,53.3917737]]]}},
{"type":"Feature","properties":{"highway":"footway","name":null,"category":"Footpath (pedestrian only)"},"geometry":{"type":"MultiLineString","coordinates":[[[-3.0726356,53.4069895],[-3.072709,53.407148],[-3.0728408,53.4072749],[-3.0731213,53.4074643],[-3.0732666,53.4075489],[-3.0734322,53.4076113],[-3.073591,53.4076496],[-3.0737397,53.4076698],[-3.0745373,53.4077322],[-3.0746386,53.4077221],[-3.0748374,53.4076802],[-3.0750678,53.4076315],[-3.0753044,53.4075811],[-3.0754058,53.4075711],[-3.0755274,53.4075791],[-3.0756355,53.4076033],[-3.0757942,53.4077135]]]}},
{"type":"Feature","properties":{"highway":"footway","name":null,"category":"Footpath (pedestrian only)"},"geometry":{"type":"MultiLineString","coordinates":[[[-3.0748374,53.4076802],[-3.0746724,53.4074623],[-3.0743784,53.4072689],[-3.0741115,53.4070795],[-3.0739864,53.4069546],[-3.0738817,53.4068176],[-3.0737769,53.4066162],[-3.0737532,53.4065698],[-3.0737431,53.4065275],[-3.07376,53.4064852],[-3.0738377,53.4063321],[-3.073837,53.4063139],[-3.0738343,53.4062415],[-3.0737194,53.4060662],[-3.0735898,53.4059685]]]}},
{"type":"Feature","properties":{"highway":"footway","name":null,"category":"Footpath (pedestrian only)"},"geometry":{"type":"MultiLineString","coordinates":[[[-3.073837,53.4063139],[-3.0741858,53.4063785],[-3.0744967,53.4064993],[-3.0747806,53.4066726],[-3.0751151,53.4069103],[-3.0755004,53.4071359],[-3.0755274,53.4071802],[-3.0755071,53.4072427],[-3.0754159,53.4073152],[-3.0752875,53.4074059],[-3.0751929,53.4075005],[-3.0750678,53.4076315]]]}},
{"type":"Feature","properties":{"highway":"track","name":null,"category":"Track"},"geometry":{"type":"MultiLineString","coordinates":[[[-3.0749877,53.4092027],[-3.0752582,53.4092546],[-3.0752841,53.40926],[-3.0755494,53.4092835],[-3.075609,53.409286]]]}},
{"type":"Feature","properties":{"highway":"footway","name":null,"category":"Footpath (pedestrian only)"},"geometry":{"type":"MultiLineString","coordinates":[[[-3.0713384,53.4081977],[-3.071383,53.4082059],[-3.0724915,53.4084096],[-3.0736035,53.408614],[-3.0742995,53.4087419],[-3.0744967,53.4087781]]]}},
{"type":"Feature","properties":{"highway":"footway","name":null,"category":"Footpath (pedestrian only)"},"geometry":{"type":"MultiLineString","coordinates":[[[-3.0594688,53.4016424],[-3.0594041,53.4016604],[-3.0593417,53.4016756],[-3.0593873,53.4017224],[-3.0593216,53.4017425],[-3.0592753,53.4017568],[-3.0592565,53.4017696]]]}},
{"type":"Feature","properties":{"highway":"footway","name":null,"category":"Footpath (pedestrian only)"},"geometry":{"type":"MultiLineString","coordinates":[[[-3.0721052,53.3933807],[-3.0724155,53.3928994],[-3.0719971,53.3924324],[-3.0716859,53.3918118],[-3.0717416,53.3917613],[-3.0718542,53.3916888]]]}},
{"type":"Feature","properties":{"highway":"footway","name":null,"category":"Footpath (pedestrian only)"},"geometry":{"type":"MultiLineString","coordinates":[[[-3.073969,53.4024298],[-3.0736439,53.4023158],[-3.0733381,53.4021335],[-3.0731074,53.4019448],[-3.0728017,53.4014267],[-3.0726622,53.4012892],[-3.0724055,53.4008501]]]}},
{"type":"Feature","properties":{"highway":"footway","name":null,"category":"Footpath (pedestrian only)"},"geometry":{"type":"MultiLineString","coordinates":[[[-3.0729882,53.3954625],[-3.0730588,53.395478],[-3.0735098,53.3956568]]]}},
{"type":"Feature","properties":{"highway":"footway","name":null,"category":"Footpath (pedestrian only)"},"geometry":{"type":"MultiLineString","coordinates":[[[-3.0721052,53.3933807],[-3.071938,53.3929872],[-3.0719004,53.3928712],[-3.0718522,53.3927809],[-3.0717163,53.3927395],[-3.0716672,53.3927123],[-3.0716556,53.3925957],[-3.0714779,53.3923415],[-3.0709516,53.3918601]]]}},
{"type":"Feature","properties":{"highway":"footway","name":null,"category":"Footpath (pedestrian only)"},"geometry":{"type":"MultiLineString","coordinates":[[[-3.0717993,53.3936414],[-3.0718097,53.3937328],[-3.0720798,53.3940626],[-3.0721966,53.3942949],[-3.0723005,53.3944714],[-3.0729882,53.3954625]]]}},
{"type":"Feature","properties":{"highway":"footway","name":null,"category":"Footpath (pedestrian only)"},"geometry":{"type":"MultiLineString","coordinates":[[[-3.0734313,53.3962308],[-3.0734433,53.396365],[-3.0734459,53.3963943],[-3.0734515,53.3964563],[-3.0737083,53.3969056],[-3.0736762,53.3973854],[-3.0736332,53.3979899],[-3.0736754,53.3982036],[-3.0736279,53.3984025],[-3.0738585,53.3989814],[-3.0740449,53.3991877],[-3.0741053,53.3993461],[-3.0741267,53.399643],[-3.0742269,53.4001455],[-3.0742703,53.4002562],[-3.0743081,53.4003524],[-3.0744347,53.4004153],[-3.074482,53.4005166],[-3.0745988,53.4009293],[-3.0742984,53.4017736],[-3.0741268,53.4021638],[-3.073969,53.4024298],[-3.073939,53.4024804],[-3.0737351,53.4031825]]]}},
{"type":"Feature","properties":{"highway":"footway","name":null,"category":"Footpath (pedestrian only)"},"geometry":{"type":"MultiLineString","coordinates":[[[-3.0798796,53.3960485],[-3.0797953,53.3959607],[-3.0797497,53.3958567],[-3.0797149,53.3955625],[-3.0797122,53.3954185],[-3.0797766,53.3951562],[-3.0798854,53.3949178]]]}},
{"type":"Feature","properties":{"highway":"footway","name":null,"category":"Footpath (pedestrian only)"},"geometry":{"type":"MultiLineString","coordinates":[[[-3.080246,53.3927187],[-3.080254,53.3931282],[-3.0802781,53.3931537],[-3.0802781,53.3933457],[-3.0803398,53.3934672],[-3.0803774,53.3937439],[-3.0803988,53.3937711],[-3.0804337,53.3937839],[-3.0805061,53.3937839],[-3.0806644,53.3937727],[-3.0806939,53.3937599],[-3.0807127,53.3937327],[-3.0807261,53.3937088],[-3.0812878,53.3936631]]]}},
{"type":"Feature","properties":{"highway":"footway","name":null,"category":"Footpath (pedestrian only)"},"geometry":{"type":"MultiLineString","coordinates":[[[-3.0725647,53.4070392],[-3.0725941,53.4070405],[-3.0725911,53.4070562],[-3.0725291,53.4070552],[-3.0721851,53.4079262],[-3.0721344,53.4079301],[-3.0721038,53.4079796]]]}},
{"type":"Feature","properties":{"highway":"footway","name":"Tyrer Street","category":"Footpath (pedestrian only)"},"geometry":{"type":"MultiLineString","coordinates":[[[-3.0588589,53.4038524],[-3.058814,53.4038696],[-3.0587657,53.4038812],[-3.0587214,53.4038844],[-3.0586544,53.4038856],[-3.0585129,53.4038848],[-3.0584029,53.4038818],[-3.0582245,53.403878],[-3.0581586,53.4038774],[-3.0581327,53.4038732],[-3.0580844,53.4038628],[-3.0580294,53.4038456],[-3.0578765,53.4037832],[-3.0577961,53.4037465],[-3.0576801,53.4036861],[-3.0576137,53.4036485],[-3.0575118,53.4035858],[-3.0573532,53.4034898],[-3.0571999,53.4033919],[-3.0571416,53.4033475],[-3.0569734,53.4032551]]]}},
{"type":"Feature","properties":{"highway":"footway","name":null,"category":"Footpath (pedestrian only)"},"geometry":{"type":"MultiLineString","coordinates":[[[-3.0575362,53.4033782],[-3.0575657,53.4034116],[-3.0575958,53.4034431],[-3.0576355,53.4034696],[-3.0576661,53.403483],[-3.0577602,53.403522],[-3.0577937,53.4035317],[-3.057847,53.4035418],[-3.0579082,53.4035476],[-3.0579738,53.4035446],[-3.0580328,53.4035355],[-3.0580797,53.4035238],[-3.0581173,53.4035042],[-3.0581473,53.4034808],[-3.0581816,53.4034522],[-3.0582138,53.4034075],[-3.058217,53.4033498],[-3.058213,53.4032996],[-3.0582031,53.4032535],[-3.0581648,53.4032015],[-3.0581324,53.4031589],[-3.0579734,53.4030914],[-3.0578825,53.4030616],[-3.0578189,53.4030505],[-3.0577605,53.4030445],[-3.0577076,53.4030423],[-3.0576546,53.4030501],[-3.0576094,53.403066],[-3.0575687,53.4030854],[-3.0575232,53.4031145],[-3.057497,53.403144],[-3.0574819,53.40317],[-3.0574744,53.4031933],[-3.0574755,53.4032208],[-3.0574867,53.4032644],[-3.0574987,53.403303],[-3.0575104,53.4033313],[-3.0575362,53.4033782]]]}},
{"type":"Feature","properties":{"highway":"footway","name":null,"category":"Footpath (pedestrian only)"},"geometry":{"type":"MultiLineString","coordinates":[[[-3.0582985,53.4023666],[-3.0584559,53.4023604],[-3.0584976,53.4023571],[-3.0585075,53.4024242],[-3.0585184,53.4025322],[-3.0585317,53.4026147],[-3.0585384,53.4026547],[-3.0585345,53.4026917],[-3.0585182,53.4027322],[-3.0584942,53.402768],[-3.0584545,53.4028218],[-3.0584096,53.402865],[-3.0583615,53.4029184],[-3.0582728,53.4029921],[-3.0582022,53.4030381],[-3.0581596,53.4030803],[-3.0581324,53.4031589]]]}},
{"type":"Feature","properties":{"highway":"footway","name":null,"category":"Footpath (pedestrian only)"},"geometry":{"type":"MultiLineString","coordinates":[[[-3.0582138,53.4034075],[-3.0582252,53.403563],[-3.0582233,53.4036443],[-3.0582185,53.4037197],[-3.0582111,53.4037568],[-3.0582004,53.4037856],[-3.0581699,53.4038442],[-3.0581618,53.403868],[-3.0581586,53.4038774]]]}},
{"type":"Feature","properties":{"highway":"path","name":null,"category":"Shared path"},"geometry":{"type":"MultiLineString","coordinates":[[[-3.0811426,53.3941315],[-3.081203,53.394107],[-3.0812384,53.3940926],[-3.0813813,53.3940633]]]}},
{"type":"Feature","properties":{"highway":"footway","name":null,"category":"Footpath (pedestrian only)"},"geometry":{"type":"MultiLineString","coordinates":[[[-3.054059,53.3950642],[-3.0540181,53.3950559],[-3.0538634,53.3949902],[-3.0538052,53.3949452],[-3.0538023,53.3948669],[-3.0539403,53.3948076],[-3.053831,53.3947196],[-3.053826,53.394705],[-3.05383,53.3946922]]]}},
{"type":"Feature","properties":{"highway":"path","name":null,"category":"Shared path"},"geometry":{"type":"MultiLineString","coordinates":[[[-3.0837964,53.4063587],[-3.0837922,53.4063378],[-3.083867,53.4059625],[-3.0838887,53.405852],[-3.0839067,53.4054926],[-3.0839721,53.4052286],[-3.0841798,53.4045157],[-3.0842234,53.4044931],[-3.0842936,53.4044931],[-3.084525,53.4045383],[-3.0845553,53.4045383],[-3.0845724,53.4045236],[-3.0845458,53.404501],[-3.0842974,53.4043733],[-3.084294,53.4043542]]]}},
{"type":"Feature","properties":{"highway":"path","name":null,"category":"Shared path"},"geometry":{"type":"MultiLineString","coordinates":[[[-3.0781182,53.4069138],[-3.0789973,53.4071005],[-3.0790423,53.4071005],[-3.0791581,53.4070871],[-3.0799451,53.4069186],[-3.0813003,53.4066185],[-3.0816082,53.4065247],[-3.0816611,53.40647]]]}},
{"type":"Feature","properties":{"highway":"footway","name":null,"category":"Footpath (pedestrian only)"},"geometry":{"type":"MultiLineString","coordinates":[[[-3.0826537,53.3987125],[-3.0826031,53.3987803],[-3.0825438,53.3988327],[-3.0824649,53.398895]]]}},
{"type":"Feature","properties":{"highway":"footway","name":null,"category":"Footpath (pedestrian only)"},"geometry":{"type":"MultiLineString","coordinates":[[[-3.073939,53.4024804],[-3.0740148,53.4024985],[-3.0741481,53.402545],[-3.0743152,53.4025669],[-3.0743702,53.4025766],[-3.0747257,53.4027291]]]}},
{"type":"Feature","properties":{"highway":"footway","name":null,"category":"Footpath (pedestrian only)"},"geometry":{"type":"MultiLineString","coordinates":[[[-3.0686125,53.3940758],[-3.0687372,53.3940446]]]}},
{"type":"Feature","properties":{"highway":"footway","name":null,"category":"Footpath (pedestrian only)"},"geometry":{"type":"MultiLineString","coordinates":[[[-3.0680949,53.3954476],[-3.0680918,53.3953805],[-3.0679046,53.3948369],[-3.0679061,53.3947717],[-3.0679087,53.3946621],[-3.0679398,53.3945717]]]}},
{"type":"Feature","properties":{"highway":"path","name":null,"category":"Shared path"},"geometry":{"type":"MultiLineString","coordinates":[[[-3.0715176,53.3969342],[-3.0716543,53.3970506],[-3.0716656,53.3971606],[-3.0717634,53.3972997],[-3.0717672,53.3973984],[-3.0717822,53.3974725],[-3.0717935,53.3975308],[-3.07185,53.3975824],[-3.0723166,53.397809],[-3.0724329,53.3978767],[-3.0724709,53.3978988],[-3.0725386,53.3980155],[-3.072644,53.3981187],[-3.0727005,53.3982488],[-3.0728171,53.3983476],[-3.0729451,53.3984194],[-3.0730504,53.3984553],[-3.0732725,53.3984373],[-3.0736279,53.3984025]]]}},
{"type":"Feature","properties":{"highway":"path","name":null,"category":"Shared path"},"geometry":{"type":"MultiLineString","coordinates":[[[-3.0734459,53.3963943],[-3.0733265,53.3963992],[-3.0732845,53.3964553],[-3.0731652,53.3965455],[-3.0731316,53.3966126],[-3.0730812,53.3966837],[-3.0730629,53.3967487],[-3.0730679,53.3968487],[-3.0730453,53.3968905],[-3.0729753,53.3969308],[-3.072755,53.3971368],[-3.0726674,53.3972204],[-3.0726448,53.3973308],[-3.0726724,53.3973696],[-3.0726448,53.397407],[-3.0726023,53.3975428],[-3.0725422,53.3976697],[-3.0725172,53.3977831],[-3.0724329,53.3978767],[-3.0723394,53.3979577],[-3.0721342,53.3981756],[-3.0721542,53.3983055],[-3.0720816,53.3984234],[-3.0720891,53.3987249],[-3.0721367,53.3988204],[-3.0720791,53.3991368],[-3.0721402,53.3993233],[-3.0721642,53.3993965],[-3.0721642,53.3997592],[-3.0723094,53.3998965],[-3.0723444,53.4001652],[-3.0722919,53.4002413],[-3.0723223,53.4008443]]]}},
{"type":"Feature","properties":{"highway":"path","name":null,"category":"Shared path"},"geometry":{"type":"MultiLineString","coordinates":[[[-3.0721402,53.3993233],[-3.0719139,53.3994652],[-3.0718263,53.3995025],[-3.0718062,53.3995547],[-3.0718313,53.399607],[-3.0717987,53.3997204],[-3.0717011,53.399792],[-3.0715634,53.4000278],[-3.071606,53.4004084],[-3.0715534,53.4004786],[-3.0714633,53.4005084],[-3.0713582,53.4005248],[-3.0711678,53.4007027]]]}},
{"type":"Feature","properties":{"highway":"path","name":null,"category":"Shared path"},"geometry":{"type":"MultiLineString","coordinates":[[[-3.0731074,53.4019448],[-3.0728701,53.4018662],[-3.0726334,53.4017458],[-3.0723389,53.4016494],[-3.0722927,53.4012466],[-3.0723223,53.4008443]]]}},
{"type":"Feature","properties":{"highway":"footway","name":null,"category":"Footpath (pedestrian only)"},"geometry":{"type":"MultiLineString","coordinates":[[[-3.0723223,53.4008443],[-3.0730835,53.4003913],[-3.0735066,53.4003844],[-3.0739638,53.4003236]]]}},
{"type":"Feature","properties":{"highway":"footway","name":null,"category":"Footpath (pedestrian only)"},"geometry":{"type":"MultiLineString","coordinates":[[[-3.0740662,53.4003201],[-3.0742703,53.4002562]]]}},
{"type":"Feature","properties":{"highway":"footway","name":null,"category":"Footpath (pedestrian only)"},"geometry":{"type":"MultiLineString","coordinates":[[[-3.0744307,53.4002452],[-3.0743388,53.4002353],[-3.0742703,53.4002562]]]}},
{"type":"Feature","properties":{"highway":"footway","name":null,"category":"Footpath (pedestrian only)"},"geometry":{"type":"MultiLineString","coordinates":[[[-3.0745137,53.4002533],[-3.0746422,53.4003534],[-3.0748614,53.4004121],[-3.0749249,53.4006697],[-3.075322,53.4008288],[-3.0754045,53.4010769],[-3.0757952,53.4011924],[-3.0765648,53.4015604]]]}},
{"type":"Feature","properties":{"highway":"track","name":null,"category":"Track"},"geometry":{"type":"MultiLineString","coordinates":[[[-3.0667815,53.3965373],[-3.0662145,53.3964906],[-3.0659836,53.3965221]]]}},
{"type":"Feature","properties":{"highway":"footway","name":null,"category":"Footpath (pedestrian only)"},"geometry":{"type":"MultiLineString","coordinates":[[[-3.0587081,53.4048669],[-3.0588079,53.4044103],[-3.0588056,53.4043903],[-3.0587932,53.4043733],[-3.058767,53.4043645],[-3.0587395,53.4043605],[-3.0587026,53.4043605],[-3.0580958,53.4043953],[-3.058073,53.4044009],[-3.0580462,53.4044121],[-3.0579939,53.4044596],[-3.0579738,53.404468],[-3.0579476,53.40447],[-3.0579168,53.404466],[-3.0576003,53.4043409],[-3.0574561,53.4042773],[-3.0573978,53.4042438],[-3.0573126,53.4041914],[-3.0569994,53.4039659],[-3.056919,53.4039156],[-3.0566145,53.4037289],[-3.0565663,53.4037101],[-3.0565133,53.4036977],[-3.0564623,53.4036881],[-3.0564047,53.4036833],[-3.0563597,53.4036865],[-3.0563296,53.4036941],[-3.0563088,53.4037041],[-3.0561555,53.403811]]]}},
{"type":"Feature","properties":{"highway":"footway","name":null,"category":"Footpath (pedestrian only)"},"geometry":{"type":"MultiLineString","coordinates":[[[-3.0610087,53.4019723],[-3.0598127,53.4019523],[-3.0597564,53.4019527],[-3.0596897,53.4019565],[-3.05962,53.4019683],[-3.0595831,53.4019811],[-3.0594818,53.4020418],[-3.0593957,53.4021102],[-3.0593524,53.4021318],[-3.0592827,53.4021596],[-3.0592324,53.4021753],[-3.0591801,53.4021873],[-3.0590969,53.4021973],[-3.0590393,53.4022049],[-3.0590037,53.4022161],[-3.0589689,53.4022373],[-3.0589581,53.4022625],[-3.0589554,53.4022881],[-3.0589789,53.4025028],[-3.0590771,53.4034584]]]}},
{"type":"Feature","properties":{"highway":"footway","name":null,"category":"Footpath (pedestrian only)"},"geometry":{"type":"MultiLineString","coordinates":[[[-3.0589689,53.4022373],[-3.0589326,53.4022237],[-3.0589094,53.4021743],[-3.058879,53.4021045],[-3.0588629,53.4020674],[-3.0588589,53.402043]]]}},
{"type":"Feature","properties":{"highway":"footway","name":null,"category":"Footpath (pedestrian only)"},"geometry":{"type":"MultiLineString","coordinates":[[[-3.0586108,53.4018347],[-3.0586081,53.4018607],[-3.0586141,53.4018891],[-3.0586255,53.4019147],[-3.0586631,53.4019559],[-3.058714,53.4019918],[-3.0587751,53.4020218],[-3.0588589,53.402043],[-3.0589367,53.4020574],[-3.0590138,53.4020614],[-3.0590708,53.4020598],[-3.0591325,53.4020506],[-3.0591854,53.4020338],[-3.0592263,53.4020126],[-3.0592572,53.4019922],[-3.059282,53.4019659],[-3.0593048,53.4019367],[-3.0593182,53.4019071],[-3.0593202,53.4018763],[-3.0593088,53.4018355],[-3.0592565,53.4017696],[-3.0592116,53.4017488],[-3.0590858,53.4017125],[-3.0590178,53.4016928],[-3.0589769,53.4016836],[-3.058936,53.4016792],[-3.0588891,53.4016776],[-3.0588334,53.4016834],[-3.0587771,53.401695],[-3.0587318,53.4017128],[-3.0586929,53.4017312],[-3.0586564,53.4017558],[-3.0586329,53.4017838],[-3.0586108,53.4018347]]]}},
{"type":"Feature","properties":{"highway":"footway","name":null,"category":"Footpath (pedestrian only)"},"geometry":{"type":"MultiLineString","coordinates":[[[-3.0584351,53.4019942],[-3.0584882,53.4019823],[-3.0585283,53.4019711],[-3.058584,53.4020422],[-3.0586422,53.4020236],[-3.0586892,53.4020066],[-3.058714,53.4019918]]]}},
{"type":"Feature","properties":{"highway":"footway","name":null,"category":"Footpath (pedestrian only)"},"geometry":{"type":"MultiLineString","coordinates":[[[-3.0594714,53.4015931],[-3.0594647,53.4016167],[-3.0594688,53.4016424],[-3.0594838,53.4016646],[-3.0595144,53.401691],[-3.0595757,53.401732],[-3.0596173,53.4017544],[-3.0596669,53.40177],[-3.0597132,53.40178],[-3.0597762,53.4017856],[-3.0598942,53.4017864],[-3.0611589,53.4018063]]]}},
{"type":"Feature","properties":{"highway":"footway","name":null,"category":"Footpath (pedestrian only)"},"geometry":{"type":"MultiLineString","coordinates":[[[-3.0598942,53.4017864],[-3.0598914,53.4018323],[-3.0598895,53.4018631],[-3.0598159,53.4018628],[-3.0598147,53.4018964],[-3.0598127,53.4019523]]]}},
{"type":"Feature","properties":{"highway":"footway","name":null,"category":"Footpath (pedestrian only)"},"geometry":{"type":"MultiLineString","coordinates":[[[-3.0589554,53.4022881],[-3.0588248,53.4023158],[-3.0587724,53.4023269],[-3.058757,53.4022961],[-3.0586978,53.4023103],[-3.0586265,53.4023182],[-3.0586076,53.4023239],[-3.0584976,53.4023571]]]}},
{"type":"Feature","properties":{"highway":"footway","name":null,"category":"Footpath (pedestrian only)"},"geometry":{"type":"MultiLineString","coordinates":[[[-3.0581586,53.4038774],[-3.0581477,53.4039082],[-3.058133,53.4039467]]]}},
{"type":"Feature","properties":{"highway":"footway","name":null,"category":"Footpath (pedestrian only)"},"geometry":{"type":"MultiLineString","coordinates":[[[-3.0573532,53.4034898],[-3.0572771,53.4035348],[-3.0574304,53.4036312],[-3.0574611,53.4036505],[-3.0574725,53.4036605],[-3.0574806,53.4036749],[-3.0574796,53.4036889],[-3.0574708,53.4037019],[-3.0574561,53.4037143],[-3.0571966,53.4038666],[-3.0571758,53.4038734],[-3.0571584,53.4038762],[-3.0571346,53.403877],[-3.0571127,53.4038748]]]}},
{"type":"Feature","properties":{"highway":"footway","name":null,"category":"Footpath (pedestrian only)"},"geometry":{"type":"MultiLineString","coordinates":[[[-3.0584029,53.4038818],[-3.0583996,53.4039467],[-3.0583647,53.4039463],[-3.0583385,53.4039499],[-3.0583171,53.4039575],[-3.0583023,53.4039659],[-3.0582916,53.4039767],[-3.0582849,53.4039891],[-3.0582842,53.4040031],[-3.0582862,53.4040611],[-3.058245,53.4040604],[-3.0581675,53.4040595],[-3.0581669,53.4039815],[-3.0581622,53.4039699],[-3.0581501,53.4039571],[-3.058133,53.4039467],[-3.0580339,53.4039228],[-3.0579707,53.4039036],[-3.057905,53.4038796],[-3.0578356,53.4038496],[-3.0576385,53.4037552],[-3.0576214,53.4037493],[-3.0576056,53.4037458],[-3.0575887,53.4037448],[-3.0575741,53.4037459],[-3.0575582,53.4037494],[-3.057268,53.4039187],[-3.0572589,53.4039285],[-3.0572522,53.4039407],[-3.0572539,53.4039537],[-3.0572593,53.4039639]]]}},
{"type":"Feature","properties":{"highway":"footway","name":null,"category":"Footpath (pedestrian only)"},"geometry":{"type":"MultiLineString","coordinates":[[[-3.0570206,53.4032235],[-3.0569313,53.4031728],[-3.0568555,53.4031298]]]}},
{"type":"Feature","properties":{"highway":"footway","name":null,"category":"Footpath (pedestrian only)"},"geometry":{"type":"MultiLineString","coordinates":[[[-3.0577625,53.4023037],[-3.0579027,53.4023784],[-3.0579476,53.4023824],[-3.0579878,53.4023764],[-3.0584163,53.402071],[-3.0584535,53.4020623],[-3.0584774,53.4020567]]]}},
{"type":"Feature","properties":{"highway":"footway","name":null,"category":"Footpath (pedestrian only)"},"geometry":{"type":"MultiLineString","coordinates":[[[-3.0585554,53.4021929],[-3.0585404,53.402203],[-3.0582985,53.4023666],[-3.0575462,53.4028714],[-3.0570206,53.4032235],[-3.0569734,53.4032551],[-3.0566702,53.4034558],[-3.0566534,53.403475],[-3.0566447,53.4035034],[-3.0566447,53.4035354],[-3.0566548,53.4035638],[-3.0566783,53.4035973],[-3.0567064,53.4036277],[-3.0571127,53.4038748],[-3.0571849,53.4039187],[-3.0572593,53.4039639],[-3.0575057,53.4041138],[-3.0575728,53.4041514],[-3.0576392,53.4041798],[-3.0576834,53.4041938],[-3.0577324,53.404203],[-3.0582557,53.4042402],[-3.0583345,53.404244],[-3.0584837,53.4042446],[-3.058699,53.4042414],[-3.0587771,53.4042354],[-3.0588532,53.4041744],[-3.0589098,53.403896],[-3.0589045,53.4038796],[-3.0588763,53.4038612],[-3.0588589,53.4038524],[-3.0588696,53.4037584],[-3.0588669,53.4036581],[-3.0589239,53.4036013],[-3.0589072,53.4032615],[-3.0588871,53.4030545],[-3.0588852,53.4030376],[-3.0588803,53.4029929],[-3.0588683,53.4029401],[-3.0588535,53.4028989],[-3.0588347,53.4028546],[-3.0587912,53.4027794],[-3.0587724,53.4027342],[-3.0587456,53.4026675],[-3.0587442,53.4026447],[-3.0587436,53.4025603],[-3.0587395,53.4025343],[-3.0587322,53.4025044],[-3.0586265,53.4023182],[-3.0585554,53.4021929],[-3.0584907,53.4020789],[-3.0584774,53.4020567],[-3.0584572,53.4020262],[-3.0584351,53.4019942],[-3.0584036,53.4019647],[-3.0583761,53.4019439],[-3.0583352,53.4019227],[-3.0582876,53.4019067],[-3.0582091,53.4018963],[-3.0559514,53.4018575],[-3.0557495,53.402045],[-3.0556624,53.402139],[-3.0553083,53.4024788],[-3.0553056,53.4024956],[-3.0553123,53.4025132],[-3.0553259,53.4025262],[-3.055714,53.4026811],[-3.0557928,53.4026727],[-3.0559191,53.4025495],[-3.0562075,53.4022681],[-3.056239,53.4022497],[-3.0562746,53.4022357],[-3.0563162,53.4022277],[-3.0563772,53.4022177],[-3.0577082,53.4022421],[-3.0577411,53.4022469],[-3.0577585,53.4022569],[-3.0577699,53.4022797],[-3.0577625,53.4023037],[-3.057735,53.4023198],[-3.0576924,53.4023446],[-3.0576351,53.402378],[-3.0576009,53.40238],[-3.0575775,53.4023744],[-3.0575661,53.4023656],[-3.0575647,53.4023465],[-3.0575634,53.4023257],[-3.05755,53.4023105],[-3.0575292,53.4023025],[-3.056412,53.4022829],[-3.0563685,53.4022853],[-3.0563182,53.4022997],[-3.0562799,53.4023233],[-3.0558729,53.4027174],[-3.0558722,53.402733],[-3.0558816,53.402749],[-3.055889,53.4027618],[-3.0562491,53.4029175],[-3.0562846,53.4029185],[-3.0563145,53.4029093],[-3.0565475,53.4027278],[-3.0565663,53.4027106],[-3.0565716,53.4026911],[-3.0565703,53.4026595],[-3.0565797,53.4026471],[-3.0566038,53.4026311],[-3.0566434,53.4026207],[-3.0566709,53.4026195],[-3.0567071,53.4026231],[-3.0567413,53.4026343],[-3.0567641,53.4026487],[-3.0567755,53.4026707],[-3.0567762,53.4026875],[-3.0567627,53.402709],[-3.0567446,53.4027234],[-3.0567198,53.402735],[-3.0566662,53.4027426],[-3.0566394,53.4027522],[-3.056398,53.4029509],[-3.056406,53.4029861],[-3.0567681,53.4031504],[-3.0568338,53.4031444],[-3.0568555,53.4031298],[-3.0578269,53.4024768],[-3.057839,53.402464],[-3.0578497,53.4024456],[-3.0578443,53.4024252],[-3.0577478,53.4023732],[-3.0576924,53.4023446]]]}},
{"type":"Feature","properties":{"highway":"path","name":null,"category":"Shared path"},"geometry":{"type":"MultiLineString","coordinates":[[[-3.077694,53.4073935],[-3.0776186,53.4074058],[-3.0775675,53.407402]]]}},
{"type":"Feature","properties":{"highway":"path","name":null,"category":"Shared path"},"geometry":{"type":"MultiLineString","coordinates":[[[-3.0734192,53.4058239],[-3.0734667,53.4057851],[-3.0735795,53.4056929],[-3.0736331,53.4056522],[-3.0738176,53.4056728],[-3.0739204,53.4057204],[-3.07392,53.4057372],[-3.073914,53.4057569],[-3.0739913,53.4057992],[-3.0741298,53.4057931],[-3.0741566,53.4058582],[-3.0741637,53.40587]]]}},
{"type":"Feature","properties":{"highway":"path","name":null,"category":"Shared path"},"geometry":{"type":"MultiLineString","coordinates":[[[-3.0859737,53.4057281],[-3.0859038,53.4058126],[-3.0854221,53.4060263],[-3.0847165,53.4062683],[-3.0843808,53.4063791],[-3.0842196,53.4064152],[-3.0840622,53.4064265],[-3.0839086,53.4064028],[-3.083832,53.4063874],[-3.0838083,53.4063736]]]}},
{"type":"Feature","properties":{"highway":"footway","name":null,"category":"Footpath (pedestrian only)"},"geometry":{"type":"MultiLineString","coordinates":[[[-3.0653502,53.3960323],[-3.0652638,53.3959046],[-3.0651826,53.3957669],[-3.0650494,53.395748],[-3.0648274,53.3957109],[-3.0645394,53.3957306],[-3.0638162,53.395776],[-3.0631361,53.3958009],[-3.0630752,53.3959772],[-3.0631196,53.3960044],[-3.0631311,53.3960627],[-3.0631082,53.396102],[-3.0631461,53.3961252]]]}},
{"type":"Feature","properties":{"highway":"footway","name":null,"category":"Footpath (pedestrian only)"},"geometry":{"type":"MultiLineString","coordinates":[[[-3.0729882,53.3954625],[-3.0726381,53.395369],[-3.0723991,53.3953169],[-3.0721937,53.3952536],[-3.0720237,53.3951552],[-3.0715727,53.3950342],[-3.0710723,53.3949157],[-3.0704313,53.3948677],[-3.0696405,53.3948304],[-3.0691067,53.3947958],[-3.0685371,53.3947798],[-3.0682288,53.3947771],[-3.0679061,53.3947717],[-3.0675649,53.3947043]]]}},
{"type":"Feature","properties":{"highway":"footway","name":null,"category":"Footpath (pedestrian only)"},"geometry":{"type":"MultiLineString","coordinates":[[[-3.0556226,53.3954065],[-3.0555733,53.3953521],[-3.0555625,53.3953402],[-3.0555019,53.3953612],[-3.0554245,53.395308]]]}},
{"type":"Feature","properties":{"highway":"footway","name":null,"category":"Footpath (pedestrian only)"},"geometry":{"type":"MultiLineString","coordinates":[[[-3.076855,53.4035161],[-3.0762689,53.4034206],[-3.0757595,53.4034145],[-3.0750751,53.4034068],[-3.0742131,53.4034344],[-3.07375,53.4033792],[-3.0732131,53.4032067],[-3.073209,53.4030906],[-3.0732347,53.4029731],[-3.0731817,53.4028374],[-3.0730788,53.4027566],[-3.0727183,53.4025923],[-3.0723864,53.4022824],[-3.0723066,53.4019495],[-3.0723389,53.4016494]]]}},
{"type":"Feature","properties":{"highway":"footway","name":null,"category":"Footpath (pedestrian only)"},"geometry":{"type":"MultiLineString","coordinates":[[[-3.064301,53.4039484],[-3.0646788,53.4042499],[-3.0644562,53.4044844],[-3.0644471,53.404522],[-3.0644512,53.4045553],[-3.0644664,53.404585],[-3.0644918,53.4046074],[-3.0645376,53.4046377],[-3.0645741,53.4046516],[-3.0661393,53.4052109],[-3.0661942,53.4052242],[-3.0662644,53.4052357],[-3.0663416,53.405226],[-3.0663894,53.4052145],[-3.0664443,53.4051927],[-3.0664778,53.4051618],[-3.0667319,53.4049098],[-3.06674,53.4048752],[-3.066737,53.4048431],[-3.0667197,53.4048019],[-3.0666831,53.4047625],[-3.0666292,53.4047328],[-3.0665632,53.4047098],[-3.0650437,53.4041699],[-3.0649624,53.4041493],[-3.0648943,53.4041463],[-3.0648181,53.4041554],[-3.0647662,53.4041705],[-3.0647185,53.4042026],[-3.0646788,53.4042499]]]}},
{"type":"Feature","properties":{"highway":"path","name":null,"category":"Shared path"},"geometry":{"type":"MultiLineString","coordinates":[[[-3.063219,53.4044957],[-3.0631358,53.4044558],[-3.0631108,53.4043846]]]}},
{"type":"Feature","properties":{"highway":"path","name":null,"category":"Shared path"},"geometry":{"type":"MultiLineString","coordinates":[[[-3.063219,53.4044957],[-3.0633605,53.404473]]]}},
{"type":"Feature","properties":{"highway":"path","name":null,"category":"Shared path"},"geometry":{"type":"MultiLineString","coordinates":[[[-3.0714228,53.4067078],[-3.071463,53.4066663],[-3.0714725,53.4066596],[-3.0716557,53.4067014],[-3.0716906,53.4066758],[-3.071714,53.4066543]]]}},
{"type":"Feature","properties":{"highway":"footway","name":null,"category":"Footpath (pedestrian only)"},"geometry":{"type":"MultiLineString","coordinates":[[[-3.0725854,53.4069369],[-3.0725742,53.4069922],[-3.0725647,53.4070392]]]}},
{"type":"Feature","properties":{"highway":"footway","name":null,"category":"Footpath (pedestrian only)"},"geometry":{"type":"MultiLineString","coordinates":[[[-3.0792907,53.4041272],[-3.0792851,53.4040965],[-3.0792572,53.4040762],[-3.0791247,53.4040618],[-3.0790209,53.4040481],[-3.0790031,53.4040432],[-3.0789891,53.404033],[-3.0789855,53.4040176],[-3.0789877,53.4039644]]]}},
{"type":"Feature","properties":{"highway":"footway","name":null,"category":"Footpath (pedestrian only)"},"geometry":{"type":"MultiLineString","coordinates":[[[-3.0788014,53.4039099],[-3.0788013,53.4039269]]]}},
{"type":"Feature","properties":{"highway":"footway","name":null,"category":"Footpath (pedestrian only)"},"geometry":{"type":"MultiLineString","coordinates":[[[-3.0788013,53.4039269],[-3.0788013,53.4039649]]]}},
{"type":"Feature","properties":{"highway":"footway","name":null,"category":"Footpath (pedestrian only)"},"geometry":{"type":"MultiLineString","coordinates":[[[-3.0788016,53.4038962],[-3.0788022,53.4038244]]]}},
{"type":"Feature","properties":{"highway":"footway","name":null,"category":"Footpath (pedestrian only)"},"geometry":{"type":"MultiLineString","coordinates":[[[-3.0514841,53.3957168],[-3.0516527,53.3958487]]]}},
{"type":"Feature","properties":{"highway":"footway","name":null,"category":"Footpath (pedestrian only)"},"geometry":{"type":"MultiLineString","coordinates":[[[-3.0523817,53.3957708],[-3.0523622,53.3957687],[-3.0518902,53.3958104],[-3.0516527,53.3958487],[-3.0514088,53.39593],[-3.0512683,53.3960137],[-3.0511172,53.3961522],[-3.0510884,53.3962938],[-3.0514177,53.3965274],[-3.051531,53.3964775],[-3.0521524,53.3961939],[-3.0522918,53.3963151],[-3.0523034,53.3963242]]]}},
{"type":"Feature","properties":{"highway":"footway","name":null,"category":"Footpath (pedestrian only)"},"geometry":{"type":"MultiLineString","coordinates":[[[-3.0539403,53.3948076],[-3.0540143,53.3948679]]]}},
{"type":"Feature","properties":{"highway":"footway","name":null,"category":"Footpath (pedestrian only)"},"geometry":{"type":"MultiLineString","coordinates":[[[-3.0541951,53.3943242],[-3.0542191,53.3943234],[-3.0542864,53.3943203],[-3.0542852,53.3942975],[-3.0549711,53.394266],[-3.0552636,53.39425],[-3.0552706,53.3942917],[-3.0555078,53.3942748],[-3.0555161,53.3942742],[-3.0555336,53.3942724]]]}},
{"type":"Feature","properties":{"highway":"footway","name":null,"category":"Footpath (pedestrian only)"},"geometry":{"type":"MultiLineString","coordinates":[[[-3.0550076,53.3943],[-3.0549711,53.394266]]]}},
{"type":"Feature","properties":{"highway":"footway","name":null,"category":"Footpath (pedestrian only)"},"geometry":{"type":"MultiLineString","coordinates":[[[-3.0550337,53.3943232],[-3.0551439,53.3944245],[-3.0551665,53.3944165],[-3.0552522,53.3944941],[-3.0552248,53.394506],[-3.055244,53.3945234],[-3.0554148,53.3945468]]]}},
{"type":"Feature","properties":{"highway":"footway","name":null,"category":"Footpath (pedestrian only)"},"geometry":{"type":"MultiLineString","coordinates":[[[-3.0552706,53.3942917],[-3.0551804,53.3942966],[-3.0551877,53.3943433]]]}},
{"type":"Feature","properties":{"highway":"footway","name":null,"category":"Footpath (pedestrian only)"},"geometry":{"type":"MultiLineString","coordinates":[[[-3.055623,53.3944045],[-3.055532,53.39441],[-3.0555078,53.3942748]]]}},
{"type":"Feature","properties":{"highway":"footway","name":null,"category":"Footpath (pedestrian only)"},"geometry":{"type":"MultiLineString","coordinates":[[[-3.0551415,53.3947238],[-3.0551595,53.3947372],[-3.0552286,53.3947448],[-3.0553508,53.3948538]]]}},
{"type":"Feature","properties":{"highway":"footway","name":null,"category":"Footpath (pedestrian only)"},"geometry":{"type":"MultiLineString","coordinates":[[[-3.0551266,53.3947155],[-3.0551415,53.3947238]]]}},
{"type":"Feature","properties":{"highway":"footway","name":null,"category":"Footpath (pedestrian only)"},"geometry":{"type":"MultiLineString","coordinates":[[[-3.0530496,53.3935529],[-3.0530077,53.3935536],[-3.0530072,53.3935361]]]}},
{"type":"Feature","properties":{"highway":"footway","name":null,"category":"Footpath (pedestrian only)"},"geometry":{"type":"MultiLineString","coordinates":[[[-3.0530056,53.3934707],[-3.0530049,53.3934516],[-3.0530022,53.3933781],[-3.0529005,53.3933794],[-3.0527765,53.393381],[-3.0526373,53.3933828],[-3.0526342,53.3933059]]]}},
{"type":"Feature","properties":{"highway":"footway","name":null,"category":"Footpath (pedestrian only)"},"geometry":{"type":"MultiLineString","coordinates":[[[-3.0530049,53.3934516],[-3.0527795,53.3934543],[-3.0527765,53.393381]]]}},
{"type":"Feature","properties":{"highway":"footway","name":null,"category":"Footpath (pedestrian only)"},"geometry":{"type":"MultiLineString","coordinates":[[[-3.0530056,53.3934707],[-3.0531491,53.3934686],[-3.0531522,53.3935303],[-3.0531525,53.393537]]]}},
{"type":"Feature","properties":{"highway":"footway","name":null,"category":"Footpath (pedestrian only)"},"geometry":{"type":"MultiLineString","coordinates":[[[-3.0526373,53.3933828],[-3.0526397,53.3934371]]]}},
{"type":"Feature","properties":{"highway":"footway","name":null,"category":"Footpath (pedestrian only)"},"geometry":{"type":"MultiLineString","coordinates":[[[-3.0529005,53.3933794],[-3.0528997,53.3933284]]]}},
{"type":"Feature","properties":{"highway":"footway","name":null,"category":"Footpath (pedestrian only)"},"geometry":{"type":"MultiLineString","coordinates":[[[-3.0530022,53.3933781],[-3.0530905,53.3933769],[-3.0531778,53.3933757]]]}},
{"type":"Feature","properties":{"highway":"footway","name":null,"category":"Footpath (pedestrian only)"},"geometry":{"type":"MultiLineString","coordinates":[[[-3.0530905,53.3933769],[-3.0531767,53.3933163]]]}},
{"type":"Feature","properties":{"highway":"footway","name":null,"category":"Footpath (pedestrian only)"},"geometry":{"type":"MultiLineString","coordinates":[[[-3.0531491,53.3934686],[-3.0531649,53.3934683]]]}},
{"type":"Feature","properties":{"highway":"footway","name":null,"category":"Footpath (pedestrian only)"},"geometry":{"type":"MultiLineString","coordinates":[[[-3.053173,53.393717],[-3.0531692,53.3936256],[-3.0531667,53.3935679],[-3.0531533,53.3935682]]]}},
{"type":"Feature","properties":{"highway":"footway","name":null,"category":"Footpath (pedestrian only)"},"geometry":{"type":"MultiLineString","coordinates":[[[-3.0526189,53.3932281],[-3.0526189,53.3931739],[-3.052758,53.3931726],[-3.0528222,53.393195],[-3.0528839,53.3931856],[-3.0530025,53.3931676],[-3.0531629,53.393167],[-3.0533113,53.3931666],[-3.0534394,53.3932411],[-3.0534425,53.3933157],[-3.0534452,53.3933792],[-3.0534489,53.3934677],[-3.0534557,53.3936289],[-3.0534602,53.3937373]]]}},
{"type":"Feature","properties":{"highway":"footway","name":null,"category":"Footpath (pedestrian only)"},"geometry":{"type":"MultiLineString","coordinates":[[[-3.0531692,53.3936256],[-3.0531864,53.3936256]]]}},
{"type":"Feature","properties":{"highway":"footway","name":null,"category":"Footpath (pedestrian only)"},"geometry":{"type":"MultiLineString","coordinates":[[[-3.0533132,53.3936294],[-3.0534557,53.3936289]]]}},
{"type":"Feature","properties":{"highway":"footway","name":null,"category":"Footpath (pedestrian only)"},"geometry":{"type":"MultiLineString","coordinates":[[[-3.0532819,53.393469],[-3.0534489,53.3934677]]]}},
{"type":"Feature","properties":{"highway":"footway","name":null,"category":"Footpath (pedestrian only)"},"geometry":{"type":"MultiLineString","coordinates":[[[-3.0533029,53.3933802],[-3.0534452,53.3933792]]]}},
{"type":"Feature","properties":{"highway":"footway","name":null,"category":"Footpath (pedestrian only)"},"geometry":{"type":"MultiLineString","coordinates":[[[-3.0533552,53.3933162],[-3.0534425,53.3933157]]]}},
{"type":"Feature","properties":{"highway":"footway","name":null,"category":"Footpath (pedestrian only)"},"geometry":{"type":"MultiLineString","coordinates":[[[-3.0531633,53.3932032],[-3.0531629,53.393167]]]}},
{"type":"Feature","properties":{"highway":"footway","name":null,"category":"Footpath (pedestrian only)"},"geometry":{"type":"MultiLineString","coordinates":[[[-3.052886,53.3932489],[-3.0528839,53.3931856]]]}}
]
}
