{
"type": "FeatureCollection",
"name": "WIRRA_254_walking",
"crs": { "type": "name", "properties": { "name": "urn:ogc:def:crs:OGC:1.3:CRS84" } },
"features": [
{"type":"Feature","properties":{"highway":"path","name":null,"category":"Shared path"},"geometry":{"type":"MultiLineString","coordinates":[[[-3.0238196,53.4173118],[-3.023797,53.4172933],[-3.023703,53.4172163],[-3.0236348,53.4172124],[-3.0235471,53.4171341]]]}},
{"type":"Feature","properties":{"highway":"footway","name":null,"category":"Footpath (pedestrian only)"},"geometry":{"type":"MultiLineString","coordinates":[[[-3.0247819,53.4193279],[-3.0248566,53.4192931],[-3.0249056,53.4192622],[-3.024943,53.4192231],[-3.0249764,53.4191737]]]}},
{"type":"Feature","properties":{"highway":"path","name":null,"category":"Shared path"},"geometry":{"type":"MultiLineString","coordinates":[[[-3.0257786,53.4189882],[-3.0255946,53.4190849],[-3.0253943,53.4191609],[-3.0257054,53.4194446],[-3.0253251,53.4195804]]]}},
{"type":"Feature","properties":{"highway":"footway","name":null,"category":"Footpath (pedestrian only)"},"geometry":{"type":"MultiLineString","coordinates":[[[-3.0240828,53.4182681],[-3.024224,53.418261],[-3.0242797,53.41823],[-3.0243648,53.4181645],[-3.0244649,53.4181158],[-3.0246217,53.4180396],[-3.0246602,53.4180034]]]}},
{"type":"Feature","properties":{"highway":"footway","name":"Bridle Road","category":"Footpath (pedestrian only)"},"geometry":{"type":"MultiLineString","coordinates":[[[-3.0202845,53.4079663],[-3.0205743,53.4076179],[-3.0205988,53.4073248]]]}},
{"type":"Feature","properties":{"highway":"footway","name":null,"category":"Footpath (pedestrian only)"},"geometry":{"type":"MultiLineString","coordinates":[[[-3.0323264,53.4104727],[-3.0322298,53.4105877],[-3.0322147,53.4106056],[-3.0321234,53.4105784],[-3.0316888,53.4104487],[-3.0316276,53.4104304],[-3.0312292,53.4109045]]]}},
{"type":"Feature","properties":{"highway":"footway","name":null,"category":"Footpath (pedestrian only)"},"geometry":{"type":"MultiLineString","coordinates":[[[-3.0145922,53.4098014],[-3.0161045,53.4095745],[-3.016194,53.409821],[-3.0162277,53.4098171],[-3.0162953,53.4098084]]]}},
{"type":"Feature","properties":{"highway":"footway","name":null,"category":"Footpath (pedestrian only)"},"geometry":{"type":"MultiLineString","coordinates":[[[-3.0229313,53.409374],[-3.0229207,53.4091447],[-3.0228985,53.4087828],[-3.0228813,53.4087829],[-3.0228098,53.4088043]]]}},
{"type":"Feature","properties":{"highway":"footway","name":null,"category":"Footpath (pedestrian only)"},"geometry":{"type":"MultiLineString","coordinates":[[[-3.0222975,53.4088183],[-3.0222591,53.4085508],[-3.022255,53.4084209],[-3.022315,53.4084102]]]}},
{"type":"Feature","properties":{"highway":"footway","name":null,"category":"Footpath (pedestrian only)"},"geometry":{"type":"MultiLineString","coordinates":[[[-3.0280369,53.4187131],[-3.0282131,53.4189045],[-3.0282312,53.418909],[-3.0282831,53.4189221],[-3.02849,53.4191493],[-3.028499,53.4191593],[-3.0283343,53.4191694],[-3.0280735,53.4192569],[-3.027597,53.4194169]]]}},
{"type":"Feature","properties":{"highway":"footway","name":null,"category":"Footpath (pedestrian only)"},"geometry":{"type":"MultiLineString","coordinates":[[[-3.0281402,53.4141133],[-3.0280373,53.4141575],[-3.0261864,53.4149522],[-3.0252661,53.4153473],[-3.0252237,53.4153655],[-3.0243999,53.4157192]]]}},
{"type":"Feature","properties":{"highway":"footway","name":null,"category":"Footpath (pedestrian only)"},"geometry":{"type":"MultiLineString","coordinates":[[[-3.0228813,53.4087829],[-3.0228738,53.4085345],[-3.0232059,53.4085255],[-3.0232067,53.4082755],[-3.0232068,53.408248],[-3.0232908,53.4082463],[-3.0232804,53.4080731],[-3.0229512,53.4080826],[-3.0229475,53.408032],[-3.0229284,53.407768]]]}},
{"type":"Feature","properties":{"highway":"footway","name":null,"category":"Footpath (pedestrian only)"},"geometry":{"type":"MultiLineString","coordinates":[[[-3.0228738,53.4085345],[-3.0222591,53.4085508]]]}},
{"type":"Feature","properties":{"highway":"footway","name":null,"category":"Footpath (pedestrian only)"},"geometry":{"type":"MultiLineString","coordinates":[[[-3.0229475,53.408032],[-3.0222916,53.4080501]]]}},
{"type":"Feature","properties":{"highway":"footway","name":null,"category":"Footpath (pedestrian only)"},"geometry":{"type":"MultiLineString","coordinates":[[[-3.0232067,53.4082755],[-3.0227965,53.4082885],[-3.0227899,53.4082407],[-3.0222987,53.4082566]]]}},
{"type":"Feature","properties":{"highway":"path","name":null,"category":"Shared path"},"geometry":{"type":"MultiLineString","coordinates":[[[-3.0202028,53.4112298],[-3.0199597,53.4111881],[-3.0198144,53.4111712],[-3.0196955,53.4111857],[-3.0193596,53.4112414],[-3.0191986,53.4112713]]]}},
{"type":"Feature","properties":{"highway":"path","name":null,"category":"Shared path"},"geometry":{"type":"MultiLineString","coordinates":[[[-3.0197737,53.4137676],[-3.0191735,53.4132372],[-3.0191719,53.4131863],[-3.0191552,53.4131688],[-3.0188987,53.4130756],[-3.0188753,53.4130845],[-3.0192354,53.4134659],[-3.0192104,53.4134776],[-3.0190725,53.4133877],[-3.018835,53.4132013],[-3.018798,53.4132171]]]}},
{"type":"Feature","properties":{"highway":"footway","name":null,"category":"Footpath (pedestrian only)"},"geometry":{"type":"MultiLineString","coordinates":[[[-3.0179974,53.4122066],[-3.0178941,53.4122368],[-3.0177447,53.4123964]]]}},
{"type":"Feature","properties":{"highway":"footway","name":null,"category":"Footpath (pedestrian only)"},"geometry":{"type":"MultiLineString","coordinates":[[[-3.0237908,53.4122755],[-3.0241757,53.4123626],[-3.0245062,53.4124375],[-3.0254446,53.4126597]]]}},
{"type":"Feature","properties":{"highway":"footway","name":null,"category":"Footpath (pedestrian only)"},"geometry":{"type":"MultiLineString","coordinates":[[[-3.0226892,53.4135443],[-3.0226612,53.4135512],[-3.0226075,53.4135644],[-3.0220512,53.4137014]]]}},
{"type":"Feature","properties":{"highway":"footway","name":null,"category":"Footpath (pedestrian only)"},"geometry":{"type":"MultiLineString","coordinates":[[[-3.0287038,53.4190811],[-3.0286981,53.41916]]]}},
{"type":"Feature","properties":{"highway":"footway","name":null,"category":"Footpath (pedestrian only)"},"geometry":{"type":"MultiLineString","coordinates":[[[-3.0282312,53.418909],[-3.0280655,53.4189641]]]}},
{"type":"Feature","properties":{"highway":"footway","name":null,"category":"Footpath (pedestrian only)"},"geometry":{"type":"MultiLineString","coordinates":[[[-3.0280735,53.4192569],[-3.0278546,53.4190228]]]}},
{"type":"Feature","properties":{"highway":"footway","name":null,"category":"Footpath (pedestrian only)"},"geometry":{"type":"MultiLineString","coordinates":[[[-3.0278126,53.4110765],[-3.027758,53.4109477]]]}},
{"type":"Feature","properties":{"highway":"footway","name":null,"category":"Footpath (pedestrian only)"},"geometry":{"type":"MultiLineString","coordinates":[[[-3.0252661,53.4153473],[-3.0254486,53.4154974],[-3.0254813,53.4155243]]]}},
{"type":"Feature","properties":{"highway":"footway","name":null,"category":"Footpath (pedestrian only)"},"geometry":{"type":"MultiLineString","coordinates":[[[-3.0252237,53.4153655],[-3.0250608,53.4152236],[-3.0250349,53.415201]]]}},
{"type":"Feature","properties":{"highway":"footway","name":null,"category":"Footpath (pedestrian only)"},"geometry":{"type":"MultiLineString","coordinates":[[[-3.0271356,53.4116004],[-3.0275755,53.4113645]]]}},
{"type":"Feature","properties":{"highway":"footway","name":null,"category":"Footpath (pedestrian only)"},"geometry":{"type":"MultiLineString","coordinates":[[[-3.0261864,53.4149522],[-3.0263646,53.4151015],[-3.0263933,53.4151256]]]}},
{"type":"Feature","properties":{"highway":"footway","name":null,"category":"Footpath (pedestrian only)"},"geometry":{"type":"MultiLineString","coordinates":[[[-3.0271927,53.41176],[-3.0271356,53.4116004],[-3.0287821,53.4113886]]]}},
{"type":"Feature","properties":{"highway":"footway","name":null,"category":"Footpath (pedestrian only)"},"geometry":{"type":"MultiLineString","coordinates":[[[-3.0282903,53.419547],[-3.0281517,53.4194012],[-3.0279428,53.4194718]]]}},
{"type":"Feature","properties":{"highway":"footway","name":null,"category":"Footpath (pedestrian only)"},"geometry":{"type":"MultiLineString","coordinates":[[[-3.0276008,53.411361],[-3.027502,53.4111212],[-3.0274489,53.4109922],[-3.027348,53.4107471]]]}},
{"type":"Feature","properties":{"highway":"footway","name":null,"category":"Footpath (pedestrian only)"},"geometry":{"type":"MultiLineString","coordinates":[[[-3.02849,53.4191493],[-3.0287038,53.4190811],[-3.02848,53.4188196],[-3.0286755,53.4187556]]]}},
{"type":"Feature","properties":{"highway":"footway","name":null,"category":"Footpath (pedestrian only)"},"geometry":{"type":"MultiLineString","coordinates":[[[-3.028499,53.4191593],[-3.0284299,53.4193917],[-3.0285062,53.4194716],[-3.0282903,53.419547],[-3.0282157,53.419573]]]}},
{"type":"Feature","properties":{"highway":"footway","name":null,"category":"Footpath (pedestrian only)"},"geometry":{"type":"MultiLineString","coordinates":[[[-3.027502,53.4111212],[-3.0278126,53.4110765],[-3.0281253,53.4110315],[-3.028073,53.4109024],[-3.027758,53.4109477],[-3.0274489,53.4109922]]]}},
{"type":"Feature","properties":{"highway":"path","name":null,"category":"Shared path"},"geometry":{"type":"MultiLineString","coordinates":[[[-3.0225697,53.4157081],[-3.0223963,53.4154831],[-3.0221925,53.4154111],[-3.0221013,53.4154127],[-3.0218008,53.4154943],[-3.0216158,53.4154367],[-3.0209613,53.4147829],[-3.0209548,53.4147245],[-3.0209533,53.4147109],[-3.0209881,53.4146182],[-3.021074,53.4145095]]]}},
{"type":"Feature","properties":{"highway":"footway","name":null,"category":"Footpath (pedestrian only)"},"geometry":{"type":"MultiLineString","coordinates":[[[-3.021656,53.4079321],[-3.0216614,53.4077627],[-3.0222545,53.4077028]]]}},
{"type":"Feature","properties":{"highway":"path","name":null,"category":"Shared path"},"geometry":{"type":"MultiLineString","coordinates":[[[-3.0222474,53.4104349],[-3.0222604,53.4104912],[-3.02225,53.4106896]]]}},
{"type":"Feature","properties":{"highway":"path","name":null,"category":"Shared path"},"geometry":{"type":"MultiLineString","coordinates":[[[-3.0196861,53.4122757],[-3.0194904,53.4123074],[-3.0193225,53.4123673],[-3.0192248,53.4123798],[-3.0191354,53.4124],[-3.0188895,53.4124802],[-3.0187641,53.4125131],[-3.0185943,53.4125445],[-3.0184323,53.4125711],[-3.0182771,53.4125851]]]}},
{"type":"Feature","properties":{"highway":"path","name":null,"category":"Shared path"},"geometry":{"type":"MultiLineString","coordinates":[[[-3.0215401,53.4105146],[-3.0215621,53.4105623],[-3.0216126,53.4107169]]]}},
{"type":"Feature","properties":{"highway":"footway","name":null,"category":"Footpath (pedestrian only)"},"geometry":{"type":"MultiLineString","coordinates":[[[-3.0222865,53.4079002],[-3.0219537,53.4079289],[-3.0217955,53.4079289],[-3.0217928,53.4079401],[-3.021656,53.4079321],[-3.021568,53.4079841]]]}},
{"type":"Feature","properties":{"highway":"path","name":null,"category":"Shared path"},"geometry":{"type":"MultiLineString","coordinates":[[[-3.0180895,53.4123875],[-3.0181477,53.412404],[-3.0182335,53.4125687],[-3.0182771,53.4125851],[-3.0189622,53.4126504],[-3.019065,53.4126542],[-3.0193059,53.4126528],[-3.0193847,53.412651],[-3.0194718,53.4126323],[-3.0195271,53.4126224],[-3.0196655,53.4126114],[-3.019784,53.4126116],[-3.0198935,53.4126129]]]}},
{"type":"Feature","properties":{"highway":"path","name":null,"category":"Shared path"},"geometry":{"type":"MultiLineString","coordinates":[[[-3.0193847,53.412651],[-3.0193365,53.4126759],[-3.0191025,53.4127797],[-3.0190677,53.4128181],[-3.0189523,53.4128613],[-3.0188665,53.4128884],[-3.0187431,53.4128677],[-3.0186305,53.4128277],[-3.0185581,53.4127398],[-3.0184669,53.4126646],[-3.0182771,53.4125851]]]}},
{"type":"Feature","properties":{"highway":"footway","name":null,"category":"Footpath (pedestrian only)"},"geometry":{"type":"MultiLineString","coordinates":[[[-3.017597,53.411435],[-3.0175617,53.4114639],[-3.0170511,53.411551],[-3.0170132,53.4115443],[-3.0169285,53.4115565]]]}},
{"type":"Feature","properties":{"highway":"footway","name":null,"category":"Footpath (pedestrian only)"},"geometry":{"type":"MultiLineString","coordinates":[[[-3.0221915,53.4091538],[-3.0221535,53.4088233]]]}},
{"type":"Feature","properties":{"highway":"footway","name":null,"category":"Footpath (pedestrian only)"},"geometry":{"type":"MultiLineString","coordinates":[[[-3.0226505,53.4088093],[-3.0226753,53.4091505],[-3.0229207,53.4091447]]]}},
{"type":"Feature","properties":{"highway":"path","name":null,"category":"Shared path"},"geometry":{"type":"MultiLineString","coordinates":[[[-3.0273308,53.4137794],[-3.0275799,53.4138871]]]}},
{"type":"Feature","properties":{"highway":"path","name":null,"category":"Shared path"},"geometry":{"type":"MultiLineString","coordinates":[[[-3.0174209,53.4110513],[-3.0173431,53.4110358],[-3.0172729,53.4108454],[-3.0170403,53.4108759],[-3.0169699,53.410878]]]}},
{"type":"Feature","properties":{"highway":"footway","name":null,"category":"Footpath (pedestrian only)"},"geometry":{"type":"MultiLineString","coordinates":[[[-3.0175417,53.4113271],[-3.0175048,53.4113879],[-3.0175257,53.4114484],[-3.017048,53.4115235],[-3.0170132,53.4115443]]]}},
{"type":"Feature","properties":{"highway":"path","name":null,"category":"Shared path"},"geometry":{"type":"MultiLineString","coordinates":[[[-3.0166681,53.4107977],[-3.0167065,53.4108771],[-3.0167685,53.4108989],[-3.0168415,53.4108894],[-3.0168944,53.4108909],[-3.0169699,53.410878]]]}},
{"type":"Feature","properties":{"highway":"footway","name":null,"category":"Footpath (pedestrian only)"},"geometry":{"type":"MultiLineString","coordinates":[[[-3.0155825,53.4058109],[-3.0154327,53.4058704]]]}},
{"type":"Feature","properties":{"highway":"path","name":null,"category":"Shared path"},"geometry":{"type":"MultiLineString","coordinates":[[[-3.0192369,53.4135001],[-3.0192412,53.4135198],[-3.0193324,53.4135986],[-3.0193788,53.4136255],[-3.0194381,53.4136498],[-3.01971,53.4137706],[-3.0197342,53.413781],[-3.019754,53.4137743],[-3.0197737,53.4137676],[-3.0204792,53.4135281],[-3.0202552,53.4132908],[-3.0201885,53.41322],[-3.0200872,53.4131126],[-3.0200486,53.4130991],[-3.019977,53.4130741],[-3.0199385,53.4130355],[-3.0199162,53.4130048],[-3.0198946,53.4129602],[-3.0198658,53.4129071]]]}},
{"type":"Feature","properties":{"highway":"footway","name":null,"category":"Footpath (pedestrian only)"},"geometry":{"type":"MultiLineString","coordinates":[[[-3.0270445,53.4156963],[-3.026867,53.4155551],[-3.0267979,53.4155001]]]}},
{"type":"Feature","properties":{"highway":"footway","name":null,"category":"Footpath (pedestrian only)"},"geometry":{"type":"MultiLineString","coordinates":[[[-3.0270807,53.412165],[-3.027107,53.412241],[-3.0271304,53.4123087]]]}},
{"type":"Feature","properties":{"highway":"footway","name":null,"category":"Footpath (pedestrian only)"},"geometry":{"type":"MultiLineString","coordinates":[[[-3.0271931,53.4123002],[-3.0271304,53.4123087],[-3.0271191,53.4123103],[-3.027112,53.4123118],[-3.0271072,53.4123142],[-3.027104,53.4123174],[-3.0271023,53.4123214],[-3.0271027,53.4123263],[-3.0271246,53.4123773],[-3.0271725,53.4124885]]]}},
{"type":"Feature","properties":{"highway":"footway","name":null,"category":"Footpath (pedestrian only)"},"geometry":{"type":"MultiLineString","coordinates":[[[-3.0271246,53.4123773],[-3.0270292,53.4123913],[-3.0269364,53.4124049]]]}},
{"type":"Feature","properties":{"highway":"footway","name":null,"category":"Footpath (pedestrian only)"},"geometry":{"type":"MultiLineString","coordinates":[[[-3.0269898,53.4125132],[-3.0269502,53.412422],[-3.0269441,53.4124122],[-3.0269364,53.4124049],[-3.0269199,53.412394],[-3.02689,53.4123799],[-3.0268578,53.412369],[-3.026831,53.412362],[-3.0268158,53.4123589],[-3.026799,53.412358],[-3.0267795,53.4123583],[-3.0267566,53.4123602],[-3.0266149,53.4123808]]]}},
{"type":"Feature","properties":{"highway":"footway","name":null,"category":"Footpath (pedestrian only)"},"geometry":{"type":"MultiLineString","coordinates":[[[-3.026831,53.412362],[-3.0268011,53.4122858],[-3.0267722,53.412212]]]}},
{"type":"Feature","properties":{"highway":"footway","name":null,"category":"Footpath (pedestrian only)"},"geometry":{"type":"MultiLineString","coordinates":[[[-3.0265528,53.4122332],[-3.0266051,53.4122263],[-3.0266752,53.4122259],[-3.0267722,53.412212],[-3.0267924,53.412209],[-3.0268082,53.4122049],[-3.0268221,53.4121988],[-3.0268318,53.4121904],[-3.0268374,53.4121805],[-3.0268395,53.4121653],[-3.026839,53.4121545],[-3.0268377,53.4121428],[-3.0268242,53.4120804]]]}},
{"type":"Feature","properties":{"highway":"footway","name":null,"category":"Footpath (pedestrian only)"},"geometry":{"type":"MultiLineString","coordinates":[[[-3.026839,53.4121545],[-3.026921,53.4121481],[-3.027012,53.4121409]]]}},
{"type":"Feature","properties":{"highway":"footway","name":null,"category":"Footpath (pedestrian only)"},"geometry":{"type":"MultiLineString","coordinates":[[[-3.0269921,53.4120694],[-3.027012,53.4121409],[-3.0270166,53.4121495],[-3.0270243,53.4121563],[-3.0270347,53.4121617],[-3.0270461,53.4121647],[-3.0270592,53.4121659],[-3.0270807,53.412165],[-3.027107,53.4121613],[-3.0271745,53.4121384],[-3.0273722,53.4121107]]]}},
{"type":"Feature","properties":{"highway":"footway","name":null,"category":"Footpath (pedestrian only)"},"geometry":{"type":"MultiLineString","coordinates":[[[-3.022236,53.4046068],[-3.0221227,53.4046074],[-3.02203,53.4046009],[-3.0219584,53.4045986],[-3.0219002,53.4045998],[-3.0218487,53.4046029],[-3.0217737,53.4046114],[-3.0217056,53.4046262],[-3.0216613,53.4046415],[-3.0216358,53.4046559],[-3.021616,53.4046747],[-3.0216074,53.4046907],[-3.0216055,53.4047098],[-3.0216077,53.4047256],[-3.0216143,53.4047414],[-3.0216253,53.4047554]]]}},
{"type":"Feature","properties":{"highway":"footway","name":null,"category":"Footpath (pedestrian only)"},"geometry":{"type":"MultiLineString","coordinates":[[[-3.0216055,53.4047098],[-3.0215054,53.4047645],[-3.0214082,53.4048176]]]}},
{"type":"Feature","properties":{"highway":"footway","name":null,"category":"Footpath (pedestrian only)"},"geometry":{"type":"MultiLineString","coordinates":[[[-3.0214082,53.4048176],[-3.0214116,53.4048569],[-3.0214149,53.4048961]]]}},
{"type":"Feature","properties":{"highway":"path","name":null,"category":"Shared path"},"geometry":{"type":"MultiLineString","coordinates":[[[-3.022052,53.4161908],[-3.0221412,53.4161591]]]}},
{"type":"Feature","properties":{"highway":"path","name":null,"category":"Shared path"},"geometry":{"type":"MultiLineString","coordinates":[[[-3.0228319,53.416232],[-3.0225999,53.4159962],[-3.0223837,53.4157766],[-3.0224704,53.4157463]]]}},
{"type":"Feature","properties":{"highway":"path","name":null,"category":"Shared path"},"geometry":{"type":"MultiLineString","coordinates":[[[-3.0218008,53.4154943],[-3.0217991,53.4155154],[-3.0218043,53.4155347],[-3.021935,53.4156605],[-3.0220101,53.4156851],[-3.0222055,53.4156898],[-3.0223194,53.4156851],[-3.0223544,53.4156774],[-3.0223906,53.4156743],[-3.0224618,53.4156728],[-3.022534,53.415723]]]}},
{"type":"Feature","properties":{"highway":"path","name":null,"category":"Shared path"},"geometry":{"type":"MultiLineString","coordinates":[[[-3.0268282,53.4205829],[-3.0270241,53.4207857],[-3.0270852,53.4207609],[-3.0272988,53.4209622],[-3.0273447,53.4210246],[-3.0274971,53.4211822],[-3.0274929,53.4212375],[-3.0276391,53.4214414],[-3.0277875,53.4216483]]]}},
{"type":"Feature","properties":{"highway":"footway","name":null,"category":"Footpath (pedestrian only)"},"geometry":{"type":"MultiLineString","coordinates":[[[-3.0238286,53.417822],[-3.0239135,53.4177934]]]}},
{"type":"Feature","properties":{"highway":"footway","name":null,"category":"Footpath (pedestrian only)"},"geometry":{"type":"MultiLineString","coordinates":[[[-3.0240612,53.4177427],[-3.0241616,53.4176919]]]}},
{"type":"Feature","properties":{"highway":"path","name":null,"category":"Shared path"},"geometry":{"type":"MultiLineString","coordinates":[[[-3.0225008,53.4157353],[-3.022534,53.415723],[-3.0225697,53.4157081],[-3.0226251,53.4156799]]]}},
{"type":"Feature","properties":{"highway":"footway","name":null,"category":"Footpath (pedestrian only)"},"geometry":{"type":"MultiLineString","coordinates":[[[-3.0238481,53.4155042],[-3.0237491,53.4155413],[-3.0236543,53.4155769]]]}},
{"type":"Feature","properties":{"highway":"path","name":null,"category":"Shared path"},"geometry":{"type":"MultiLineString","coordinates":[[[-3.0225265,53.4160223],[-3.0225999,53.4159962]]]}},
{"type":"Feature","properties":{"highway":"path","name":null,"category":"Shared path"},"geometry":{"type":"MultiLineString","coordinates":[[[-3.0228875,53.4162884],[-3.0228538,53.4162542]]]}},
{"type":"Feature","properties":{"highway":"path","name":null,"category":"Shared path"},"geometry":{"type":"MultiLineString","coordinates":[[[-3.0224217,53.4160595],[-3.0224313,53.4160561],[-3.0224462,53.4160508]]]}},
{"type":"Feature","properties":{"highway":"path","name":null,"category":"Shared path"},"geometry":{"type":"MultiLineString","coordinates":[[[-3.0223173,53.4160966],[-3.0223278,53.4160928],[-3.0223417,53.4160879]]]}},
{"type":"Feature","properties":{"highway":"path","name":null,"category":"Shared path"},"geometry":{"type":"MultiLineString","coordinates":[[[-3.0222131,53.4161336],[-3.022227,53.4161286],[-3.0222418,53.4161234]]]}},
{"type":"Feature","properties":{"highway":"path","name":null,"category":"Shared path"},"geometry":{"type":"MultiLineString","coordinates":[[[-3.0225724,53.4163411],[-3.0223278,53.4160928],[-3.0220832,53.4158439]]]}},
{"type":"Feature","properties":{"highway":"path","name":null,"category":"Shared path"},"geometry":{"type":"MultiLineString","coordinates":[[[-3.0226751,53.4163046],[-3.0224313,53.4160561],[-3.0221888,53.4158085]]]}},
{"type":"Feature","properties":{"highway":"path","name":null,"category":"Shared path"},"geometry":{"type":"MultiLineString","coordinates":[[[-3.022443,53.4163874],[-3.0222649,53.4162148],[-3.0222649,53.4162002]]]}},
{"type":"Feature","properties":{"highway":"path","name":null,"category":"Shared path"},"geometry":{"type":"MultiLineString","coordinates":[[[-3.0221365,53.4160739],[-3.022109,53.4160652],[-3.0219403,53.4159003]]]}},
{"type":"Feature","properties":{"highway":"path","name":null,"category":"Shared path"},"geometry":{"type":"MultiLineString","coordinates":[[[-3.0222649,53.4162002],[-3.0222649,53.4161668],[-3.022227,53.4161286],[-3.0221896,53.4160906],[-3.0221365,53.4160739]]]}},
{"type":"Feature","properties":{"highway":"path","name":null,"category":"Shared path"},"geometry":{"type":"MultiLineString","coordinates":[[[-3.0227541,53.416422],[-3.0226752,53.4164538]]]}},
{"type":"Feature","properties":{"highway":"path","name":null,"category":"Shared path"},"geometry":{"type":"MultiLineString","coordinates":[[[-3.0225651,53.4165689],[-3.0225718,53.416575],[-3.0225087,53.4165998]]]}},
{"type":"Feature","properties":{"highway":"path","name":null,"category":"Shared path"},"geometry":{"type":"MultiLineString","coordinates":[[[-3.022523,53.4165136],[-3.0225097,53.4165188],[-3.0225165,53.4165251]]]}},
{"type":"Feature","properties":{"highway":"path","name":null,"category":"Shared path"},"geometry":{"type":"MultiLineString","coordinates":[[[-3.023797,53.4172933],[-3.0235144,53.4172817],[-3.0234967,53.4172796],[-3.0234795,53.4172766],[-3.0234653,53.417272],[-3.0234514,53.4172663],[-3.0234424,53.4172606],[-3.0233229,53.4171511],[-3.0228556,53.4167276],[-3.0227061,53.416581],[-3.0226072,53.4164805]]]}},
{"type":"Feature","properties":{"highway":"path","name":null,"category":"Shared path"},"geometry":{"type":"MultiLineString","coordinates":[[[-3.0226174,53.4164765],[-3.0226072,53.4164805],[-3.0225977,53.4164843]]]}},
{"type":"Feature","properties":{"highway":"path","name":null,"category":"Shared path"},"geometry":{"type":"MultiLineString","coordinates":[[[-3.0234882,53.4170822],[-3.0233978,53.4171198]]]}},
{"type":"Feature","properties":{"highway":"path","name":null,"category":"Shared path"},"geometry":{"type":"MultiLineString","coordinates":[[[-3.0233371,53.4171452],[-3.0233229,53.4171511]]]}},
{"type":"Feature","properties":{"highway":"path","name":null,"category":"Shared path"},"geometry":{"type":"MultiLineString","coordinates":[[[-3.0193225,53.4123673],[-3.0194405,53.4124008],[-3.0195237,53.4124584],[-3.0195424,53.4125079],[-3.019521,53.4125831],[-3.0194718,53.4126323]]]}},
{"type":"Feature","properties":{"highway":"footway","name":null,"category":"Footpath (pedestrian only)"},"geometry":{"type":"MultiLineString","coordinates":[[[-3.017615,53.4097865],[-3.0175772,53.4097316],[-3.0175506,53.4096929],[-3.0174911,53.4096759],[-3.0174413,53.4096617]]]}},
{"type":"Feature","properties":{"highway":"footway","name":null,"category":"Footpath (pedestrian only)"},"geometry":{"type":"MultiLineString","coordinates":[[[-3.0180794,53.4097325],[-3.0180146,53.4097409],[-3.0179544,53.4097488],[-3.0179235,53.4097627],[-3.0178746,53.4097849]]]}},
{"type":"Feature","properties":{"highway":"footway","name":null,"category":"Footpath (pedestrian only)"},"geometry":{"type":"MultiLineString","coordinates":[[[-3.0169225,53.4098996],[-3.0169373,53.4099396],[-3.0169555,53.4099884]]]}},
{"type":"Feature","properties":{"highway":"footway","name":null,"category":"Footpath (pedestrian only)"},"geometry":{"type":"MultiLineString","coordinates":[[[-3.0171512,53.4099498],[-3.0170993,53.409958],[-3.0170459,53.4099664]]]}},
{"type":"Feature","properties":{"highway":"footway","name":null,"category":"Footpath (pedestrian only)"},"geometry":{"type":"MultiLineString","coordinates":[[[-3.0178746,53.4097849],[-3.0178458,53.409784],[-3.0178006,53.4097826],[-3.0177051,53.4097816],[-3.017615,53.4097865],[-3.017546,53.409795],[-3.017454,53.409815],[-3.017391,53.4098277],[-3.0169225,53.4098996]]]}},
{"type":"Feature","properties":{"highway":"footway","name":null,"category":"Footpath (pedestrian only)"},"geometry":{"type":"MultiLineString","coordinates":[[[-3.0171833,53.4096907],[-3.0174113,53.4096568],[-3.0174413,53.4096617],[-3.0174602,53.4096354],[-3.0175639,53.4093997],[-3.017573,53.4093687]]]}},
{"type":"Feature","properties":{"highway":"footway","name":null,"category":"Footpath (pedestrian only)"},"geometry":{"type":"MultiLineString","coordinates":[[[-3.0171833,53.4096907],[-3.0171226,53.4096989],[-3.0170551,53.409708]]]}},
{"type":"Feature","properties":{"highway":"path","name":null,"category":"Shared path"},"geometry":{"type":"MultiLineString","coordinates":[[[-3.0198702,53.4137031],[-3.0196002,53.4134187],[-3.019364,53.4131699]]]}},
{"type":"Feature","properties":{"highway":"path","name":null,"category":"Shared path"},"geometry":{"type":"MultiLineString","coordinates":[[[-3.0196002,53.4134187],[-3.0200614,53.4132629],[-3.0201885,53.41322]]]}},
{"type":"Feature","properties":{"highway":"path","name":null,"category":"Shared path"},"geometry":{"type":"MultiLineString","coordinates":[[[-3.0203329,53.4135484],[-3.0200614,53.4132629],[-3.0199428,53.4131383],[-3.0198186,53.4130077]]]}},
{"type":"Feature","properties":{"highway":"path","name":null,"category":"Shared path"},"geometry":{"type":"MultiLineString","coordinates":[[[-3.0199428,53.4131383],[-3.0200486,53.4130991]]]}},
{"type":"Feature","properties":{"highway":"path","name":null,"category":"Shared path"},"geometry":{"type":"MultiLineString","coordinates":[[[-3.0191552,53.4131688],[-3.0192671,53.4130528],[-3.0192764,53.4129877],[-3.0193862,53.4129505],[-3.0194585,53.4129119],[-3.0196483,53.4128656],[-3.0198658,53.4129071],[-3.0202214,53.4129749]]]}},
{"type":"Feature","properties":{"highway":"path","name":null,"category":"Shared path"},"geometry":{"type":"MultiLineString","coordinates":[[[-3.019754,53.4137743],[-3.020391,53.4143582]]]}},
{"type":"Feature","properties":{"highway":"path","name":null,"category":"Shared path"},"geometry":{"type":"MultiLineString","coordinates":[[[-3.0192164,53.4134827],[-3.0192104,53.4134776]]]}},
{"type":"Feature","properties":{"highway":"path","name":null,"category":"Shared path"},"geometry":{"type":"MultiLineString","coordinates":[[[-3.0204658,53.4144354],[-3.0206561,53.4146148]]]}},
{"type":"Feature","properties":{"highway":"path","name":null,"category":"Shared path"},"geometry":{"type":"MultiLineString","coordinates":[[[-3.0168944,53.4108909],[-3.0168542,53.4109089],[-3.0166125,53.4109464]]]}},
{"type":"Feature","properties":{"highway":"path","name":null,"category":"Shared path"},"geometry":{"type":"MultiLineString","coordinates":[[[-3.0169699,53.410878],[-3.0170274,53.4108559],[-3.017177,53.4108249],[-3.0172363,53.410783]]]}},
{"type":"Feature","properties":{"highway":"path","name":null,"category":"Shared path"},"geometry":{"type":"MultiLineString","coordinates":[[[-3.0187332,53.4131611],[-3.018798,53.4132171],[-3.0191244,53.4134997],[-3.019037,53.4135356]]]}},
{"type":"Feature","properties":{"highway":"path","name":null,"category":"Shared path"},"geometry":{"type":"MultiLineString","coordinates":[[[-3.0185813,53.4131339],[-3.0186631,53.4131003],[-3.0186784,53.4131136]]]}},
{"type":"Feature","properties":{"highway":"path","name":null,"category":"Shared path"},"geometry":{"type":"MultiLineString","coordinates":[[[-3.0186928,53.413126],[-3.0187182,53.413148]]]}},
{"type":"Feature","properties":{"highway":"footway","name":null,"category":"Footpath (pedestrian only)"},"geometry":{"type":"MultiLineString","coordinates":[[[-3.0170459,53.4099664],[-3.0169555,53.4099884],[-3.0164405,53.4100675]]]}},
{"type":"Feature","properties":{"highway":"footway","name":null,"category":"Footpath (pedestrian only)"},"geometry":{"type":"MultiLineString","coordinates":[[[-3.0178458,53.409784],[-3.0178399,53.4098368],[-3.0178347,53.409884]]]}},
{"type":"Feature","properties":{"highway":"path","name":null,"category":"Shared path"},"geometry":{"type":"MultiLineString","coordinates":[[[-3.0193169,53.4097524],[-3.0191553,53.4094034]]]}},
{"type":"Feature","properties":{"highway":"footway","name":null,"category":"Footpath (pedestrian only)"},"geometry":{"type":"MultiLineString","coordinates":[[[-3.0184248,53.4103247],[-3.018077,53.4099634],[-3.0180369,53.4099345],[-3.0179946,53.4099166],[-3.0179422,53.4099028],[-3.0178867,53.4098941],[-3.0178347,53.409884],[-3.0177851,53.4098756],[-3.0177378,53.4098724],[-3.0176922,53.4098714],[-3.0176537,53.4098727],[-3.0176152,53.4098759],[-3.0175781,53.4098801],[-3.017229,53.4099333],[-3.0171512,53.4099498]]]}},
{"type":"Feature","properties":{"highway":"footway","name":null,"category":"Footpath (pedestrian only)"},"geometry":{"type":"MultiLineString","coordinates":[[[-3.0222912,53.4139012],[-3.0222066,53.4139239],[-3.0221093,53.41395]]]}},
{"type":"Feature","properties":{"highway":"footway","name":null,"category":"Footpath (pedestrian only)"},"geometry":{"type":"MultiLineString","coordinates":[[[-3.0281916,53.4165268],[-3.0285547,53.4169272],[-3.0285732,53.4169613],[-3.0285872,53.4169871],[-3.0289478,53.4175042]]]}},
{"type":"Feature","properties":{"highway":"pedestrian","name":"Seacombe Promenade","category":"Pedestrian area/street"},"geometry":{"type":"MultiLineString","coordinates":[[[-3.0244531,53.418999],[-3.0244037,53.4189798],[-3.0243667,53.4189565],[-3.0243337,53.4189287],[-3.0242976,53.4188738],[-3.0242792,53.4188111],[-3.0242357,53.4186587],[-3.0241802,53.4185269],[-3.0241328,53.4184391],[-3.0241093,53.4183673],[-3.0240828,53.4182681],[-3.0240602,53.41819],[-3.0240378,53.4181302],[-3.0240077,53.4180695],[-3.0239654,53.4180026],[-3.0238286,53.417822],[-3.0237524,53.4177376],[-3.0236668,53.4176551],[-3.0234866,53.4174952],[-3.0229252,53.4169728],[-3.0225087,53.4165998],[-3.022052,53.4161908],[-3.0219632,53.4161113],[-3.0216454,53.4158703],[-3.0213743,53.4156271],[-3.0210587,53.4153061],[-3.0206496,53.4149457],[-3.0203589,53.4146897],[-3.0193793,53.4138139],[-3.019037,53.4135356],[-3.0189539,53.413468],[-3.01868,53.4132251],[-3.0185813,53.4131339],[-3.0184447,53.4130078],[-3.0181114,53.4127152],[-3.0177447,53.4123964],[-3.017433,53.4121355],[-3.0172119,53.4119091],[-3.0170496,53.4117201],[-3.0169944,53.4116377]]]}},
{"type":"Feature","properties":{"highway":"pedestrian","name":"Egremont Promenade","category":"Pedestrian area/street"},"geometry":{"type":"MultiLineString","coordinates":[[[-3.0303248,53.4270774],[-3.0302728,53.4268438],[-3.0302327,53.4266956],[-3.030114,53.4263846],[-3.0298679,53.4258131],[-3.0295901,53.425309],[-3.029113,53.4245931],[-3.0287908,53.4241903],[-3.0284559,53.4238528],[-3.0283709,53.4237645],[-3.0282899,53.4236644],[-3.0281953,53.4235228],[-3.0278961,53.4230696],[-3.0277097,53.4227863],[-3.0275537,53.4225544],[-3.027229,53.4220935],[-3.0268817,53.4216251],[-3.026227,53.4207931],[-3.0259505,53.4204481],[-3.0254833,53.4199044],[-3.0254352,53.4198329],[-3.0254157,53.419774],[-3.0254002,53.4196914],[-3.0253741,53.4196386],[-3.0253251,53.4195804],[-3.0251195,53.4193441]]]}},
{"type":"Feature","properties":{"highway":"pedestrian","name":"Corbyn Street","category":"Pedestrian area/street"},"geometry":{"type":"MultiLineString","coordinates":[[[-3.0198569,53.4066049],[-3.0196127,53.4065348]]]}},
{"type":"Feature","properties":{"highway":"pedestrian","name":null,"category":"Pedestrian area/street"},"geometry":{"type":"MultiLineString","coordinates":[[[-3.0233537,53.415549],[-3.0234907,53.4156864],[-3.0236492,53.4158454]]]}},
{"type":"Feature","properties":{"highway":"pedestrian","name":"St Paul's Avenue","category":"Pedestrian area/street"},"geometry":{"type":"MultiLineString","coordinates":[[[-3.0197043,53.4092989],[-3.0195256,53.4092219],[-3.0194454,53.4088607]]]}},
{"type":"Feature","properties":{"highway":"pedestrian","name":"Kinglake Road","category":"Pedestrian area/street"},"geometry":{"type":"MultiLineString","coordinates":[[[-3.026227,53.4207931],[-3.026341,53.4207516],[-3.0263722,53.4207408]]]}},
{"type":"Feature","properties":{"highway":"pedestrian","name":"Sandon Road","category":"Pedestrian area/street"},"geometry":{"type":"MultiLineString","coordinates":[[[-3.0234866,53.4174952],[-3.0235646,53.4174591]]]}},
{"type":"Feature","properties":{"highway":"pedestrian","name":null,"category":"Pedestrian area/street"},"geometry":{"type":"MultiLineString","coordinates":[[[-3.0237901,53.4155811],[-3.0234907,53.4156864]]]}},
{"type":"Feature","properties":{"highway":"pedestrian","name":null,"category":"Pedestrian area/street"},"geometry":{"type":"MultiLineString","coordinates":[[[-3.0221916,53.4104417],[-3.0221672,53.4104444],[-3.0216899,53.4104984]]]}}
]
}
