{
"type": "FeatureCollection",
"name": "CHORL_299_cycling",
"crs": { "type": "name", "properties": { "name": "urn:ogc:def:crs:OGC:1.3:CRS84" } },
"features": [
{"type":"Feature","properties":{"highway":"track","name":null,"category":"Track"},"geometry":{"type":"MultiLineString","coordinates":[[[-2.6141445,53.6226582],[-2.6143534,53.6224303],[-2.6145029,53.6222544],[-2.6148412,53.6218274],[-2.6152167,53.6216642],[-2.6154718,53.621545],[-2.6158134,53.6212156],[-2.6161565,53.6209478],[-2.616592,53.6206952],[-2.6170435,53.6204032],[-2.6172747,53.6203291],[-2.617785,53.620288],[-2.6183064,53.6202225],[-2.6187935,53.6201099],[-2.6194515,53.6199635],[-2.6202421,53.6197227],[-2.6208631,53.6193433],[-2.6218545,53.6189459],[-2.622594,53.6187409],[-2.6232177,53.6185206],[-2.6233694,53.618468],[-2.623812,53.6184871],[-2.6242473,53.6185058],[-2.6244027,53.6185125],[-2.624499,53.6185326]]]}},
{"type":"Feature","properties":{"highway":"track","name":"Martins Avenue","category":"Track"},"geometry":{"type":"MultiLineString","coordinates":[[[-2.6168221,53.6291697],[-2.6162145,53.6292929],[-2.6157154,53.6294607],[-2.6155988,53.6295332],[-2.6155229,53.6295804],[-2.6142032,53.6296337],[-2.6139366,53.6296474],[-2.6138394,53.629655],[-2.6132105,53.6296956],[-2.6126656,53.6297125],[-2.6125409,53.6297094],[-2.6124365,53.629738],[-2.6120238,53.6298509],[-2.6111353,53.630094],[-2.6110633,53.6301259]]]}},
{"type":"Feature","properties":{"highway":"track","name":null,"category":"Track"},"geometry":{"type":"MultiLineString","coordinates":[[[-2.6139366,53.6296474],[-2.6138569,53.6293385]]]}},
{"type":"Feature","properties":{"highway":"track","name":null,"category":"Track"},"geometry":{"type":"MultiLineString","coordinates":[[[-2.6165666,53.6272765],[-2.6166812,53.6272671],[-2.6167631,53.6272604],[-2.6170018,53.627231],[-2.6170903,53.6272071],[-2.617152,53.6271379],[-2.6171882,53.6270497],[-2.6171829,53.6269319],[-2.6171319,53.6266353],[-2.6171024,53.6264826],[-2.61703,53.6264245],[-2.6167806,53.6263927],[-2.6166451,53.6263736],[-2.6166196,53.6263426]]]}},
{"type":"Feature","properties":{"highway":"track","name":null,"category":"Track"},"geometry":{"type":"MultiLineString","coordinates":[[[-2.6187935,53.6201099],[-2.6186541,53.6200112],[-2.6184744,53.6198855],[-2.6183,53.6197662],[-2.618072,53.6196008],[-2.6178628,53.6194926],[-2.6175919,53.6193717],[-2.6175034,53.6193414],[-2.6173773,53.6192858],[-2.6172942,53.619246],[-2.6171896,53.6191107],[-2.6170984,53.618923],[-2.6170126,53.6187878],[-2.6169723,53.6187369]]]}}
]
}
