{
"type": "FeatureCollection",
"name": "SEFTO_68_cycling",
"crs": { "type": "name", "properties": { "name": "urn:ogc:def:crs:OGC:1.3:CRS84" } },
"features": [
{"type":"Feature","properties":{"highway":"cycleway","name":null,"category":"Dedicated cycleway"},"geometry":{"type":"MultiLineString","coordinates":[[[-2.9994047,53.4608306],[-2.999476,53.4609052]]]}},
{"type":"Feature","properties":{"highway":"cycleway","name":null,"category":"Dedicated cycleway"},"geometry":{"type":"MultiLineString","coordinates":[[[-2.9944304,53.4554639],[-2.994494,53.4556171]]]}},
{"type":"Feature","properties":{"highway":"cycleway","name":null,"category":"Dedicated cycleway"},"geometry":{"type":"MultiLineString","coordinates":[[[-3.0019241,53.4631498],[-3.0017532,53.46319]]]}},
{"type":"Feature","properties":{"highway":"path","name":null,"category":"Shared path"},"geometry":{"type":"MultiLineString","coordinates":[[[-3.0037379,53.4649514],[-3.004015,53.4653044],[-3.004192,53.4654928],[-3.0043646,53.4656413],[-3.0044667,53.4657754]]]}},
{"type":"Feature","properties":{"highway":"path","name":null,"category":"Shared path"},"geometry":{"type":"MultiLineString","coordinates":[[[-3.0006461,53.4634916],[-3.0003351,53.4630721],[-3.0001205,53.4630274],[-2.9998201,53.4626697],[-2.9996431,53.4626186],[-2.99954,53.4625108]]]}},
{"type":"Feature","properties":{"highway":"path","name":null,"category":"Shared path"},"geometry":{"type":"MultiLineString","coordinates":[[[-2.9977648,53.4611128],[-2.9972777,53.461288]]]}},
{"type":"Feature","properties":{"highway":"path","name":null,"category":"Shared path"},"geometry":{"type":"MultiLineString","coordinates":[[[-3.0039496,53.4553561],[-3.0038539,53.4553542],[-3.0033436,53.4554568]]]}},
{"type":"Feature","properties":{"highway":"cycleway","name":null,"category":"Dedicated cycleway"},"geometry":{"type":"MultiLineString","coordinates":[[[-3.010597,53.4598041],[-3.0105633,53.4597961],[-3.0105018,53.4597648],[-3.010202,53.4598906],[-3.0100161,53.4599208],[-3.0097573,53.4599229]]]}},
{"type":"Feature","properties":{"highway":"cycleway","name":null,"category":"Dedicated cycleway"},"geometry":{"type":"MultiLineString","coordinates":[[[-3.0074346,53.4571326],[-3.007502,53.4572189],[-3.0076468,53.4574142],[-3.0078734,53.4576449],[-3.0081108,53.4578589],[-3.0083978,53.4580817],[-3.0086164,53.4582263],[-3.0096331,53.4587784],[-3.0096759,53.4588016],[-3.0100232,53.4590269],[-3.0103129,53.4592148],[-3.0109855,53.4596755],[-3.0111162,53.4597657],[-3.0113402,53.4598695],[-3.0115494,53.4599981],[-3.0116236,53.4600979],[-3.0158706,53.4629202],[-3.0166431,53.4636802],[-3.0170956,53.4641134],[-3.0178167,53.4647631],[-3.0179867,53.4649208],[-3.0182335,53.4650545],[-3.0183072,53.4651336],[-3.0183823,53.4652932],[-3.0189711,53.4658248]]]}},
{"type":"Feature","properties":{"highway":"cycleway","name":null,"category":"Dedicated cycleway"},"geometry":{"type":"MultiLineString","coordinates":[[[-3.0032536,53.4672871],[-3.0032817,53.4672751],[-3.0033223,53.4672525],[-3.0033796,53.4671845],[-3.0034701,53.4670822],[-3.0035668,53.4670217],[-3.003676,53.4669626],[-3.0037053,53.4669059],[-3.0037633,53.4668932],[-3.0038591,53.4668742],[-3.0039166,53.4668713],[-3.0039556,53.4668857],[-3.0040084,53.4668913],[-3.004101,53.4668879],[-3.0041947,53.4668885],[-3.0043902,53.4669065],[-3.0045023,53.4668961],[-3.0046044,53.4668676],[-3.0046313,53.4668945],[-3.0046406,53.4669146],[-3.0047435,53.4669248],[-3.0048405,53.4669378],[-3.0048105,53.4669958],[-3.0048512,53.4670432],[-3.0051308,53.4670927],[-3.0051118,53.4671406],[-3.0051036,53.4671738],[-3.0049962,53.4671695],[-3.0050734,53.4672531],[-3.0051142,53.4672988],[-3.0051912,53.4672694],[-3.0052263,53.4673213],[-3.0052577,53.4673653],[-3.0055477,53.4672569],[-3.0059416,53.4671657]]]}},
{"type":"Feature","properties":{"highway":"path","name":null,"category":"Shared path"},"geometry":{"type":"MultiLineString","coordinates":[[[-3.0022988,53.4654351],[-3.0030644,53.4651575],[-3.0031869,53.4651131],[-3.0035377,53.4649948],[-3.0037379,53.4649514],[-3.003535,53.4647361],[-3.0031669,53.4642773],[-3.0030022,53.4640487],[-3.002846,53.4638081],[-3.0026233,53.4635099],[-3.0021895,53.4631574],[-3.0021047,53.4630939]]]}},
{"type":"Feature","properties":{"highway":"path","name":"Thornton Road","category":"Shared path"},"geometry":{"type":"MultiLineString","coordinates":[[[-2.9915162,53.4585834],[-2.9915854,53.4587724]]]}},
{"type":"Feature","properties":{"highway":"path","name":null,"category":"Shared path"},"geometry":{"type":"MultiLineString","coordinates":[[[-3.0033683,53.4665295],[-3.0034461,53.4664936]]]}},
{"type":"Feature","properties":{"highway":"path","name":null,"category":"Shared path"},"geometry":{"type":"MultiLineString","coordinates":[[[-3.0021345,53.4650493],[-3.0021966,53.4649292],[-3.0022985,53.4648254],[-3.0024245,53.4647647],[-3.0020946,53.4644294],[-3.0019391,53.4643064],[-3.0018827,53.4642154],[-3.0019015,53.4641484],[-3.0019927,53.4640685],[-3.0022073,53.4639967],[-3.0024675,53.4639296],[-3.002846,53.4638081]]]}},
{"type":"Feature","properties":{"highway":"path","name":null,"category":"Shared path"},"geometry":{"type":"MultiLineString","coordinates":[[[-3.0042974,53.4666789],[-3.004186,53.4667335],[-3.0039504,53.4668437],[-3.0039166,53.4668713]]]}},
{"type":"Feature","properties":{"highway":"path","name":null,"category":"Shared path"},"geometry":{"type":"MultiLineString","coordinates":[[[-2.9996838,53.4527413],[-2.9997564,53.4527254],[-3.0002525,53.4527557],[-3.0003588,53.4527364],[-3.0004514,53.452734],[-3.0006861,53.4527211],[-3.0007578,53.4527171]]]}},
{"type":"Feature","properties":{"highway":"path","name":null,"category":"Shared path"},"geometry":{"type":"MultiLineString","coordinates":[[[-3.0004514,53.452734],[-3.0005144,53.4526082],[-3.0006384,53.4523607]]]}},
{"type":"Feature","properties":{"highway":"path","name":null,"category":"Shared path"},"geometry":{"type":"MultiLineString","coordinates":[[[-2.9995638,53.4519458],[-2.9999917,53.4518726],[-3.000221,53.4518255],[-3.0003138,53.4518061]]]}},
{"type":"Feature","properties":{"highway":"path","name":null,"category":"Shared path"},"geometry":{"type":"MultiLineString","coordinates":[[[-2.99842,53.4523768],[-2.9984337,53.4522577],[-2.9989671,53.4521608],[-2.9998797,53.4520054],[-2.9999106,53.4519975],[-2.9999363,53.4519848],[-2.9999478,53.4519711],[-2.9999917,53.4518726],[-3.0000867,53.4516592],[-3.0000982,53.4516497],[-3.0002108,53.45163]]]}},
{"type":"Feature","properties":{"highway":"path","name":null,"category":"Shared path"},"geometry":{"type":"MultiLineString","coordinates":[[[-3.0005144,53.4526082],[-3.0006861,53.4527211]]]}},
{"type":"Feature","properties":{"highway":"path","name":null,"category":"Shared path"},"geometry":{"type":"MultiLineString","coordinates":[[[-2.9972669,53.4526857],[-2.9970594,53.4526121],[-2.9970234,53.4525993],[-2.9969217,53.452591],[-2.9968124,53.4525718],[-2.9967246,53.4525663],[-2.9966075,53.4525654],[-2.9963872,53.452591],[-2.9962901,53.4526204],[-2.9961808,53.4526488],[-2.9960745,53.452669],[-2.9959897,53.4526764],[-2.9958418,53.4526745],[-2.9957432,53.4526773],[-2.9956325,53.4526831],[-2.9950786,53.4527826]]]}},
{"type":"Feature","properties":{"highway":"path","name":null,"category":"Shared path"},"geometry":{"type":"MultiLineString","coordinates":[[[-2.9970234,53.4525993],[-2.9969559,53.4525538],[-2.9968975,53.4525011],[-2.9968491,53.4524497]]]}},
{"type":"Feature","properties":{"highway":"path","name":null,"category":"Shared path"},"geometry":{"type":"MultiLineString","coordinates":[[[-2.9943156,53.4529184],[-2.9939388,53.4529808]]]}},
{"type":"Feature","properties":{"highway":"path","name":null,"category":"Shared path"},"geometry":{"type":"MultiLineString","coordinates":[[[-2.9950786,53.4527826],[-2.9943156,53.4529184]]]}},
{"type":"Feature","properties":{"highway":"path","name":null,"category":"Shared path"},"geometry":{"type":"MultiLineString","coordinates":[[[-2.998211,53.4524713],[-2.9979995,53.4524388],[-2.9970594,53.4526121]]]}},
{"type":"Feature","properties":{"highway":"path","name":null,"category":"Shared path"},"geometry":{"type":"MultiLineString","coordinates":[[[-2.9978323,53.454155],[-2.9973187,53.4539944],[-2.99721,53.4539817],[-2.9971229,53.453996],[-2.9970598,53.4540296],[-2.9970303,53.4540823],[-2.9970384,53.4541374],[-2.997084,53.4541805],[-2.9971537,53.4542045],[-2.9976928,53.4543171],[-2.9977894,53.4543203],[-2.9978511,53.4542939],[-2.9978846,53.4542612],[-2.9978967,53.4542165],[-2.9978779,53.4541821],[-2.9978323,53.454155]]]}},
{"type":"Feature","properties":{"highway":"path","name":null,"category":"Shared path"},"geometry":{"type":"MultiLineString","coordinates":[[[-2.9978323,53.454155],[-2.9978873,53.4541134],[-2.9979302,53.4540497],[-2.9979772,53.4539561],[-2.9979463,53.4539034],[-2.9978886,53.4538874],[-2.9977961,53.4538954],[-2.997721,53.4538962],[-2.9976513,53.4538795],[-2.9975896,53.4538371],[-2.997561,53.4537853],[-2.9975574,53.4537788],[-2.9974957,53.4537573],[-2.997426,53.4537557],[-2.9973895,53.4537665],[-2.9972503,53.4538068],[-2.997198,53.4538954],[-2.9972208,53.4539322],[-2.9972623,53.4539529],[-2.997316,53.4539657],[-2.9973737,53.4539601],[-2.9974179,53.4539441],[-2.9974313,53.4539194]]]}},
{"type":"Feature","properties":{"highway":"path","name":null,"category":"Shared path"},"geometry":{"type":"MultiLineString","coordinates":[[[-2.9975829,53.4537832],[-2.997561,53.4537853]]]}},
{"type":"Feature","properties":{"highway":"path","name":null,"category":"Shared path"},"geometry":{"type":"MultiLineString","coordinates":[[[-3.0024245,53.4647647],[-3.0026449,53.4649765],[-3.0030307,53.4650738],[-3.0031869,53.4651131]]]}},
{"type":"Feature","properties":{"highway":"path","name":null,"category":"Shared path"},"geometry":{"type":"MultiLineString","coordinates":[[[-3.0026449,53.4649765],[-3.0025644,53.4652319],[-3.0022994,53.4653864]]]}},
{"type":"Feature","properties":{"highway":"path","name":null,"category":"Shared path"},"geometry":{"type":"MultiLineString","coordinates":[[[-3.0030644,53.4651575],[-3.0030411,53.4650995],[-3.0030307,53.4650738]]]}},
{"type":"Feature","properties":{"highway":"path","name":null,"category":"Shared path"},"geometry":{"type":"MultiLineString","coordinates":[[[-3.0030411,53.4650995],[-3.0029857,53.465109]]]}},
{"type":"Feature","properties":{"highway":"path","name":null,"category":"Shared path"},"geometry":{"type":"MultiLineString","coordinates":[[[-3.0026706,53.4651759],[-3.0025644,53.4652319]]]}},
{"type":"Feature","properties":{"highway":"path","name":"Spenser Street","category":"Shared path"},"geometry":{"type":"MultiLineString","coordinates":[[[-3.0004883,53.4556793],[-3.0004925,53.4556372]]]}},
{"type":"Feature","properties":{"highway":"path","name":"Spenser Street","category":"Shared path"},"geometry":{"type":"MultiLineString","coordinates":[[[-3.0004832,53.4557253],[-3.0004883,53.4556793]]]}},
{"type":"Feature","properties":{"highway":"path","name":"Peel Road","category":"Shared path"},"geometry":{"type":"MultiLineString","coordinates":[[[-2.9997766,53.4571357],[-2.9997239,53.4571285],[-2.9996173,53.4571162]]]}},
{"type":"Feature","properties":{"highway":"path","name":"Wordsworth Street","category":"Shared path"},"geometry":{"type":"MultiLineString","coordinates":[[[-3.0029999,53.4564251],[-3.0030053,53.4564587],[-3.0030123,53.4564998]]]}},
{"type":"Feature","properties":{"highway":"path","name":null,"category":"Shared path"},"geometry":{"type":"MultiLineString","coordinates":[[[-2.9989799,53.4630977],[-2.9996429,53.4628969],[-2.9995326,53.4627577],[-2.9988704,53.4629693],[-2.9988068,53.4629749],[-2.9986235,53.4630383],[-2.9988031,53.4632533]]]}},
{"type":"Feature","properties":{"highway":"path","name":null,"category":"Shared path"},"geometry":{"type":"MultiLineString","coordinates":[[[-2.997974,53.4630111],[-2.9980848,53.4631296],[-2.9980829,53.4632087],[-2.9979427,53.4632521],[-2.9980408,53.4633749],[-2.9981297,53.463486],[-2.9982363,53.4634659],[-2.9985019,53.4634548],[-2.9986585,53.4636437],[-2.9989401,53.4639834]]]}},
{"type":"Feature","properties":{"highway":"path","name":null,"category":"Shared path"},"geometry":{"type":"MultiLineString","coordinates":[[[-2.9986585,53.4636437],[-2.9981147,53.4638393]]]}},
{"type":"Feature","properties":{"highway":"path","name":null,"category":"Shared path"},"geometry":{"type":"MultiLineString","coordinates":[[[-2.9980408,53.4633749],[-2.9976884,53.4634733]]]}},
{"type":"Feature","properties":{"highway":"path","name":null,"category":"Shared path"},"geometry":{"type":"MultiLineString","coordinates":[[[-2.9979427,53.4632521],[-2.9977903,53.4630696]]]}},
{"type":"Feature","properties":{"highway":"cycleway","name":null,"category":"Dedicated cycleway"},"geometry":{"type":"MultiLineString","coordinates":[[[-3.0025384,53.4501863],[-3.0025198,53.4502273],[-3.0025432,53.4502812],[-3.0027612,53.4504537],[-3.0029462,53.4506725],[-3.0030119,53.4507899],[-3.0033096,53.4511603],[-3.0034002,53.451305],[-3.0035806,53.4515654],[-3.0040077,53.452233],[-3.0041512,53.4523896],[-3.0042679,53.4525721],[-3.0043577,53.4527913],[-3.0048412,53.4534897],[-3.0054058,53.4543278],[-3.0057665,53.4547809],[-3.0062132,53.4553605],[-3.0062934,53.4554675],[-3.0065082,53.455754],[-3.0071211,53.4566763],[-3.0073466,53.4570197],[-3.0074346,53.4571326]]]}},
{"type":"Feature","properties":{"highway":"path","name":null,"category":"Shared path"},"geometry":{"type":"MultiLineString","coordinates":[[[-3.0115513,53.4631225],[-3.0115771,53.463088],[-3.0116267,53.4630652],[-3.0116495,53.4630609],[-3.0116113,53.4628742]]]}},
{"type":"Feature","properties":{"highway":"path","name":null,"category":"Shared path"},"geometry":{"type":"MultiLineString","coordinates":[[[-3.0099777,53.4633065],[-3.0099108,53.4632756],[-3.0098206,53.4630834],[-3.0098099,53.4630446],[-3.009802,53.4630005]]]}},
{"type":"Feature","properties":{"highway":"path","name":null,"category":"Shared path"},"geometry":{"type":"MultiLineString","coordinates":[[[-3.0114696,53.4609602],[-3.0113872,53.4609544],[-3.0113455,53.4609387],[-3.011317,53.4608963],[-3.011189,53.4607492],[-3.011188,53.4607388],[-3.0111927,53.4607276],[-3.0112195,53.4607101],[-3.0112362,53.4606941],[-3.0112436,53.4606745],[-3.0112476,53.4606554],[-3.011247,53.4606366],[-3.0112389,53.4606139],[-3.0112222,53.4605899],[-3.0111994,53.4605723],[-3.0111638,53.4605508],[-3.011143,53.460534],[-3.0111343,53.4605188],[-3.011131,53.4605017],[-3.0111343,53.4604801],[-3.0111343,53.4604617],[-3.0111269,53.4604434],[-3.0111135,53.4604286],[-3.0110887,53.4604142],[-3.0110532,53.4604035],[-3.0110163,53.4603979],[-3.0109848,53.4603963],[-3.0109472,53.4603979],[-3.0108621,53.4604023],[-3.0108044,53.4604023],[-3.0107541,53.4603995],[-3.0107105,53.4603931],[-3.0106582,53.4603815],[-3.010612,53.4603667],[-3.0105684,53.4603484],[-3.0105281,53.4603256],[-3.0104443,53.4602793],[-3.0104128,53.4602657],[-3.0103786,53.4602577],[-3.0103404,53.4602529],[-3.0103095,53.4602529],[-3.010278,53.4602565],[-3.0102499,53.4602621],[-3.0102244,53.4602681],[-3.0101848,53.4602845],[-3.0101479,53.4603037],[-3.0101359,53.4603144],[-3.0101272,53.4603292],[-3.0101231,53.4603452],[-3.0101245,53.4603631],[-3.0101285,53.4604015],[-3.0101285,53.4604138],[-3.0101265,53.4604226]]]}},
{"type":"Feature","properties":{"highway":"path","name":null,"category":"Shared path"},"geometry":{"type":"MultiLineString","coordinates":[[[-3.0102244,53.4602681],[-3.0101982,53.4602657],[-3.0101593,53.4602601],[-3.0101298,53.4602589],[-3.0100956,53.4602577],[-3.0100635,53.4602553],[-3.0100078,53.4602486],[-3.0099649,53.4602402],[-3.0099414,53.4602374],[-3.0099253,53.4602374],[-3.0099065,53.4602402],[-3.0098884,53.4602454],[-3.0098502,53.4602605],[-3.0097731,53.4602933],[-3.0097275,53.4603152],[-3.0096444,53.4603412]]]}},
{"type":"Feature","properties":{"highway":"path","name":null,"category":"Shared path"},"geometry":{"type":"MultiLineString","coordinates":[[[-3.0110121,53.4607898],[-3.0108823,53.4608462],[-3.0108321,53.4608551]]]}},
{"type":"Feature","properties":{"highway":"path","name":null,"category":"Shared path"},"geometry":{"type":"MultiLineString","coordinates":[[[-3.011189,53.4607492],[-3.0111724,53.4607453],[-3.0111539,53.4607426]]]}},
{"type":"Feature","properties":{"highway":"path","name":null,"category":"Shared path"},"geometry":{"type":"MultiLineString","coordinates":[[[-3.0111927,53.4607276],[-3.0111739,53.4607364],[-3.0111539,53.4607426],[-3.0111284,53.460746],[-3.0110976,53.4607517],[-3.0110676,53.4607616],[-3.0110453,53.4607717],[-3.0110121,53.4607898]]]}},
{"type":"Feature","properties":{"highway":"path","name":null,"category":"Shared path"},"geometry":{"type":"MultiLineString","coordinates":[[[-3.0101265,53.4604226],[-3.0101184,53.460441],[-3.0100933,53.4604895]]]}},
{"type":"Feature","properties":{"highway":"path","name":null,"category":"Shared path"},"geometry":{"type":"MultiLineString","coordinates":[[[-3.0058811,53.4601768],[-3.0058298,53.46016],[-3.0057944,53.46014],[-3.005717,53.4599683],[-3.0056798,53.4598856]]]}},
{"type":"Feature","properties":{"highway":"path","name":"Chesnut Grove","category":"Shared path"},"geometry":{"type":"MultiLineString","coordinates":[[[-2.9976285,53.4577481],[-2.9975451,53.4577487],[-2.9968907,53.4570716],[-2.9964239,53.4559281],[-2.9965223,53.4559391],[-2.9976174,53.4560614],[-2.9977074,53.45575],[-2.9977523,53.4557266]]]}},
{"type":"Feature","properties":{"highway":"cycle_lane_on_street","name":"Knowsley Road","category":"Cycle lane on street"},"geometry":{"type":"MultiLineString","coordinates":[[[-2.9996536,53.4592085],[-2.9992658,53.4591129],[-2.9990994,53.459079],[-2.9990087,53.459069],[-2.9988954,53.4590645],[-2.9988168,53.459067],[-2.9986943,53.4590789]]]}},
{"type":"Feature","properties":{"highway":"cycle_lane_on_street","name":"Stanley Road","category":"Cycle lane on street"},"geometry":{"type":"MultiLineString","coordinates":[[[-2.9923248,53.4580288],[-2.9924028,53.4581556],[-2.9924111,53.4581875],[-2.9924243,53.4582407],[-2.9924343,53.4582693],[-2.9924484,53.458294],[-2.9924681,53.4583203],[-2.9924968,53.4583497],[-2.9925536,53.4584019],[-2.9926112,53.4584453]]]}},
{"type":"Feature","properties":{"highway":"cycle_lane_on_street","name":"Knowsley Road","category":"Cycle lane on street"},"geometry":{"type":"MultiLineString","coordinates":[[[-2.9983821,53.4591213],[-2.9982465,53.4591383],[-2.99817,53.4591431],[-2.9980891,53.4591404],[-2.9980142,53.4591352],[-2.9978869,53.4591103],[-2.9977399,53.4590794]]]}},
{"type":"Feature","properties":{"highway":"cycle_lane_on_street","name":"Knowsley Road","category":"Cycle lane on street"},"geometry":{"type":"MultiLineString","coordinates":[[[-2.9986943,53.4590789],[-2.9983821,53.4591213]]]}}
]
}
