{
"type": "FeatureCollection",
"name": "BOLTO_61_cycling",
"crs": { "type": "name", "properties": { "name": "urn:ogc:def:crs:OGC:1.3:CRS84" } },
"features": [
{"type":"Feature","properties":{"highway":"path","name":null,"category":"Shared path"},"geometry":{"type":"MultiLineString","coordinates":[[[-2.5136858,53.5517059],[-2.5135693,53.551553],[-2.5134291,53.5514278]]]}},
{"type":"Feature","properties":{"highway":"path","name":null,"category":"Shared path"},"geometry":{"type":"MultiLineString","coordinates":[[[-2.5134291,53.5514278],[-2.5133573,53.5514039],[-2.5133086,53.5513967],[-2.5132345,53.5513692],[-2.5131915,53.5513363],[-2.5131759,53.5512998],[-2.5131991,53.5512531],[-2.5132329,53.5512153],[-2.5132765,53.5511841],[-2.513409,53.5511474]]]}},
{"type":"Feature","properties":{"highway":"path","name":null,"category":"Shared path"},"geometry":{"type":"MultiLineString","coordinates":[[[-2.511356,53.5512225],[-2.5112208,53.5511124],[-2.5111607,53.5509671],[-2.5111814,53.5508214]]]}},
{"type":"Feature","properties":{"highway":"path","name":null,"category":"Shared path"},"geometry":{"type":"MultiLineString","coordinates":[[[-2.5111306,53.5512476],[-2.5111607,53.5514379],[-2.5112266,53.5515549],[-2.5111907,53.5517533],[-2.5112454,53.5520352],[-2.5112498,53.5520577]]]}},
{"type":"Feature","properties":{"highway":"path","name":null,"category":"Shared path"},"geometry":{"type":"MultiLineString","coordinates":[[[-2.5074553,53.5533244],[-2.5073926,53.5533925],[-2.507228,53.5535776],[-2.5071976,53.5536118],[-2.5071738,53.5536386]]]}},
{"type":"Feature","properties":{"highway":"path","name":null,"category":"Shared path"},"geometry":{"type":"MultiLineString","coordinates":[[[-2.5067682,53.5530262],[-2.5066526,53.5530807],[-2.5066397,53.5530997],[-2.5065817,53.5531855],[-2.5065263,53.5532243],[-2.506403,53.5532863],[-2.5063681,53.5533039],[-2.5063406,53.5533178]]]}},
{"type":"Feature","properties":{"highway":"path","name":null,"category":"Shared path"},"geometry":{"type":"MultiLineString","coordinates":[[[-2.5099098,53.5543735],[-2.5097451,53.5543853],[-2.5096823,53.5544283],[-2.5096769,53.5544479],[-2.5096809,53.5545248],[-2.5096873,53.5545704],[-2.5096534,53.5546044]]]}},
{"type":"Feature","properties":{"highway":"path","name":null,"category":"Shared path"},"geometry":{"type":"MultiLineString","coordinates":[[[-2.5151918,53.5526529],[-2.5151732,53.5526066],[-2.515165,53.552586],[-2.5151355,53.5525493],[-2.5151033,53.5525079],[-2.5150755,53.5524744],[-2.5150598,53.5524171],[-2.5150228,53.5523681],[-2.5149933,53.5523343],[-2.5149817,53.5523214],[-2.514978,53.5522803],[-2.5149262,53.5522387],[-2.5149027,53.5522271],[-2.5148874,53.5522396],[-2.5148343,53.552173],[-2.5147802,53.5521093],[-2.5147298,53.5520441],[-2.5146905,53.5519706],[-2.5146993,53.5519489],[-2.5146651,53.5519128],[-2.5146517,53.5519087],[-2.5146073,53.5519295],[-2.5145902,53.5519179],[-2.5145477,53.5518786],[-2.514508,53.5518278],[-2.514477,53.5518047],[-2.5144525,53.5517603],[-2.5144058,53.5517155],[-2.5143786,53.5516452],[-2.5143268,53.5516013],[-2.5143065,53.5515667],[-2.5142607,53.5515417],[-2.5141567,53.5515144],[-2.5140985,53.5514812],[-2.5140731,53.5514756],[-2.5139483,53.5514377],[-2.5139233,53.5513739],[-2.5138632,53.5513286],[-2.5138166,53.5512695],[-2.5137888,53.5512163],[-2.5137726,53.5511752],[-2.51378,53.5511137],[-2.5137865,53.5510772],[-2.5138008,53.5510472],[-2.513793,53.5510019],[-2.5138008,53.5509501],[-2.5137907,53.5509044],[-2.5137916,53.5508475],[-2.5137708,53.5508235],[-2.5137532,53.5507625],[-2.5137435,53.5506617],[-2.5137283,53.5506386],[-2.5137297,53.5506044],[-2.5137787,53.5505642],[-2.5138152,53.5504815],[-2.5138064,53.5503507],[-2.5138128,53.5502617],[-2.5137548,53.5501166],[-2.5137429,53.550048],[-2.5136467,53.5498872],[-2.5135821,53.549845],[-2.513557,53.5497632],[-2.5135755,53.5497052],[-2.5136546,53.5496788],[-2.5136559,53.5496102],[-2.5137258,53.5495483],[-2.5137574,53.5494586],[-2.5137996,53.5494243],[-2.5138286,53.5493597]]]}},
{"type":"Feature","properties":{"highway":"cycleway","name":null,"category":"Dedicated cycleway"},"geometry":{"type":"MultiLineString","coordinates":[[[-2.5200719,53.5545904],[-2.5201471,53.5546301],[-2.5201787,53.5546382],[-2.5215426,53.5548014],[-2.5216514,53.5548143],[-2.5225012,53.5549232],[-2.5228998,53.5549676],[-2.5229351,53.5549562]]]}},
{"type":"Feature","properties":{"highway":"cycleway","name":null,"category":"Dedicated cycleway"},"geometry":{"type":"MultiLineString","coordinates":[[[-2.5218374,53.554495],[-2.5216755,53.5546319],[-2.5216514,53.5548143]]]}},
{"type":"Feature","properties":{"highway":"cycleway","name":null,"category":"Dedicated cycleway"},"geometry":{"type":"MultiLineString","coordinates":[[[-2.5213987,53.555152],[-2.5214397,53.5551067],[-2.5214779,53.5550563],[-2.521497,53.5550208],[-2.5215426,53.5548014]]]}},
{"type":"Feature","properties":{"highway":"path","name":null,"category":"Shared path"},"geometry":{"type":"MultiLineString","coordinates":[[[-2.5118257,53.5583379],[-2.511886,53.5583482],[-2.5119801,53.5583686],[-2.5120661,53.558367],[-2.5123366,53.5584125],[-2.5123423,53.5584225],[-2.5123608,53.5584551]]]}},
{"type":"Feature","properties":{"highway":"path","name":null,"category":"Shared path"},"geometry":{"type":"MultiLineString","coordinates":[[[-2.5125132,53.5575495],[-2.5125577,53.5575727],[-2.5128481,53.5576404],[-2.5128726,53.5576398],[-2.5129183,53.5576388]]]}},
{"type":"Feature","properties":{"highway":"path","name":null,"category":"Shared path"},"geometry":{"type":"MultiLineString","coordinates":[[[-2.520595,53.5577436],[-2.5205137,53.5577444],[-2.5203437,53.5578015],[-2.5193823,53.558124]]]}},
{"type":"Feature","properties":{"highway":"path","name":null,"category":"Shared path"},"geometry":{"type":"MultiLineString","coordinates":[[[-2.5117387,53.5505424],[-2.511669,53.5506125],[-2.5116388,53.5507677],[-2.5115935,53.5509357],[-2.5115744,53.5510343],[-2.5115887,53.5510953],[-2.5116376,53.5511754],[-2.5115834,53.5512594],[-2.5115941,53.5514029],[-2.511562,53.551559],[-2.5115134,53.5517088],[-2.5114973,53.5518841],[-2.5114707,53.5520103],[-2.5114644,53.5520401]]]}},
{"type":"Feature","properties":{"highway":"path","name":null,"category":"Shared path"},"geometry":{"type":"MultiLineString","coordinates":[[[-2.5120148,53.5507407],[-2.5119919,53.5508069],[-2.5119611,53.5509329],[-2.5118919,53.5509967],[-2.5117736,53.5510979],[-2.5116376,53.5511754],[-2.511356,53.5512225],[-2.5111306,53.5512476],[-2.5109145,53.5512884],[-2.5106826,53.5512995]]]}},
{"type":"Feature","properties":{"highway":"track","name":null,"category":"Track"},"geometry":{"type":"MultiLineString","coordinates":[[[-2.5053969,53.5571609],[-2.5061599,53.5574758],[-2.50671,53.5577028],[-2.5090315,53.5586881],[-2.5090892,53.5587022],[-2.5091451,53.5587158]]]}},
{"type":"Feature","properties":{"highway":"track","name":null,"category":"Track"},"geometry":{"type":"MultiLineString","coordinates":[[[-2.5096847,53.5611647],[-2.5095973,53.5611116],[-2.5094896,53.561079],[-2.5082687,53.5608801]]]}},
{"type":"Feature","properties":{"highway":"track","name":null,"category":"Track"},"geometry":{"type":"MultiLineString","coordinates":[[[-2.5099193,53.5613426],[-2.5096847,53.5611647]]]}},
{"type":"Feature","properties":{"highway":"track","name":null,"category":"Track"},"geometry":{"type":"MultiLineString","coordinates":[[[-2.5154475,53.5630108],[-2.5154882,53.5629588],[-2.5154882,53.5629154],[-2.5154597,53.5628869],[-2.5154377,53.562865],[-2.5154165,53.5628438],[-2.5154048,53.5628321],[-2.5152341,53.5625592],[-2.5151426,53.5624989],[-2.5141242,53.5621053],[-2.5139616,53.562022],[-2.5134005,53.5616308],[-2.513118,53.5614774],[-2.5128456,53.5612843],[-2.5126769,53.5611901],[-2.5123943,53.5610585],[-2.512185,53.5609691],[-2.5119959,53.5609269],[-2.5118252,53.5609172],[-2.5117581,53.5609196],[-2.5114418,53.5609775],[-2.5102984,53.561503],[-2.5102505,53.5615164],[-2.5101969,53.5615149],[-2.5101514,53.5615072],[-2.5101177,53.5614907],[-2.5099193,53.5613426]]]}},
{"type":"Feature","properties":{"highway":"track","name":null,"category":"Track"},"geometry":{"type":"MultiLineString","coordinates":[[[-2.5197971,53.5617766],[-2.5194101,53.5615633],[-2.5191066,53.5614217],[-2.5187939,53.5612892],[-2.5186917,53.5612267],[-2.5184935,53.561041],[-2.5183913,53.5608957],[-2.5183573,53.5608019],[-2.5183333,53.5607812],[-2.5182863,53.5607602],[-2.5179513,53.5606686],[-2.5179366,53.5606538],[-2.5179308,53.560639],[-2.5179367,53.560619],[-2.5179686,53.5605613],[-2.5180019,53.5605011],[-2.5182287,53.5602316],[-2.5182316,53.5601626],[-2.5181834,53.560102],[-2.5180955,53.5600666],[-2.5169416,53.5599016],[-2.5168622,53.559878],[-2.5168254,53.5598359],[-2.5168452,53.5597708]]]}},
{"type":"Feature","properties":{"highway":"track","name":null,"category":"Track"},"geometry":{"type":"MultiLineString","coordinates":[[[-2.5023755,53.5593178],[-2.5029441,53.5586212]]]}},
{"type":"Feature","properties":{"highway":"track","name":null,"category":"Track"},"geometry":{"type":"MultiLineString","coordinates":[[[-2.5037562,53.5560835],[-2.5037197,53.5559167],[-2.5036373,53.5552939],[-2.5036276,53.5552204]]]}},
{"type":"Feature","properties":{"highway":"path","name":null,"category":"Shared path"},"geometry":{"type":"MultiLineString","coordinates":[[[-2.5150236,53.5547396],[-2.5150253,53.5546068],[-2.5150383,53.5545729],[-2.5150807,53.55454],[-2.5151134,53.5544973],[-2.5152059,53.5542448]]]}},
{"type":"Feature","properties":{"highway":"path","name":null,"category":"Shared path"},"geometry":{"type":"MultiLineString","coordinates":[[[-2.5242068,53.5578468],[-2.524271,53.5578655],[-2.5243422,53.5580581],[-2.524329,53.5580766]]]}},
{"type":"Feature","properties":{"highway":"path","name":null,"category":"Shared path"},"geometry":{"type":"MultiLineString","coordinates":[[[-2.5181134,53.5576011],[-2.5180345,53.5576413],[-2.5180022,53.5576577],[-2.5179774,53.5576756],[-2.5179588,53.5577036],[-2.5179331,53.5577351],[-2.5179038,53.5577583],[-2.5176299,53.5578752],[-2.5173489,53.5579742],[-2.5170351,53.5581],[-2.5169128,53.5581348],[-2.5168875,53.5581343],[-2.5168658,53.5581274],[-2.5167631,53.5580522],[-2.516711,53.558014]]]}},
{"type":"Feature","properties":{"highway":"path","name":null,"category":"Shared path"},"geometry":{"type":"MultiLineString","coordinates":[[[-2.5150236,53.5547396],[-2.5150073,53.5548143],[-2.5149453,53.5550188],[-2.5149421,53.555295],[-2.5149551,53.5553648]]]}},
{"type":"Feature","properties":{"highway":"track","name":null,"category":"Track"},"geometry":{"type":"MultiLineString","coordinates":[[[-2.5037527,53.5523212],[-2.5035263,53.5525185],[-2.5034618,53.5525604],[-2.5032822,53.5526942]]]}},
{"type":"Feature","properties":{"highway":"track","name":null,"category":"Track"},"geometry":{"type":"MultiLineString","coordinates":[[[-2.5037197,53.5559167],[-2.5033718,53.5559513]]]}},
{"type":"Feature","properties":{"highway":"path","name":null,"category":"Shared path"},"geometry":{"type":"MultiLineString","coordinates":[[[-2.5045842,53.5524836],[-2.5045048,53.5525619],[-2.5044693,53.5525968]]]}},
{"type":"Feature","properties":{"highway":"path","name":null,"category":"Shared path"},"geometry":{"type":"MultiLineString","coordinates":[[[-2.5053975,53.5529537],[-2.5054311,53.5529212],[-2.5055205,53.5529099],[-2.5055542,53.5529128]]]}},
{"type":"Feature","properties":{"highway":"cycle_lane_on_street","name":"Manchester Road","category":"Cycle lane on street"},"geometry":{"type":"MultiLineString","coordinates":[[[-2.5186352,53.5578137],[-2.5186533,53.5578216],[-2.5189587,53.5579531],[-2.5193823,53.558124],[-2.5196977,53.5582519],[-2.5200358,53.5584037],[-2.5206108,53.5586311],[-2.5206462,53.5586455],[-2.5214246,53.5589617],[-2.5216062,53.5590356],[-2.5226973,53.5594902],[-2.5229135,53.5595748]]]}}
]
}
