{
"type": "FeatureCollection",
"name": "BOLTO_109_cycling",
"crs": { "type": "name", "properties": { "name": "urn:ogc:def:crs:OGC:1.3:CRS84" } },
"features": [
{"type":"Feature","properties":{"highway":"track","name":null,"category":"Track"},"geometry":{"type":"MultiLineString","coordinates":[[[-2.3644185,53.5663647],[-2.3644787,53.5663953],[-2.3651732,53.5668831],[-2.3652027,53.5669184],[-2.3652688,53.5670261],[-2.3652688,53.567052],[-2.3652762,53.5673854],[-2.3653031,53.5674695],[-2.3653694,53.5675665],[-2.3654202,53.5676072],[-2.3655026,53.5676569],[-2.3666153,53.5681197],[-2.3667608,53.5681666],[-2.3676318,53.5685338],[-2.3677393,53.5685866],[-2.3679044,53.5686843],[-2.3680149,53.5687603],[-2.3682498,53.5689492],[-2.3687004,53.5692292],[-2.3687142,53.5692548],[-2.3687089,53.5693074]]]}},
{"type":"Feature","properties":{"highway":"track","name":null,"category":"Track"},"geometry":{"type":"MultiLineString","coordinates":[[[-2.3861353,53.560258],[-2.3861373,53.5603004],[-2.3861099,53.5603907],[-2.3860947,53.5605549],[-2.3860961,53.5606317],[-2.3861922,53.5608486],[-2.3862742,53.5610337],[-2.3859495,53.5614838],[-2.3867,53.5627483],[-2.3873535,53.5630427],[-2.3870317,53.5633585],[-2.3859963,53.5636427],[-2.3855028,53.5638657],[-2.3848161,53.5642862],[-2.3843335,53.5645728],[-2.3840014,53.5646811],[-2.3838371,53.5646377],[-2.3837868,53.5646365],[-2.3836746,53.5646643],[-2.3835669,53.5646282],[-2.3834272,53.5645994]]]}},
{"type":"Feature","properties":{"highway":"track","name":null,"category":"Track"},"geometry":{"type":"MultiLineString","coordinates":[[[-2.3899222,53.5630005],[-2.3897477,53.5630322],[-2.3896227,53.5629991],[-2.3888073,53.5625912],[-2.388582,53.5625339],[-2.3881314,53.5625912],[-2.3877988,53.5627187],[-2.3873535,53.5630427]]]}},
{"type":"Feature","properties":{"highway":"cycleway","name":null,"category":"Dedicated cycleway"},"geometry":{"type":"MultiLineString","coordinates":[[[-2.3742557,53.5713422],[-2.3732263,53.5713535],[-2.3731063,53.5713588],[-2.3727176,53.5714125],[-2.3726286,53.571433],[-2.3725703,53.5714551],[-2.372535,53.5714805]]]}},
{"type":"Feature","properties":{"highway":"cycleway","name":null,"category":"Dedicated cycleway"},"geometry":{"type":"MultiLineString","coordinates":[[[-2.3749145,53.5718625],[-2.3747898,53.5715999],[-2.3744223,53.5714683],[-2.3742557,53.5713422]]]}},
{"type":"Feature","properties":{"highway":"track","name":null,"category":"Track"},"geometry":{"type":"MultiLineString","coordinates":[[[-2.3861905,53.559574],[-2.3868282,53.5597097],[-2.3869975,53.5597173],[-2.3870518,53.5597292],[-2.387102,53.5597554],[-2.3871219,53.5598023],[-2.3871126,53.5598483],[-2.3870518,53.5598898],[-2.3869801,53.5599101],[-2.3867552,53.5600021],[-2.3865229,53.560083],[-2.3862953,53.5601723],[-2.386198,53.56023],[-2.3861353,53.560258],[-2.3861008,53.5602733],[-2.3859276,53.5602986],[-2.3857843,53.5603285],[-2.3856369,53.5603592],[-2.3854415,53.5604123],[-2.3853048,53.5604448],[-2.3851802,53.560461],[-2.3850435,53.5605062],[-2.3849736,53.5605314],[-2.3848733,53.5606108],[-2.3847727,53.5606584],[-2.3845535,53.5607602],[-2.3844981,53.5607863],[-2.3844365,53.560822],[-2.3844024,53.5608644],[-2.3843803,53.5608924],[-2.3843492,53.5609113],[-2.384393,53.5609686]]]}},
{"type":"Feature","properties":{"highway":"path","name":null,"category":"Shared path"},"geometry":{"type":"MultiLineString","coordinates":[[[-2.3782813,53.5573426],[-2.3783748,53.557427],[-2.3784451,53.5575533],[-2.3787013,53.5578205],[-2.3788456,53.5579095],[-2.3788702,53.5579389],[-2.3788057,53.5582049],[-2.3788171,53.5582591],[-2.3788797,53.5583797],[-2.3788816,53.5584586],[-2.3788546,53.5585609],[-2.3788384,53.5585837],[-2.3788325,53.5586143],[-2.3788576,53.5586607],[-2.3789224,53.5587053],[-2.3789973,53.558782],[-2.3790446,53.5588566],[-2.3790766,53.558981],[-2.3791064,53.559042],[-2.3791536,53.5590998],[-2.3792301,53.5591671],[-2.3794481,53.5593158],[-2.3795446,53.5593902],[-2.3795604,53.5594024],[-2.3798036,53.5596242],[-2.3801672,53.5599137],[-2.3801953,53.5599821]]]}},
{"type":"Feature","properties":{"highway":"track","name":null,"category":"Track"},"geometry":{"type":"MultiLineString","coordinates":[[[-2.3910797,53.5626092],[-2.3903656,53.5628902],[-2.3899222,53.5630005],[-2.3897844,53.5632589],[-2.3893308,53.5637946],[-2.3891898,53.5638981],[-2.3890582,53.5644097],[-2.3888385,53.5647748],[-2.38881,53.56495],[-2.3887201,53.5654129],[-2.3887063,53.5654839],[-2.3886597,53.5656931],[-2.3887187,53.565795],[-2.3888475,53.5658651],[-2.3888958,53.5659671],[-2.3888475,53.5660945],[-2.3885524,53.5663621],[-2.3883593,53.5666361],[-2.3882681,53.5668782],[-2.3880739,53.5669986],[-2.3880289,53.5670123]]]}},
{"type":"Feature","properties":{"highway":"path","name":null,"category":"Shared path"},"geometry":{"type":"MultiLineString","coordinates":[[[-2.3759232,53.5698705],[-2.3763518,53.5697131],[-2.3765128,53.5697017],[-2.3768454,53.5697081],[-2.3769239,53.5696455],[-2.3772169,53.5690915],[-2.377295,53.5685883],[-2.3772606,53.5685318],[-2.377178,53.5685167],[-2.3771302,53.5685662],[-2.376899,53.5691283],[-2.3765557,53.5694532],[-2.3762553,53.5695424],[-2.3756491,53.5695596]]]}},
{"type":"Feature","properties":{"highway":"path","name":null,"category":"Shared path"},"geometry":{"type":"MultiLineString","coordinates":[[[-2.3725909,53.5599896],[-2.3724253,53.5597683],[-2.3723336,53.5597009],[-2.3722099,53.5596371],[-2.3720959,53.5594937],[-2.3718867,53.5593599],[-2.3717003,53.5593057],[-2.3709385,53.559344],[-2.3707186,53.559328],[-2.3698514,53.559382]]]}},
{"type":"Feature","properties":{"highway":"track","name":null,"category":"Track"},"geometry":{"type":"MultiLineString","coordinates":[[[-2.3698603,53.5601101],[-2.369925,53.5601152],[-2.3701181,53.5601024],[-2.3702683,53.5600866],[-2.3704453,53.5600801],[-2.370617,53.5600737],[-2.3707779,53.5600674],[-2.3709711,53.5600419],[-2.3711588,53.5599941],[-2.3714163,53.5599367],[-2.3716792,53.5598825],[-2.3718827,53.5598273],[-2.3720439,53.5597965],[-2.372178,53.5597583],[-2.3723336,53.5597009]]]}},
{"type":"Feature","properties":{"highway":"track","name":null,"category":"Track"},"geometry":{"type":"MultiLineString","coordinates":[[[-2.3919147,53.5648748],[-2.3914715,53.5650135],[-2.3909728,53.5651457],[-2.390508,53.565374],[-2.3902746,53.5654939],[-2.3898616,53.5655162],[-2.3897328,53.5655608],[-2.3895773,53.5655513],[-2.3894163,53.5654907],[-2.3887941,53.5654589],[-2.3887063,53.5654839]]]}},
{"type":"Feature","properties":{"highway":"track","name":null,"category":"Track"},"geometry":{"type":"MultiLineString","coordinates":[[[-2.3607092,53.5625991],[-2.3608158,53.5627726],[-2.3629991,53.5632856],[-2.3632942,53.5631454],[-2.3637849,53.5630991],[-2.3638682,53.5630912],[-2.3639501,53.5631037],[-2.3640103,53.5631129],[-2.3644242,53.5630503]]]}},
{"type":"Feature","properties":{"highway":"track","name":null,"category":"Track"},"geometry":{"type":"MultiLineString","coordinates":[[[-2.3810424,53.5713049],[-2.3810851,53.5712154],[-2.3811465,53.5711805],[-2.3811967,53.5711672],[-2.381246,53.5711532],[-2.3813212,53.5711111],[-2.381515,53.57093],[-2.381681,53.5707054],[-2.3817266,53.5706122]]]}},
{"type":"Feature","properties":{"highway":"cycleway","name":null,"category":"Dedicated cycleway"},"geometry":{"type":"MultiLineString","coordinates":[[[-2.3810424,53.5713049],[-2.378403,53.5713293],[-2.3770101,53.5713479],[-2.3761735,53.5713462],[-2.3742557,53.5713422]]]}},
{"type":"Feature","properties":{"highway":"cycleway","name":null,"category":"Dedicated cycleway"},"geometry":{"type":"MultiLineString","coordinates":[[[-2.378403,53.5713293],[-2.3784304,53.5715562],[-2.378394,53.5716763]]]}},
{"type":"Feature","properties":{"highway":"path","name":null,"category":"Shared path"},"geometry":{"type":"MultiLineString","coordinates":[[[-2.3667361,53.5628911],[-2.3666768,53.5629361],[-2.3663588,53.5632344],[-2.366316,53.5632768]]]}},
{"type":"Feature","properties":{"highway":"path","name":null,"category":"Shared path"},"geometry":{"type":"MultiLineString","coordinates":[[[-2.3675446,53.5679432],[-2.3675874,53.5680835],[-2.3679867,53.5686784],[-2.3680149,53.5687603]]]}},
{"type":"Feature","properties":{"highway":"path","name":null,"category":"Shared path"},"geometry":{"type":"MultiLineString","coordinates":[[[-2.3723846,53.5687511],[-2.3721963,53.5689888],[-2.3722134,53.5690142],[-2.372152,53.5690804],[-2.3720936,53.5691357],[-2.372138,53.569279],[-2.3720237,53.569395],[-2.3719922,53.5694395]]]}},
{"type":"Feature","properties":{"highway":"path","name":null,"category":"Shared path"},"geometry":{"type":"MultiLineString","coordinates":[[[-2.3776081,53.5594006],[-2.3777967,53.559358],[-2.3779694,53.5592748],[-2.3781296,53.559193],[-2.3781892,53.5591949],[-2.3782847,53.5592227],[-2.3786876,53.5593045],[-2.3789479,53.5593372],[-2.379128,53.5593687],[-2.3792396,53.5593773],[-2.3793884,53.5593729],[-2.379506,53.5593833],[-2.3795446,53.5593902]]]}},
{"type":"Feature","properties":{"highway":"path","name":null,"category":"Shared path"},"geometry":{"type":"MultiLineString","coordinates":[[[-2.3840014,53.5646811],[-2.3840921,53.5648767],[-2.3841965,53.5649846],[-2.3844691,53.565106],[-2.3846689,53.5652706],[-2.3848552,53.5653677],[-2.3854866,53.565535],[-2.3857413,53.5655292]]]}},
{"type":"Feature","properties":{"highway":"path","name":null,"category":"Shared path"},"geometry":{"type":"MultiLineString","coordinates":[[[-2.3789973,53.558782],[-2.3788652,53.5588523],[-2.3786345,53.5589271],[-2.3784936,53.5589912],[-2.3782959,53.5591104],[-2.3781892,53.5591949]]]}},
{"type":"Feature","properties":{"highway":"path","name":null,"category":"Shared path"},"geometry":{"type":"MultiLineString","coordinates":[[[-2.3766009,53.5619501],[-2.3765332,53.5616397],[-2.3765023,53.5615749],[-2.3764568,53.5615327],[-2.376395,53.5615057],[-2.3750631,53.5610217]]]}},
{"type":"Feature","properties":{"highway":"path","name":null,"category":"Shared path"},"geometry":{"type":"MultiLineString","coordinates":[[[-2.3750631,53.5610217],[-2.3750353,53.5609959],[-2.3750099,53.5609469]]]}},
{"type":"Feature","properties":{"highway":"path","name":null,"category":"Shared path"},"geometry":{"type":"MultiLineString","coordinates":[[[-2.3750631,53.5610217],[-2.3749772,53.5610076],[-2.3749299,53.5610102],[-2.3747387,53.5610459],[-2.3746721,53.5610497],[-2.3746098,53.5610421],[-2.3737632,53.5608685],[-2.373413,53.5608174],[-2.373067,53.5607753],[-2.3727383,53.5607524],[-2.3723816,53.5607498],[-2.3720249,53.5607613],[-2.3715651,53.5607932],[-2.3706154,53.560894],[-2.3704801,53.5609004],[-2.3703684,53.5609119],[-2.3702394,53.5609374],[-2.3701578,53.5609642],[-2.3701427,53.5609872],[-2.3700864,53.5611389],[-2.3700783,53.5611608],[-2.3700797,53.5611971]]]}},
{"type":"Feature","properties":{"highway":"path","name":null,"category":"Shared path"},"geometry":{"type":"MultiLineString","coordinates":[[[-2.3637849,53.5630991],[-2.3637304,53.5630562],[-2.3636667,53.5629816],[-2.3636394,53.5629114],[-2.363583,53.5626877],[-2.3635375,53.5625602],[-2.363483,53.5624791],[-2.3634084,53.5624208],[-2.3632956,53.5623776],[-2.3632992,53.5623149],[-2.3632785,53.5622936],[-2.3632606,53.5622682]]]}},
{"type":"Feature","properties":{"highway":"path","name":null,"category":"Shared path"},"geometry":{"type":"MultiLineString","coordinates":[[[-2.3646145,53.5683882],[-2.364694,53.5682518],[-2.3647736,53.5678971],[-2.364883,53.5675527],[-2.3649148,53.5675077],[-2.3649915,53.5674577],[-2.3650476,53.5674377],[-2.3652762,53.5673854]]]}},
{"type":"Feature","properties":{"highway":"path","name":null,"category":"Shared path"},"geometry":{"type":"MultiLineString","coordinates":[[[-2.365756,53.5668807],[-2.365487,53.5668774],[-2.3652027,53.5669184]]]}},
{"type":"Feature","properties":{"highway":"path","name":null,"category":"Shared path"},"geometry":{"type":"MultiLineString","coordinates":[[[-2.3888073,53.5625912],[-2.3885399,53.5624409],[-2.3878501,53.5622216],[-2.3875489,53.5621258],[-2.3872399,53.5620081],[-2.3869193,53.5618038],[-2.3867677,53.5616237],[-2.3867327,53.5615822],[-2.3864471,53.5611979],[-2.3862742,53.5610337]]]}},
{"type":"Feature","properties":{"highway":"path","name":null,"category":"Shared path"},"geometry":{"type":"MultiLineString","coordinates":[[[-2.3888475,53.5660945],[-2.3891503,53.5664587],[-2.3892716,53.566534],[-2.3894509,53.5665815],[-2.3898535,53.5666224],[-2.3900162,53.5666667],[-2.3901329,53.5666997],[-2.390482,53.5666928],[-2.3909916,53.5665463],[-2.3924775,53.5661959],[-2.3926451,53.5661429],[-2.3929168,53.56605]]]}},
{"type":"Feature","properties":{"highway":"path","name":null,"category":"Shared path"},"geometry":{"type":"MultiLineString","coordinates":[[[-2.3840389,53.5603503],[-2.3841402,53.5603702],[-2.3842845,53.5604547],[-2.3843599,53.5605405],[-2.3843954,53.5606473],[-2.3843954,53.5607554],[-2.3844365,53.560822]]]}},
{"type":"Feature","properties":{"highway":"path","name":null,"category":"Shared path"},"geometry":{"type":"MultiLineString","coordinates":[[[-2.3841402,53.5603702],[-2.3841967,53.5603429],[-2.3842762,53.5603354],[-2.3843661,53.5603404],[-2.3846151,53.5603988],[-2.3847239,53.5604286],[-2.3848096,53.5604361],[-2.384977,53.5604125],[-2.3854435,53.560287],[-2.3855334,53.560282],[-2.3856903,53.5603131],[-2.3857843,53.5603285]]]}},
{"type":"Feature","properties":{"highway":"path","name":null,"category":"Shared path"},"geometry":{"type":"MultiLineString","coordinates":[[[-2.3857413,53.5655292],[-2.3858482,53.5656]]]}},
{"type":"Feature","properties":{"highway":"path","name":null,"category":"Shared path"},"geometry":{"type":"MultiLineString","coordinates":[[[-2.3878501,53.5622216],[-2.3882794,53.5621111],[-2.3884077,53.562053],[-2.3888871,53.5618344],[-2.389012,53.5617422],[-2.3894204,53.5612008],[-2.3894407,53.5611006],[-2.3894069,53.5610043],[-2.3893259,53.5609181],[-2.3892111,53.5608579],[-2.389066,53.5608238],[-2.3888803,53.5608098],[-2.3886811,53.5608259],[-2.3885826,53.5608447],[-2.3883773,53.560884],[-2.3878811,53.5610384],[-2.3872228,53.5613051],[-2.3869122,53.5614735],[-2.3868379,53.5615357],[-2.3867677,53.5616237]]]}},
{"type":"Feature","properties":{"highway":"path","name":null,"category":"Shared path"},"geometry":{"type":"MultiLineString","coordinates":[[[-2.3885826,53.5608447],[-2.3880195,53.5608639],[-2.3869122,53.56088],[-2.3864396,53.560866],[-2.3861922,53.5608486]]]}},
{"type":"Feature","properties":{"highway":"path","name":null,"category":"Shared path"},"geometry":{"type":"MultiLineString","coordinates":[[[-2.3641233,53.5633501],[-2.3639501,53.5631037]]]}},
{"type":"Feature","properties":{"highway":"track","name":null,"category":"Track"},"geometry":{"type":"MultiLineString","coordinates":[[[-2.3818972,53.5704754],[-2.3820919,53.5705953],[-2.3821558,53.5706327],[-2.3822327,53.5706517],[-2.3823366,53.5706576],[-2.3824206,53.5706582],[-2.3824705,53.5706481],[-2.3825145,53.5706256],[-2.3826304,53.5705324]]]}},
{"type":"Feature","properties":{"highway":"track","name":null,"category":"Track"},"geometry":{"type":"MultiLineString","coordinates":[[[-2.3818301,53.5688477],[-2.3824384,53.5689722]]]}},
{"type":"Feature","properties":{"highway":"track","name":null,"category":"Track"},"geometry":{"type":"MultiLineString","coordinates":[[[-2.3821565,53.5681727],[-2.3818472,53.568094],[-2.3806942,53.5678768],[-2.3805853,53.5678661],[-2.3802416,53.5678596],[-2.3801017,53.5678625]]]}},
{"type":"Feature","properties":{"highway":"path","name":null,"category":"Shared path"},"geometry":{"type":"MultiLineString","coordinates":[[[-2.3786817,53.5657727],[-2.3783353,53.5657545]]]}},
{"type":"Feature","properties":{"highway":"track","name":null,"category":"Track"},"geometry":{"type":"MultiLineString","coordinates":[[[-2.3697485,53.5588426],[-2.3699186,53.5588251],[-2.370089,53.5587935],[-2.3702188,53.5587797],[-2.3710911,53.5587255],[-2.3716769,53.5586724]]]}}
]
}
