{
"type": "FeatureCollection",
"name": "BOLTO_5_cycling",
"crs": { "type": "name", "properties": { "name": "urn:ogc:def:crs:OGC:1.3:CRS84" } },
"features": [
{"type":"Feature","properties":{"highway":"track","name":null,"category":"Track"},"geometry":{"type":"MultiLineString","coordinates":[[[-2.4026353,53.5777655],[-2.4022851,53.5780357],[-2.4005599,53.579115],[-2.4004441,53.5791447],[-2.400151,53.5793179],[-2.4010766,53.5796939],[-2.4012706,53.5798327],[-2.4013011,53.5798545]]]}},
{"type":"Feature","properties":{"highway":"cycleway","name":null,"category":"Dedicated cycleway"},"geometry":{"type":"MultiLineString","coordinates":[[[-2.3966234,53.5744622],[-2.3962995,53.5746966],[-2.3961081,53.5748023],[-2.3958984,53.5748996],[-2.395491,53.5752755],[-2.3954061,53.5753918],[-2.3953749,53.5754394],[-2.3953471,53.5755092],[-2.3953127,53.5756404],[-2.3952899,53.5757639],[-2.3952869,53.5758555],[-2.3953589,53.5773013],[-2.3953945,53.5778531],[-2.3953987,53.5780742],[-2.3954508,53.5787038],[-2.3954642,53.579015]]]}},
{"type":"Feature","properties":{"highway":"path","name":null,"category":"Shared path"},"geometry":{"type":"MultiLineString","coordinates":[[[-2.3955016,53.5799295],[-2.3960327,53.5801881],[-2.3963132,53.580261],[-2.3970107,53.5805763]]]}},
{"type":"Feature","properties":{"highway":"path","name":null,"category":"Shared path"},"geometry":{"type":"MultiLineString","coordinates":[[[-2.3764697,53.5790071],[-2.3764628,53.578933],[-2.3764925,53.578902],[-2.3765504,53.5788275],[-2.3767158,53.5790627]]]}},
{"type":"Feature","properties":{"highway":"path","name":null,"category":"Shared path"},"geometry":{"type":"MultiLineString","coordinates":[[[-2.3853848,53.5744119],[-2.3853991,53.5743747],[-2.3854092,53.5743302],[-2.3853923,53.5741538],[-2.3854013,53.5741258],[-2.3868229,53.5741836],[-2.3868827,53.5742569],[-2.3870702,53.5743441],[-2.3874426,53.5744746],[-2.3885025,53.5747049],[-2.3889778,53.5749487]]]}},
{"type":"Feature","properties":{"highway":"track","name":null,"category":"Track"},"geometry":{"type":"MultiLineString","coordinates":[[[-2.3995615,53.5790282],[-2.3991607,53.5785375],[-2.3989091,53.578055],[-2.3986577,53.5774263]]]}},
{"type":"Feature","properties":{"highway":"path","name":null,"category":"Shared path"},"geometry":{"type":"MultiLineString","coordinates":[[[-2.3765882,53.5786907],[-2.3763814,53.5786683]]]}},
{"type":"Feature","properties":{"highway":"path","name":null,"category":"Shared path"},"geometry":{"type":"MultiLineString","coordinates":[[[-2.400151,53.5793179],[-2.3996937,53.5790946],[-2.3995615,53.5790282]]]}},
{"type":"Feature","properties":{"highway":"track","name":"Foster Lane","category":"Track"},"geometry":{"type":"MultiLineString","coordinates":[[[-2.3809114,53.5876968],[-2.3810623,53.5881192]]]}},
{"type":"Feature","properties":{"highway":"track","name":"Brinks Lane","category":"Track"},"geometry":{"type":"MultiLineString","coordinates":[[[-2.3703989,53.573668],[-2.3715584,53.5741651],[-2.3716595,53.5742084],[-2.3719207,53.5743534],[-2.3722426,53.5746254],[-2.3724741,53.574735],[-2.3725699,53.5747803],[-2.3729292,53.574935],[-2.372982,53.5749577],[-2.3731466,53.5749989],[-2.373175,53.5750376],[-2.3732068,53.5752389],[-2.3731875,53.5752755],[-2.3731017,53.5756068],[-2.3732643,53.5764623],[-2.3732733,53.5765139],[-2.3733452,53.5766319],[-2.3735144,53.5769146],[-2.3737454,53.5772885],[-2.373923,53.5774277],[-2.3739972,53.5775217],[-2.3740361,53.5776025],[-2.3740579,53.5777207],[-2.3740427,53.5778365],[-2.3740163,53.5779369],[-2.3739141,53.5782371],[-2.3738418,53.5784677],[-2.3738389,53.5784942],[-2.3738571,53.5787489],[-2.3738543,53.5787803],[-2.3738183,53.5788575]]]}},
{"type":"Feature","properties":{"highway":"track","name":null,"category":"Track"},"geometry":{"type":"MultiLineString","coordinates":[[[-2.3749775,53.578224],[-2.3751403,53.5776906],[-2.3751683,53.5775988]]]}},
{"type":"Feature","properties":{"highway":"track","name":"Foster Lane","category":"Track"},"geometry":{"type":"MultiLineString","coordinates":[[[-2.3812427,53.588502],[-2.3810623,53.5881192]]]}},
{"type":"Feature","properties":{"highway":"track","name":null,"category":"Track"},"geometry":{"type":"MultiLineString","coordinates":[[[-2.3697504,53.5788527],[-2.3699625,53.5788872],[-2.3709078,53.5790409],[-2.3712855,53.579079],[-2.3713577,53.579081],[-2.3735254,53.5788701],[-2.3735821,53.5787985]]]}},
{"type":"Feature","properties":{"highway":"path","name":null,"category":"Shared path"},"geometry":{"type":"MultiLineString","coordinates":[[[-2.3765504,53.5788275],[-2.3765882,53.5786907],[-2.3766612,53.5784438],[-2.3766429,53.5780726],[-2.3766413,53.5773562],[-2.3766413,53.5773115],[-2.3766773,53.5770436],[-2.3766797,53.5770254],[-2.3767484,53.5769751],[-2.3768537,53.5769307],[-2.3775882,53.5766877]]]}},
{"type":"Feature","properties":{"highway":"path","name":null,"category":"Shared path"},"geometry":{"type":"MultiLineString","coordinates":[[[-2.395513,53.5858642],[-2.3955237,53.5857639],[-2.3955592,53.5856748],[-2.3955859,53.5856077]]]}},
{"type":"Feature","properties":{"highway":"path","name":null,"category":"Shared path"},"geometry":{"type":"MultiLineString","coordinates":[[[-2.3946304,53.586864],[-2.3946351,53.5868036],[-2.3946458,53.586665],[-2.3947298,53.5864613],[-2.3949685,53.5861763],[-2.3953198,53.5858276],[-2.395405,53.5857869],[-2.3955237,53.5857639],[-2.3956658,53.5858579],[-2.3957892,53.5859709],[-2.3958321,53.586068],[-2.3958402,53.5861285]]]}},
{"type":"Feature","properties":{"highway":"track","name":null,"category":"Track"},"geometry":{"type":"MultiLineString","coordinates":[[[-2.3995615,53.5790282],[-2.399415,53.5790117],[-2.3991252,53.5789356],[-2.3988846,53.5787917]]]}},
{"type":"Feature","properties":{"highway":"path","name":null,"category":"Shared path"},"geometry":{"type":"MultiLineString","coordinates":[[[-2.3872399,53.5726952],[-2.3872471,53.5741915],[-2.3871662,53.5742613],[-2.3870702,53.5743441],[-2.3867638,53.5746047]]]}},
{"type":"Feature","properties":{"highway":"path","name":null,"category":"Shared path"},"geometry":{"type":"MultiLineString","coordinates":[[[-2.4018821,53.5882651],[-2.4002926,53.5876556],[-2.3999125,53.5874476],[-2.3998533,53.5873714],[-2.3998631,53.5872747],[-2.3999224,53.586967],[-2.399873,53.5866066],[-2.3996854,53.5862931],[-2.3994238,53.5860059],[-2.399177,53.5858448],[-2.3991248,53.5858316]]]}},
{"type":"Feature","properties":{"highway":"path","name":null,"category":"Shared path"},"geometry":{"type":"MultiLineString","coordinates":[[[-2.3932217,53.5792763],[-2.3932017,53.5792107],[-2.3930633,53.5791003],[-2.393,53.5790275],[-2.3929579,53.5789229]]]}},
{"type":"Feature","properties":{"highway":"path","name":null,"category":"Shared path"},"geometry":{"type":"MultiLineString","coordinates":[[[-2.3910843,53.59153],[-2.3910051,53.5914259],[-2.3909358,53.5913815],[-2.3908872,53.5913575],[-2.3899353,53.5909574],[-2.3888743,53.5905655],[-2.3888263,53.5904533],[-2.3888072,53.5904088]]]}},
{"type":"Feature","properties":{"highway":"path","name":null,"category":"Shared path"},"geometry":{"type":"MultiLineString","coordinates":[[[-2.3766429,53.5780726],[-2.376568,53.578071]]]}},
{"type":"Feature","properties":{"highway":"path","name":null,"category":"Shared path"},"geometry":{"type":"MultiLineString","coordinates":[[[-2.3902684,53.5844404],[-2.3902668,53.5842207]]]}},
{"type":"Feature","properties":{"highway":"track","name":null,"category":"Track"},"geometry":{"type":"MultiLineString","coordinates":[[[-2.3737184,53.5801045],[-2.3736726,53.5802187],[-2.3736697,53.5807962],[-2.373777,53.5809475],[-2.3741739,53.581293],[-2.3742356,53.5813201],[-2.3745414,53.5814475],[-2.3746594,53.5815239],[-2.3747533,53.5816227],[-2.3747908,53.5817023],[-2.3748472,53.5818456]]]}},
{"type":"Feature","properties":{"highway":"track","name":null,"category":"Track"},"geometry":{"type":"MultiLineString","coordinates":[[[-2.3748472,53.5818456],[-2.3750537,53.581844],[-2.3752495,53.581879],[-2.3755794,53.5819682],[-2.3758396,53.5820781],[-2.3759844,53.582215]]]}},
{"type":"Feature","properties":{"highway":"track","name":null,"category":"Track"},"geometry":{"type":"MultiLineString","coordinates":[[[-2.3814387,53.5884917],[-2.3812427,53.588502],[-2.3811846,53.5885114]]]}},
{"type":"Feature","properties":{"highway":"track","name":null,"category":"Track"},"geometry":{"type":"MultiLineString","coordinates":[[[-2.3832489,53.5885186],[-2.382829,53.5883613]]]}},
{"type":"Feature","properties":{"highway":"track","name":null,"category":"Track"},"geometry":{"type":"MultiLineString","coordinates":[[[-2.3735254,53.5788701],[-2.3735587,53.5789765],[-2.3735014,53.5790446],[-2.3734401,53.5791303],[-2.3732325,53.5792218],[-2.3729794,53.5793498],[-2.3728331,53.5794449]]]}},
{"type":"Feature","properties":{"highway":"path","name":null,"category":"Shared path"},"geometry":{"type":"MultiLineString","coordinates":[[[-2.3980301,53.5770294],[-2.397731,53.5772441],[-2.397668,53.5772768],[-2.3975201,53.5773225],[-2.3972302,53.577412],[-2.3971316,53.5774425],[-2.3960244,53.577664],[-2.3958174,53.5777302],[-2.3953945,53.5778531]]]}},
{"type":"Feature","properties":{"highway":"track","name":null,"category":"Track"},"geometry":{"type":"MultiLineString","coordinates":[[[-2.3882269,53.5773149],[-2.3877891,53.5770341]]]}},
{"type":"Feature","properties":{"highway":"track","name":null,"category":"Track"},"geometry":{"type":"MultiLineString","coordinates":[[[-2.3788545,53.5770218],[-2.3784155,53.5770333]]]}},
{"type":"Feature","properties":{"highway":"track","name":null,"category":"Track"},"geometry":{"type":"MultiLineString","coordinates":[[[-2.3790619,53.5770048],[-2.378908,53.5770174],[-2.3788545,53.5770218]]]}},
{"type":"Feature","properties":{"highway":"path","name":null,"category":"Shared path"},"geometry":{"type":"MultiLineString","coordinates":[[[-2.3784155,53.5770333],[-2.3783719,53.5770166],[-2.3781614,53.5769324],[-2.3780162,53.5769312],[-2.3778051,53.5768922],[-2.3777222,53.576889],[-2.3776868,53.576883],[-2.3776467,53.5768699]]]}},
{"type":"Feature","properties":{"highway":"track","name":null,"category":"Track"},"geometry":{"type":"MultiLineString","coordinates":[[[-2.3870948,53.5845639],[-2.3870491,53.5846344],[-2.3870273,53.584668],[-2.3869597,53.5847722]]]}},
{"type":"Feature","properties":{"highway":"path","name":null,"category":"Shared path"},"geometry":{"type":"MultiLineString","coordinates":[[[-2.3885025,53.5747049],[-2.3889505,53.5747812],[-2.3890989,53.5747815],[-2.3892234,53.5748058],[-2.3892491,53.5748575],[-2.3892866,53.5748774],[-2.3893637,53.5748763]]]}},
{"type":"Feature","properties":{"highway":"track","name":null,"category":"Track"},"geometry":{"type":"MultiLineString","coordinates":[[[-2.3982917,53.5787355],[-2.3977676,53.5783803]]]}},
{"type":"Feature","properties":{"highway":"path","name":null,"category":"Shared path"},"geometry":{"type":"MultiLineString","coordinates":[[[-2.3894111,53.5746253],[-2.3890989,53.5747815]]]}},
{"type":"Feature","properties":{"highway":"track","name":null,"category":"Track"},"geometry":{"type":"MultiLineString","coordinates":[[[-2.3931961,53.5771217],[-2.3931753,53.5771213],[-2.3930534,53.5771175]]]}},
{"type":"Feature","properties":{"highway":"track","name":null,"category":"Track"},"geometry":{"type":"MultiLineString","coordinates":[[[-2.3857525,53.5807919],[-2.3867414,53.5805613]]]}},
{"type":"Feature","properties":{"highway":"track","name":null,"category":"Track"},"geometry":{"type":"MultiLineString","coordinates":[[[-2.4012706,53.5798327],[-2.4012325,53.5798301],[-2.4011988,53.5798118],[-2.4011398,53.5797668],[-2.4011061,53.5797593],[-2.4009825,53.5797701],[-2.400463,53.5798218],[-2.4003858,53.5798334],[-2.4000768,53.5799126],[-2.4000165,53.5799051],[-2.3999715,53.5798793],[-2.399928,53.5798401],[-2.3999252,53.5798068],[-2.3999505,53.5797643],[-2.4000305,53.5797234],[-2.4001274,53.5796859],[-2.4003268,53.5796867],[-2.4007789,53.5796876],[-2.4008828,53.5796976],[-2.4008997,53.5797042],[-2.4009362,53.5797259],[-2.4009825,53.5797701]]]}},
{"type":"Feature","properties":{"highway":"cycle_lane_on_street","name":"Bury Road","category":"Cycle lane on street"},"geometry":{"type":"MultiLineString","coordinates":[[[-2.4060126,53.5805213],[-2.4058449,53.5805355],[-2.4056602,53.5805476],[-2.4047709,53.5805685],[-2.4042585,53.5805752],[-2.4026954,53.5806096],[-2.4012935,53.5806387],[-2.4010665,53.5806424],[-2.3996974,53.5806645],[-2.399635,53.5806655],[-2.3994489,53.5806685]]]}},
{"type":"Feature","properties":{"highway":"cycle_lane_on_street","name":"Bury Road","category":"Cycle lane on street"},"geometry":{"type":"MultiLineString","coordinates":[[[-2.3977134,53.5806953],[-2.3973061,53.5807117],[-2.3970206,53.580713],[-2.3966954,53.5807157],[-2.3957579,53.5807259]]]}},
{"type":"Feature","properties":{"highway":"cycle_lane_on_street","name":"Bury New Road","category":"Cycle lane on street"},"geometry":{"type":"MultiLineString","coordinates":[[[-2.3738183,53.5788575],[-2.3735821,53.5787985],[-2.371347,53.57824],[-2.3703558,53.5780093],[-2.37026,53.5779897]]]}}
]
}
