{
"type": "FeatureCollection",
"name": "3e6c290df24d_visibility",
"crs": { "type": "name", "properties": { "name": "urn:ogc:def:crs:OGC:1.3:CRS84" } },
"features": [
{ "type": "Feature", "properties": { "visible_points": 0, "total_points": 49, "visibility_pct": 0.0 }, "geometry": { "type": "Point", "coordinates": [ -2.109043989610948, 53.370700485869421 ] } },
{ "type": "Feature", "properties": { "visible_points": 0, "total_points": 52, "visibility_pct": 0.0 }, "geometry": { "type": "Point", "coordinates": [ -2.108835736910973, 53.370700674548246 ] } },
{ "type": "Feature", "properties": { "visible_points": 0, "total_points": 53, "visibility_pct": 0.0 }, "geometry": { "type": "Point", "coordinates": [ -2.109148390026588, 53.370808252669029 ] } },
{ "type": "Feature", "properties": { "visible_points": 0, "total_points": 57, "visibility_pct": 0.0 }, "geometry": { "type": "Point", "coordinates": [ -2.108940136800764, 53.370808441531537 ] } },
{ "type": "Feature", "properties": { "visible_points": 0, "total_points": 59, "visibility_pct": 0.0 }, "geometry": { "type": "Point", "coordinates": [ -2.108731883572588, 53.370808630030723 ] } },
{ "type": "Feature", "properties": { "visible_points": 0, "total_points": 59, "visibility_pct": 0.0 }, "geometry": { "type": "Point", "coordinates": [ -2.10852363034208, 53.370808818166587 ] } },
{ "type": "Feature", "properties": { "visible_points": 0, "total_points": 62, "visibility_pct": 0.0 }, "geometry": { "type": "Point", "coordinates": [ -2.109044537218743, 53.370916208420013 ] } },
{ "type": "Feature", "properties": { "visible_points": 0, "total_points": 65, "visibility_pct": 0.0 }, "geometry": { "type": "Point", "coordinates": [ -2.108836283464719, 53.370916397102889 ] } },
{ "type": "Feature", "properties": { "visible_points": 0, "total_points": 65, "visibility_pct": 0.0 }, "geometry": { "type": "Point", "coordinates": [ -2.108628029708347, 53.370916585422457 ] } },
{ "type": "Feature", "properties": { "visible_points": 0, "total_points": 65, "visibility_pct": 0.0 }, "geometry": { "type": "Point", "coordinates": [ -2.108419775949636, 53.370916773378696 ] } },
{ "type": "Feature", "properties": { "visible_points": 0, "total_points": 72, "visibility_pct": 0.0 }, "geometry": { "type": "Point", "coordinates": [ -2.108732429602811, 53.371024352583504 ] } },
{ "type": "Feature", "properties": { "visible_points": 0, "total_points": 72, "visibility_pct": 0.0 }, "geometry": { "type": "Point", "coordinates": [ -2.108524175318241, 53.37102454072344 ] } },
{ "type": "Feature", "properties": { "visible_points": 1, "total_points": 69, "visibility_pct": 1.4492753623188406 }, "geometry": { "type": "Point", "coordinates": [ -2.108315921031333, 53.371024728500046 ] } },
{ "type": "Feature", "properties": { "visible_points": 0, "total_points": 79, "visibility_pct": 0.0 }, "geometry": { "type": "Point", "coordinates": [ -2.10883683002547, 53.371132119649737 ] } },
{ "type": "Feature", "properties": { "visible_points": 9, "total_points": 79, "visibility_pct": 11.39240506329114 }, "geometry": { "type": "Point", "coordinates": [ -2.10862857521504, 53.371132307973369 ] } },
{ "type": "Feature", "properties": { "visible_points": 8, "total_points": 76, "visibility_pct": 10.526315789473683 }, "geometry": { "type": "Point", "coordinates": [ -2.108420320402264, 53.371132495933672 ] } },
{ "type": "Feature", "properties": { "visible_points": 4, "total_points": 68, "visibility_pct": 5.8823529411764701 }, "geometry": { "type": "Point", "coordinates": [ -2.108212065587155, 53.371132683530632 ] } },
{ "type": "Feature", "properties": { "visible_points": 0, "total_points": 81, "visibility_pct": 0.0 }, "geometry": { "type": "Point", "coordinates": [ -2.108941230976336, 53.371239886621119 ] } },
{ "type": "Feature", "properties": { "visible_points": 9, "total_points": 83, "visibility_pct": 10.843373493975903 }, "geometry": { "type": "Point", "coordinates": [ -2.108732975640034, 53.371240075128469 ] } },
{ "type": "Feature", "properties": { "visible_points": 9, "total_points": 81, "visibility_pct": 11.111111111111111 }, "geometry": { "type": "Point", "coordinates": [ -2.108524720301394, 53.371240263272462 ] } },
{ "type": "Feature", "properties": { "visible_points": 7, "total_points": 74, "visibility_pct": 9.4594594594594597 }, "geometry": { "type": "Point", "coordinates": [ -2.108316464960417, 53.37124045105314 ] } },
{ "type": "Feature", "properties": { "visible_points": 0, "total_points": 83, "visibility_pct": 0.0 }, "geometry": { "type": "Point", "coordinates": [ -2.108837376593236, 53.371347842188726 ] } },
{ "type": "Feature", "properties": { "visible_points": 11, "total_points": 83, "visibility_pct": 13.253012048192772 }, "geometry": { "type": "Point", "coordinates": [ -2.108629120728727, 53.371348030516451 ] } },
{ "type": "Feature", "properties": { "visible_points": 9, "total_points": 79, "visibility_pct": 11.39240506329114 }, "geometry": { "type": "Point", "coordinates": [ -2.108420864861873, 53.371348218480797 ] } },
{ "type": "Feature", "properties": { "visible_points": 0, "total_points": 76, "visibility_pct": 0.0 }, "geometry": { "type": "Point", "coordinates": [ -2.108941778074646, 53.371455609154168 ] } },
{ "type": "Feature", "properties": { "visible_points": 10, "total_points": 77, "visibility_pct": 12.987012987012985 }, "geometry": { "type": "Point", "coordinates": [ -2.108733521684265, 53.371455797665583 ] } },
{ "type": "Feature", "properties": { "visible_points": 10, "total_points": 76, "visibility_pct": 13.157894736842104 }, "geometry": { "type": "Point", "coordinates": [ -2.108525265291536, 53.371455985813647 ] } },
{ "type": "Feature", "properties": { "visible_points": 1, "total_points": 73, "visibility_pct": 1.3698630136986301 }, "geometry": { "type": "Point", "coordinates": [ -2.108317008896477, 53.371456173598396 ] } },
{ "type": "Feature", "properties": { "visible_points": 0, "total_points": 67, "visibility_pct": 0.0 }, "geometry": { "type": "Point", "coordinates": [ -2.109046180084271, 53.371563376024781 ] } },
{ "type": "Feature", "properties": { "visible_points": 10, "total_points": 69, "visibility_pct": 14.492753623188406 }, "geometry": { "type": "Point", "coordinates": [ -2.108837923168017, 53.371563564719892 ] } },
{ "type": "Feature", "properties": { "visible_points": 10, "total_points": 69, "visibility_pct": 14.492753623188406 }, "geometry": { "type": "Point", "coordinates": [ -2.108629666249407, 53.371563753051667 ] } },
{ "type": "Feature", "properties": { "visible_points": 10, "total_points": 68, "visibility_pct": 14.705882352941178 }, "geometry": { "type": "Point", "coordinates": [ -2.108421409328471, 53.371563941020121 ] } },
{ "type": "Feature", "properties": { "visible_points": 7, "total_points": 61, "visibility_pct": 11.475409836065573 }, "geometry": { "type": "Point", "coordinates": [ -2.108942325179978, 53.37167133167938 ] } },
{ "type": "Feature", "properties": { "visible_points": 0, "total_points": 62, "visibility_pct": 0.0 }, "geometry": { "type": "Point", "coordinates": [ -2.108734067735497, 53.371671520194866 ] } },
{ "type": "Feature", "properties": { "visible_points": 9, "total_points": 62, "visibility_pct": 14.516129032258066 }, "geometry": { "type": "Point", "coordinates": [ -2.108525810288672, 53.371671708347009 ] } },
{ "type": "Feature", "properties": { "visible_points": 1, "total_points": 60, "visibility_pct": 1.6666666666666667 }, "geometry": { "type": "Point", "coordinates": [ -2.108317552839515, 53.371671896135801 ] } },
{ "type": "Feature", "properties": { "visible_points": 0, "total_points": 55, "visibility_pct": 0.0 }, "geometry": { "type": "Point", "coordinates": [ -2.108838469749799, 53.371779287243221 ] } },
{ "type": "Feature", "properties": { "visible_points": 0, "total_points": 55, "visibility_pct": 0.0 }, "geometry": { "type": "Point", "coordinates": [ -2.108630211777092, 53.371779475579075 ] } },
{ "type": "Feature", "properties": { "visible_points": 0, "total_points": 55, "visibility_pct": 0.0 }, "geometry": { "type": "Point", "coordinates": [ -2.108421953802048, 53.371779663551585 ] } },
{ "type": "Feature", "properties": { "visible_points": 0, "total_points": 49, "visibility_pct": 0.0 }, "geometry": { "type": "Point", "coordinates": [ -2.108734613793735, 53.371887242716312 ] } },
{ "type": "Feature", "properties": { "visible_points": 0, "total_points": 49, "visibility_pct": 0.0 }, "geometry": { "type": "Point", "coordinates": [ -2.108526355292797, 53.371887430872533 ] } },
{ "type": "Feature", "properties": { "visible_points": 0, "total_points": 47, "visibility_pct": 0.0 }, "geometry": { "type": "Point", "coordinates": [ -2.108318096789529, 53.371887618665411 ] } }
]
}
