{
"type": "FeatureCollection",
"name": "4441d65e56f3_visibility",
"crs": { "type": "name", "properties": { "name": "urn:ogc:def:crs:OGC:1.3:CRS84" } },
"features": [
{ "type": "Feature", "properties": { "visible_points": 40, "total_points": 77, "visibility_pct": 51.94805194805194 }, "geometry": { "type": "Point", "coordinates": [ -2.154030242826168, 53.337704524318596 ] } },
{ "type": "Feature", "properties": { "visible_points": 35, "total_points": 78, "visibility_pct": 44.871794871794876 }, "geometry": { "type": "Point", "coordinates": [ -2.153822151510003, 53.337704794719485 ] } },
{ "type": "Feature", "properties": { "visible_points": 35, "total_points": 80, "visibility_pct": 43.75 }, "geometry": { "type": "Point", "coordinates": [ -2.153614060190548, 53.337705064757486 ] } },
{ "type": "Feature", "properties": { "visible_points": 47, "total_points": 82, "visibility_pct": 57.317073170731703 }, "geometry": { "type": "Point", "coordinates": [ -2.153405968867807, 53.337705334432606 ] } },
{ "type": "Feature", "properties": { "visible_points": 48, "total_points": 83, "visibility_pct": 57.831325301204814 }, "geometry": { "type": "Point", "coordinates": [ -2.153197877541784, 53.337705603744787 ] } },
{ "type": "Feature", "properties": { "visible_points": 38, "total_points": 84, "visibility_pct": 45.238095238095241 }, "geometry": { "type": "Point", "coordinates": [ -2.152989786212483, 53.337705872694087 ] } },
{ "type": "Feature", "properties": { "visible_points": 35, "total_points": 81, "visibility_pct": 43.209876543209873 }, "geometry": { "type": "Point", "coordinates": [ -2.152781694879913, 53.337706141280464 ] } },
{ "type": "Feature", "properties": { "visible_points": 35, "total_points": 76, "visibility_pct": 46.05263157894737 }, "geometry": { "type": "Point", "coordinates": [ -2.152573603544068, 53.337706409503923 ] } },
{ "type": "Feature", "properties": { "visible_points": 43, "total_points": 69, "visibility_pct": 62.318840579710141 }, "geometry": { "type": "Point", "coordinates": [ -2.152365512204968, 53.337706677364515 ] } },
{ "type": "Feature", "properties": { "visible_points": 37, "total_points": 61, "visibility_pct": 60.655737704918032 }, "geometry": { "type": "Point", "coordinates": [ -2.152157420862602, 53.337706944862191 ] } },
{ "type": "Feature", "properties": { "visible_points": 34, "total_points": 70, "visibility_pct": 48.571428571428569 }, "geometry": { "type": "Point", "coordinates": [ -2.154967046272396, 53.337811166220384 ] } },
{ "type": "Feature", "properties": { "visible_points": 33, "total_points": 77, "visibility_pct": 42.857142857142854 }, "geometry": { "type": "Point", "coordinates": [ -2.154758954452606, 53.337811438255152 ] } },
{ "type": "Feature", "properties": { "visible_points": 35, "total_points": 82, "visibility_pct": 42.68292682926829 }, "geometry": { "type": "Point", "coordinates": [ -2.15455086262951, 53.337811709926996 ] } },
{ "type": "Feature", "properties": { "visible_points": 38, "total_points": 85, "visibility_pct": 44.705882352941181 }, "geometry": { "type": "Point", "coordinates": [ -2.154342770803111, 53.337811981235959 ] } },
{ "type": "Feature", "properties": { "visible_points": 38, "total_points": 87, "visibility_pct": 43.678160919540232 }, "geometry": { "type": "Point", "coordinates": [ -2.154134678973402, 53.337812252182005 ] } },
{ "type": "Feature", "properties": { "visible_points": 41, "total_points": 89, "visibility_pct": 46.067415730337082 }, "geometry": { "type": "Point", "coordinates": [ -2.153926587140403, 53.337812522765148 ] } },
{ "type": "Feature", "properties": { "visible_points": 42, "total_points": 90, "visibility_pct": 46.666666666666664 }, "geometry": { "type": "Point", "coordinates": [ -2.153718495304107, 53.337812792985382 ] } },
{ "type": "Feature", "properties": { "visible_points": 54, "total_points": 92, "visibility_pct": 58.695652173913047 }, "geometry": { "type": "Point", "coordinates": [ -2.153510403464526, 53.33781306284272 ] } },
{ "type": "Feature", "properties": { "visible_points": 55, "total_points": 93, "visibility_pct": 59.13978494623656 }, "geometry": { "type": "Point", "coordinates": [ -2.153302311621657, 53.337813332337127 ] } },
{ "type": "Feature", "properties": { "visible_points": 43, "total_points": 94, "visibility_pct": 45.744680851063826 }, "geometry": { "type": "Point", "coordinates": [ -2.153094219775513, 53.33781360146866 ] } },
{ "type": "Feature", "properties": { "visible_points": 45, "total_points": 94, "visibility_pct": 47.872340425531917 }, "geometry": { "type": "Point", "coordinates": [ -2.152886127926089, 53.337813870237255 ] } },
{ "type": "Feature", "properties": { "visible_points": 42, "total_points": 89, "visibility_pct": 47.191011235955052 }, "geometry": { "type": "Point", "coordinates": [ -2.152678036073395, 53.337814138642962 ] } },
{ "type": "Feature", "properties": { "visible_points": 44, "total_points": 82, "visibility_pct": 53.658536585365859 }, "geometry": { "type": "Point", "coordinates": [ -2.152469944217439, 53.337814406685759 ] } },
{ "type": "Feature", "properties": { "visible_points": 40, "total_points": 73, "visibility_pct": 54.794520547945204 }, "geometry": { "type": "Point", "coordinates": [ -2.152261852358222, 53.337814674365653 ] } },
{ "type": "Feature", "properties": { "visible_points": 39, "total_points": 55, "visibility_pct": 70.909090909090907 }, "geometry": { "type": "Point", "coordinates": [ -2.155487669670364, 53.337918347738636 ] } },
{ "type": "Feature", "properties": { "visible_points": 42, "total_points": 65, "visibility_pct": 64.615384615384613 }, "geometry": { "type": "Point", "coordinates": [ -2.155279577340389, 53.33791862068145 ] } },
{ "type": "Feature", "properties": { "visible_points": 49, "total_points": 74, "visibility_pct": 66.21621621621621 }, "geometry": { "type": "Point", "coordinates": [ -2.155071485007086, 53.337918893261381 ] } },
{ "type": "Feature", "properties": { "visible_points": 42, "total_points": 83, "visibility_pct": 50.602409638554214 }, "geometry": { "type": "Point", "coordinates": [ -2.154863392670471, 53.337919165478382 ] } },
{ "type": "Feature", "properties": { "visible_points": 43, "total_points": 90, "visibility_pct": 47.777777777777779 }, "geometry": { "type": "Point", "coordinates": [ -2.15465530033054, 53.337919437332474 ] } },
{ "type": "Feature", "properties": { "visible_points": 38, "total_points": 94, "visibility_pct": 40.425531914893611 }, "geometry": { "type": "Point", "coordinates": [ -2.154447207987304, 53.337919708823677 ] } },
{ "type": "Feature", "properties": { "visible_points": 40, "total_points": 96, "visibility_pct": 41.666666666666671 }, "geometry": { "type": "Point", "coordinates": [ -2.154239115640761, 53.337919979951948 ] } },
{ "type": "Feature", "properties": { "visible_points": 36, "total_points": 98, "visibility_pct": 36.734693877551024 }, "geometry": { "type": "Point", "coordinates": [ -2.154031023290919, 53.337920250717332 ] } },
{ "type": "Feature", "properties": { "visible_points": 47, "total_points": 100, "visibility_pct": 47.0 }, "geometry": { "type": "Point", "coordinates": [ -2.153822930937783, 53.337920521119791 ] } },
{ "type": "Feature", "properties": { "visible_points": 52, "total_points": 101, "visibility_pct": 51.485148514851488 }, "geometry": { "type": "Point", "coordinates": [ -2.153614838581355, 53.337920791159355 ] } },
{ "type": "Feature", "properties": { "visible_points": 49, "total_points": 102, "visibility_pct": 48.03921568627451 }, "geometry": { "type": "Point", "coordinates": [ -2.153406746221644, 53.337921060836031 ] } },
{ "type": "Feature", "properties": { "visible_points": 41, "total_points": 103, "visibility_pct": 39.805825242718448 }, "geometry": { "type": "Point", "coordinates": [ -2.153198653858648, 53.337921330149747 ] } },
{ "type": "Feature", "properties": { "visible_points": 44, "total_points": 104, "visibility_pct": 42.307692307692307 }, "geometry": { "type": "Point", "coordinates": [ -2.152990561492374, 53.337921599100596 ] } },
{ "type": "Feature", "properties": { "visible_points": 45, "total_points": 102, "visibility_pct": 44.117647058823529 }, "geometry": { "type": "Point", "coordinates": [ -2.15278246912283, 53.337921867688522 ] } },
{ "type": "Feature", "properties": { "visible_points": 40, "total_points": 95, "visibility_pct": 42.105263157894733 }, "geometry": { "type": "Point", "coordinates": [ -2.152574376750015, 53.337922135913544 ] } },
{ "type": "Feature", "properties": { "visible_points": 41, "total_points": 84, "visibility_pct": 48.80952380952381 }, "geometry": { "type": "Point", "coordinates": [ -2.152366284373938, 53.337922403775664 ] } },
{ "type": "Feature", "properties": { "visible_points": 36, "total_points": 73, "visibility_pct": 49.315068493150683 }, "geometry": { "type": "Point", "coordinates": [ -2.152158191994602, 53.337922671274875 ] } },
{ "type": "Feature", "properties": { "visible_points": 38, "total_points": 66, "visibility_pct": 57.575757575757578 }, "geometry": { "type": "Point", "coordinates": [ -2.155384017112047, 53.338026347446743 ] } },
{ "type": "Feature", "properties": { "visible_points": 43, "total_points": 77, "visibility_pct": 55.844155844155843 }, "geometry": { "type": "Point", "coordinates": [ -2.155175924261913, 53.3380266202089 ] } },
{ "type": "Feature", "properties": { "visible_points": 46, "total_points": 87, "visibility_pct": 52.873563218390807 }, "geometry": { "type": "Point", "coordinates": [ -2.154967831408467, 53.338026892608148 ] } },
{ "type": "Feature", "properties": { "visible_points": 51, "total_points": 96, "visibility_pct": 53.125 }, "geometry": { "type": "Point", "coordinates": [ -2.154759738551702, 53.338027164644487 ] } },
{ "type": "Feature", "properties": { "visible_points": 52, "total_points": 103, "visibility_pct": 50.485436893203882 }, "geometry": { "type": "Point", "coordinates": [ -2.154551645691626, 53.338027436317901 ] } },
{ "type": "Feature", "properties": { "visible_points": 41, "total_points": 104, "visibility_pct": 39.42307692307692 }, "geometry": { "type": "Point", "coordinates": [ -2.154343552828245, 53.338027707628434 ] } },
{ "type": "Feature", "properties": { "visible_points": 39, "total_points": 106, "visibility_pct": 36.79245283018868 }, "geometry": { "type": "Point", "coordinates": [ -2.15413545996156, 53.338027978576051 ] } },
{ "type": "Feature", "properties": { "visible_points": 44, "total_points": 108, "visibility_pct": 40.74074074074074 }, "geometry": { "type": "Point", "coordinates": [ -2.15392736709158, 53.338028249160757 ] } },
{ "type": "Feature", "properties": { "visible_points": 51, "total_points": 110, "visibility_pct": 46.36363636363636 }, "geometry": { "type": "Point", "coordinates": [ -2.153719274218306, 53.338028519382554 ] } },
{ "type": "Feature", "properties": { "visible_points": 45, "total_points": 110, "visibility_pct": 40.909090909090914 }, "geometry": { "type": "Point", "coordinates": [ -2.153511181341746, 53.338028789241442 ] } },
{ "type": "Feature", "properties": { "visible_points": 46, "total_points": 111, "visibility_pct": 41.441441441441441 }, "geometry": { "type": "Point", "coordinates": [ -2.153303088461898, 53.338029058737405 ] } },
{ "type": "Feature", "properties": { "visible_points": 44, "total_points": 112, "visibility_pct": 39.285714285714285 }, "geometry": { "type": "Point", "coordinates": [ -2.153094995578775, 53.338029327870473 ] } },
{ "type": "Feature", "properties": { "visible_points": 42, "total_points": 113, "visibility_pct": 37.168141592920357 }, "geometry": { "type": "Point", "coordinates": [ -2.152886902692373, 53.338029596640638 ] } },
{ "type": "Feature", "properties": { "visible_points": 40, "total_points": 107, "visibility_pct": 37.383177570093459 }, "geometry": { "type": "Point", "coordinates": [ -2.152678809802703, 53.338029865047879 ] } },
{ "type": "Feature", "properties": { "visible_points": 41, "total_points": 95, "visibility_pct": 43.15789473684211 }, "geometry": { "type": "Point", "coordinates": [ -2.152470716909762, 53.338030133092218 ] } },
{ "type": "Feature", "properties": { "visible_points": 32, "total_points": 83, "visibility_pct": 38.554216867469883 }, "geometry": { "type": "Point", "coordinates": [ -2.152262624013567, 53.338030400773668 ] } },
{ "type": "Feature", "properties": { "visible_points": 23, "total_points": 71, "visibility_pct": 32.394366197183103 }, "geometry": { "type": "Point", "coordinates": [ -2.15205453111411, 53.338030668092181 ] } },
{ "type": "Feature", "properties": { "visible_points": 34, "total_points": 77, "visibility_pct": 44.155844155844157 }, "geometry": { "type": "Point", "coordinates": [ -2.155280364036886, 53.338134347062947 ] } },
{ "type": "Feature", "properties": { "visible_points": 41, "total_points": 89, "visibility_pct": 46.067415730337082 }, "geometry": { "type": "Point", "coordinates": [ -2.155072270666597, 53.338134619644443 ] } },
{ "type": "Feature", "properties": { "visible_points": 46, "total_points": 100, "visibility_pct": 46.0 }, "geometry": { "type": "Point", "coordinates": [ -2.154864177292996, 53.338134891863021 ] } },
{ "type": "Feature", "properties": { "visible_points": 52, "total_points": 109, "visibility_pct": 47.706422018348626 }, "geometry": { "type": "Point", "coordinates": [ -2.154656083916081, 53.33813516371869 ] } },
{ "type": "Feature", "properties": { "visible_points": 50, "total_points": 112, "visibility_pct": 44.642857142857146 }, "geometry": { "type": "Point", "coordinates": [ -2.154447990535858, 53.338135435211449 ] } },
{ "type": "Feature", "properties": { "visible_points": 51, "total_points": 113, "visibility_pct": 45.132743362831853 }, "geometry": { "type": "Point", "coordinates": [ -2.154239897152329, 53.338135706341305 ] } },
{ "type": "Feature", "properties": { "visible_points": 54, "total_points": 114, "visibility_pct": 47.368421052631575 }, "geometry": { "type": "Point", "coordinates": [ -2.154031803765503, 53.338135977108237 ] } },
{ "type": "Feature", "properties": { "visible_points": 50, "total_points": 115, "visibility_pct": 43.478260869565219 }, "geometry": { "type": "Point", "coordinates": [ -2.153823710375383, 53.338136247512281 ] } },
{ "type": "Feature", "properties": { "visible_points": 47, "total_points": 115, "visibility_pct": 40.869565217391305 }, "geometry": { "type": "Point", "coordinates": [ -2.153615616981969, 53.338136517553394 ] } },
{ "type": "Feature", "properties": { "visible_points": 46, "total_points": 115, "visibility_pct": 40.0 }, "geometry": { "type": "Point", "coordinates": [ -2.153407523585268, 53.338136787231605 ] } },
{ "type": "Feature", "properties": { "visible_points": 47, "total_points": 114, "visibility_pct": 41.228070175438596 }, "geometry": { "type": "Point", "coordinates": [ -2.153199430185289, 53.338137056546906 ] } },
{ "type": "Feature", "properties": { "visible_points": 51, "total_points": 114, "visibility_pct": 44.736842105263158 }, "geometry": { "type": "Point", "coordinates": [ -2.152991336782031, 53.338137325499289 ] } },
{ "type": "Feature", "properties": { "visible_points": 32, "total_points": 110, "visibility_pct": 29.09090909090909 }, "geometry": { "type": "Point", "coordinates": [ -2.152783243375497, 53.338137594088771 ] } },
{ "type": "Feature", "properties": { "visible_points": 43, "total_points": 100, "visibility_pct": 43.0 }, "geometry": { "type": "Point", "coordinates": [ -2.1525751499657, 53.338137862315335 ] } },
{ "type": "Feature", "properties": { "visible_points": 38, "total_points": 89, "visibility_pct": 42.696629213483142 }, "geometry": { "type": "Point", "coordinates": [ -2.152367056552635, 53.338138130178997 ] } },
{ "type": "Feature", "properties": { "visible_points": 27, "total_points": 78, "visibility_pct": 34.615384615384613 }, "geometry": { "type": "Point", "coordinates": [ -2.152158963136312, 53.338138397679735 ] } },
{ "type": "Feature", "properties": { "visible_points": 29, "total_points": 76, "visibility_pct": 38.15789473684211 }, "geometry": { "type": "Point", "coordinates": [ -2.155384804331994, 53.338242073823537 ] } },
{ "type": "Feature", "properties": { "visible_points": 34, "total_points": 88, "visibility_pct": 38.636363636363633 }, "geometry": { "type": "Point", "coordinates": [ -2.155176710444874, 53.338242346587258 ] } },
{ "type": "Feature", "properties": { "visible_points": 35, "total_points": 100, "visibility_pct": 35.0 }, "geometry": { "type": "Point", "coordinates": [ -2.15496861655443, 53.338242618988104 ] } },
{ "type": "Feature", "properties": { "visible_points": 34, "total_points": 111, "visibility_pct": 30.630630630630627 }, "geometry": { "type": "Point", "coordinates": [ -2.154760522660672, 53.338242891025999 ] } },
{ "type": "Feature", "properties": { "visible_points": 41, "total_points": 116, "visibility_pct": 35.344827586206897 }, "geometry": { "type": "Point", "coordinates": [ -2.154552428763607, 53.338243162701012 ] } },
{ "type": "Feature", "properties": { "visible_points": 45, "total_points": 116, "visibility_pct": 38.793103448275865 }, "geometry": { "type": "Point", "coordinates": [ -2.154344334863233, 53.338243434013087 ] } },
{ "type": "Feature", "properties": { "visible_points": 50, "total_points": 115, "visibility_pct": 43.478260869565219 }, "geometry": { "type": "Point", "coordinates": [ -2.154136240959558, 53.338243704962288 ] } },
{ "type": "Feature", "properties": { "visible_points": 54, "total_points": 113, "visibility_pct": 47.787610619469028 }, "geometry": { "type": "Point", "coordinates": [ -2.153928147052586, 53.338243975548544 ] } },
{ "type": "Feature", "properties": { "visible_points": 40, "total_points": 112, "visibility_pct": 35.714285714285715 }, "geometry": { "type": "Point", "coordinates": [ -2.153720053142318, 53.338244245771897 ] } },
{ "type": "Feature", "properties": { "visible_points": 39, "total_points": 111, "visibility_pct": 35.135135135135137 }, "geometry": { "type": "Point", "coordinates": [ -2.153511959228765, 53.338244515632326 ] } },
{ "type": "Feature", "properties": { "visible_points": 44, "total_points": 110, "visibility_pct": 40.0 }, "geometry": { "type": "Point", "coordinates": [ -2.153303865311925, 53.338244785129874 ] } },
{ "type": "Feature", "properties": { "visible_points": 46, "total_points": 109, "visibility_pct": 42.201834862385326 }, "geometry": { "type": "Point", "coordinates": [ -2.153095771391807, 53.338245054264483 ] } },
{ "type": "Feature", "properties": { "visible_points": 39, "total_points": 106, "visibility_pct": 36.79245283018868 }, "geometry": { "type": "Point", "coordinates": [ -2.152887677468416, 53.338245323036197 ] } },
{ "type": "Feature", "properties": { "visible_points": 35, "total_points": 98, "visibility_pct": 35.714285714285715 }, "geometry": { "type": "Point", "coordinates": [ -2.152679583541751, 53.338245591444995 ] } },
{ "type": "Feature", "properties": { "visible_points": 40, "total_points": 88, "visibility_pct": 45.454545454545453 }, "geometry": { "type": "Point", "coordinates": [ -2.152471489611821, 53.338245859490883 ] } },
{ "type": "Feature", "properties": { "visible_points": 46, "total_points": 78, "visibility_pct": 58.974358974358978 }, "geometry": { "type": "Point", "coordinates": [ -2.152263395678628, 53.338246127173839 ] } },
{ "type": "Feature", "properties": { "visible_points": 42, "total_points": 67, "visibility_pct": 62.68656716417911 }, "geometry": { "type": "Point", "coordinates": [ -2.15205530174218, 53.3382463944939 ] } },
{ "type": "Feature", "properties": { "visible_points": 27, "total_points": 82, "visibility_pct": 32.926829268292686 }, "geometry": { "type": "Point", "coordinates": [ -2.155281150743292, 53.338350073436622 ] } },
{ "type": "Feature", "properties": { "visible_points": 28, "total_points": 93, "visibility_pct": 30.107526881720432 }, "geometry": { "type": "Point", "coordinates": [ -2.15507305633601, 53.338350346019695 ] } },
{ "type": "Feature", "properties": { "visible_points": 30, "total_points": 103, "visibility_pct": 29.126213592233007 }, "geometry": { "type": "Point", "coordinates": [ -2.154864961925408, 53.338350618239858 ] } },
{ "type": "Feature", "properties": { "visible_points": 38, "total_points": 110, "visibility_pct": 34.545454545454547 }, "geometry": { "type": "Point", "coordinates": [ -2.154656867511493, 53.338350890097082 ] } },
{ "type": "Feature", "properties": { "visible_points": 42, "total_points": 111, "visibility_pct": 37.837837837837839 }, "geometry": { "type": "Point", "coordinates": [ -2.154448773094273, 53.338351161591412 ] } },
{ "type": "Feature", "properties": { "visible_points": 39, "total_points": 109, "visibility_pct": 35.779816513761467 }, "geometry": { "type": "Point", "coordinates": [ -2.154240678673748, 53.338351432722831 ] } },
{ "type": "Feature", "properties": { "visible_points": 32, "total_points": 107, "visibility_pct": 29.906542056074763 }, "geometry": { "type": "Point", "coordinates": [ -2.154032584249916, 53.338351703491341 ] } },
{ "type": "Feature", "properties": { "visible_points": 29, "total_points": 105, "visibility_pct": 27.61904761904762 }, "geometry": { "type": "Point", "coordinates": [ -2.153824489822798, 53.338351973896927 ] } },
{ "type": "Feature", "properties": { "visible_points": 34, "total_points": 103, "visibility_pct": 33.009708737864081 }, "geometry": { "type": "Point", "coordinates": [ -2.153616395392385, 53.338352243939603 ] } },
{ "type": "Feature", "properties": { "visible_points": 34, "total_points": 102, "visibility_pct": 33.333333333333329 }, "geometry": { "type": "Point", "coordinates": [ -2.153408300958688, 53.338352513619377 ] } },
{ "type": "Feature", "properties": { "visible_points": 34, "total_points": 101, "visibility_pct": 33.663366336633665 }, "geometry": { "type": "Point", "coordinates": [ -2.153200206521707, 53.338352782936219 ] } },
{ "type": "Feature", "properties": { "visible_points": 37, "total_points": 98, "visibility_pct": 37.755102040816325 }, "geometry": { "type": "Point", "coordinates": [ -2.152992112081453, 53.338353051890174 ] } },
{ "type": "Feature", "properties": { "visible_points": 39, "total_points": 93, "visibility_pct": 41.935483870967744 }, "geometry": { "type": "Point", "coordinates": [ -2.152784017637919, 53.33835332048119 ] } },
{ "type": "Feature", "properties": { "visible_points": 34, "total_points": 85, "visibility_pct": 40.0 }, "geometry": { "type": "Point", "coordinates": [ -2.152575923191121, 53.338353588709296 ] } },
{ "type": "Feature", "properties": { "visible_points": 31, "total_points": 76, "visibility_pct": 40.789473684210527 }, "geometry": { "type": "Point", "coordinates": [ -2.152367828741058, 53.338353856574493 ] } },
{ "type": "Feature", "properties": { "visible_points": 16, "total_points": 66, "visibility_pct": 24.242424242424242 }, "geometry": { "type": "Point", "coordinates": [ -2.152159734287737, 53.33835412407678 ] } },
{ "type": "Feature", "properties": { "visible_points": 27, "total_points": 71, "visibility_pct": 38.028169014084504 }, "geometry": { "type": "Point", "coordinates": [ -2.15538559156186, 53.338457800192494 ] } },
{ "type": "Feature", "properties": { "visible_points": 30, "total_points": 81, "visibility_pct": 37.037037037037038 }, "geometry": { "type": "Point", "coordinates": [ -2.155177496637735, 53.338458072957813 ] } },
{ "type": "Feature", "properties": { "visible_points": 37, "total_points": 90, "visibility_pct": 41.111111111111107 }, "geometry": { "type": "Point", "coordinates": [ -2.154969401710289, 53.338458345360216 ] } },
{ "type": "Feature", "properties": { "visible_points": 42, "total_points": 98, "visibility_pct": 42.857142857142854 }, "geometry": { "type": "Point", "coordinates": [ -2.154761306779525, 53.338458617399695 ] } },
{ "type": "Feature", "properties": { "visible_points": 37, "total_points": 103, "visibility_pct": 35.922330097087382 }, "geometry": { "type": "Point", "coordinates": [ -2.154553211845454, 53.338458889076279 ] } },
{ "type": "Feature", "properties": { "visible_points": 29, "total_points": 101, "visibility_pct": 28.71287128712871 }, "geometry": { "type": "Point", "coordinates": [ -2.154345116908072, 53.338459160389924 ] } },
{ "type": "Feature", "properties": { "visible_points": 31, "total_points": 99, "visibility_pct": 31.313131313131315 }, "geometry": { "type": "Point", "coordinates": [ -2.154137021967394, 53.338459431340681 ] } },
{ "type": "Feature", "properties": { "visible_points": 29, "total_points": 97, "visibility_pct": 29.896907216494846 }, "geometry": { "type": "Point", "coordinates": [ -2.153928927023414, 53.338459701928521 ] } },
{ "type": "Feature", "properties": { "visible_points": 29, "total_points": 95, "visibility_pct": 30.526315789473685 }, "geometry": { "type": "Point", "coordinates": [ -2.153720832076143, 53.338459972153409 ] } },
{ "type": "Feature", "properties": { "visible_points": 23, "total_points": 93, "visibility_pct": 24.731182795698924 }, "geometry": { "type": "Point", "coordinates": [ -2.153512737125582, 53.338460242015415 ] } },
{ "type": "Feature", "properties": { "visible_points": 36, "total_points": 92, "visibility_pct": 39.130434782608695 }, "geometry": { "type": "Point", "coordinates": [ -2.153304642171736, 53.338460511514505 ] } },
{ "type": "Feature", "properties": { "visible_points": 35, "total_points": 89, "visibility_pct": 39.325842696629216 }, "geometry": { "type": "Point", "coordinates": [ -2.153096547214615, 53.338460780650671 ] } },
{ "type": "Feature", "properties": { "visible_points": 34, "total_points": 86, "visibility_pct": 39.534883720930232 }, "geometry": { "type": "Point", "coordinates": [ -2.152888452254216, 53.338461049423927 ] } },
{ "type": "Feature", "properties": { "visible_points": 31, "total_points": 80, "visibility_pct": 38.75 }, "geometry": { "type": "Point", "coordinates": [ -2.152680357290545, 53.338461317834273 ] } },
{ "type": "Feature", "properties": { "visible_points": 26, "total_points": 72, "visibility_pct": 36.111111111111107 }, "geometry": { "type": "Point", "coordinates": [ -2.152472262323606, 53.338461585881689 ] } },
{ "type": "Feature", "properties": { "visible_points": 21, "total_points": 64, "visibility_pct": 32.8125 }, "geometry": { "type": "Point", "coordinates": [ -2.152264167353412, 53.338461853566201 ] } },
{ "type": "Feature", "properties": { "visible_points": 27, "total_points": 69, "visibility_pct": 39.130434782608695 }, "geometry": { "type": "Point", "coordinates": [ -2.15528193745961, 53.338565799802446 ] } },
{ "type": "Feature", "properties": { "visible_points": 34, "total_points": 77, "visibility_pct": 44.155844155844157 }, "geometry": { "type": "Point", "coordinates": [ -2.15507384201532, 53.338566072387124 ] } },
{ "type": "Feature", "properties": { "visible_points": 35, "total_points": 85, "visibility_pct": 41.17647058823529 }, "geometry": { "type": "Point", "coordinates": [ -2.154865746567705, 53.338566344608836 ] } },
{ "type": "Feature", "properties": { "visible_points": 35, "total_points": 91, "visibility_pct": 38.461538461538467 }, "geometry": { "type": "Point", "coordinates": [ -2.154657651116781, 53.338566616467652 ] } },
{ "type": "Feature", "properties": { "visible_points": 29, "total_points": 92, "visibility_pct": 31.521739130434785 }, "geometry": { "type": "Point", "coordinates": [ -2.154449555662545, 53.338566887963552 ] } },
{ "type": "Feature", "properties": { "visible_points": 28, "total_points": 90, "visibility_pct": 31.111111111111111 }, "geometry": { "type": "Point", "coordinates": [ -2.154241460205006, 53.338567159096527 ] } },
{ "type": "Feature", "properties": { "visible_points": 32, "total_points": 88, "visibility_pct": 36.363636363636367 }, "geometry": { "type": "Point", "coordinates": [ -2.154033364744167, 53.338567429866607 ] } },
{ "type": "Feature", "properties": { "visible_points": 28, "total_points": 86, "visibility_pct": 32.558139534883722 }, "geometry": { "type": "Point", "coordinates": [ -2.153825269280034, 53.338567700273757 ] } },
{ "type": "Feature", "properties": { "visible_points": 28, "total_points": 84, "visibility_pct": 33.333333333333329 }, "geometry": { "type": "Point", "coordinates": [ -2.15361717381261, 53.338567970317996 ] } },
{ "type": "Feature", "properties": { "visible_points": 29, "total_points": 82, "visibility_pct": 35.365853658536587 }, "geometry": { "type": "Point", "coordinates": [ -2.153409078341899, 53.338568239999312 ] } },
{ "type": "Feature", "properties": { "visible_points": 26, "total_points": 57, "visibility_pct": 45.614035087719294 }, "geometry": { "type": "Point", "coordinates": [ -2.155386378801649, 53.338673526553627 ] } },
{ "type": "Feature", "properties": { "visible_points": 33, "total_points": 65, "visibility_pct": 50.769230769230766 }, "geometry": { "type": "Point", "coordinates": [ -2.155178282840506, 53.338673799320524 ] } },
{ "type": "Feature", "properties": { "visible_points": 38, "total_points": 72, "visibility_pct": 52.777777777777779 }, "geometry": { "type": "Point", "coordinates": [ -2.154970186876038, 53.338674071724498 ] } },
{ "type": "Feature", "properties": { "visible_points": 36, "total_points": 78, "visibility_pct": 46.153846153846153 }, "geometry": { "type": "Point", "coordinates": [ -2.154762090908258, 53.338674343765568 ] } },
{ "type": "Feature", "properties": { "visible_points": 25, "total_points": 81, "visibility_pct": 30.864197530864196 }, "geometry": { "type": "Point", "coordinates": [ -2.154553994937165, 53.338674615443708 ] } },
{ "type": "Feature", "properties": { "visible_points": 22, "total_points": 80, "visibility_pct": 27.5 }, "geometry": { "type": "Point", "coordinates": [ -2.154345898962764, 53.338674886758945 ] } },
{ "type": "Feature", "properties": { "visible_points": 27, "total_points": 53, "visibility_pct": 50.943396226415096 }, "geometry": { "type": "Point", "coordinates": [ -2.155282724185845, 53.338781526160474 ] } },
{ "type": "Feature", "properties": { "visible_points": 34, "total_points": 59, "visibility_pct": 57.627118644067799 }, "geometry": { "type": "Point", "coordinates": [ -2.15507462770453, 53.338781798746695 ] } }
]
}
