{
"type": "FeatureCollection",
"name": "eaf608a1062a_foliage",
"crs": { "type": "name", "properties": { "name": "urn:ogc:def:crs:OGC:1.3:CRS84" } },
"features": [
{ "type": "Feature", "properties": { "max_height": 15.589756011962891, "mean_height": 7.0213799476623535, "std_height": 4.0233221054077148, "count_pixels": 43, "percent_cover": 0.92473118279569888, "percent_above_0.1m": 100.0, "low_level_<0.5": 0.0, "mid_level_0.5-2": 13.953488372093023, "tall_2+": 86.04651162790698 }, "geometry": { "type": "Point", "coordinates": [ -2.188506730534955, 53.410154856250145 ] } },
{ "type": "Feature", "properties": { "max_height": 13.989501953125, "mean_height": 1.9389729499816895, "std_height": 3.5667486190795898, "count_pixels": 43, "percent_cover": 0.92473118279569888, "percent_above_0.1m": 41.860465116279073, "low_level_<0.5": 9.3023255813953494, "mid_level_0.5-2": 2.3255813953488373, "tall_2+": 27.906976744186046 }, "geometry": { "type": "Point", "coordinates": [ -2.188298285314119, 53.410155186496311 ] } },
{ "type": "Feature", "properties": { "max_height": 5.2305030822753906, "mean_height": 0.95503121614456177, "std_height": 1.3005248308181763, "count_pixels": 43, "percent_cover": 0.92473118279569888, "percent_above_0.1m": 67.441860465116278, "low_level_<0.5": 18.604651162790699, "mid_level_0.5-2": 30.232558139534881, "tall_2+": 16.279069767441861 }, "geometry": { "type": "Point", "coordinates": [ -2.188089840089189, 53.410155516378573 ] } },
{ "type": "Feature", "properties": { "max_height": 11.945751190185547, "mean_height": 5.1781430244445801, "std_height": 3.4901554584503174, "count_pixels": 41, "percent_cover": 0.88172043010752688, "percent_above_0.1m": 92.682926829268297, "low_level_<0.5": 2.4390243902439024, "mid_level_0.5-2": 19.512195121951219, "tall_2+": 70.731707317073173 }, "geometry": { "type": "Point", "coordinates": [ -2.188402984089841, 53.410262881791404 ] } },
{ "type": "Feature", "properties": { "max_height": 16.3902587890625, "mean_height": 6.8761062622070312, "std_height": 5.0354299545288086, "count_pixels": 41, "percent_cover": 0.88172043010752688, "percent_above_0.1m": 95.121951219512198, "low_level_<0.5": 4.8780487804878048, "mid_level_0.5-2": 7.3170731707317067, "tall_2+": 82.926829268292678 }, "geometry": { "type": "Point", "coordinates": [ -2.188194538338425, 53.410263211850648 ] } },
{ "type": "Feature", "properties": { "max_height": 13.489753723144531, "mean_height": 4.777916431427002, "std_height": 4.3057608604431152, "count_pixels": 41, "percent_cover": 0.88172043010752688, "percent_above_0.1m": 87.804878048780495, "low_level_<0.5": 4.8780487804878048, "mid_level_0.5-2": 17.073170731707318, "tall_2+": 65.853658536585371 }, "geometry": { "type": "Point", "coordinates": [ -2.187986092582926, 53.410263541546009 ] } },
{ "type": "Feature", "properties": { "max_height": 11.017002105712891, "mean_height": 4.8992176055908203, "std_height": 2.6306672096252441, "count_pixels": 43, "percent_cover": 0.92473118279569888, "percent_above_0.1m": 90.697674418604649, "low_level_<0.5": 0.0, "mid_level_0.5-2": 9.3023255813953494, "tall_2+": 81.395348837209298 }, "geometry": { "type": "Point", "coordinates": [ -2.188507683396132, 53.410370576998574 ] } },
{ "type": "Feature", "properties": { "max_height": 12.46600341796875, "mean_height": 4.5469560623168945, "std_height": 3.8404450416564941, "count_pixels": 43, "percent_cover": 0.92473118279569888, "percent_above_0.1m": 90.697674418604649, "low_level_<0.5": 11.627906976744185, "mid_level_0.5-2": 18.604651162790699, "tall_2+": 60.465116279069761 }, "geometry": { "type": "Point", "coordinates": [ -2.188299237118227, 53.410370907234785 ] } },
{ "type": "Feature", "properties": { "max_height": 18.292503356933594, "mean_height": 10.094863891601562, "std_height": 5.1082015037536621, "count_pixels": 43, "percent_cover": 0.92473118279569888, "percent_above_0.1m": 97.674418604651152, "low_level_<0.5": 0.0, "mid_level_0.5-2": 4.6511627906976747, "tall_2+": 93.023255813953483 }, "geometry": { "type": "Point", "coordinates": [ -2.188090790836232, 53.410371237107128 ] } },
{ "type": "Feature", "properties": { "max_height": 14.409503936767578, "mean_height": 5.2746343612670898, "std_height": 4.397742748260498, "count_pixels": 38, "percent_cover": 0.81720430107526887, "percent_above_0.1m": 92.10526315789474, "low_level_<0.5": 7.8947368421052628, "mid_level_0.5-2": 10.526315789473683, "tall_2+": 71.05263157894737 }, "geometry": { "type": "Point", "coordinates": [ -2.187882344550157, 53.410371566615567 ] } },
{ "type": "Feature", "properties": { "max_height": 5.8327522277832031, "mean_height": 1.2337279319763184, "std_height": 1.4630931615829468, "count_pixels": 41, "percent_cover": 0.88172043010752688, "percent_above_0.1m": 65.853658536585371, "low_level_<0.5": 9.7560975609756095, "mid_level_0.5-2": 24.390243902439025, "tall_2+": 31.707317073170731 }, "geometry": { "type": "Point", "coordinates": [ -2.188612383233003, 53.410478272117814 ] } },
{ "type": "Feature", "properties": { "max_height": 12.472003936767578, "mean_height": 6.300386905670166, "std_height": 3.2392950057983398, "count_pixels": 41, "percent_cover": 0.88172043010752688, "percent_above_0.1m": 95.121951219512198, "low_level_<0.5": 0.0, "mid_level_0.5-2": 2.4390243902439024, "tall_2+": 90.243902439024396 }, "geometry": { "type": "Point", "coordinates": [ -2.188403936428602, 53.410478602531008 ] } },
{ "type": "Feature", "properties": { "max_height": 16.454246520996094, "mean_height": 12.433038711547852, "std_height": 2.6312713623046875, "count_pixels": 41, "percent_cover": 0.88172043010752688, "percent_above_0.1m": 100.0, "low_level_<0.5": 0.0, "mid_level_0.5-2": 0.0, "tall_2+": 100.0 }, "geometry": { "type": "Point", "coordinates": [ -2.188195489620112, 53.410478932580311 ] } },
{ "type": "Feature", "properties": { "max_height": 15.351753234863281, "mean_height": 7.8574719429016113, "std_height": 3.9624743461608887, "count_pixels": 41, "percent_cover": 0.88172043010752688, "percent_above_0.1m": 100.0, "low_level_<0.5": 2.4390243902439024, "mid_level_0.5-2": 4.8780487804878048, "tall_2+": 92.682926829268297 }, "geometry": { "type": "Point", "coordinates": [ -2.187987042807538, 53.410479262265731 ] } },
{ "type": "Feature", "properties": { "max_height": 15.539005279541016, "mean_height": 6.4978256225585938, "std_height": 5.383171558380127, "count_pixels": 41, "percent_cover": 0.88172043010752688, "percent_above_0.1m": 87.804878048780495, "low_level_<0.5": 9.7560975609756095, "mid_level_0.5-2": 9.7560975609756095, "tall_2+": 68.292682926829272 }, "geometry": { "type": "Point", "coordinates": [ -2.187778595990881, 53.410479591587254 ] } },
{ "type": "Feature", "properties": { "max_height": 4.7377510070800781, "mean_height": 0.86292892694473267, "std_height": 1.1181402206420898, "count_pixels": 41, "percent_cover": 0.88172043010752688, "percent_above_0.1m": 58.536585365853654, "low_level_<0.5": 7.3170731707317067, "mid_level_0.5-2": 41.463414634146339, "tall_2+": 9.7560975609756095 }, "geometry": { "type": "Point", "coordinates": [ -2.187570149170151, 53.410479920544887 ] } },
{ "type": "Feature", "properties": { "max_height": 1.5602531433105469, "mean_height": 0.15603852272033691, "std_height": 0.37482717633247375, "count_pixels": 41, "percent_cover": 0.88172043010752688, "percent_above_0.1m": 21.951219512195124, "low_level_<0.5": 7.3170731707317067, "mid_level_0.5-2": 12.195121951219512, "tall_2+": 0.0 }, "geometry": { "type": "Point", "coordinates": [ -2.188717083600449, 53.41058596714911 ] } },
{ "type": "Feature", "properties": { "max_height": 9.1550064086914062, "mean_height": 1.8526132106781006, "std_height": 2.4417893886566162, "count_pixels": 43, "percent_cover": 0.92473118279569888, "percent_above_0.1m": 51.162790697674424, "low_level_<0.5": 2.3255813953488373, "mid_level_0.5-2": 13.953488372093023, "tall_2+": 32.558139534883722 }, "geometry": { "type": "Point", "coordinates": [ -2.188508636269554, 53.4105862977393 ] } },
{ "type": "Feature", "properties": { "max_height": 11.454254150390625, "mean_height": 3.7891650199890137, "std_height": 3.1564509868621826, "count_pixels": 43, "percent_cover": 0.92473118279569888, "percent_above_0.1m": 93.023255813953483, "low_level_<0.5": 9.3023255813953494, "mid_level_0.5-2": 20.930232558139537, "tall_2+": 62.790697674418603 }, "geometry": { "type": "Point", "coordinates": [ -2.188300188934568, 53.410586627965557 ] } },
{ "type": "Feature", "properties": { "max_height": 14.577499389648438, "mean_height": 10.157449722290039, "std_height": 2.9858283996582031, "count_pixels": 43, "percent_cover": 0.92473118279569888, "percent_above_0.1m": 100.0, "low_level_<0.5": 0.0, "mid_level_0.5-2": 0.0, "tall_2+": 100.0 }, "geometry": { "type": "Point", "coordinates": [ -2.188091741595493, 53.410586957827967 ] } },
{ "type": "Feature", "properties": { "max_height": 11.334503173828125, "mean_height": 5.0592727661132812, "std_height": 3.4649932384490967, "count_pixels": 38, "percent_cover": 0.81720430107526887, "percent_above_0.1m": 86.842105263157904, "low_level_<0.5": 5.2631578947368416, "mid_level_0.5-2": 10.526315789473683, "tall_2+": 71.05263157894737 }, "geometry": { "type": "Point", "coordinates": [ -2.187883294252333, 53.410587287326443 ] } },
{ "type": "Feature", "properties": { "max_height": 12.774753570556641, "mean_height": 4.4430146217346191, "std_height": 3.6438188552856445, "count_pixels": 43, "percent_cover": 0.92473118279569888, "percent_above_0.1m": 88.372093023255815, "low_level_<0.5": 4.6511627906976747, "mid_level_0.5-2": 11.627906976744185, "tall_2+": 69.767441860465112 }, "geometry": { "type": "Point", "coordinates": [ -2.187674846905098, 53.410587616461058 ] } },
{ "type": "Feature", "properties": { "max_height": 12.519504547119141, "mean_height": 5.3272113800048828, "std_height": 3.8382954597473145, "count_pixels": 43, "percent_cover": 0.92473118279569888, "percent_above_0.1m": 90.697674418604649, "low_level_<0.5": 4.6511627906976747, "mid_level_0.5-2": 11.627906976744185, "tall_2+": 72.093023255813947 }, "geometry": { "type": "Point", "coordinates": [ -2.187466399553785, 53.410587945231747 ] } },
{ "type": "Feature", "properties": { "max_height": 9.3235054016113281, "mean_height": 2.1924595832824707, "std_height": 2.55047607421875, "count_pixels": 41, "percent_cover": 0.88172043010752688, "percent_above_0.1m": 78.048780487804876, "low_level_<0.5": 7.3170731707317067, "mid_level_0.5-2": 24.390243902439025, "tall_2+": 41.463414634146339 }, "geometry": { "type": "Point", "coordinates": [ -2.188613336641092, 53.410693992859656 ] } },
{ "type": "Feature", "properties": { "max_height": 10.367752075195312, "mean_height": 3.0526607036590576, "std_height": 3.0558111667633057, "count_pixels": 41, "percent_cover": 0.88172043010752688, "percent_above_0.1m": 78.048780487804876, "low_level_<0.5": 12.195121951219512, "mid_level_0.5-2": 17.073170731707318, "tall_2+": 46.341463414634148 }, "geometry": { "type": "Point", "coordinates": [ -2.188404888779601, 53.410694323262909 ] } },
{ "type": "Feature", "properties": { "max_height": 12.366001129150391, "mean_height": 5.2334170341491699, "std_height": 3.8077821731567383, "count_pixels": 41, "percent_cover": 0.88172043010752688, "percent_above_0.1m": 87.804878048780495, "low_level_<0.5": 0.0, "mid_level_0.5-2": 14.634146341463413, "tall_2+": 73.170731707317074 }, "geometry": { "type": "Point", "coordinates": [ -2.188196440914026, 53.410694653302265 ] } },
{ "type": "Feature", "properties": { "max_height": 16.933002471923828, "mean_height": 8.7535638809204102, "std_height": 4.2634091377258301, "count_pixels": 41, "percent_cover": 0.88172043010752688, "percent_above_0.1m": 100.0, "low_level_<0.5": 0.0, "mid_level_0.5-2": 4.8780487804878048, "tall_2+": 92.682926829268297 }, "geometry": { "type": "Point", "coordinates": [ -2.187987993044362, 53.410694982977738 ] } },
{ "type": "Feature", "properties": { "max_height": 9.3205032348632812, "mean_height": 4.5874233245849609, "std_height": 2.5809545516967773, "count_pixels": 41, "percent_cover": 0.88172043010752688, "percent_above_0.1m": 92.682926829268297, "low_level_<0.5": 7.3170731707317067, "mid_level_0.5-2": 7.3170731707317067, "tall_2+": 78.048780487804876 }, "geometry": { "type": "Point", "coordinates": [ -2.18777954517062, 53.410695312289313 ] } },
{ "type": "Feature", "properties": { "max_height": 15.598003387451172, "mean_height": 6.9292283058166504, "std_height": 3.5768074989318848, "count_pixels": 41, "percent_cover": 0.88172043010752688, "percent_above_0.1m": 100.0, "low_level_<0.5": 0.0, "mid_level_0.5-2": 0.0, "tall_2+": 100.0 }, "geometry": { "type": "Point", "coordinates": [ -2.187571097292799, 53.410695641236984 ] } },
{ "type": "Feature", "properties": { "max_height": 6.5190010070800781, "mean_height": 1.8273910284042358, "std_height": 1.9065111875534058, "count_pixels": 38, "percent_cover": 0.81720430107526887, "percent_above_0.1m": 76.31578947368422, "low_level_<0.5": 7.8947368421052628, "mid_level_0.5-2": 31.578947368421051, "tall_2+": 36.84210526315789 }, "geometry": { "type": "Point", "coordinates": [ -2.187884243966715, 53.410803008029632 ] } },
{ "type": "Feature", "properties": { "max_height": 15.433509826660156, "mean_height": 5.3925609588623047, "std_height": 4.1459479331970215, "count_pixels": 43, "percent_cover": 0.92473118279569888, "percent_above_0.1m": 83.720930232558146, "low_level_<0.5": 2.3255813953488373, "mid_level_0.5-2": 2.3255813953488373, "tall_2+": 79.069767441860463 }, "geometry": { "type": "Point", "coordinates": [ -2.187675795562387, 53.410803337154285 ] } },
{ "type": "Feature", "properties": { "max_height": 13.762252807617188, "mean_height": 5.3698225021362305, "std_height": 4.3582053184509277, "count_pixels": 43, "percent_cover": 0.92473118279569888, "percent_above_0.1m": 90.697674418604649, "low_level_<0.5": 2.3255813953488373, "mid_level_0.5-2": 11.627906976744185, "tall_2+": 74.418604651162795 }, "geometry": { "type": "Point", "coordinates": [ -2.187467347153977, 53.410803665915026 ] } },
{ "type": "Feature", "properties": { "max_height": 4.9772529602050781, "mean_height": 0.91635560989379883, "std_height": 1.441659688949585, "count_pixels": 41, "percent_cover": 0.88172043010752688, "percent_above_0.1m": 41.463414634146339, "low_level_<0.5": 7.3170731707317067, "mid_level_0.5-2": 14.634146341463413, "tall_2+": 19.512195121951219 }, "geometry": { "type": "Point", "coordinates": [ -2.187780494362553, 53.410911032983655 ] } },
{ "type": "Feature", "properties": { "max_height": 6.9732551574707031, "mean_height": 0.92549020051956177, "std_height": 1.8265151977539062, "count_pixels": 41, "percent_cover": 0.88172043010752688, "percent_above_0.1m": 41.463414634146339, "low_level_<0.5": 2.4390243902439024, "mid_level_0.5-2": 21.951219512195124, "tall_2+": 12.195121951219512 }, "geometry": { "type": "Point", "coordinates": [ -2.18757204542763, 53.410911361921372 ] } },
{ "type": "Feature", "properties": { "max_height": 11.146503448486328, "mean_height": 4.2591848373413086, "std_height": 3.9012188911437988, "count_pixels": 41, "percent_cover": 0.88172043010752688, "percent_above_0.1m": 87.804878048780495, "low_level_<0.5": 9.7560975609756095, "mid_level_0.5-2": 17.073170731707318, "tall_2+": 58.536585365853654 }, "geometry": { "type": "Point", "coordinates": [ -2.187363596488635, 53.410911690495197 ] } },
{ "type": "Feature", "properties": { "max_height": 4.5907554626464844, "mean_height": 0.41750165820121765, "std_height": 0.91103225946426392, "count_pixels": 38, "percent_cover": 0.81720430107526887, "percent_above_0.1m": 28.947368421052634, "low_level_<0.5": 5.2631578947368416, "mid_level_0.5-2": 13.157894736842104, "tall_2+": 7.8947368421052628 }, "geometry": { "type": "Point", "coordinates": [ -2.187885193693304, 53.411018728725089 ] } },
{ "type": "Feature", "properties": { "max_height": 7.1482505798339844, "mean_height": 2.3974733352661133, "std_height": 2.1863293647766113, "count_pixels": 43, "percent_cover": 0.92473118279569888, "percent_above_0.1m": 93.023255813953483, "low_level_<0.5": 11.627906976744185, "mid_level_0.5-2": 34.883720930232556, "tall_2+": 44.186046511627907 }, "geometry": { "type": "Point", "coordinates": [ -2.187676744231861, 53.411019057839788 ] } },
{ "type": "Feature", "properties": { "max_height": 11.532505035400391, "mean_height": 4.4001946449279785, "std_height": 3.362720251083374, "count_pixels": 43, "percent_cover": 0.92473118279569888, "percent_above_0.1m": 95.348837209302332, "low_level_<0.5": 6.9767441860465116, "mid_level_0.5-2": 23.255813953488371, "tall_2+": 65.116279069767444 }, "geometry": { "type": "Point", "coordinates": [ -2.18746829476635, 53.411019386590588 ] } },
{ "type": "Feature", "properties": { "max_height": 1.2247543334960938, "mean_height": 0.097886711359024048, "std_height": 0.25873121619224548, "count_pixels": 41, "percent_cover": 0.88172043010752688, "percent_above_0.1m": 19.512195121951219, "low_level_<0.5": 2.4390243902439024, "mid_level_0.5-2": 9.7560975609756095, "tall_2+": 0.0 }, "geometry": { "type": "Point", "coordinates": [ -2.187781443566684, 53.411126753670274 ] } }
]
}
