{
"type": "FeatureCollection",
"name": "WARRI_151_cycling",
"crs": { "type": "name", "properties": { "name": "urn:ogc:def:crs:OGC:1.3:CRS84" } },
"features": [
{"type":"Feature","properties":{"highway":"cycleway","name":null,"category":"Dedicated cycleway"},"geometry":{"type":"MultiLineString","coordinates":[[[-2.6149995,53.4006964],[-2.6149281,53.4006632],[-2.6149136,53.4006564],[-2.6148243,53.4006158]]]}},
{"type":"Feature","properties":{"highway":"path","name":null,"category":"Shared path"},"geometry":{"type":"MultiLineString","coordinates":[[[-2.6106585,53.4070244],[-2.6105568,53.4070005],[-2.6100969,53.4069039],[-2.6100523,53.406898],[-2.6100046,53.406897],[-2.6099652,53.4069015],[-2.6099294,53.4069122],[-2.6098954,53.4069331],[-2.6098752,53.4069564],[-2.6098294,53.4070414],[-2.6097847,53.4070958],[-2.6096466,53.4072221]]]}},
{"type":"Feature","properties":{"highway":"path","name":null,"category":"Shared path"},"geometry":{"type":"MultiLineString","coordinates":[[[-2.6145461,53.4033312],[-2.6145976,53.4032419],[-2.6144567,53.4031114],[-2.6143296,53.4030873],[-2.6140273,53.4031182],[-2.6138074,53.4031595],[-2.6137044,53.4031595],[-2.6135051,53.4032625],[-2.6133677,53.4033484],[-2.6132551,53.4034408]]]}},
{"type":"Feature","properties":{"highway":"cycleway","name":"Sankey Valley Greenway","category":"Dedicated cycleway"},"geometry":{"type":"MultiLineString","coordinates":[[[-2.6094118,53.4127645],[-2.6095354,53.4125294],[-2.6095841,53.4123106],[-2.6096509,53.4120897],[-2.6098292,53.4119175],[-2.6100481,53.4117169],[-2.6102883,53.4115786],[-2.6106136,53.4114746],[-2.6108476,53.411357],[-2.6109222,53.4112599],[-2.6109025,53.4111614],[-2.6108997,53.4110305],[-2.6109503,53.4108574],[-2.6110376,53.4107167],[-2.6111716,53.4105738],[-2.6111992,53.4104467],[-2.6110911,53.4104015],[-2.6109658,53.4103227],[-2.6108955,53.4102213],[-2.6108744,53.4101045],[-2.6109123,53.4098963],[-2.6109714,53.4097654],[-2.6109799,53.4097274],[-2.6109532,53.4096402],[-2.6109138,53.4095937],[-2.6107364,53.4095051],[-2.610531,53.4093686],[-2.6103959,53.4092518],[-2.6103312,53.4091603],[-2.6103185,53.4090956],[-2.6103466,53.4090055],[-2.6105043,53.408793],[-2.6105211,53.4087339],[-2.6105183,53.408703],[-2.6105028,53.4086805],[-2.6104452,53.4086495],[-2.6103635,53.4085735],[-2.6102606,53.4084363],[-2.6101761,53.408306],[-2.6100369,53.4080185],[-2.6099887,53.4079255]]]}},
{"type":"Feature","properties":{"highway":"cycleway","name":null,"category":"Dedicated cycleway"},"geometry":{"type":"MultiLineString","coordinates":[[[-2.6074177,53.4124609],[-2.6073436,53.4123952],[-2.607213,53.412241],[-2.6071708,53.412197],[-2.6071632,53.412189],[-2.6071555,53.4121658]]]}},
{"type":"Feature","properties":{"highway":"path","name":null,"category":"Shared path"},"geometry":{"type":"MultiLineString","coordinates":[[[-2.6077421,53.4054198],[-2.607846,53.4055048],[-2.607897,53.4056006],[-2.6079833,53.4058084],[-2.6081028,53.4060073],[-2.6083318,53.4063199],[-2.6086823,53.4066814],[-2.6089185,53.4069829],[-2.6091597,53.4074403],[-2.6092402,53.4076915],[-2.6092478,53.4079858],[-2.6093557,53.4082594],[-2.6094562,53.4088021],[-2.6095417,53.4096364],[-2.609602,53.4104857],[-2.609597,53.410953],[-2.6095165,53.411154],[-2.60921,53.4116917],[-2.6088934,53.4122546],[-2.6086861,53.4126269]]]}},
{"type":"Feature","properties":{"highway":"cycleway","name":null,"category":"Dedicated cycleway"},"geometry":{"type":"MultiLineString","coordinates":[[[-2.6111888,53.4081255],[-2.6111321,53.408115],[-2.6110781,53.408106],[-2.61102,53.4080963],[-2.6107659,53.408054],[-2.6106731,53.408033],[-2.6106109,53.4080015],[-2.6105217,53.4079593],[-2.610342,53.4079228],[-2.6102731,53.4079132],[-2.6102116,53.4079121],[-2.6101146,53.407916],[-2.6099887,53.4079255]]]}},
{"type":"Feature","properties":{"highway":"path","name":null,"category":"Shared path"},"geometry":{"type":"MultiLineString","coordinates":[[[-2.608387,53.40524],[-2.6083239,53.4052494],[-2.6082681,53.4052659],[-2.6082084,53.4053021],[-2.6081637,53.4053191],[-2.6081328,53.4053215]]]}},
{"type":"Feature","properties":{"highway":"path","name":null,"category":"Shared path"},"geometry":{"type":"MultiLineString","coordinates":[[[-2.6082084,53.4053021],[-2.6081094,53.4049778],[-2.6080491,53.4047366],[-2.6080391,53.404616],[-2.6080542,53.4045305],[-2.6081245,53.4043647],[-2.6082501,53.4040682],[-2.6084411,53.4036913],[-2.6085612,53.4033435],[-2.6086371,53.4031234],[-2.6087678,53.4028722],[-2.608858,53.402778],[-2.6089989,53.4026309],[-2.6093557,53.4023897],[-2.6097527,53.4021485],[-2.6102653,53.4019224],[-2.6106086,53.4018054],[-2.6107226,53.4017666],[-2.6113307,53.4016259],[-2.6118735,53.401445],[-2.6119922,53.4014065],[-2.6124464,53.401259],[-2.6127829,53.4011182],[-2.6129388,53.401053],[-2.6131198,53.4009726],[-2.6132454,53.4009374],[-2.6133904,53.4008787]]]}},
{"type":"Feature","properties":{"highway":"path","name":null,"category":"Shared path"},"geometry":{"type":"MultiLineString","coordinates":[[[-2.6133366,53.4008266],[-2.6131397,53.400659]]]}},
{"type":"Feature","properties":{"highway":"path","name":null,"category":"Shared path"},"geometry":{"type":"MultiLineString","coordinates":[[[-2.6131397,53.400659],[-2.6131007,53.4006462],[-2.612791,53.4006685],[-2.612541,53.4006788],[-2.6125002,53.4006667],[-2.6123923,53.4007012],[-2.6123545,53.4007046]]]}},
{"type":"Feature","properties":{"highway":"cycleway","name":null,"category":"Dedicated cycleway"},"geometry":{"type":"MultiLineString","coordinates":[[[-2.6096469,53.407958],[-2.6093443,53.4079796]]]}},
{"type":"Feature","properties":{"highway":"cycleway","name":null,"category":"Dedicated cycleway"},"geometry":{"type":"MultiLineString","coordinates":[[[-2.6093443,53.4079796],[-2.6093063,53.4079819],[-2.6092478,53.4079858],[-2.6089808,53.4080055]]]}},
{"type":"Feature","properties":{"highway":"cycleway","name":null,"category":"Dedicated cycleway"},"geometry":{"type":"MultiLineString","coordinates":[[[-2.6140122,53.4022164],[-2.6138493,53.4021434]]]}},
{"type":"Feature","properties":{"highway":"cycleway","name":null,"category":"Dedicated cycleway"},"geometry":{"type":"MultiLineString","coordinates":[[[-2.6138493,53.4021434],[-2.6138071,53.402125],[-2.6137571,53.4021096],[-2.6137703,53.4020762],[-2.6138975,53.4019326],[-2.6140507,53.4017004],[-2.6142437,53.4014783],[-2.6144198,53.4013003],[-2.6146012,53.4011279],[-2.6148314,53.4009389],[-2.6148922,53.4008799],[-2.6149323,53.4007919]]]}},
{"type":"Feature","properties":{"highway":"track","name":null,"category":"Track"},"geometry":{"type":"MultiLineString","coordinates":[[[-2.606427,53.4124933],[-2.6064201,53.4125383],[-2.6064058,53.412632],[-2.606456,53.4130248],[-2.6064131,53.4130811],[-2.6062157,53.413122],[-2.6055291,53.4130504],[-2.6053059,53.4130811],[-2.6051137,53.4130868],[-2.6043017,53.4129941]]]}},
{"type":"Feature","properties":{"highway":"path","name":null,"category":"Shared path"},"geometry":{"type":"MultiLineString","coordinates":[[[-2.6045123,53.4134254],[-2.6045163,53.4133068],[-2.6045578,53.4132239],[-2.6049728,53.4131716],[-2.6051137,53.4130868]]]}},
{"type":"Feature","properties":{"highway":"path","name":null,"category":"Shared path"},"geometry":{"type":"MultiLineString","coordinates":[[[-2.6127966,53.4004983],[-2.6128884,53.4004297],[-2.6129236,53.4003881],[-2.6129821,53.4003619],[-2.6134034,53.4002435]]]}},
{"type":"Feature","properties":{"highway":"path","name":null,"category":"Shared path"},"geometry":{"type":"MultiLineString","coordinates":[[[-2.614006,53.4003063],[-2.6139154,53.4002396],[-2.6136794,53.4001884],[-2.6134034,53.4002435],[-2.6133379,53.4001973],[-2.612925,53.3999377],[-2.6127629,53.3998966],[-2.6127186,53.3998891]]]}},
{"type":"Feature","properties":{"highway":"path","name":null,"category":"Shared path"},"geometry":{"type":"MultiLineString","coordinates":[[[-2.6141296,53.3995734],[-2.6141096,53.3998823],[-2.6140999,53.3999159],[-2.6140839,53.3999476],[-2.6140169,53.4000677],[-2.6136794,53.4001884]]]}},
{"type":"Feature","properties":{"highway":"path","name":null,"category":"Shared path"},"geometry":{"type":"MultiLineString","coordinates":[[[-2.6142098,53.397445],[-2.614211,53.3974333],[-2.6142118,53.3974261],[-2.6142272,53.3972766],[-2.6142642,53.3972273],[-2.6147204,53.39715],[-2.6148216,53.3971298],[-2.6149608,53.3970937],[-2.6150065,53.3970861],[-2.6153055,53.3970654],[-2.615519,53.3970629],[-2.6162466,53.3970662],[-2.616282,53.3970722],[-2.616314,53.3970838],[-2.6163408,53.3970986],[-2.6163655,53.3971192],[-2.6163865,53.3971434],[-2.6164003,53.3971691],[-2.6164069,53.3971949],[-2.6164097,53.397221],[-2.6164074,53.3972471],[-2.6163983,53.3972787],[-2.6163581,53.3974145],[-2.6162931,53.3975918],[-2.6162221,53.3977352],[-2.6161361,53.3979811],[-2.616024,53.398212],[-2.6156634,53.3986905],[-2.6151653,53.3992513],[-2.6151294,53.3992861],[-2.6146128,53.3997854],[-2.6143231,53.3999645],[-2.6140169,53.4000677]]]}},
{"type":"Feature","properties":{"highway":"cycleway","name":null,"category":"Dedicated cycleway"},"geometry":{"type":"MultiLineString","coordinates":[[[-2.5951903,53.408033],[-2.5952372,53.4080186],[-2.595336,53.4079883],[-2.59541,53.4079656]]]}},
{"type":"Feature","properties":{"highway":"cycleway","name":null,"category":"Dedicated cycleway"},"geometry":{"type":"MultiLineString","coordinates":[[[-2.5932363,53.4084844],[-2.5933476,53.4084818],[-2.5934396,53.4084778],[-2.593536,53.4084671],[-2.5937453,53.4084321],[-2.5938977,53.4083981],[-2.59456,53.4082147],[-2.5946734,53.4080455],[-2.5948197,53.4080363],[-2.5948478,53.4080035]]]}},
{"type":"Feature","properties":{"highway":"cycleway","name":"Sankey Valley Greenway","category":"Dedicated cycleway"},"geometry":{"type":"MultiLineString","coordinates":[[[-2.6099619,53.4058556],[-2.6100018,53.4058138],[-2.6103492,53.405551],[-2.6104934,53.4054495],[-2.6106959,53.4053053],[-2.6107533,53.4052331],[-2.6108435,53.4051253],[-2.6109889,53.404985],[-2.6111769,53.4048396],[-2.6114276,53.4046691],[-2.6116683,53.4044711],[-2.6119089,53.4043056],[-2.612137,53.4041477],[-2.6123677,53.4040098],[-2.6126284,53.4038393],[-2.612869,53.4036889],[-2.6130495,53.4035937],[-2.6131799,53.4035385],[-2.6132375,53.4034884],[-2.6132551,53.4034408],[-2.6132526,53.4033994]]]}},
{"type":"Feature","properties":{"highway":"cycleway","name":null,"category":"Dedicated cycleway"},"geometry":{"type":"MultiLineString","coordinates":[[[-2.6099619,53.4058556],[-2.6102309,53.4058205],[-2.6103844,53.4058104],[-2.6105138,53.4058146],[-2.6108531,53.4059019],[-2.6112156,53.4059879],[-2.6117655,53.4061334],[-2.6118642,53.4061518],[-2.6121247,53.4061626],[-2.6122105,53.4061761],[-2.6122866,53.4062025],[-2.6124069,53.4062819],[-2.6124681,53.4063284],[-2.6125511,53.4063635],[-2.6127148,53.4064061],[-2.6129902,53.406447],[-2.6132041,53.4064913],[-2.6134496,53.4065692],[-2.6135179,53.4066066],[-2.6135778,53.4066525],[-2.6136454,53.4066833],[-2.6137723,53.4067242],[-2.6138718,53.4067456],[-2.6140102,53.4067603],[-2.6140612,53.4067731],[-2.6142873,53.4068565],[-2.614709,53.4070191],[-2.6148086,53.4070456],[-2.6149301,53.4070622],[-2.6150696,53.4071003],[-2.6152056,53.4071239],[-2.6153543,53.4071664],[-2.6154878,53.4071852],[-2.6156073,53.4072092],[-2.6157312,53.4072484],[-2.6158339,53.4072929],[-2.6160118,53.4073773],[-2.616089,53.4074055],[-2.6161403,53.4074167],[-2.6162178,53.4074172],[-2.6163955,53.4074112],[-2.6164941,53.4074212],[-2.616605,53.407449],[-2.6166971,53.4074742],[-2.6168271,53.4075168],[-2.616965,53.4075666],[-2.6171404,53.4075843],[-2.6173053,53.4076308],[-2.6175267,53.4077333],[-2.6178101,53.4078157],[-2.6179748,53.4078343],[-2.618123,53.4078732],[-2.6181861,53.407913],[-2.6182698,53.4079454],[-2.6183224,53.4079604],[-2.6183791,53.4079765],[-2.6185836,53.4080343],[-2.6188675,53.4080948],[-2.619182,53.4081451],[-2.6192622,53.4081702],[-2.6193933,53.4082498],[-2.6195299,53.4083317],[-2.6196598,53.4084022],[-2.619806,53.4084619],[-2.6198545,53.4084865],[-2.6198858,53.4085184],[-2.6199195,53.4085506],[-2.619997,53.4086029],[-2.6200455,53.4086254],[-2.6200968,53.4086412],[-2.6201695,53.4086553],[-2.6202528,53.4086647],[-2.6203457,53.4086869],[-2.6204186,53.4087156],[-2.6204891,53.4087377],[-2.6205852,53.408759],[-2.620839,53.4088105],[-2.6212152,53.4088927],[-2.6219197,53.4090217],[-2.6225286,53.4091051],[-2.6226517,53.4091243],[-2.6229113,53.4091648],[-2.6231653,53.4092045],[-2.6234701,53.4092395],[-2.6238032,53.4092778],[-2.6243465,53.4093082],[-2.6245652,53.4093204],[-2.6250172,53.4093249],[-2.625316,53.4092956],[-2.6254283,53.4092726],[-2.6255632,53.4092691],[-2.6257062,53.409291],[-2.6258939,53.4093094],[-2.626368,53.4093941],[-2.6264246,53.4094103],[-2.6265324,53.4094128],[-2.626767,53.4093881],[-2.6272462,53.4093597],[-2.6274731,53.409351],[-2.6275982,53.4093521],[-2.6277823,53.40936],[-2.6279333,53.4093721],[-2.6281062,53.4093809]]]}},
{"type":"Feature","properties":{"highway":"cycleway","name":null,"category":"Dedicated cycleway"},"geometry":{"type":"MultiLineString","coordinates":[[[-2.6105138,53.4058146],[-2.6104568,53.4057707],[-2.6104037,53.4057167],[-2.6103671,53.4056615],[-2.61035,53.4056115],[-2.6103492,53.405551]]]}},
{"type":"Feature","properties":{"highway":"cycleway","name":"Sankey Valley Greenway","category":"Dedicated cycleway"},"geometry":{"type":"MultiLineString","coordinates":[[[-2.6099887,53.4079255],[-2.6098942,53.4078375],[-2.6098832,53.4077607],[-2.6098063,53.4075491],[-2.6097133,53.4073301],[-2.6096466,53.4072221],[-2.6095421,53.4071514],[-2.609508,53.4071312],[-2.6094555,53.4070481],[-2.6094477,53.4069975],[-2.6095022,53.4068717],[-2.6095873,53.4065519],[-2.6097457,53.4063013],[-2.6098107,53.4062145],[-2.6098569,53.4061348],[-2.6098916,53.40603],[-2.6099334,53.4059101],[-2.6099619,53.4058556]]]}},
{"type":"Feature","properties":{"highway":"cycleway","name":null,"category":"Dedicated cycleway"},"geometry":{"type":"MultiLineString","coordinates":[[[-2.6099887,53.4079255],[-2.6098858,53.4079361],[-2.609785,53.4079474],[-2.6097234,53.4079533],[-2.6096973,53.4079547],[-2.6096469,53.407958]]]}},
{"type":"Feature","properties":{"highway":"cycleway","name":null,"category":"Dedicated cycleway"},"geometry":{"type":"MultiLineString","coordinates":[[[-2.5951,53.4083147],[-2.5950831,53.4083521],[-2.595062,53.4083987]]]}},
{"type":"Feature","properties":{"highway":"path","name":null,"category":"Shared path"},"geometry":{"type":"MultiLineString","coordinates":[[[-2.594759,53.4078129],[-2.5946751,53.4078117],[-2.5935462,53.4077823]]]}},
{"type":"Feature","properties":{"highway":"path","name":null,"category":"Shared path"},"geometry":{"type":"MultiLineString","coordinates":[[[-2.6094477,53.4069975],[-2.609285,53.4069328],[-2.6092411,53.4067729],[-2.6091282,53.4067181],[-2.6090956,53.4066735],[-2.6088665,53.4063636],[-2.608759,53.4061943],[-2.6087163,53.4061269],[-2.6086949,53.4058455],[-2.6087593,53.4055257],[-2.6087593,53.405321],[-2.6087498,53.4052049],[-2.6087378,53.4050588],[-2.6086198,53.4047965],[-2.6085913,53.4047278],[-2.6085836,53.4046785],[-2.6085951,53.4046351],[-2.6087503,53.4041767],[-2.6090123,53.403722],[-2.6092936,53.4032379],[-2.6095746,53.4028393],[-2.6099394,53.4024555],[-2.6103149,53.4022316],[-2.6106101,53.4020879],[-2.6107204,53.4020373],[-2.6108866,53.4019677],[-2.6111166,53.4019018],[-2.6113711,53.4018423],[-2.611545,53.4018064],[-2.6117494,53.401776],[-2.6117765,53.4017651],[-2.6117884,53.4017485],[-2.6117877,53.4016714],[-2.6117943,53.4016534],[-2.6118111,53.4016371],[-2.6128195,53.4012117],[-2.6129679,53.4016671],[-2.6129856,53.4017215],[-2.6132848,53.4020917],[-2.6133104,53.4021428],[-2.6133301,53.4021911],[-2.6137571,53.4021096]]]}},
{"type":"Feature","properties":{"highway":"path","name":null,"category":"Shared path"},"geometry":{"type":"MultiLineString","coordinates":[[[-2.608759,53.4061943],[-2.6096176,53.4054617],[-2.6100638,53.4050692],[-2.6101661,53.4049804],[-2.6105724,53.4046622],[-2.6111089,53.4042785],[-2.6115809,53.4039523],[-2.612053,53.4036964],[-2.6124607,53.4033382],[-2.6126729,53.4031088],[-2.6126922,53.4030868],[-2.6127928,53.4029728],[-2.6131708,53.4024705],[-2.6132534,53.4023451],[-2.6133193,53.402227],[-2.6133301,53.4021911]]]}},
{"type":"Feature","properties":{"highway":"path","name":null,"category":"Shared path"},"geometry":{"type":"MultiLineString","coordinates":[[[-2.6137571,53.4021096],[-2.613748,53.4021338],[-2.6137205,53.4022071],[-2.613437,53.4025051],[-2.6130991,53.4029145],[-2.6129052,53.4031511],[-2.6128856,53.403175]]]}},
{"type":"Feature","properties":{"highway":"path","name":null,"category":"Shared path"},"geometry":{"type":"MultiLineString","coordinates":[[[-2.608387,53.40524],[-2.6087498,53.4052049],[-2.6092689,53.4051403],[-2.6096712,53.40509],[-2.6099718,53.4050671],[-2.6100638,53.4050692]]]}},
{"type":"Feature","properties":{"highway":"path","name":null,"category":"Shared path"},"geometry":{"type":"MultiLineString","coordinates":[[[-2.6078914,53.4053463],[-2.6078589,53.4053521],[-2.6078324,53.4053635],[-2.6077421,53.4054198],[-2.6076971,53.4054633],[-2.6076166,53.4055785],[-2.6076166,53.4056488],[-2.60774,53.4059206],[-2.6078473,53.4061477],[-2.6078527,53.4062852],[-2.6077347,53.4064291],[-2.6075415,53.4065474],[-2.6073873,53.4066402],[-2.6072007,53.4067028],[-2.6071499,53.4067201],[-2.6071013,53.4067518]]]}},
{"type":"Feature","properties":{"highway":"path","name":null,"category":"Shared path"},"geometry":{"type":"MultiLineString","coordinates":[[[-2.6072007,53.4067028],[-2.6070647,53.4065731],[-2.606979,53.4065151],[-2.606866,53.406463],[-2.6067405,53.4064388],[-2.6064199,53.4064201],[-2.6062977,53.4064074],[-2.6061842,53.4063852],[-2.6061277,53.4063649],[-2.606083,53.4063329],[-2.6060258,53.4062783],[-2.6059868,53.4062224],[-2.6059422,53.4061114],[-2.6059278,53.4060465],[-2.6059291,53.4059738],[-2.6059192,53.405901],[-2.6058772,53.4057419],[-2.6058505,53.4056544],[-2.6058295,53.4054879],[-2.6058291,53.4054383]]]}},
{"type":"Feature","properties":{"highway":"path","name":null,"category":"Shared path"},"geometry":{"type":"MultiLineString","coordinates":[[[-2.6077421,53.4054198],[-2.6074519,53.405459],[-2.6071396,53.4054956],[-2.6068374,53.4055092],[-2.6066987,53.4055008],[-2.6065327,53.4054859],[-2.6063072,53.4054488],[-2.6061477,53.405428],[-2.6060373,53.4054278],[-2.6058291,53.4054383],[-2.6056915,53.4054512],[-2.6056072,53.4054641]]]}},
{"type":"Feature","properties":{"highway":"path","name":null,"category":"Shared path"},"geometry":{"type":"MultiLineString","coordinates":[[[-2.6056072,53.4054641],[-2.6055303,53.4054805],[-2.6054419,53.405491],[-2.6053512,53.4054934],[-2.605228,53.4054809],[-2.605135,53.4054877],[-2.6050776,53.4054794],[-2.6050397,53.4054524],[-2.6049997,53.4054298],[-2.604905,53.4054328],[-2.6048643,53.4054375]]]}},
{"type":"Feature","properties":{"highway":"path","name":null,"category":"Shared path"},"geometry":{"type":"MultiLineString","coordinates":[[[-2.6127928,53.4029728],[-2.6123982,53.4028258],[-2.6119981,53.4026562],[-2.611695,53.4025019],[-2.6112995,53.4022869],[-2.6108768,53.4021037],[-2.6107204,53.4020373]]]}},
{"type":"Feature","properties":{"highway":"path","name":null,"category":"Shared path"},"geometry":{"type":"MultiLineString","coordinates":[[[-2.6128371,53.4031615],[-2.6128856,53.403175],[-2.6131412,53.4032365],[-2.6132738,53.4032437]]]}},
{"type":"Feature","properties":{"highway":"path","name":null,"category":"Shared path"},"geometry":{"type":"MultiLineString","coordinates":[[[-2.6143901,53.4004536],[-2.614274,53.4005228],[-2.6134489,53.4009166],[-2.6128195,53.4012117]]]}},
{"type":"Feature","properties":{"highway":"cycleway","name":"Sankey Valley Greenway","category":"Dedicated cycleway"},"geometry":{"type":"MultiLineString","coordinates":[[[-2.6132738,53.4032437],[-2.6133138,53.4031629],[-2.613459,53.4029714],[-2.6136252,53.4027617],[-2.6138364,53.4025089],[-2.6140406,53.4022346],[-2.6140122,53.4022164]]]}},
{"type":"Feature","properties":{"highway":"path","name":null,"category":"Shared path"},"geometry":{"type":"MultiLineString","coordinates":[[[-2.6076835,53.407113],[-2.6076653,53.4070882],[-2.6076063,53.4070082],[-2.6073479,53.4068478],[-2.6072382,53.4068563],[-2.6072103,53.4068413],[-2.6071971,53.4068341],[-2.6071323,53.4068077]]]}},
{"type":"Feature","properties":{"highway":"cycleway","name":"Boteler Avenue","category":"Dedicated cycleway"},"geometry":{"type":"MultiLineString","coordinates":[[[-2.6079412,53.3982083],[-2.607942,53.3981884],[-2.6079429,53.3981704],[-2.6079456,53.3981068]]]}},
{"type":"Feature","properties":{"highway":"cycleway","name":null,"category":"Dedicated cycleway"},"geometry":{"type":"MultiLineString","coordinates":[[[-2.5948478,53.4080035],[-2.5947582,53.4078824],[-2.594759,53.4078129],[-2.5948054,53.4077526],[-2.5946558,53.4076032],[-2.5945693,53.407463],[-2.5945128,53.4072462],[-2.5943856,53.4070716]]]}},
{"type":"Feature","properties":{"highway":"cycleway","name":null,"category":"Dedicated cycleway"},"geometry":{"type":"MultiLineString","coordinates":[[[-2.5946734,53.4080455],[-2.5947582,53.4078824]]]}},
{"type":"Feature","properties":{"highway":"cycleway","name":null,"category":"Dedicated cycleway"},"geometry":{"type":"MultiLineString","coordinates":[[[-2.5948478,53.4080035],[-2.5949305,53.4080196],[-2.594982,53.4080296]]]}},
{"type":"Feature","properties":{"highway":"path","name":"Tavlin Avenue","category":"Shared path"},"geometry":{"type":"MultiLineString","coordinates":[[[-2.6040942,53.4080579],[-2.6040756,53.4080729],[-2.6040656,53.4080846]]]}},
{"type":"Feature","properties":{"highway":"path","name":"Mullen Close","category":"Shared path"},"geometry":{"type":"MultiLineString","coordinates":[[[-2.6042149,53.4090533],[-2.6042083,53.4090257],[-2.604183,53.4089191],[-2.6040523,53.4088217],[-2.6040487,53.4087772],[-2.6039437,53.4087048],[-2.6038911,53.4087083],[-2.6038339,53.4087347],[-2.6036273,53.4087493],[-2.6034638,53.4088203],[-2.6035526,53.4088864],[-2.6036296,53.4089031],[-2.6037666,53.4090025],[-2.6037828,53.4090673],[-2.6037906,53.4090985]]]}},
{"type":"Feature","properties":{"highway":"path","name":"Mullen Close","category":"Shared path"},"geometry":{"type":"MultiLineString","coordinates":[[[-2.6034638,53.4088203],[-2.6032129,53.4088401],[-2.6030634,53.4089132],[-2.6030658,53.4089299],[-2.6031405,53.4089855],[-2.6031697,53.4090454],[-2.6032826,53.4091341],[-2.6032892,53.4091845]]]}},
{"type":"Feature","properties":{"highway":"path","name":"Mullen Close","category":"Shared path"},"geometry":{"type":"MultiLineString","coordinates":[[[-2.6037053,53.4091412],[-2.6036505,53.4091386],[-2.6035654,53.4091345],[-2.6034312,53.4091526],[-2.6033851,53.4091758],[-2.6032892,53.4091845],[-2.6032315,53.4091734],[-2.6030751,53.4090238],[-2.6029296,53.4086776],[-2.6029099,53.4086306]]]}},
{"type":"Feature","properties":{"highway":"path","name":null,"category":"Shared path"},"geometry":{"type":"MultiLineString","coordinates":[[[-2.601036,53.4012747],[-2.6011698,53.401487],[-2.6011911,53.4015209]]]}},
{"type":"Feature","properties":{"highway":"path","name":null,"category":"Shared path"},"geometry":{"type":"MultiLineString","coordinates":[[[-2.601272,53.4012208],[-2.601036,53.4012747],[-2.6008715,53.4013123]]]}},
{"type":"Feature","properties":{"highway":"path","name":null,"category":"Shared path"},"geometry":{"type":"MultiLineString","coordinates":[[[-2.6051959,53.406523],[-2.6053495,53.4064168],[-2.6057339,53.4063756],[-2.6057482,53.4064356]]]}},
{"type":"Feature","properties":{"highway":"path","name":null,"category":"Shared path"},"geometry":{"type":"MultiLineString","coordinates":[[[-2.6017272,53.4035104],[-2.6017201,53.4034719],[-2.6015949,53.4031713],[-2.601557,53.4031595]]]}},
{"type":"Feature","properties":{"highway":"path","name":"Towers Court","category":"Shared path"},"geometry":{"type":"MultiLineString","coordinates":[[[-2.6115063,53.4001746],[-2.6115532,53.4001382],[-2.6119436,53.3998628],[-2.6121584,53.3997112],[-2.6124342,53.3995173]]]}},
{"type":"Feature","properties":{"highway":"path","name":"Towers Court","category":"Shared path"},"geometry":{"type":"MultiLineString","coordinates":[[[-2.6119436,53.3998628],[-2.6115902,53.3996906]]]}},
{"type":"Feature","properties":{"highway":"path","name":"Towers Court","category":"Shared path"},"geometry":{"type":"MultiLineString","coordinates":[[[-2.6121584,53.3997112],[-2.6118477,53.3995565],[-2.61181,53.399584],[-2.6117436,53.3995771]]]}},
{"type":"Feature","properties":{"highway":"path","name":"Towers Court","category":"Shared path"},"geometry":{"type":"MultiLineString","coordinates":[[[-2.610757,53.3993143],[-2.6111161,53.3992005],[-2.611442,53.3990972],[-2.6116626,53.3991906],[-2.6124342,53.3995173]]]}},
{"type":"Feature","properties":{"highway":"path","name":"Towers Court","category":"Shared path"},"geometry":{"type":"MultiLineString","coordinates":[[[-2.611389,53.3994083],[-2.611422,53.399382],[-2.6116626,53.3991906]]]}},
{"type":"Feature","properties":{"highway":"path","name":"Towers Court","category":"Shared path"},"geometry":{"type":"MultiLineString","coordinates":[[[-2.611422,53.399382],[-2.6111161,53.3992005]]]}},
{"type":"Feature","properties":{"highway":"path","name":"Towers Court","category":"Shared path"},"geometry":{"type":"MultiLineString","coordinates":[[[-2.6111913,53.4000322],[-2.6114625,53.3998449],[-2.6114425,53.3998]]]}},
{"type":"Feature","properties":{"highway":"path","name":null,"category":"Shared path"},"geometry":{"type":"MultiLineString","coordinates":[[[-2.6046873,53.4037261],[-2.6046977,53.4036492],[-2.604707,53.4035807]]]}},
{"type":"Feature","properties":{"highway":"path","name":null,"category":"Shared path"},"geometry":{"type":"MultiLineString","coordinates":[[[-2.6045269,53.4037883],[-2.6044907,53.4037854],[-2.6044724,53.4037642]]]}},
{"type":"Feature","properties":{"highway":"path","name":null,"category":"Shared path"},"geometry":{"type":"MultiLineString","coordinates":[[[-2.6071013,53.4067518],[-2.6070906,53.4067581],[-2.6070991,53.4067682],[-2.6071323,53.4068077]]]}},
{"type":"Feature","properties":{"highway":"path","name":null,"category":"Shared path"},"geometry":{"type":"MultiLineString","coordinates":[[[-2.606388,53.403175],[-2.6063331,53.4032161],[-2.6061447,53.4033338],[-2.6054874,53.4035878],[-2.6054465,53.4035878],[-2.6052191,53.4036346]]]}},
{"type":"Feature","properties":{"highway":"path","name":null,"category":"Shared path"},"geometry":{"type":"MultiLineString","coordinates":[[[-2.6054874,53.4035878],[-2.6055435,53.4035922],[-2.6060048,53.4036026],[-2.6060249,53.4035858],[-2.6061497,53.4033515],[-2.6061447,53.4033338]]]}},
{"type":"Feature","properties":{"highway":"path","name":null,"category":"Shared path"},"geometry":{"type":"MultiLineString","coordinates":[[[-2.6059705,53.4039044],[-2.6059796,53.403866],[-2.6060186,53.4036306],[-2.6060048,53.4036026]]]}},
{"type":"Feature","properties":{"highway":"path","name":null,"category":"Shared path"},"geometry":{"type":"MultiLineString","coordinates":[[[-2.6060186,53.4036306],[-2.6063888,53.403697],[-2.6064424,53.4037066]]]}},
{"type":"Feature","properties":{"highway":"cycleway","name":null,"category":"Dedicated cycleway"},"geometry":{"type":"MultiLineString","coordinates":[[[-2.5956997,53.4086493],[-2.5955452,53.4086589]]]}},
{"type":"Feature","properties":{"highway":"cycleway","name":null,"category":"Dedicated cycleway"},"geometry":{"type":"MultiLineString","coordinates":[[[-2.5955452,53.4086589],[-2.5954703,53.4086154],[-2.5954274,53.4085733],[-2.5954071,53.4085556],[-2.5953637,53.4085179],[-2.5953133,53.4084831],[-2.595262,53.4084557],[-2.5952142,53.4084367],[-2.5951715,53.4084245]]]}},
{"type":"Feature","properties":{"highway":"cycleway","name":null,"category":"Dedicated cycleway"},"geometry":{"type":"MultiLineString","coordinates":[[[-2.5950941,53.408672],[-2.5951082,53.4086221],[-2.5951715,53.4084245]]]}},
{"type":"Feature","properties":{"highway":"cycleway","name":null,"category":"Dedicated cycleway"},"geometry":{"type":"MultiLineString","coordinates":[[[-2.5946669,53.4086148],[-2.5947962,53.4084282],[-2.5947919,53.4083848]]]}},
{"type":"Feature","properties":{"highway":"cycleway","name":null,"category":"Dedicated cycleway"},"geometry":{"type":"MultiLineString","coordinates":[[[-2.5955025,53.40793],[-2.5955162,53.4078874]]]}},
{"type":"Feature","properties":{"highway":"cycleway","name":null,"category":"Dedicated cycleway"},"geometry":{"type":"MultiLineString","coordinates":[[[-2.5975614,53.4109305],[-2.5974712,53.4109396],[-2.5974353,53.4109382],[-2.5973977,53.4109311],[-2.5973604,53.4109178],[-2.5973349,53.4108993],[-2.5972921,53.4108553],[-2.5972582,53.4108122],[-2.5972389,53.4107795],[-2.5972221,53.4107372],[-2.5971385,53.4105116],[-2.5970913,53.4103981],[-2.59701,53.4102148],[-2.5969797,53.4101494],[-2.5968967,53.4099706],[-2.5967608,53.4097133],[-2.5966139,53.409453],[-2.5963413,53.4090552],[-2.5963068,53.4090013]]]}},
{"type":"Feature","properties":{"highway":"cycleway","name":null,"category":"Dedicated cycleway"},"geometry":{"type":"MultiLineString","coordinates":[[[-2.5961879,53.4089808],[-2.5963068,53.4090013]]]}},
{"type":"Feature","properties":{"highway":"path","name":null,"category":"Shared path"},"geometry":{"type":"MultiLineString","coordinates":[[[-2.5960517,53.4092264],[-2.5960491,53.4092215],[-2.5960464,53.4092165],[-2.5960369,53.4091988],[-2.5960416,53.4091484]]]}},
{"type":"Feature","properties":{"highway":"path","name":null,"category":"Shared path"},"geometry":{"type":"MultiLineString","coordinates":[[[-2.6134489,53.4009166],[-2.6133904,53.4008787],[-2.6133366,53.4008266]]]}},
{"type":"Feature","properties":{"highway":"path","name":null,"category":"Shared path"},"geometry":{"type":"MultiLineString","coordinates":[[[-2.6127744,53.4006126],[-2.6127891,53.4006187],[-2.612791,53.4006685]]]}},
{"type":"Feature","properties":{"highway":"path","name":null,"category":"Shared path"},"geometry":{"type":"MultiLineString","coordinates":[[[-2.6026329,53.3999915],[-2.6025619,53.4000305],[-2.6023112,53.4000399]]]}},
{"type":"Feature","properties":{"highway":"cycleway","name":null,"category":"Dedicated cycleway"},"geometry":{"type":"MultiLineString","coordinates":[[[-2.5946141,53.4086607],[-2.5946669,53.4086148]]]}},
{"type":"Feature","properties":{"highway":"cycleway","name":null,"category":"Dedicated cycleway"},"geometry":{"type":"MultiLineString","coordinates":[[[-2.6087938,53.4079622],[-2.6088619,53.4079731],[-2.6089322,53.4079903],[-2.6089808,53.4080055]]]}},
{"type":"Feature","properties":{"highway":"cycleway","name":null,"category":"Dedicated cycleway"},"geometry":{"type":"MultiLineString","coordinates":[[[-2.6089808,53.4080055],[-2.6088708,53.4080154]]]}},
{"type":"Feature","properties":{"highway":"cycleway","name":null,"category":"Dedicated cycleway"},"geometry":{"type":"MultiLineString","coordinates":[[[-2.6088708,53.4080154],[-2.6088062,53.4080201]]]}},
{"type":"Feature","properties":{"highway":"cycleway","name":null,"category":"Dedicated cycleway"},"geometry":{"type":"MultiLineString","coordinates":[[[-2.5951715,53.4084245],[-2.595062,53.4083987],[-2.5949734,53.4083852],[-2.5949151,53.408381],[-2.5948619,53.4083808],[-2.5947919,53.4083848]]]}},
{"type":"Feature","properties":{"highway":"cycleway","name":"Sankey Valley Greenway","category":"Dedicated cycleway"},"geometry":{"type":"MultiLineString","coordinates":[[[-2.6132626,53.4032996],[-2.6132738,53.4032437]]]}},
{"type":"Feature","properties":{"highway":"cycleway","name":"Sankey Valley Greenway","category":"Dedicated cycleway"},"geometry":{"type":"MultiLineString","coordinates":[[[-2.6132526,53.4033994],[-2.6132626,53.4032996]]]}},
{"type":"Feature","properties":{"highway":"path","name":null,"category":"Shared path"},"geometry":{"type":"MultiLineString","coordinates":[[[-2.6044865,53.4044957],[-2.604571,53.4044864],[-2.6045932,53.404484],[-2.6046145,53.4044816]]]}},
{"type":"Feature","properties":{"highway":"path","name":null,"category":"Shared path"},"geometry":{"type":"MultiLineString","coordinates":[[[-2.6046145,53.4044816],[-2.6067659,53.4046569],[-2.6072618,53.4044695],[-2.6074414,53.4041116],[-2.6079918,53.4030147]]]}},
{"type":"Feature","properties":{"highway":"path","name":null,"category":"Shared path"},"geometry":{"type":"MultiLineString","coordinates":[[[-2.6074317,53.4041098],[-2.6071438,53.4040566]]]}},
{"type":"Feature","properties":{"highway":"path","name":null,"category":"Shared path"},"geometry":{"type":"MultiLineString","coordinates":[[[-2.6074414,53.4041116],[-2.6074317,53.4041098]]]}},
{"type":"Feature","properties":{"highway":"path","name":null,"category":"Shared path"},"geometry":{"type":"MultiLineString","coordinates":[[[-2.6070449,53.4008929],[-2.6070921,53.4008652],[-2.6072052,53.4008203],[-2.6068804,53.4005017]]]}},
{"type":"Feature","properties":{"highway":"path","name":null,"category":"Shared path"},"geometry":{"type":"MultiLineString","coordinates":[[[-2.6068676,53.400936],[-2.6068043,53.4008734],[-2.6067004,53.4007706],[-2.6065499,53.4006218],[-2.6065179,53.4005901],[-2.6062245,53.4002999],[-2.6054745,53.4005684],[-2.6060479,53.4011304],[-2.6060703,53.4011404],[-2.6061755,53.4011873]]]}},
{"type":"Feature","properties":{"highway":"path","name":null,"category":"Shared path"},"geometry":{"type":"MultiLineString","coordinates":[[[-2.6062245,53.4002999],[-2.6067624,53.4001099],[-2.6072968,53.3999211],[-2.6076164,53.4002319],[-2.6074075,53.4003085],[-2.6070843,53.4004269],[-2.6068804,53.4005017],[-2.6065499,53.4006218]]]}},
{"type":"Feature","properties":{"highway":"path","name":null,"category":"Shared path"},"geometry":{"type":"MultiLineString","coordinates":[[[-2.6070843,53.4004269],[-2.6067624,53.4001099]]]}},
{"type":"Feature","properties":{"highway":"path","name":null,"category":"Shared path"},"geometry":{"type":"MultiLineString","coordinates":[[[-2.6074075,53.4003085],[-2.607728,53.4006229],[-2.6072052,53.4008203]]]}},
{"type":"Feature","properties":{"highway":"cycleway","name":"Boteler Avenue","category":"Dedicated cycleway"},"geometry":{"type":"MultiLineString","coordinates":[[[-2.6078472,53.3981585],[-2.6079429,53.3981704],[-2.608005,53.3981781],[-2.6081855,53.3982005]]]}},
{"type":"Feature","properties":{"highway":"path","name":null,"category":"Shared path"},"geometry":{"type":"MultiLineString","coordinates":[[[-2.6100426,53.4078382],[-2.6100109,53.4078896],[-2.6099887,53.4079255]]]}},
{"type":"Feature","properties":{"highway":"cycleway","name":null,"category":"Dedicated cycleway"},"geometry":{"type":"MultiLineString","coordinates":[[[-2.6101146,53.407916],[-2.6100369,53.4080185]]]}},
{"type":"Feature","properties":{"highway":"cycleway","name":null,"category":"Dedicated cycleway"},"geometry":{"type":"MultiLineString","coordinates":[[[-2.6098942,53.4078375],[-2.6098858,53.4079361]]]}},
{"type":"Feature","properties":{"highway":"path","name":null,"category":"Shared path"},"geometry":{"type":"MultiLineString","coordinates":[[[-2.6097234,53.4079533],[-2.6096831,53.4079168],[-2.6096496,53.4078737],[-2.6096368,53.4078545],[-2.6096355,53.4078333],[-2.6096375,53.4077997],[-2.6096305,53.4077577],[-2.609602,53.4076856],[-2.6095868,53.4076395],[-2.6095817,53.407605],[-2.6095688,53.4075641],[-2.6095462,53.4075049],[-2.6095127,53.4074609],[-2.6094738,53.4073482],[-2.6093672,53.40714],[-2.6093844,53.4070907],[-2.6094555,53.4070481]]]}},
{"type":"Feature","properties":{"highway":"path","name":null,"category":"Shared path"},"geometry":{"type":"MultiLineString","coordinates":[[[-2.6129052,53.4031511],[-2.6128536,53.4031399],[-2.6130126,53.4029134],[-2.6129643,53.402898],[-2.6127536,53.4031049],[-2.6126922,53.4030868]]]}},
{"type":"Feature","properties":{"highway":"path","name":null,"category":"Shared path"},"geometry":{"type":"MultiLineString","coordinates":[[[-2.6126729,53.4031088],[-2.6127401,53.4031321]]]}},
{"type":"Feature","properties":{"highway":"cycleway","name":null,"category":"Dedicated cycleway"},"geometry":{"type":"MultiLineString","coordinates":[[[-2.5950863,53.4080081],[-2.5951515,53.4079881]]]}},
{"type":"Feature","properties":{"highway":"path","name":null,"category":"Shared path"},"geometry":{"type":"MultiLineString","coordinates":[[[-2.6099818,53.4097099],[-2.6099871,53.4096572],[-2.6099854,53.4095517],[-2.6099624,53.4093428],[-2.6099595,53.4092824],[-2.6099653,53.4092316],[-2.609977,53.4091871],[-2.6099921,53.4091509],[-2.6100178,53.4091091]]]}},
{"type":"Feature","properties":{"highway":"path","name":null,"category":"Shared path"},"geometry":{"type":"MultiLineString","coordinates":[[[-2.6103312,53.4091603],[-2.6102653,53.4091641],[-2.6102081,53.4091585],[-2.6101451,53.4091467],[-2.6100727,53.4091265],[-2.6100178,53.4091091],[-2.6099898,53.4090945],[-2.6099676,53.4090757],[-2.6099536,53.409052],[-2.6098696,53.40886],[-2.6098275,53.4087103],[-2.6097668,53.4084299],[-2.6096968,53.4080902],[-2.6096941,53.4080521],[-2.6096964,53.4080246],[-2.6097018,53.4080039],[-2.6097111,53.4079828],[-2.6097234,53.4079533]]]}},
{"type":"Feature","properties":{"highway":"path","name":null,"category":"Shared path"},"geometry":{"type":"MultiLineString","coordinates":[[[-2.6099652,53.4069015],[-2.6099736,53.4068046],[-2.6100264,53.4066967],[-2.6101098,53.4066107],[-2.6102358,53.4065429]]]}},
{"type":"Feature","properties":{"highway":"cycleway","name":null,"category":"Dedicated cycleway"},"geometry":{"type":"MultiLineString","coordinates":[[[-2.5950217,53.4080279],[-2.5950863,53.4080081]]]}},
{"type":"Feature","properties":{"highway":"cycleway","name":null,"category":"Dedicated cycleway"},"geometry":{"type":"MultiLineString","coordinates":[[[-2.5951515,53.4079881],[-2.5951903,53.408033]]]}},
{"type":"Feature","properties":{"highway":"cycleway","name":null,"category":"Dedicated cycleway"},"geometry":{"type":"MultiLineString","coordinates":[[[-2.5954932,53.4079589],[-2.5955025,53.40793]]]}},
{"type":"Feature","properties":{"highway":"cycleway","name":null,"category":"Dedicated cycleway"},"geometry":{"type":"MultiLineString","coordinates":[[[-2.59541,53.4079656],[-2.5954433,53.4079748],[-2.5954932,53.4079589]]]}},
{"type":"Feature","properties":{"highway":"cycleway","name":null,"category":"Dedicated cycleway"},"geometry":{"type":"MultiLineString","coordinates":[[[-2.5950029,53.4080337],[-2.5950085,53.4080978],[-2.5950308,53.4081224]]]}},
{"type":"Feature","properties":{"highway":"cycleway","name":null,"category":"Dedicated cycleway"},"geometry":{"type":"MultiLineString","coordinates":[[[-2.5950029,53.4080337],[-2.5950217,53.4080279]]]}},
{"type":"Feature","properties":{"highway":"cycleway","name":null,"category":"Dedicated cycleway"},"geometry":{"type":"MultiLineString","coordinates":[[[-2.594982,53.4080296],[-2.5950029,53.4080337]]]}},
{"type":"Feature","properties":{"highway":"cycleway","name":null,"category":"Dedicated cycleway"},"geometry":{"type":"MultiLineString","coordinates":[[[-2.5950308,53.4081224],[-2.5950689,53.4081645],[-2.5951075,53.4082073]]]}},
{"type":"Feature","properties":{"highway":"cycleway","name":null,"category":"Dedicated cycleway"},"geometry":{"type":"MultiLineString","coordinates":[[[-2.5951075,53.4082073],[-2.5950336,53.4082322]]]}},
{"type":"Feature","properties":{"highway":"cycleway","name":null,"category":"Dedicated cycleway"},"geometry":{"type":"MultiLineString","coordinates":[[[-2.5950336,53.4082322],[-2.5950656,53.4082652],[-2.5950934,53.4082939]]]}},
{"type":"Feature","properties":{"highway":"cycleway","name":null,"category":"Dedicated cycleway"},"geometry":{"type":"MultiLineString","coordinates":[[[-2.5950934,53.4082939],[-2.5951043,53.4083052],[-2.5951,53.4083147]]]}},
{"type":"Feature","properties":{"highway":"cycleway","name":null,"category":"Dedicated cycleway"},"geometry":{"type":"MultiLineString","coordinates":[[[-2.6082908,53.4092217],[-2.6083357,53.4091741],[-2.6084171,53.4091465],[-2.6090176,53.4090963],[-2.6091649,53.4091222],[-2.6093332,53.409502],[-2.6093581,53.4097624],[-2.6093212,53.4097959],[-2.6084967,53.4098632],[-2.6084322,53.4098402],[-2.6082908,53.4092217]]]}},
{"type":"Feature","properties":{"highway":"cycleway","name":null,"category":"Dedicated cycleway"},"geometry":{"type":"MultiLineString","coordinates":[[[-2.6079456,53.3981068],[-2.6079207,53.3980924],[-2.6078721,53.3980575],[-2.6078184,53.398019],[-2.607801,53.3980024]]]}},
{"type":"Feature","properties":{"highway":"cycleway","name":null,"category":"Dedicated cycleway"},"geometry":{"type":"MultiLineString","coordinates":[[[-2.6084166,53.3982821],[-2.6083363,53.3982897],[-2.6081789,53.3981773],[-2.6081614,53.3981704],[-2.6080971,53.3981448],[-2.608075,53.3981365],[-2.6080656,53.3981286],[-2.6080584,53.3981197],[-2.6080487,53.3981077]]]}},
{"type":"Feature","properties":{"highway":"cycleway","name":null,"category":"Dedicated cycleway"},"geometry":{"type":"MultiLineString","coordinates":[[[-2.607139,53.3983518],[-2.6071519,53.3983017],[-2.6072268,53.3982754],[-2.6073395,53.3982296],[-2.6075467,53.3981459],[-2.6077161,53.3980663],[-2.6077655,53.39804],[-2.6077957,53.398015],[-2.607801,53.3980024],[-2.6078046,53.3979938],[-2.6078053,53.3979764],[-2.6078058,53.3979638],[-2.6078071,53.3979536],[-2.6078023,53.3979382],[-2.6077869,53.3979097],[-2.6077885,53.3979018],[-2.6078411,53.3978638]]]}},
{"type":"Feature","properties":{"highway":"cycleway","name":null,"category":"Dedicated cycleway"},"geometry":{"type":"MultiLineString","coordinates":[[[-2.6078071,53.3979536],[-2.6078282,53.3979304],[-2.6078956,53.3978976],[-2.6079488,53.3978694],[-2.6079749,53.3978491],[-2.6079819,53.3978348]]]}},
{"type":"Feature","properties":{"highway":"cycleway","name":null,"category":"Dedicated cycleway"},"geometry":{"type":"MultiLineString","coordinates":[[[-2.6081224,53.3978561],[-2.6081446,53.3978684],[-2.6081946,53.3979053],[-2.6082466,53.3979437],[-2.6082578,53.3979594]]]}},
{"type":"Feature","properties":{"highway":"cycleway","name":null,"category":"Dedicated cycleway"},"geometry":{"type":"MultiLineString","coordinates":[[[-2.6076722,53.3977629],[-2.6077841,53.3977469],[-2.6078439,53.3977864],[-2.6078672,53.3977959],[-2.6079587,53.3978269],[-2.6079819,53.3978348],[-2.6080417,53.3978551],[-2.6080665,53.3978622],[-2.6080845,53.397863],[-2.6081074,53.3978592],[-2.6081224,53.3978561],[-2.6081326,53.397854],[-2.6082274,53.3978279],[-2.6082979,53.3978528]]]}},
{"type":"Feature","properties":{"highway":"cycleway","name":null,"category":"Dedicated cycleway"},"geometry":{"type":"MultiLineString","coordinates":[[[-2.6082177,53.3980361],[-2.6082104,53.3980421],[-2.6082006,53.3980483],[-2.6081475,53.398074],[-2.6080863,53.3981003],[-2.6080634,53.3981057],[-2.6080487,53.3981077]]]}},
{"type":"Feature","properties":{"highway":"cycleway","name":null,"category":"Dedicated cycleway"},"geometry":{"type":"MultiLineString","coordinates":[[[-2.6086645,53.3976676],[-2.6086707,53.3977494],[-2.6085624,53.3978046],[-2.6083641,53.397899],[-2.6083077,53.397936],[-2.6082825,53.3979491],[-2.6082578,53.3979594],[-2.6082413,53.3979662],[-2.6082268,53.3979762],[-2.6082195,53.3979857],[-2.6082134,53.3980078],[-2.6082107,53.3980205],[-2.6082139,53.3980308],[-2.6082177,53.3980361],[-2.6082221,53.3980421],[-2.6082365,53.3980571],[-2.6082551,53.3980727],[-2.6082693,53.3980892],[-2.608279,53.3981102],[-2.6082716,53.3981726]]]}},
{"type":"Feature","properties":{"highway":"cycleway","name":null,"category":"Dedicated cycleway"},"geometry":{"type":"MultiLineString","coordinates":[[[-2.6080016,53.3981111],[-2.6079717,53.3981098],[-2.6079456,53.3981068]]]}},
{"type":"Feature","properties":{"highway":"cycleway","name":null,"category":"Dedicated cycleway"},"geometry":{"type":"MultiLineString","coordinates":[[[-2.6080487,53.3981077],[-2.608041,53.3981087],[-2.6080177,53.3981108],[-2.6080016,53.3981111]]]}},
{"type":"Feature","properties":{"highway":"path","name":null,"category":"Shared path"},"geometry":{"type":"MultiLineString","coordinates":[[[-2.6069706,53.3984152],[-2.6069324,53.3983807],[-2.6069163,53.3983705],[-2.6068558,53.3983295]]]}},
{"type":"Feature","properties":{"highway":"cycleway","name":null,"category":"Dedicated cycleway"},"geometry":{"type":"MultiLineString","coordinates":[[[-2.6079456,53.3981068],[-2.6078748,53.3981209],[-2.6077924,53.3980922]]]}},
{"type":"Feature","properties":{"highway":"cycle_lane_on_street","name":"Hawleys Lane","category":"Cycle lane on street"},"geometry":{"type":"MultiLineString","coordinates":[[[-2.6030075,53.4086167],[-2.6030757,53.4086076],[-2.6032925,53.4085785],[-2.6035026,53.4085437],[-2.6036547,53.4085132],[-2.6038152,53.408477],[-2.6039497,53.4084441],[-2.6041741,53.4083783],[-2.6044594,53.4082818],[-2.6048151,53.4081235],[-2.6049496,53.4080576],[-2.6050313,53.408017],[-2.6052886,53.4078894]]]}},
{"type":"Feature","properties":{"highway":"cycle_lane_on_street","name":"Hawleys Lane","category":"Cycle lane on street"},"geometry":{"type":"MultiLineString","coordinates":[[[-2.6055083,53.4077683],[-2.6057546,53.4076245]]]}},
{"type":"Feature","properties":{"highway":"cycle_lane_on_street","name":"Hawleys Lane","category":"Cycle lane on street"},"geometry":{"type":"MultiLineString","coordinates":[[[-2.6052886,53.4078894],[-2.6055083,53.4077683]]]}}
]
}
