{
"type": "FeatureCollection",
"name": "WARRI_91_cycling",
"crs": { "type": "name", "properties": { "name": "urn:ogc:def:crs:OGC:1.3:CRS84" } },
"features": [
{"type":"Feature","properties":{"highway":"path","name":null,"category":"Shared path"},"geometry":{"type":"MultiLineString","coordinates":[[[-2.568117,53.3690417],[-2.5681068,53.3688761],[-2.5681108,53.3686904],[-2.5680981,53.3686249],[-2.5680596,53.3685428],[-2.5679994,53.3684676],[-2.5677407,53.368226],[-2.5675904,53.3680751],[-2.5674401,53.36788],[-2.5673984,53.3677994],[-2.5674111,53.3676937],[-2.5674398,53.3675198],[-2.5674242,53.367419],[-2.5673866,53.3673196],[-2.5672737,53.3671293],[-2.567073,53.3669318],[-2.5667941,53.3666815],[-2.5665522,53.3665277],[-2.5665088,53.3664964]]]}},
{"type":"Feature","properties":{"highway":"path","name":null,"category":"Shared path"},"geometry":{"type":"MultiLineString","coordinates":[[[-2.565309,53.3608984],[-2.5652116,53.3608826],[-2.5650884,53.3608448],[-2.564955,53.3607504],[-2.5649544,53.3605844]]]}},
{"type":"Feature","properties":{"highway":"path","name":null,"category":"Shared path"},"geometry":{"type":"MultiLineString","coordinates":[[[-2.5645544,53.3579807],[-2.5657517,53.3581045],[-2.566642,53.3582673]]]}},
{"type":"Feature","properties":{"highway":"path","name":null,"category":"Shared path"},"geometry":{"type":"MultiLineString","coordinates":[[[-2.5720756,53.367287],[-2.5717654,53.3671681],[-2.5717676,53.3669731],[-2.5717669,53.3667669],[-2.5720472,53.3665837]]]}},
{"type":"Feature","properties":{"highway":"path","name":null,"category":"Shared path"},"geometry":{"type":"MultiLineString","coordinates":[[[-2.5646917,53.3504885],[-2.5648343,53.3504043],[-2.5650504,53.3502285],[-2.5651541,53.3501866],[-2.5653631,53.3501701],[-2.5655575,53.3501783],[-2.5658023,53.3502128],[-2.566054,53.3502752],[-2.5661888,53.3502921],[-2.5664109,53.350292]]]}},
{"type":"Feature","properties":{"highway":"path","name":null,"category":"Shared path"},"geometry":{"type":"MultiLineString","coordinates":[[[-2.5600322,53.3525814],[-2.5602427,53.3525696],[-2.5603304,53.3525838]]]}},
{"type":"Feature","properties":{"highway":"path","name":null,"category":"Shared path"},"geometry":{"type":"MultiLineString","coordinates":[[[-2.5600005,53.3527895],[-2.5601679,53.3528082],[-2.5602566,53.3528075]]]}},
{"type":"Feature","properties":{"highway":"path","name":null,"category":"Shared path"},"geometry":{"type":"MultiLineString","coordinates":[[[-2.5704017,53.3529563],[-2.5704812,53.353541],[-2.570176,53.3539596],[-2.5698512,53.354338]]]}},
{"type":"Feature","properties":{"highway":"path","name":null,"category":"Shared path"},"geometry":{"type":"MultiLineString","coordinates":[[[-2.5686271,53.3511049],[-2.5687809,53.3512992],[-2.5693614,53.3517549],[-2.5696695,53.3520271],[-2.5699088,53.3522667],[-2.5702102,53.3525461],[-2.5702811,53.3526938]]]}},
{"type":"Feature","properties":{"highway":"track","name":"Green Lane","category":"Track"},"geometry":{"type":"MultiLineString","coordinates":[[[-2.5568036,53.3537067],[-2.5563201,53.3536547],[-2.5558823,53.3536077],[-2.5549971,53.3534587],[-2.5543856,53.3532089],[-2.5543324,53.3531816]]]}},
{"type":"Feature","properties":{"highway":"track","name":"Old Pewterspear Lane","category":"Track"},"geometry":{"type":"MultiLineString","coordinates":[[[-2.566433,53.3512457],[-2.5662698,53.3512657],[-2.5658652,53.3513289],[-2.5654952,53.3513757],[-2.5652139,53.3514036]]]}},
{"type":"Feature","properties":{"highway":"track","name":"Dood's Lane","category":"Track"},"geometry":{"type":"MultiLineString","coordinates":[[[-2.5568036,53.3537067],[-2.5567657,53.3537857],[-2.556716,53.3539206],[-2.5566713,53.3540749],[-2.5566685,53.3544137],[-2.5566971,53.3547499],[-2.5567047,53.3548735],[-2.5567028,53.3549448],[-2.5566818,53.3550347],[-2.5566301,53.3552198],[-2.556516,53.3555962],[-2.5564668,53.3557559],[-2.556425,53.3558402],[-2.5563687,53.3559362],[-2.5562726,53.3560495],[-2.5561289,53.3561723],[-2.5559208,53.3563804],[-2.5558333,53.3564783],[-2.5557801,53.3565525],[-2.555706,53.3566869]]]}},
{"type":"Feature","properties":{"highway":"path","name":null,"category":"Shared path"},"geometry":{"type":"MultiLineString","coordinates":[[[-2.5671094,53.35121],[-2.5671067,53.3512629],[-2.567114,53.3514298],[-2.5671152,53.3514661]]]}},
{"type":"Feature","properties":{"highway":"path","name":null,"category":"Shared path"},"geometry":{"type":"MultiLineString","coordinates":[[[-2.5570595,53.3533142],[-2.5569129,53.3533333]]]}},
{"type":"Feature","properties":{"highway":"path","name":null,"category":"Shared path"},"geometry":{"type":"MultiLineString","coordinates":[[[-2.5569129,53.3533333],[-2.5568848,53.3534902],[-2.5570002,53.353644]]]}},
{"type":"Feature","properties":{"highway":"path","name":null,"category":"Shared path"},"geometry":{"type":"MultiLineString","coordinates":[[[-2.5570002,53.353644],[-2.5569967,53.3536795]]]}},
{"type":"Feature","properties":{"highway":"track","name":"Doods Bridge","category":"Track"},"geometry":{"type":"MultiLineString","coordinates":[[[-2.5571621,53.3537432],[-2.5570384,53.3537267]]]}},
{"type":"Feature","properties":{"highway":"track","name":"Green Lane","category":"Track"},"geometry":{"type":"MultiLineString","coordinates":[[[-2.5570384,53.3537267],[-2.5569789,53.3537204]]]}},
{"type":"Feature","properties":{"highway":"track","name":"Green Lane","category":"Track"},"geometry":{"type":"MultiLineString","coordinates":[[[-2.5569789,53.3537204],[-2.5569208,53.3537159],[-2.5568036,53.3537067]]]}},
{"type":"Feature","properties":{"highway":"path","name":null,"category":"Shared path"},"geometry":{"type":"MultiLineString","coordinates":[[[-2.5722107,53.3639664],[-2.573304,53.3637352],[-2.5737104,53.3636938],[-2.573832,53.3637441]]]}},
{"type":"Feature","properties":{"highway":"path","name":null,"category":"Shared path"},"geometry":{"type":"MultiLineString","coordinates":[[[-2.5676983,53.3649871],[-2.5681261,53.3649523],[-2.5682118,53.3649468],[-2.5683188,53.3649183]]]}},
{"type":"Feature","properties":{"highway":"path","name":null,"category":"Shared path"},"geometry":{"type":"MultiLineString","coordinates":[[[-2.5686774,53.3649032],[-2.5687395,53.3650056],[-2.5687198,53.3650353]]]}},
{"type":"Feature","properties":{"highway":"path","name":null,"category":"Shared path"},"geometry":{"type":"MultiLineString","coordinates":[[[-2.5669263,53.3652463],[-2.5669152,53.3652579]]]}},
{"type":"Feature","properties":{"highway":"path","name":null,"category":"Shared path"},"geometry":{"type":"MultiLineString","coordinates":[[[-2.5718131,53.3661557],[-2.572607,53.36599]]]}},
{"type":"Feature","properties":{"highway":"cycleway","name":null,"category":"Dedicated cycleway"},"geometry":{"type":"MultiLineString","coordinates":[[[-2.5628714,53.3570036],[-2.5627846,53.3569369],[-2.5627825,53.3568569],[-2.5627769,53.3568181],[-2.5627789,53.356746],[-2.562779,53.3566637],[-2.5627763,53.3565839],[-2.5627584,53.3564853],[-2.5627079,53.3562419],[-2.5626504,53.3560855],[-2.5625873,53.3559762],[-2.5625256,53.3558961],[-2.5622329,53.3555854],[-2.5619341,53.355367],[-2.5618697,53.3552902]]]}},
{"type":"Feature","properties":{"highway":"cycleway","name":null,"category":"Dedicated cycleway"},"geometry":{"type":"MultiLineString","coordinates":[[[-2.5621958,53.3543308],[-2.5619984,53.3546321],[-2.5618776,53.3548163],[-2.5617742,53.3550469],[-2.5618117,53.3551781],[-2.5618697,53.3552902]]]}},
{"type":"Feature","properties":{"highway":"path","name":null,"category":"Shared path"},"geometry":{"type":"MultiLineString","coordinates":[[[-2.5709222,53.3571968],[-2.5703858,53.3570431],[-2.5700639,53.3569343],[-2.5697742,53.3567678],[-2.5695623,53.3565549],[-2.5693558,53.3562747],[-2.5690387,53.3560025]]]}},
{"type":"Feature","properties":{"highway":"path","name":null,"category":"Shared path"},"geometry":{"type":"MultiLineString","coordinates":[[[-2.5699578,53.3575608],[-2.5700586,53.3575626],[-2.5701739,53.3576234],[-2.5703975,53.3577827],[-2.5704746,53.35782],[-2.5706311,53.3578957],[-2.5707644,53.3579338]]]}},
{"type":"Feature","properties":{"highway":"path","name":null,"category":"Shared path"},"geometry":{"type":"MultiLineString","coordinates":[[[-2.5671386,53.3498944],[-2.5673363,53.3500094]]]}},
{"type":"Feature","properties":{"highway":"path","name":null,"category":"Shared path"},"geometry":{"type":"MultiLineString","coordinates":[[[-2.5654386,53.3499719],[-2.5653018,53.3500692]]]}},
{"type":"Feature","properties":{"highway":"path","name":null,"category":"Shared path"},"geometry":{"type":"MultiLineString","coordinates":[[[-2.5635265,53.3510716],[-2.5638152,53.3510687],[-2.563996,53.3510865],[-2.5640506,53.3511493]]]}},
{"type":"Feature","properties":{"highway":"path","name":null,"category":"Shared path"},"geometry":{"type":"MultiLineString","coordinates":[[[-2.5609549,53.3514497],[-2.5608926,53.3515436],[-2.5608283,53.3516847],[-2.5608017,53.3517579],[-2.5607427,53.351822],[-2.5606525,53.351889],[-2.5604788,53.3519732],[-2.560043,53.3521157],[-2.5598925,53.3521866],[-2.5598643,53.3522085],[-2.5598594,53.3522359]]]}},
{"type":"Feature","properties":{"highway":"path","name":"Green Lane","category":"Shared path"},"geometry":{"type":"MultiLineString","coordinates":[[[-2.557399,53.3537755],[-2.5573105,53.3537656],[-2.5571621,53.3537432]]]}},
{"type":"Feature","properties":{"highway":"path","name":"Green Lane","category":"Shared path"},"geometry":{"type":"MultiLineString","coordinates":[[[-2.558892,53.3539572],[-2.5580337,53.35385],[-2.557399,53.3537755]]]}},
{"type":"Feature","properties":{"highway":"path","name":null,"category":"Shared path"},"geometry":{"type":"MultiLineString","coordinates":[[[-2.5622329,53.3555854],[-2.5622495,53.355546],[-2.5622639,53.3555334],[-2.5622912,53.3555369],[-2.5622989,53.3555478],[-2.562297,53.3555642],[-2.5622951,53.3555806],[-2.5623137,53.3555949],[-2.562366,53.3556166],[-2.5624443,53.3556384]]]}},
{"type":"Feature","properties":{"highway":"path","name":"Green Lane","category":"Shared path"},"geometry":{"type":"MultiLineString","coordinates":[[[-2.5640412,53.3545477],[-2.5642396,53.3546315],[-2.5643569,53.3547018]]]}},
{"type":"Feature","properties":{"highway":"path","name":null,"category":"Shared path"},"geometry":{"type":"MultiLineString","coordinates":[[[-2.5651297,53.3532311],[-2.5650538,53.3532146],[-2.5649489,53.3532118],[-2.5648153,53.3532056]]]}},
{"type":"Feature","properties":{"highway":"path","name":null,"category":"Shared path"},"geometry":{"type":"MultiLineString","coordinates":[[[-2.5692725,53.357028],[-2.5695095,53.3566511],[-2.5695623,53.3565549]]]}},
{"type":"Feature","properties":{"highway":"path","name":null,"category":"Shared path"},"geometry":{"type":"MultiLineString","coordinates":[[[-2.5680317,53.3572388],[-2.5679752,53.3572338],[-2.5675354,53.3570961],[-2.5674379,53.3570578]]]}},
{"type":"Feature","properties":{"highway":"path","name":null,"category":"Shared path"},"geometry":{"type":"MultiLineString","coordinates":[[[-2.5660403,53.358583],[-2.566642,53.3582673],[-2.5667622,53.3582041],[-2.5667979,53.3581863]]]}},
{"type":"Feature","properties":{"highway":"path","name":null,"category":"Shared path"},"geometry":{"type":"MultiLineString","coordinates":[[[-2.5760438,53.3566807],[-2.5760646,53.356727],[-2.5761726,53.3570233],[-2.5759608,53.3571061]]]}},
{"type":"Feature","properties":{"highway":"path","name":null,"category":"Shared path"},"geometry":{"type":"MultiLineString","coordinates":[[[-2.5663812,53.362315],[-2.5665811,53.3624041]]]}},
{"type":"Feature","properties":{"highway":"cycleway","name":null,"category":"Dedicated cycleway"},"geometry":{"type":"MultiLineString","coordinates":[[[-2.5691811,53.3610361],[-2.5689295,53.3611198],[-2.5687531,53.3611884],[-2.5686065,53.3612498],[-2.5684535,53.3613236],[-2.5683112,53.3613993],[-2.5679679,53.3615978],[-2.5674212,53.3619389],[-2.5670479,53.3621628],[-2.5667019,53.3623213],[-2.5663747,53.3624429],[-2.566034,53.3625486],[-2.5658552,53.3626019],[-2.5657078,53.3626459],[-2.5656532,53.3626622],[-2.5651543,53.3627598],[-2.5644194,53.3628879],[-2.5638883,53.3630159],[-2.5633679,53.3632048],[-2.5629871,53.3633665],[-2.5620697,53.3638114],[-2.5617801,53.3639331],[-2.5617425,53.3639527],[-2.5617209,53.3639745],[-2.561709,53.3640011]]]}},
{"type":"Feature","properties":{"highway":"path","name":null,"category":"Shared path"},"geometry":{"type":"MultiLineString","coordinates":[[[-2.5676824,53.3558056],[-2.5684814,53.3560086],[-2.568513,53.3559995]]]}},
{"type":"Feature","properties":{"highway":"track","name":"Old Pewterspear Lane","category":"Track"},"geometry":{"type":"MultiLineString","coordinates":[[[-2.569789,53.3506316],[-2.5695478,53.3507803],[-2.5691192,53.3509792],[-2.5686271,53.3511049],[-2.5680248,53.3512158]]]}},
{"type":"Feature","properties":{"highway":"path","name":null,"category":"Shared path"},"geometry":{"type":"MultiLineString","coordinates":[[[-2.5690914,53.3550418],[-2.5689776,53.3550593],[-2.5688071,53.3550328],[-2.568676,53.3550083],[-2.5686215,53.3550036]]]}},
{"type":"Feature","properties":{"highway":"path","name":null,"category":"Shared path"},"geometry":{"type":"MultiLineString","coordinates":[[[-2.5660583,53.3546357],[-2.5659595,53.3547094],[-2.5649573,53.3547357]]]}},
{"type":"Feature","properties":{"highway":"path","name":null,"category":"Shared path"},"geometry":{"type":"MultiLineString","coordinates":[[[-2.5694122,53.3560007],[-2.5691172,53.3559307]]]}},
{"type":"Feature","properties":{"highway":"path","name":null,"category":"Shared path"},"geometry":{"type":"MultiLineString","coordinates":[[[-2.5684814,53.3560086],[-2.5686176,53.3562265]]]}},
{"type":"Feature","properties":{"highway":"path","name":null,"category":"Shared path"},"geometry":{"type":"MultiLineString","coordinates":[[[-2.5667586,53.3531809],[-2.5665904,53.3533974],[-2.5664402,53.3534167],[-2.5663419,53.3536746]]]}},
{"type":"Feature","properties":{"highway":"path","name":null,"category":"Shared path"},"geometry":{"type":"MultiLineString","coordinates":[[[-2.5688171,53.3497435],[-2.5687413,53.3499087],[-2.5687083,53.3499366],[-2.5682434,53.3501168],[-2.5678207,53.3501681],[-2.5675703,53.3502038]]]}},
{"type":"Feature","properties":{"highway":"path","name":null,"category":"Shared path"},"geometry":{"type":"MultiLineString","coordinates":[[[-2.5709305,53.3602711],[-2.5705279,53.3599959],[-2.5704563,53.3597046],[-2.570397,53.3596431],[-2.5704554,53.3595414]]]}},
{"type":"Feature","properties":{"highway":"path","name":"The Snicket","category":"Shared path"},"geometry":{"type":"MultiLineString","coordinates":[[[-2.5789542,53.3610183],[-2.5784339,53.3611177],[-2.5782213,53.3611518],[-2.5776474,53.3612219],[-2.5775006,53.3612398]]]}},
{"type":"Feature","properties":{"highway":"path","name":null,"category":"Shared path"},"geometry":{"type":"MultiLineString","coordinates":[[[-2.5656037,53.3582129],[-2.5657517,53.3581045]]]}},
{"type":"Feature","properties":{"highway":"path","name":null,"category":"Shared path"},"geometry":{"type":"MultiLineString","coordinates":[[[-2.5704746,53.35782],[-2.5706967,53.357745]]]}},
{"type":"Feature","properties":{"highway":"path","name":null,"category":"Shared path"},"geometry":{"type":"MultiLineString","coordinates":[[[-2.5674033,53.3500567],[-2.5675703,53.3502038],[-2.5677463,53.350298],[-2.5677604,53.3503535]]]}},
{"type":"Feature","properties":{"highway":"path","name":null,"category":"Shared path"},"geometry":{"type":"MultiLineString","coordinates":[[[-2.5674033,53.3500567],[-2.5673363,53.3500094]]]}},
{"type":"Feature","properties":{"highway":"path","name":null,"category":"Shared path"},"geometry":{"type":"MultiLineString","coordinates":[[[-2.5598833,53.3523038],[-2.5598992,53.3523465],[-2.559982,53.3524555]]]}},
{"type":"Feature","properties":{"highway":"path","name":null,"category":"Shared path"},"geometry":{"type":"MultiLineString","coordinates":[[[-2.5598833,53.3523038],[-2.5598594,53.3522359]]]}},
{"type":"Feature","properties":{"highway":"path","name":null,"category":"Shared path"},"geometry":{"type":"MultiLineString","coordinates":[[[-2.5612266,53.3515355],[-2.5611652,53.3514634]]]}},
{"type":"Feature","properties":{"highway":"path","name":null,"category":"Shared path"},"geometry":{"type":"MultiLineString","coordinates":[[[-2.5661611,53.359154],[-2.5662873,53.3591785],[-2.5664136,53.3591252],[-2.566465,53.3591456]]]}},
{"type":"Feature","properties":{"highway":"path","name":null,"category":"Shared path"},"geometry":{"type":"MultiLineString","coordinates":[[[-2.565824,53.3597247],[-2.5660373,53.3597358],[-2.5662894,53.359749]]]}},
{"type":"Feature","properties":{"highway":"path","name":null,"category":"Shared path"},"geometry":{"type":"MultiLineString","coordinates":[[[-2.5655547,53.3593922],[-2.5655559,53.3593981],[-2.5655505,53.3595741],[-2.5656143,53.3597476]]]}},
{"type":"Feature","properties":{"highway":"path","name":null,"category":"Shared path"},"geometry":{"type":"MultiLineString","coordinates":[[[-2.5655372,53.359309],[-2.5655547,53.3593922]]]}},
{"type":"Feature","properties":{"highway":"track","name":"Old Pewterspear Lane","category":"Track"},"geometry":{"type":"MultiLineString","coordinates":[[[-2.5680248,53.3512158],[-2.567424,53.3512174],[-2.5671094,53.35121],[-2.5667883,53.3512222],[-2.5665821,53.3512339],[-2.566433,53.3512457]]]}},
{"type":"Feature","properties":{"highway":"path","name":null,"category":"Shared path"},"geometry":{"type":"MultiLineString","coordinates":[[[-2.5662873,53.3591785],[-2.5661883,53.3592385]]]}},
{"type":"Feature","properties":{"highway":"path","name":null,"category":"Shared path"},"geometry":{"type":"MultiLineString","coordinates":[[[-2.5659685,53.3619515],[-2.5663812,53.362315]]]}},
{"type":"Feature","properties":{"highway":"path","name":null,"category":"Shared path"},"geometry":{"type":"MultiLineString","coordinates":[[[-2.5719622,53.3577981],[-2.5715907,53.3574965],[-2.5709222,53.3571968]]]}},
{"type":"Feature","properties":{"highway":"path","name":null,"category":"Shared path"},"geometry":{"type":"MultiLineString","coordinates":[[[-2.5718874,53.3582693],[-2.5719615,53.3581099],[-2.5720476,53.3579249],[-2.5719622,53.3577981]]]}},
{"type":"Feature","properties":{"highway":"path","name":null,"category":"Shared path"},"geometry":{"type":"MultiLineString","coordinates":[[[-2.5790428,53.3611638],[-2.5789542,53.3610183]]]}},
{"type":"Feature","properties":{"highway":"path","name":"The Snicket","category":"Shared path"},"geometry":{"type":"MultiLineString","coordinates":[[[-2.5791415,53.361005],[-2.5789542,53.3610183]]]}},
{"type":"Feature","properties":{"highway":"cycleway","name":null,"category":"Dedicated cycleway"},"geometry":{"type":"MultiLineString","coordinates":[[[-2.5691713,53.3609734],[-2.5691811,53.3610361]]]}},
{"type":"Feature","properties":{"highway":"path","name":null,"category":"Shared path"},"geometry":{"type":"MultiLineString","coordinates":[[[-2.5768951,53.3595987],[-2.5768974,53.3596143],[-2.5768853,53.3596715],[-2.5768498,53.3597799],[-2.57683,53.359852],[-2.5768238,53.3598828],[-2.5768223,53.3599086],[-2.5768269,53.3599906]]]}},
{"type":"Feature","properties":{"highway":"path","name":null,"category":"Shared path"},"geometry":{"type":"MultiLineString","coordinates":[[[-2.5649007,53.3539418],[-2.5649458,53.3540173]]]}},
{"type":"Feature","properties":{"highway":"cycleway","name":null,"category":"Dedicated cycleway"},"geometry":{"type":"MultiLineString","coordinates":[[[-2.561709,53.3640011],[-2.5615565,53.3640326],[-2.5614468,53.3640831]]]}},
{"type":"Feature","properties":{"highway":"cycleway","name":"Lumb Brook Road","category":"Dedicated cycleway"},"geometry":{"type":"MultiLineString","coordinates":[[[-2.5619093,53.3645146],[-2.5619381,53.3645213],[-2.5619684,53.3645221],[-2.5620255,53.364513]]]}},
{"type":"Feature","properties":{"highway":"cycleway","name":"Lumb Brook Road","category":"Dedicated cycleway"},"geometry":{"type":"MultiLineString","coordinates":[[[-2.5622093,53.3647068],[-2.562126,53.3646967],[-2.5620713,53.3646793],[-2.5619403,53.364546],[-2.5619093,53.3645146]]]}},
{"type":"Feature","properties":{"highway":"track","name":null,"category":"Track"},"geometry":{"type":"MultiLineString","coordinates":[[[-2.5637276,53.3634466],[-2.5636705,53.3635258],[-2.5625253,53.3647892],[-2.5624852,53.364816],[-2.5624323,53.3648399],[-2.5623549,53.3648653]]]}},
{"type":"Feature","properties":{"highway":"track","name":null,"category":"Track"},"geometry":{"type":"MultiLineString","coordinates":[[[-2.5625253,53.3647892],[-2.5628976,53.3646248]]]}},
{"type":"Feature","properties":{"highway":"path","name":null,"category":"Shared path"},"geometry":{"type":"MultiLineString","coordinates":[[[-2.5581198,53.3527057],[-2.5581948,53.3528364],[-2.5580388,53.352972],[-2.557642,53.353156],[-2.5570595,53.3533142]]]}},
{"type":"Feature","properties":{"highway":"path","name":null,"category":"Shared path"},"geometry":{"type":"MultiLineString","coordinates":[[[-2.559982,53.3524555],[-2.5600322,53.3525814],[-2.5600424,53.3526382],[-2.5600355,53.3527011],[-2.5600233,53.3527433],[-2.5600005,53.3527895],[-2.5598504,53.352981],[-2.5595644,53.3532236],[-2.5593009,53.353565],[-2.5591129,53.354011]]]}},
{"type":"Feature","properties":{"highway":"path","name":null,"category":"Shared path"},"geometry":{"type":"MultiLineString","coordinates":[[[-2.5616906,53.3508287],[-2.5615987,53.3508682],[-2.5611802,53.3512704],[-2.5610737,53.3513558],[-2.5609549,53.3514497]]]}},
{"type":"Feature","properties":{"highway":"path","name":null,"category":"Shared path"},"geometry":{"type":"MultiLineString","coordinates":[[[-2.568645,53.3648496],[-2.5686774,53.3649032]]]}},
{"type":"Feature","properties":{"highway":"path","name":null,"category":"Shared path"},"geometry":{"type":"MultiLineString","coordinates":[[[-2.5687198,53.3650353],[-2.5686491,53.3651419]]]}},
{"type":"Feature","properties":{"highway":"path","name":null,"category":"Shared path"},"geometry":{"type":"MultiLineString","coordinates":[[[-2.5698512,53.354338],[-2.5691866,53.3551392]]]}},
{"type":"Feature","properties":{"highway":"path","name":null,"category":"Shared path"},"geometry":{"type":"MultiLineString","coordinates":[[[-2.5653018,53.3500692],[-2.5652162,53.3501309]]]}},
{"type":"Feature","properties":{"highway":"path","name":null,"category":"Shared path"},"geometry":{"type":"MultiLineString","coordinates":[[[-2.5652162,53.3501309],[-2.5651541,53.3501866]]]}},
{"type":"Feature","properties":{"highway":"path","name":"Green Lane","category":"Shared path"},"geometry":{"type":"MultiLineString","coordinates":[[[-2.5605037,53.3542436],[-2.5599341,53.3542589],[-2.5595994,53.354182],[-2.5591129,53.354011],[-2.558892,53.3539572]]]}},
{"type":"Feature","properties":{"highway":"path","name":null,"category":"Shared path"},"geometry":{"type":"MultiLineString","coordinates":[[[-2.568513,53.3559995],[-2.5687358,53.3559354],[-2.5691172,53.3559307]]]}},
{"type":"Feature","properties":{"highway":"track","name":null,"category":"Track"},"geometry":{"type":"MultiLineString","coordinates":[[[-2.5646096,53.3671018],[-2.5646693,53.3670798],[-2.5647987,53.3670517]]]}},
{"type":"Feature","properties":{"highway":"cycle_lane_on_street","name":"London Road","category":"Cycle lane on street"},"geometry":{"type":"MultiLineString","coordinates":[[[-2.5783834,53.3576881],[-2.5784451,53.3575586],[-2.5784699,53.3574928],[-2.5785201,53.3573493],[-2.5785469,53.3572218]]]}}
]
}
