{
"type": "FeatureCollection",
"name": "WARRI_47_cycling",
"crs": { "type": "name", "properties": { "name": "urn:ogc:def:crs:OGC:1.3:CRS84" } },
"features": [
{"type":"Feature","properties":{"highway":"path","name":null,"category":"Shared path"},"geometry":{"type":"MultiLineString","coordinates":[[[-2.6364372,53.4088864],[-2.6367719,53.4090018],[-2.6377299,53.4093219]]]}},
{"type":"Feature","properties":{"highway":"cycleway","name":null,"category":"Dedicated cycleway"},"geometry":{"type":"MultiLineString","coordinates":[[[-2.6369295,53.4093549],[-2.6369598,53.4094253],[-2.6369691,53.4094604],[-2.6369718,53.4094938],[-2.6369671,53.4095353],[-2.6368858,53.4099016],[-2.6368608,53.4100142],[-2.6368302,53.4100841],[-2.6367921,53.4102429],[-2.6367586,53.4103623],[-2.6366163,53.4107937],[-2.6365137,53.410938]]]}},
{"type":"Feature","properties":{"highway":"path","name":null,"category":"Shared path"},"geometry":{"type":"MultiLineString","coordinates":[[[-2.628255,53.411487],[-2.6279646,53.4114172]]]}},
{"type":"Feature","properties":{"highway":"path","name":null,"category":"Shared path"},"geometry":{"type":"MultiLineString","coordinates":[[[-2.6460476,53.4062876],[-2.6460236,53.406271],[-2.6459171,53.4061974],[-2.6458761,53.4061769],[-2.6458237,53.4061696],[-2.6455957,53.4061774],[-2.645449,53.406185],[-2.6454197,53.4061836],[-2.6453913,53.4061773],[-2.6453685,53.406167],[-2.645347,53.4061512],[-2.6453265,53.4061361],[-2.6453107,53.4061428],[-2.6452893,53.4061493],[-2.6452639,53.4061524],[-2.6451833,53.4061561],[-2.6451112,53.4061552],[-2.6450467,53.4061505],[-2.6449756,53.406141],[-2.6448752,53.4061224],[-2.6448042,53.4061057],[-2.6446667,53.4060664],[-2.6446287,53.4060595],[-2.6445907,53.4060578],[-2.6445523,53.4060578],[-2.6445114,53.4060605],[-2.6444434,53.4060704],[-2.6443693,53.4060849],[-2.6443092,53.4060941],[-2.6442473,53.4061018],[-2.644185,53.4061064],[-2.6441072,53.4061095],[-2.6440372,53.4061088],[-2.6439579,53.4061029],[-2.6437413,53.4060786],[-2.6436934,53.4060703],[-2.6436528,53.406059],[-2.6436165,53.406042],[-2.6435825,53.4060217],[-2.6435566,53.4060022],[-2.6435197,53.4059828],[-2.6434799,53.405976],[-2.6434403,53.4059741],[-2.6434063,53.4059787],[-2.6433777,53.4059863],[-2.6433282,53.4060113]]]}},
{"type":"Feature","properties":{"highway":"path","name":null,"category":"Shared path"},"geometry":{"type":"MultiLineString","coordinates":[[[-2.6443092,53.4060941],[-2.6443769,53.4059243]]]}},
{"type":"Feature","properties":{"highway":"path","name":null,"category":"Shared path"},"geometry":{"type":"MultiLineString","coordinates":[[[-2.6387903,53.40571],[-2.6390447,53.4056733],[-2.6393942,53.4056304],[-2.6397373,53.4055846],[-2.6405062,53.4054785],[-2.6405361,53.4054742],[-2.6411393,53.4053872],[-2.641664,53.405355],[-2.6417332,53.4053912],[-2.6417948,53.4054143],[-2.6418637,53.405432],[-2.641975,53.4054483],[-2.6420565,53.4054577],[-2.642197,53.4054664],[-2.6423606,53.4054645],[-2.6424623,53.4055189],[-2.6426018,53.4056773],[-2.6428078,53.4060137],[-2.6429363,53.4062693],[-2.6429134,53.406392],[-2.6428596,53.4064495],[-2.6427952,53.4064911],[-2.6426905,53.40655],[-2.6425081,53.4066077],[-2.6422583,53.4066714]]]}},
{"type":"Feature","properties":{"highway":"path","name":null,"category":"Shared path"},"geometry":{"type":"MultiLineString","coordinates":[[[-2.6371321,53.405784],[-2.63696,53.4057548],[-2.6368284,53.4057495],[-2.6367453,53.4057235],[-2.6366514,53.4057072]]]}},
{"type":"Feature","properties":{"highway":"path","name":null,"category":"Shared path"},"geometry":{"type":"MultiLineString","coordinates":[[[-2.6383935,53.4077275],[-2.6381651,53.4077907],[-2.638121,53.407803]]]}},
{"type":"Feature","properties":{"highway":"path","name":null,"category":"Shared path"},"geometry":{"type":"MultiLineString","coordinates":[[[-2.6436349,53.4068443],[-2.6435608,53.4068511],[-2.6432419,53.4068507],[-2.6430384,53.4068186],[-2.6429171,53.4068228],[-2.6428034,53.4068541],[-2.6424931,53.406993],[-2.6423863,53.4070396],[-2.6422713,53.4070743],[-2.6421576,53.4071331],[-2.6420206,53.4071975],[-2.6418672,53.4072428],[-2.6416614,53.4072762],[-2.6414735,53.4073034],[-2.641319,53.4073388],[-2.6411336,53.4074068],[-2.6409251,53.407507],[-2.6406235,53.4076507],[-2.6402428,53.407775],[-2.6398242,53.407868],[-2.6395152,53.4079725],[-2.6392061,53.4080574],[-2.6386798,53.4082353],[-2.6382218,53.4083931],[-2.6377371,53.4084678],[-2.6372531,53.4086731],[-2.6370677,53.4087348],[-2.6370059,53.4087616]]]}},
{"type":"Feature","properties":{"highway":"path","name":null,"category":"Shared path"},"geometry":{"type":"MultiLineString","coordinates":[[[-2.6424931,53.406993],[-2.6424384,53.4069113]]]}},
{"type":"Feature","properties":{"highway":"path","name":null,"category":"Shared path"},"geometry":{"type":"MultiLineString","coordinates":[[[-2.6424384,53.4069113],[-2.6423832,53.406829]]]}},
{"type":"Feature","properties":{"highway":"path","name":null,"category":"Shared path"},"geometry":{"type":"MultiLineString","coordinates":[[[-2.6423832,53.406829],[-2.6423628,53.4067983],[-2.6423182,53.4067466],[-2.6422583,53.4066714]]]}},
{"type":"Feature","properties":{"highway":"cycleway","name":null,"category":"Dedicated cycleway"},"geometry":{"type":"MultiLineString","coordinates":[[[-2.6435201,53.4075759],[-2.6435308,53.4074951],[-2.643541,53.4074186],[-2.6435071,53.4073896],[-2.6434718,53.4073594]]]}},
{"type":"Feature","properties":{"highway":"path","name":"Westbrook Centre","category":"Shared path"},"geometry":{"type":"MultiLineString","coordinates":[[[-2.6318133,53.4083586],[-2.631488,53.4081789]]]}},
{"type":"Feature","properties":{"highway":"cycleway","name":null,"category":"Dedicated cycleway"},"geometry":{"type":"MultiLineString","coordinates":[[[-2.6290215,53.415777],[-2.6290481,53.4157075],[-2.6290748,53.4156497],[-2.6288304,53.4148362],[-2.6283134,53.413075],[-2.6282587,53.4129748],[-2.6282235,53.4129318],[-2.6281384,53.412875],[-2.628058,53.4128612]]]}},
{"type":"Feature","properties":{"highway":"cycleway","name":null,"category":"Dedicated cycleway"},"geometry":{"type":"MultiLineString","coordinates":[[[-2.6290888,53.4094045],[-2.6293311,53.4094521],[-2.6296106,53.4094714],[-2.6301091,53.4094697],[-2.6318635,53.4094251],[-2.6332993,53.4093618],[-2.6340913,53.4093232],[-2.6359312,53.4091977],[-2.6360731,53.4091816],[-2.6362078,53.4091576],[-2.6363,53.4091367],[-2.6363821,53.4091091],[-2.6365046,53.409063],[-2.6366212,53.4090031],[-2.6366644,53.408968],[-2.6366911,53.4089271],[-2.6366987,53.4088809],[-2.636706,53.4088229],[-2.6367106,53.4088048]]]}},
{"type":"Feature","properties":{"highway":"cycleway","name":null,"category":"Dedicated cycleway"},"geometry":{"type":"MultiLineString","coordinates":[[[-2.6483921,53.4033829],[-2.6483699,53.4037149],[-2.6483542,53.40381],[-2.6483394,53.4038862],[-2.6483321,53.4039187],[-2.6483162,53.4039826],[-2.6482952,53.4040525],[-2.6482676,53.404131],[-2.648172,53.4043804],[-2.6481187,53.4045227],[-2.6480106,53.4046981],[-2.6478728,53.4048891],[-2.6477522,53.4050357],[-2.6476169,53.4051857],[-2.6474443,53.4053564],[-2.6470196,53.405694],[-2.6466167,53.4059639],[-2.6460476,53.4062876],[-2.6459615,53.4063346],[-2.6459084,53.406367],[-2.6458689,53.4063963],[-2.6458317,53.4064231],[-2.6457872,53.4064472],[-2.645723,53.4064728],[-2.645664,53.4064949],[-2.6456049,53.4065209],[-2.6455119,53.4065698],[-2.6454218,53.4066084],[-2.6453314,53.4066413],[-2.6450129,53.4067299],[-2.6448076,53.4067679]]]}},
{"type":"Feature","properties":{"highway":"cycleway","name":null,"category":"Dedicated cycleway"},"geometry":{"type":"MultiLineString","coordinates":[[[-2.6434718,53.4073594],[-2.6433697,53.407397],[-2.6432754,53.4074213],[-2.6431827,53.4074362],[-2.6424668,53.4075124],[-2.6419672,53.4075938],[-2.6414736,53.4076837],[-2.6410992,53.4077673],[-2.6407589,53.4078501],[-2.6403653,53.4079648],[-2.638091,53.4087415],[-2.637568,53.4088584],[-2.6374119,53.4088735],[-2.6373459,53.4088737],[-2.6372796,53.4088678],[-2.6371747,53.4088473],[-2.6370989,53.4088229],[-2.6370459,53.4087955],[-2.6370059,53.4087616]]]}},
{"type":"Feature","properties":{"highway":"cycleway","name":null,"category":"Dedicated cycleway"},"geometry":{"type":"MultiLineString","coordinates":[[[-2.6436349,53.4068443],[-2.6435911,53.406768],[-2.6435859,53.4067015]]]}},
{"type":"Feature","properties":{"highway":"cycleway","name":null,"category":"Dedicated cycleway"},"geometry":{"type":"MultiLineString","coordinates":[[[-2.6370059,53.4087616],[-2.636947,53.4087761],[-2.6368874,53.4087909],[-2.6367842,53.408799],[-2.6367106,53.4088048]]]}},
{"type":"Feature","properties":{"highway":"path","name":null,"category":"Shared path"},"geometry":{"type":"MultiLineString","coordinates":[[[-2.6282259,53.4098384],[-2.6279069,53.4105559],[-2.6278806,53.4106311],[-2.6278633,53.4106807],[-2.6278388,53.4107366],[-2.6279035,53.4109731],[-2.6279053,53.4111484],[-2.6279059,53.41127],[-2.6279646,53.4114172],[-2.6279692,53.4114263],[-2.6280373,53.4115602],[-2.6280612,53.4116018]]]}},
{"type":"Feature","properties":{"highway":"cycleway","name":null,"category":"Dedicated cycleway"},"geometry":{"type":"MultiLineString","coordinates":[[[-2.6290389,53.409618],[-2.6289702,53.4096307],[-2.6289126,53.409647],[-2.6288459,53.4096874],[-2.6288099,53.4097228],[-2.6287746,53.4097617],[-2.6287013,53.4098757],[-2.6286662,53.4100487],[-2.6286311,53.4106465],[-2.6286055,53.4113204],[-2.6286123,53.4114272],[-2.6286365,53.4115503]]]}},
{"type":"Feature","properties":{"highway":"cycleway","name":null,"category":"Dedicated cycleway"},"geometry":{"type":"MultiLineString","coordinates":[[[-2.6286422,53.4118761],[-2.6285462,53.4119121],[-2.6284514,53.4120181],[-2.628398,53.4120983],[-2.6281823,53.412645],[-2.628058,53.4128612],[-2.6279488,53.4130757],[-2.6275631,53.4136111],[-2.6271761,53.4140141],[-2.6270344,53.4141363],[-2.6266611,53.4144585],[-2.6261569,53.414791],[-2.6256633,53.415082],[-2.6250518,53.4154017],[-2.6247192,53.4155232],[-2.6243489,53.4156502],[-2.6242257,53.415727],[-2.6241651,53.4157879],[-2.6241407,53.4158557],[-2.6241392,53.415914]]]}},
{"type":"Feature","properties":{"highway":"cycleway","name":null,"category":"Dedicated cycleway"},"geometry":{"type":"MultiLineString","coordinates":[[[-2.6356357,53.4141951],[-2.6357815,53.4143277],[-2.6359294,53.4144231],[-2.636142,53.4145205],[-2.6363669,53.4145811],[-2.6366534,53.4146343],[-2.6368044,53.4146472],[-2.6371926,53.4146692],[-2.6376425,53.4146509],[-2.6380307,53.4146692],[-2.6383433,53.414714],[-2.6384651,53.4147298],[-2.6388194,53.4148106],[-2.6390936,53.4149061],[-2.6395589,53.4151338],[-2.6398362,53.4152477],[-2.6401319,53.4153505],[-2.6404739,53.4154331],[-2.6408806,53.4154809],[-2.6413428,53.4154974],[-2.6419005,53.415468],[-2.6424766,53.4153376],[-2.6437721,53.4148682]]]}},
{"type":"Feature","properties":{"highway":"cycleway","name":null,"category":"Dedicated cycleway"},"geometry":{"type":"MultiLineString","coordinates":[[[-2.6456015,53.4135889],[-2.645379,53.4132028],[-2.645153,53.4126408],[-2.6449822,53.4122555],[-2.6448969,53.412035],[-2.6448003,53.4116283],[-2.644644,53.4106136],[-2.6445624,53.4103057],[-2.6445222,53.4102485],[-2.6444357,53.4102174]]]}},
{"type":"Feature","properties":{"highway":"path","name":null,"category":"Shared path"},"geometry":{"type":"MultiLineString","coordinates":[[[-2.6407459,53.4122894],[-2.6408836,53.4124397],[-2.6410409,53.4126255]]]}},
{"type":"Feature","properties":{"highway":"path","name":null,"category":"Shared path"},"geometry":{"type":"MultiLineString","coordinates":[[[-2.6418672,53.4123803],[-2.6417208,53.41243],[-2.6416507,53.4124434],[-2.6415805,53.4124469],[-2.6412668,53.4124357],[-2.6409833,53.4124154],[-2.6408836,53.4124397],[-2.64078,53.4124888],[-2.6406875,53.4126229],[-2.6404996,53.4127074],[-2.6404314,53.4127097],[-2.6403568,53.4127097],[-2.6402837,53.4127058],[-2.6402066,53.4126972],[-2.6401227,53.4126798],[-2.640035,53.4126659],[-2.6399431,53.4126611],[-2.6398643,53.4126597]]]}},
{"type":"Feature","properties":{"highway":"path","name":null,"category":"Shared path"},"geometry":{"type":"MultiLineString","coordinates":[[[-2.6417323,53.4121464],[-2.6416991,53.4121734],[-2.6416656,53.4122028],[-2.6415502,53.4123272],[-2.6415147,53.4123492],[-2.6414665,53.41237],[-2.6412668,53.4124357]]]}},
{"type":"Feature","properties":{"highway":"path","name":null,"category":"Shared path"},"geometry":{"type":"MultiLineString","coordinates":[[[-2.6404996,53.4127074],[-2.6404966,53.4127348],[-2.6404734,53.4127899],[-2.6404003,53.4129368],[-2.6403837,53.4129579],[-2.6403612,53.4129787],[-2.6402837,53.4130248],[-2.6402443,53.4130507]]]}},
{"type":"Feature","properties":{"highway":"path","name":null,"category":"Shared path"},"geometry":{"type":"MultiLineString","coordinates":[[[-2.6418128,53.4135342],[-2.6417873,53.4135078],[-2.6417548,53.4134742],[-2.6416413,53.4133567]]]}},
{"type":"Feature","properties":{"highway":"path","name":null,"category":"Shared path"},"geometry":{"type":"MultiLineString","coordinates":[[[-2.6420065,53.4130201],[-2.6419531,53.4131555],[-2.6418265,53.4132722],[-2.6416413,53.4133567],[-2.6414351,53.4133978],[-2.6412178,53.4133981],[-2.6410112,53.4133578],[-2.6408364,53.4132808],[-2.640711,53.413175],[-2.6406477,53.413051],[-2.640653,53.4129215],[-2.6407262,53.4127995],[-2.64086,53.4126974],[-2.6410409,53.4126255],[-2.6412665,53.4125902],[-2.6414988,53.4126022],[-2.6417109,53.4126601],[-2.6418779,53.4127571],[-2.6419804,53.412882],[-2.6420065,53.4130201]]]}},
{"type":"Feature","properties":{"highway":"path","name":null,"category":"Shared path"},"geometry":{"type":"MultiLineString","coordinates":[[[-2.6394674,53.4109689],[-2.6390024,53.410486]]]}},
{"type":"Feature","properties":{"highway":"path","name":null,"category":"Shared path"},"geometry":{"type":"MultiLineString","coordinates":[[[-2.6402385,53.4090367],[-2.640158,53.4089152],[-2.6399542,53.4088481],[-2.6398254,53.4088816],[-2.6397664,53.4090207],[-2.6397369,53.4091375],[-2.6396672,53.4092206],[-2.6396037,53.4092498]]]}},
{"type":"Feature","properties":{"highway":"path","name":null,"category":"Shared path"},"geometry":{"type":"MultiLineString","coordinates":[[[-2.6408299,53.4088045],[-2.6407837,53.4088213],[-2.6406651,53.4089129],[-2.6405764,53.408924],[-2.640392,53.4090005]]]}},
{"type":"Feature","properties":{"highway":"path","name":null,"category":"Shared path"},"geometry":{"type":"MultiLineString","coordinates":[[[-2.640392,53.4090005],[-2.6402886,53.4090234]]]}},
{"type":"Feature","properties":{"highway":"cycleway","name":null,"category":"Dedicated cycleway"},"geometry":{"type":"MultiLineString","coordinates":[[[-2.6330281,53.415155],[-2.6329188,53.4152507],[-2.6328441,53.4153384],[-2.6328181,53.4153862]]]}},
{"type":"Feature","properties":{"highway":"cycleway","name":null,"category":"Dedicated cycleway"},"geometry":{"type":"MultiLineString","coordinates":[[[-2.6381146,53.4149304],[-2.6381861,53.4149239],[-2.6382539,53.4149177],[-2.638285,53.4148469],[-2.6383154,53.4147776],[-2.6383433,53.414714]]]}},
{"type":"Feature","properties":{"highway":"cycleway","name":null,"category":"Dedicated cycleway"},"geometry":{"type":"MultiLineString","coordinates":[[[-2.6330597,53.4138619],[-2.633139,53.4139504],[-2.6332019,53.4140126],[-2.6332671,53.4140665],[-2.6333341,53.4141072]]]}},
{"type":"Feature","properties":{"highway":"cycleway","name":null,"category":"Dedicated cycleway"},"geometry":{"type":"MultiLineString","coordinates":[[[-2.6333341,53.4141072],[-2.6334369,53.4141552],[-2.6335935,53.4141984],[-2.6337143,53.4142186]]]}},
{"type":"Feature","properties":{"highway":"cycleway","name":null,"category":"Dedicated cycleway"},"geometry":{"type":"MultiLineString","coordinates":[[[-2.6335005,53.4145611],[-2.6333898,53.4145464],[-2.6333068,53.4145354],[-2.6332347,53.4145382],[-2.6331469,53.4145415]]]}},
{"type":"Feature","properties":{"highway":"cycleway","name":null,"category":"Dedicated cycleway"},"geometry":{"type":"MultiLineString","coordinates":[[[-2.6331469,53.4145415],[-2.633127,53.4145126],[-2.6330815,53.4144718],[-2.6330389,53.4144352],[-2.6330182,53.4144029],[-2.6330105,53.4143607],[-2.6330091,53.4143257],[-2.633018,53.4142867],[-2.6330391,53.4142491],[-2.6330482,53.4142013]]]}},
{"type":"Feature","properties":{"highway":"cycleway","name":null,"category":"Dedicated cycleway"},"geometry":{"type":"MultiLineString","coordinates":[[[-2.6322325,53.4124584],[-2.63225,53.4124121],[-2.6322647,53.4123734],[-2.6322614,53.4123413],[-2.6322545,53.4122752]]]}},
{"type":"Feature","properties":{"highway":"cycleway","name":null,"category":"Dedicated cycleway"},"geometry":{"type":"MultiLineString","coordinates":[[[-2.6327416,53.4126704],[-2.6326011,53.4127815]]]}},
{"type":"Feature","properties":{"highway":"cycleway","name":null,"category":"Dedicated cycleway"},"geometry":{"type":"MultiLineString","coordinates":[[[-2.6324681,53.4127142],[-2.6324415,53.4126215],[-2.6324109,53.4125737]]]}},
{"type":"Feature","properties":{"highway":"cycleway","name":null,"category":"Dedicated cycleway"},"geometry":{"type":"MultiLineString","coordinates":[[[-2.6322026,53.4125373],[-2.6320644,53.4124528],[-2.6317723,53.4123148]]]}},
{"type":"Feature","properties":{"highway":"cycleway","name":null,"category":"Dedicated cycleway"},"geometry":{"type":"MultiLineString","coordinates":[[[-2.6317723,53.4123148],[-2.6320191,53.412265]]]}},
{"type":"Feature","properties":{"highway":"cycleway","name":null,"category":"Dedicated cycleway"},"geometry":{"type":"MultiLineString","coordinates":[[[-2.6320191,53.412265],[-2.6317699,53.4122312],[-2.6310142,53.4120641],[-2.6296363,53.4117594],[-2.6292906,53.4117111],[-2.6286845,53.4116051]]]}},
{"type":"Feature","properties":{"highway":"cycleway","name":null,"category":"Dedicated cycleway"},"geometry":{"type":"MultiLineString","coordinates":[[[-2.6320191,53.412265],[-2.6321729,53.4122834],[-2.6322165,53.4122835],[-2.6322545,53.4122752]]]}},
{"type":"Feature","properties":{"highway":"cycleway","name":null,"category":"Dedicated cycleway"},"geometry":{"type":"MultiLineString","coordinates":[[[-2.6364666,53.4114723],[-2.6365145,53.4114185],[-2.6365467,53.4113878],[-2.636604,53.4113557],[-2.6366925,53.4113149]]]}},
{"type":"Feature","properties":{"highway":"cycleway","name":null,"category":"Dedicated cycleway"},"geometry":{"type":"MultiLineString","coordinates":[[[-2.6359552,53.4113501],[-2.6358289,53.4114257],[-2.635435,53.4115769],[-2.6337303,53.4120689],[-2.6333117,53.4121813],[-2.6332018,53.412206],[-2.6330369,53.4122421],[-2.6329657,53.4122483],[-2.6328994,53.4122458]]]}},
{"type":"Feature","properties":{"highway":"cycleway","name":null,"category":"Dedicated cycleway"},"geometry":{"type":"MultiLineString","coordinates":[[[-2.6360849,53.4115721],[-2.6360523,53.4115739],[-2.6354058,53.4117668],[-2.6334061,53.4123385],[-2.633295,53.4123769],[-2.6332008,53.4124208],[-2.633039,53.4125124]]]}},
{"type":"Feature","properties":{"highway":"cycleway","name":null,"category":"Dedicated cycleway"},"geometry":{"type":"MultiLineString","coordinates":[[[-2.6367199,53.4108201],[-2.6367677,53.4108864],[-2.6368147,53.4110604]]]}},
{"type":"Feature","properties":{"highway":"cycleway","name":null,"category":"Dedicated cycleway"},"geometry":{"type":"MultiLineString","coordinates":[[[-2.6366925,53.4113149],[-2.6366617,53.4112795],[-2.6366715,53.4112326],[-2.6367192,53.4112037],[-2.6367694,53.4111753],[-2.6368147,53.4110604]]]}},
{"type":"Feature","properties":{"highway":"cycleway","name":null,"category":"Dedicated cycleway"},"geometry":{"type":"MultiLineString","coordinates":[[[-2.6365137,53.410938],[-2.6366298,53.4108701],[-2.6367199,53.4108201]]]}},
{"type":"Feature","properties":{"highway":"cycleway","name":null,"category":"Dedicated cycleway"},"geometry":{"type":"MultiLineString","coordinates":[[[-2.6359114,53.4112045],[-2.6357932,53.4111126],[-2.6356884,53.4110381],[-2.6355708,53.4109652],[-2.6354217,53.4108879],[-2.6352935,53.4108063],[-2.6352088,53.4107641],[-2.6351572,53.4107448],[-2.6350924,53.4107331],[-2.6350408,53.4107318],[-2.6349832,53.410739],[-2.6349286,53.4107525],[-2.6347639,53.410804]]]}},
{"type":"Feature","properties":{"highway":"cycleway","name":null,"category":"Dedicated cycleway"},"geometry":{"type":"MultiLineString","coordinates":[[[-2.6361517,53.4110481],[-2.6360458,53.4110147],[-2.6359206,53.4109667],[-2.6358437,53.4109324],[-2.6356946,53.4108524],[-2.6355736,53.4107896]]]}},
{"type":"Feature","properties":{"highway":"cycleway","name":null,"category":"Dedicated cycleway"},"geometry":{"type":"MultiLineString","coordinates":[[[-2.6444357,53.4102174],[-2.6444235,53.4101603],[-2.6444107,53.4101089],[-2.6443128,53.4101206],[-2.6442982,53.4100816],[-2.644286,53.4100492]]]}},
{"type":"Feature","properties":{"highway":"cycleway","name":null,"category":"Dedicated cycleway"},"geometry":{"type":"MultiLineString","coordinates":[[[-2.6450373,53.410183],[-2.6449579,53.4102181],[-2.6449288,53.4102495],[-2.6449137,53.4102812],[-2.6449055,53.4103077],[-2.6448958,53.4105432],[-2.6449349,53.4109011],[-2.6450521,53.4116023],[-2.6451542,53.412028],[-2.6452655,53.4123037],[-2.6454167,53.4126355],[-2.6454692,53.4127389],[-2.6455329,53.4128471],[-2.6456041,53.4129547],[-2.6459158,53.4133964],[-2.6461021,53.4136391],[-2.6461317,53.4136771],[-2.6467163,53.4144402],[-2.6467876,53.4145006]]]}},
{"type":"Feature","properties":{"highway":"cycleway","name":null,"category":"Dedicated cycleway"},"geometry":{"type":"MultiLineString","coordinates":[[[-2.6435201,53.4075759],[-2.6436537,53.4075868],[-2.6437314,53.4075951],[-2.6438164,53.4076092],[-2.6439428,53.4076387],[-2.6439992,53.4076543],[-2.6440578,53.4076763],[-2.6441274,53.4077201],[-2.6441608,53.4077515],[-2.6442063,53.4078141],[-2.6442135,53.4078432],[-2.6442168,53.4079128],[-2.6441551,53.4080441],[-2.6441036,53.4082246],[-2.6440625,53.4084148],[-2.6440591,53.4086222],[-2.6440993,53.4089076],[-2.6441409,53.4090621],[-2.6442676,53.409414],[-2.644349,53.409598],[-2.6444115,53.4097337],[-2.6444353,53.4098416],[-2.6444562,53.409958]]]}},
{"type":"Feature","properties":{"highway":"path","name":null,"category":"Shared path"},"geometry":{"type":"MultiLineString","coordinates":[[[-2.6329351,53.4061939],[-2.6329311,53.406202],[-2.6328851,53.4062962]]]}},
{"type":"Feature","properties":{"highway":"path","name":null,"category":"Shared path"},"geometry":{"type":"MultiLineString","coordinates":[[[-2.6350052,53.4068047],[-2.6350464,53.4067432],[-2.635101,53.4066616]]]}},
{"type":"Feature","properties":{"highway":"path","name":null,"category":"Shared path"},"geometry":{"type":"MultiLineString","coordinates":[[[-2.6434327,53.406436],[-2.6433082,53.4064502],[-2.6431253,53.4064435],[-2.6429134,53.406392]]]}},
{"type":"Feature","properties":{"highway":"path","name":null,"category":"Shared path"},"geometry":{"type":"MultiLineString","coordinates":[[[-2.6378183,53.4058182],[-2.637805,53.4056064]]]}},
{"type":"Feature","properties":{"highway":"path","name":null,"category":"Shared path"},"geometry":{"type":"MultiLineString","coordinates":[[[-2.6371041,53.4055141],[-2.6371055,53.4055004],[-2.6371281,53.4054653],[-2.6371763,53.4054412],[-2.6371892,53.4054154],[-2.6372133,53.4053575],[-2.6372085,53.4052915],[-2.6371747,53.4052433],[-2.6370733,53.4051516],[-2.6369881,53.4050968],[-2.6369462,53.4050865],[-2.6368642,53.4050663],[-2.6368213,53.405067],[-2.6367681,53.405059]]]}},
{"type":"Feature","properties":{"highway":"path","name":null,"category":"Shared path"},"geometry":{"type":"MultiLineString","coordinates":[[[-2.6363399,53.4047339],[-2.6363059,53.4048303],[-2.6362978,53.4048619],[-2.6363059,53.4049311],[-2.63633,53.4049987],[-2.6363171,53.4050502],[-2.6363094,53.4050552]]]}},
{"type":"Feature","properties":{"highway":"path","name":null,"category":"Shared path"},"geometry":{"type":"MultiLineString","coordinates":[[[-2.6273926,53.4106917],[-2.6275269,53.4106586],[-2.6276744,53.4106298],[-2.6277763,53.4106298],[-2.6278806,53.4106311]]]}},
{"type":"Feature","properties":{"highway":"path","name":"Westbrook Crescent","category":"Shared path"},"geometry":{"type":"MultiLineString","coordinates":[[[-2.6326306,53.4059805],[-2.6325788,53.4059724],[-2.6323018,53.4058332],[-2.6322092,53.4058376]]]}},
{"type":"Feature","properties":{"highway":"path","name":"Westbrook Crescent","category":"Shared path"},"geometry":{"type":"MultiLineString","coordinates":[[[-2.6357411,53.4066835],[-2.6358945,53.4067057],[-2.6359636,53.4067139],[-2.6360501,53.4067243]]]}},
{"type":"Feature","properties":{"highway":"path","name":null,"category":"Shared path"},"geometry":{"type":"MultiLineString","coordinates":[[[-2.6349397,53.406903],[-2.634889,53.4069792],[-2.6348833,53.4069878],[-2.6348873,53.4070642],[-2.6348953,53.4071838],[-2.6349019,53.4072814],[-2.6349391,53.4073066]]]}},
{"type":"Feature","properties":{"highway":"path","name":null,"category":"Shared path"},"geometry":{"type":"MultiLineString","coordinates":[[[-2.6328307,53.4063969],[-2.6327861,53.4064301],[-2.6327578,53.4064682]]]}},
{"type":"Feature","properties":{"highway":"path","name":null,"category":"Shared path"},"geometry":{"type":"MultiLineString","coordinates":[[[-2.6322989,53.4067108],[-2.6323367,53.4067102],[-2.6323658,53.4067097],[-2.6327234,53.4065027],[-2.6327578,53.4064682]]]}},
{"type":"Feature","properties":{"highway":"path","name":null,"category":"Shared path"},"geometry":{"type":"MultiLineString","coordinates":[[[-2.6366824,53.40501],[-2.6364857,53.4050345],[-2.6363383,53.4050743]]]}},
{"type":"Feature","properties":{"highway":"path","name":"Castle Green","category":"Shared path"},"geometry":{"type":"MultiLineString","coordinates":[[[-2.6397303,53.410643],[-2.6396602,53.4106279],[-2.6395814,53.4105587],[-2.6396088,53.4105183]]]}},
{"type":"Feature","properties":{"highway":"path","name":null,"category":"Shared path"},"geometry":{"type":"MultiLineString","coordinates":[[[-2.6379061,53.4118956],[-2.6378785,53.4119219],[-2.6378446,53.4119405],[-2.6378061,53.4119528],[-2.6377639,53.4119624],[-2.6377076,53.4119705],[-2.6376587,53.4119744],[-2.6376164,53.4119742],[-2.6375734,53.4119695],[-2.6375196,53.4119579],[-2.6374739,53.4119447],[-2.6374325,53.4119256],[-2.6373886,53.4118994],[-2.637356,53.4118749],[-2.637332,53.4118413],[-2.6373242,53.4118154],[-2.6373205,53.411784],[-2.637327,53.4117505],[-2.637344,53.4117197]]]}},
{"type":"Feature","properties":{"highway":"path","name":null,"category":"Shared path"},"geometry":{"type":"MultiLineString","coordinates":[[[-2.6379616,53.4118308],[-2.6379792,53.4118008],[-2.6379875,53.4117728],[-2.6379848,53.4117414],[-2.6379634,53.4117039],[-2.6379339,53.4116713],[-2.6378913,53.4116421],[-2.6378451,53.411618]]]}},
{"type":"Feature","properties":{"highway":"path","name":null,"category":"Shared path"},"geometry":{"type":"MultiLineString","coordinates":[[[-2.6375196,53.4119579],[-2.6373324,53.4121649],[-2.6372776,53.4122538],[-2.6372422,53.4122852]]]}},
{"type":"Feature","properties":{"highway":"path","name":null,"category":"Shared path"},"geometry":{"type":"MultiLineString","coordinates":[[[-2.6337231,53.4112857],[-2.6336443,53.4112459],[-2.633473,53.4113093],[-2.6334419,53.4112875]]]}},
{"type":"Feature","properties":{"highway":"path","name":null,"category":"Shared path"},"geometry":{"type":"MultiLineString","coordinates":[[[-2.6333021,53.4113342],[-2.6334447,53.4115074],[-2.6333696,53.4116001],[-2.6332731,53.4116769],[-2.6331497,53.4116896],[-2.6329139,53.411464]]]}},
{"type":"Feature","properties":{"highway":"path","name":null,"category":"Shared path"},"geometry":{"type":"MultiLineString","coordinates":[[[-2.6366459,53.4098658],[-2.6367499,53.4098755],[-2.6367957,53.4098936],[-2.6368858,53.4099016]]]}},
{"type":"Feature","properties":{"highway":"path","name":null,"category":"Shared path"},"geometry":{"type":"MultiLineString","coordinates":[[[-2.631842,53.4104602],[-2.6318358,53.4104219],[-2.6317657,53.4102987],[-2.6314384,53.4100717]]]}},
{"type":"Feature","properties":{"highway":"path","name":null,"category":"Shared path"},"geometry":{"type":"MultiLineString","coordinates":[[[-2.631488,53.4081789],[-2.6313564,53.40826],[-2.6313027,53.4082296],[-2.6306549,53.4078678],[-2.6306058,53.4078681]]]}},
{"type":"Feature","properties":{"highway":"path","name":null,"category":"Shared path"},"geometry":{"type":"MultiLineString","coordinates":[[[-2.6367293,53.4050485],[-2.6366824,53.40501],[-2.636684,53.4049746],[-2.6366904,53.404936],[-2.6366575,53.4049069],[-2.6366177,53.4048779],[-2.6365784,53.4048642],[-2.636493,53.4048513],[-2.6363955,53.4048438],[-2.6363059,53.4048303],[-2.6361611,53.4047783],[-2.6360291,53.4047831],[-2.6358972,53.4047831],[-2.6358586,53.4047767],[-2.6357991,53.4047493],[-2.6357427,53.4046978],[-2.6356269,53.4046721],[-2.6354869,53.4046254],[-2.6353759,53.4045884],[-2.6353518,53.4045836],[-2.6353196,53.4045852],[-2.6352643,53.4045948],[-2.6352196,53.4046222],[-2.6351671,53.4046343],[-2.6351329,53.4046319],[-2.6350388,53.4045942],[-2.6349767,53.4045696]]]}},
{"type":"Feature","properties":{"highway":"path","name":null,"category":"Shared path"},"geometry":{"type":"MultiLineString","coordinates":[[[-2.6317831,53.4076692],[-2.631736,53.4077384]]]}},
{"type":"Feature","properties":{"highway":"path","name":null,"category":"Shared path"},"geometry":{"type":"MultiLineString","coordinates":[[[-2.6317089,53.4109583],[-2.6317817,53.410914],[-2.6312037,53.4105387],[-2.6315718,53.4104583],[-2.6316103,53.4104822],[-2.6316776,53.4105045]]]}},
{"type":"Feature","properties":{"highway":"cycleway","name":null,"category":"Dedicated cycleway"},"geometry":{"type":"MultiLineString","coordinates":[[[-2.6455936,53.413792],[-2.6456584,53.4138049],[-2.6457928,53.4138318],[-2.6458795,53.4138105],[-2.6459475,53.4137937],[-2.6459054,53.4137328],[-2.6460066,53.4137079],[-2.6461317,53.4136771]]]}},
{"type":"Feature","properties":{"highway":"path","name":null,"category":"Shared path"},"geometry":{"type":"MultiLineString","coordinates":[[[-2.6374318,53.4058747],[-2.6374073,53.4059196],[-2.6374012,53.4059509],[-2.6374161,53.4059867],[-2.6375336,53.4061213],[-2.637711,53.4064861],[-2.6378063,53.4067653],[-2.637844,53.4069761],[-2.6379302,53.4072046],[-2.6380682,53.4073165],[-2.6381361,53.407343],[-2.6382253,53.4073611],[-2.6382894,53.4073877],[-2.6383417,53.4074242],[-2.6383754,53.4074636],[-2.638382,53.4075101],[-2.6383796,53.4075523],[-2.6383667,53.4076504],[-2.6383935,53.4077275],[-2.6384765,53.4077581],[-2.6385948,53.4077757],[-2.6387088,53.4077747],[-2.6389022,53.4077312],[-2.6393161,53.407602],[-2.6396927,53.4074803],[-2.6401786,53.4073287],[-2.6410002,53.4070724],[-2.6414648,53.4069206],[-2.642127,53.4067049],[-2.6422583,53.4066714]]]}},
{"type":"Feature","properties":{"highway":"path","name":null,"category":"Shared path"},"geometry":{"type":"MultiLineString","coordinates":[[[-2.6378988,53.4054506],[-2.6378994,53.4055265],[-2.6378651,53.4055642],[-2.6378036,53.4055838],[-2.6377443,53.40558],[-2.6376818,53.4055587],[-2.6376643,53.4055324],[-2.6376628,53.4054983],[-2.637704,53.4054543],[-2.6377683,53.4054293],[-2.6378131,53.4054178]]]}},
{"type":"Feature","properties":{"highway":"cycleway","name":null,"category":"Dedicated cycleway"},"geometry":{"type":"MultiLineString","coordinates":[[[-2.6330674,53.4147997],[-2.6328798,53.4150581],[-2.6327057,53.4151915],[-2.6325908,53.4152629],[-2.6325397,53.4152911],[-2.6323552,53.4153786],[-2.6320787,53.4154845],[-2.6317638,53.4155687],[-2.6316326,53.4155985]]]}},
{"type":"Feature","properties":{"highway":"cycleway","name":null,"category":"Dedicated cycleway"},"geometry":{"type":"MultiLineString","coordinates":[[[-2.6287746,53.4097617],[-2.6286358,53.4097684],[-2.6284892,53.4097754],[-2.62842,53.4097787]]]}},
{"type":"Feature","properties":{"highway":"cycleway","name":null,"category":"Dedicated cycleway"},"geometry":{"type":"MultiLineString","coordinates":[[[-2.6290888,53.4094045],[-2.6290652,53.4094496],[-2.6290372,53.4095031],[-2.629038,53.4095564],[-2.6290389,53.409618]]]}},
{"type":"Feature","properties":{"highway":"cycleway","name":null,"category":"Dedicated cycleway"},"geometry":{"type":"MultiLineString","coordinates":[[[-2.6290389,53.409618],[-2.629121,53.4096172],[-2.6293312,53.4096349],[-2.6294564,53.4096393],[-2.6295663,53.4096327],[-2.6298802,53.409598],[-2.6299514,53.4095908],[-2.6300283,53.409588],[-2.6301103,53.4095962],[-2.6301614,53.4095979],[-2.6304272,53.4095932],[-2.6304939,53.4095777],[-2.6307725,53.4095735],[-2.6310897,53.4095636],[-2.6312577,53.4095783],[-2.6328183,53.4095225],[-2.6329396,53.409502],[-2.6337275,53.4094598],[-2.6338084,53.4094544],[-2.6340253,53.4094573],[-2.6352688,53.4093659],[-2.6353407,53.409347],[-2.6353758,53.4093441],[-2.6356824,53.4093259],[-2.6357896,53.4093114],[-2.6361786,53.4092816],[-2.6364516,53.409273]]]}},
{"type":"Feature","properties":{"highway":"cycleway","name":null,"category":"Dedicated cycleway"},"geometry":{"type":"MultiLineString","coordinates":[[[-2.6364516,53.409273],[-2.6364535,53.4092268],[-2.6364551,53.4091887],[-2.6364164,53.4091465],[-2.6363821,53.4091091]]]}},
{"type":"Feature","properties":{"highway":"cycleway","name":null,"category":"Dedicated cycleway"},"geometry":{"type":"MultiLineString","coordinates":[[[-2.6364516,53.409273],[-2.6366174,53.4092698],[-2.6366995,53.4092727],[-2.6367753,53.4092825],[-2.6368459,53.4092994],[-2.6368976,53.4093251],[-2.6369295,53.4093549]]]}},
{"type":"Feature","properties":{"highway":"cycleway","name":null,"category":"Dedicated cycleway"},"geometry":{"type":"MultiLineString","coordinates":[[[-2.645084,53.4068405],[-2.6448616,53.406879]]]}},
{"type":"Feature","properties":{"highway":"cycleway","name":null,"category":"Dedicated cycleway"},"geometry":{"type":"MultiLineString","coordinates":[[[-2.6451977,53.4074839],[-2.6451842,53.4074287],[-2.6451651,53.4073483],[-2.645242,53.4072997],[-2.6453166,53.4072525]]]}},
{"type":"Feature","properties":{"highway":"cycleway","name":null,"category":"Dedicated cycleway"},"geometry":{"type":"MultiLineString","coordinates":[[[-2.6453166,53.4072525],[-2.645242,53.4072047],[-2.6451918,53.4071554],[-2.6451641,53.4071008],[-2.6451622,53.4070401],[-2.6451838,53.4069756],[-2.6452316,53.406922]]]}},
{"type":"Feature","properties":{"highway":"cycleway","name":null,"category":"Dedicated cycleway"},"geometry":{"type":"MultiLineString","coordinates":[[[-2.6443732,53.4077957],[-2.6443015,53.4078023],[-2.6442063,53.4078141]]]}},
{"type":"Feature","properties":{"highway":"cycleway","name":null,"category":"Dedicated cycleway"},"geometry":{"type":"MultiLineString","coordinates":[[[-2.6439896,53.4067893],[-2.6438776,53.4068223],[-2.6437302,53.4068657],[-2.6436592,53.4068866]]]}},
{"type":"Feature","properties":{"highway":"path","name":null,"category":"Shared path"},"geometry":{"type":"MultiLineString","coordinates":[[[-2.6307714,53.40776],[-2.6309103,53.407678]]]}},
{"type":"Feature","properties":{"highway":"path","name":null,"category":"Shared path"},"geometry":{"type":"MultiLineString","coordinates":[[[-2.6294147,53.4084553],[-2.6294172,53.40861],[-2.6294312,53.4086097],[-2.629451,53.4086097],[-2.6294613,53.4087839],[-2.6294704,53.4089389]]]}},
{"type":"Feature","properties":{"highway":"path","name":null,"category":"Shared path"},"geometry":{"type":"MultiLineString","coordinates":[[[-2.6325972,53.4071437],[-2.6324701,53.4070668],[-2.6324683,53.4069693],[-2.6330187,53.4066352],[-2.6330461,53.4066276],[-2.6330872,53.4066303],[-2.6338429,53.4070884],[-2.6332689,53.4074467],[-2.6332098,53.407448],[-2.6331217,53.4074498],[-2.6329884,53.4073693],[-2.6329533,53.4073477],[-2.6329443,53.4072936],[-2.6327263,53.4071704],[-2.6326228,53.4071582],[-2.6325972,53.4071437]]]}},
{"type":"Feature","properties":{"highway":"path","name":null,"category":"Shared path"},"geometry":{"type":"MultiLineString","coordinates":[[[-2.6326069,53.4075381],[-2.6327067,53.4074819]]]}},
{"type":"Feature","properties":{"highway":"path","name":null,"category":"Shared path"},"geometry":{"type":"MultiLineString","coordinates":[[[-2.6323001,53.4078548],[-2.6323423,53.4078551],[-2.6323434,53.4078308],[-2.6326014,53.4076804],[-2.6326497,53.4076796]]]}},
{"type":"Feature","properties":{"highway":"path","name":null,"category":"Shared path"},"geometry":{"type":"MultiLineString","coordinates":[[[-2.6323718,53.4081906],[-2.6322709,53.4082547],[-2.6319418,53.4084323]]]}},
{"type":"Feature","properties":{"highway":"path","name":null,"category":"Shared path"},"geometry":{"type":"MultiLineString","coordinates":[[[-2.6347356,53.4071847],[-2.6348953,53.4071838]]]}},
{"type":"Feature","properties":{"highway":"cycleway","name":null,"category":"Dedicated cycleway"},"geometry":{"type":"MultiLineString","coordinates":[[[-2.6325397,53.4152911],[-2.6326223,53.4153452],[-2.6326526,53.415365],[-2.6327116,53.4153726],[-2.6328181,53.4153862]]]}},
{"type":"Feature","properties":{"highway":"path","name":null,"category":"Shared path"},"geometry":{"type":"MultiLineString","coordinates":[[[-2.6366721,53.4150175],[-2.6367333,53.4150099],[-2.6367148,53.4149622],[-2.6368387,53.4148518],[-2.6369676,53.4147765]]]}},
{"type":"Feature","properties":{"highway":"path","name":null,"category":"Shared path"},"geometry":{"type":"MultiLineString","coordinates":[[[-2.6368387,53.4148518],[-2.6367439,53.4147547]]]}},
{"type":"Feature","properties":{"highway":"cycleway","name":null,"category":"Dedicated cycleway"},"geometry":{"type":"MultiLineString","coordinates":[[[-2.6355736,53.4107896],[-2.635503,53.4108361],[-2.6354217,53.4108879]]]}},
{"type":"Feature","properties":{"highway":"path","name":null,"category":"Shared path"},"geometry":{"type":"MultiLineString","coordinates":[[[-2.6443696,53.4100256],[-2.6443387,53.4099882],[-2.644321,53.409956],[-2.6443192,53.4099302],[-2.6443334,53.4099059],[-2.6443997,53.4098574],[-2.6444353,53.4098416]]]}},
{"type":"Feature","properties":{"highway":"cycleway","name":null,"category":"Dedicated cycleway"},"geometry":{"type":"MultiLineString","coordinates":[[[-2.6487225,53.4031959],[-2.648702,53.4032183],[-2.6486855,53.4032431],[-2.6486617,53.403295],[-2.6486509,53.4033354],[-2.6486441,53.403377],[-2.6486385,53.4034258],[-2.6486341,53.403494],[-2.6486284,53.4036143],[-2.6486144,53.403745],[-2.6485873,53.4039352],[-2.6485385,53.4040976],[-2.6484849,53.4042411],[-2.6484361,53.4043631],[-2.6483766,53.4044827],[-2.6483068,53.4046147],[-2.648247,53.4047203],[-2.6481931,53.4048038],[-2.6481218,53.4049016],[-2.6480585,53.4049812],[-2.6479966,53.4050549],[-2.647887,53.4051794],[-2.6477704,53.4053029],[-2.6476224,53.4054442],[-2.6474602,53.4055834],[-2.6472519,53.4057417],[-2.6470285,53.405901],[-2.6468844,53.4059943],[-2.6465853,53.4061784],[-2.6463233,53.406329],[-2.6462772,53.4063483],[-2.6462359,53.4063615],[-2.646184,53.406375],[-2.6461485,53.4063899],[-2.6461231,53.4064085],[-2.646074,53.4064489],[-2.6460388,53.4064719],[-2.6460023,53.4064921],[-2.6459581,53.4065166],[-2.6456398,53.4066944],[-2.6453643,53.4068391],[-2.6452912,53.4068816],[-2.6452591,53.4069018],[-2.6452316,53.406922]]]}},
{"type":"Feature","properties":{"highway":"cycleway","name":null,"category":"Dedicated cycleway"},"geometry":{"type":"MultiLineString","coordinates":[[[-2.6370059,53.4087616],[-2.6369264,53.4086934]]]}},
{"type":"Feature","properties":{"highway":"cycleway","name":null,"category":"Dedicated cycleway"},"geometry":{"type":"MultiLineString","coordinates":[[[-2.6366718,53.4085912],[-2.636697,53.4086508],[-2.6367114,53.4087176],[-2.6367126,53.4087761],[-2.6367106,53.4088048]]]}},
{"type":"Feature","properties":{"highway":"cycleway","name":null,"category":"Dedicated cycleway"},"geometry":{"type":"MultiLineString","coordinates":[[[-2.6330482,53.4142013],[-2.6331459,53.4141845],[-2.6332157,53.4141725],[-2.6332596,53.4141483],[-2.6333341,53.4141072]]]}},
{"type":"Feature","properties":{"highway":"path","name":null,"category":"Shared path"},"geometry":{"type":"MultiLineString","coordinates":[[[-2.628255,53.411487],[-2.6280373,53.4115602]]]}},
{"type":"Feature","properties":{"highway":"path","name":null,"category":"Shared path"},"geometry":{"type":"MultiLineString","coordinates":[[[-2.6286365,53.4115503],[-2.628509,53.4115066],[-2.6286123,53.4114272]]]}},
{"type":"Feature","properties":{"highway":"cycleway","name":null,"category":"Dedicated cycleway"},"geometry":{"type":"MultiLineString","coordinates":[[[-2.6292906,53.4117111],[-2.6292968,53.4116345],[-2.6293123,53.4114445],[-2.6293617,53.4113936],[-2.6293995,53.4113572]]]}},
{"type":"Feature","properties":{"highway":"cycleway","name":null,"category":"Dedicated cycleway"},"geometry":{"type":"MultiLineString","coordinates":[[[-2.6326011,53.4127815],[-2.6324681,53.4127142]]]}},
{"type":"Feature","properties":{"highway":"cycleway","name":null,"category":"Dedicated cycleway"},"geometry":{"type":"MultiLineString","coordinates":[[[-2.6327964,53.4125741],[-2.6327416,53.4126704]]]}},
{"type":"Feature","properties":{"highway":"path","name":null,"category":"Shared path"},"geometry":{"type":"MultiLineString","coordinates":[[[-2.6422908,53.4146466],[-2.6423715,53.4145598],[-2.642406,53.4145292],[-2.6424502,53.4145012],[-2.642498,53.4144775],[-2.6425774,53.4144486],[-2.6426511,53.4144342],[-2.642728,53.4144237],[-2.6428429,53.4144159],[-2.6429088,53.4144147],[-2.6430203,53.4144159]]]}},
{"type":"Feature","properties":{"highway":"path","name":null,"category":"Shared path"},"geometry":{"type":"MultiLineString","coordinates":[[[-2.6427542,53.4146581],[-2.6426819,53.4145718],[-2.6425774,53.4144486],[-2.6424983,53.4143536]]]}},
{"type":"Feature","properties":{"highway":"path","name":null,"category":"Shared path"},"geometry":{"type":"MultiLineString","coordinates":[[[-2.6422917,53.4140974],[-2.6423299,53.4141445],[-2.642443,53.414284]]]}},
{"type":"Feature","properties":{"highway":"path","name":null,"category":"Shared path"},"geometry":{"type":"MultiLineString","coordinates":[[[-2.6428429,53.4144159],[-2.6428411,53.4143859],[-2.6428349,53.4143638],[-2.6428141,53.4143312],[-2.6427132,53.414216],[-2.6426739,53.4141848],[-2.6426285,53.4141595],[-2.6425784,53.4141425],[-2.642523,53.4141315],[-2.6424718,53.4141269],[-2.6424178,53.4141283],[-2.6423688,53.4141346],[-2.6423299,53.4141445],[-2.6422826,53.414162],[-2.6422333,53.4141885],[-2.6421964,53.4142169],[-2.6421756,53.4142463],[-2.6421609,53.4142784],[-2.6421577,53.4143183],[-2.6421705,53.4143562],[-2.6421919,53.4143902],[-2.6423019,53.4145161],[-2.6423321,53.4145401],[-2.6423715,53.4145598],[-2.6424103,53.4145718],[-2.6424659,53.4145814],[-2.6425236,53.4145886],[-2.6425784,53.4145894],[-2.6426297,53.4145845],[-2.6426819,53.4145718],[-2.6427295,53.4145546],[-2.6427664,53.4145343],[-2.6427985,53.4145087],[-2.6428247,53.4144791],[-2.6428388,53.4144475],[-2.6428429,53.4144159]]]}},
{"type":"Feature","properties":{"highway":"cycleway","name":null,"category":"Dedicated cycleway"},"geometry":{"type":"MultiLineString","coordinates":[[[-2.6354119,53.4143354],[-2.6353574,53.4143284],[-2.6352416,53.4143211],[-2.6351237,53.414309],[-2.6350139,53.4142715],[-2.6349265,53.4142206],[-2.6348147,53.4141782],[-2.6347151,53.41416],[-2.6345972,53.4141673],[-2.6345017,53.414183],[-2.6343899,53.414223],[-2.6342537,53.4142993],[-2.6341673,53.4143308],[-2.6341185,53.4143447]]]}},
{"type":"Feature","properties":{"highway":"path","name":null,"category":"Shared path"},"geometry":{"type":"MultiLineString","coordinates":[[[-2.6326445,53.4075629],[-2.6326069,53.4075381]]]}},
{"type":"Feature","properties":{"highway":"path","name":null,"category":"Shared path"},"geometry":{"type":"MultiLineString","coordinates":[[[-2.6316378,53.406415],[-2.6317221,53.4064998],[-2.6320977,53.406711],[-2.632143,53.4067113]]]}},
{"type":"Feature","properties":{"highway":"cycleway","name":null,"category":"Dedicated cycleway"},"geometry":{"type":"MultiLineString","coordinates":[[[-2.6436592,53.4068866],[-2.6436349,53.4068443]]]}},
{"type":"Feature","properties":{"highway":"cycleway","name":null,"category":"Dedicated cycleway"},"geometry":{"type":"MultiLineString","coordinates":[[[-2.6286845,53.4116051],[-2.6286679,53.4116718],[-2.6286568,53.4117169],[-2.628653,53.4117585],[-2.6286422,53.4118761]]]}},
{"type":"Feature","properties":{"highway":"cycleway","name":null,"category":"Dedicated cycleway"},"geometry":{"type":"MultiLineString","coordinates":[[[-2.6328935,53.4151624],[-2.6328817,53.4150925],[-2.6328798,53.4150581]]]}},
{"type":"Feature","properties":{"highway":"cycleway","name":null,"category":"Dedicated cycleway"},"geometry":{"type":"MultiLineString","coordinates":[[[-2.6330106,53.4140919],[-2.6329957,53.4140441],[-2.6329993,53.4140076],[-2.6330053,53.4139478]]]}},
{"type":"Feature","properties":{"highway":"cycleway","name":null,"category":"Dedicated cycleway"},"geometry":{"type":"MultiLineString","coordinates":[[[-2.6361517,53.4110481],[-2.6361005,53.4111056],[-2.6360661,53.4111463],[-2.6360039,53.4111697],[-2.6359114,53.4112045]]]}},
{"type":"Feature","properties":{"highway":"cycleway","name":null,"category":"Dedicated cycleway"},"geometry":{"type":"MultiLineString","coordinates":[[[-2.6367192,53.4112037],[-2.6365576,53.4111362],[-2.6364941,53.4111097],[-2.6364491,53.4110795],[-2.6363803,53.4110333]]]}},
{"type":"Feature","properties":{"highway":"cycleway","name":null,"category":"Dedicated cycleway"},"geometry":{"type":"MultiLineString","coordinates":[[[-2.6365137,53.410938],[-2.6363803,53.4110333],[-2.6363156,53.4110572],[-2.6362679,53.4110627],[-2.6362144,53.41106],[-2.6361517,53.4110481]]]}},
{"type":"Feature","properties":{"highway":"cycleway","name":null,"category":"Dedicated cycleway"},"geometry":{"type":"MultiLineString","coordinates":[[[-2.6359114,53.4112045],[-2.635949,53.4112381],[-2.6359653,53.4112577],[-2.6359769,53.4112823],[-2.6359778,53.4113048],[-2.6359758,53.4113254],[-2.6359552,53.4113501]]]}},
{"type":"Feature","properties":{"highway":"cycleway","name":null,"category":"Dedicated cycleway"},"geometry":{"type":"MultiLineString","coordinates":[[[-2.6359552,53.4113501],[-2.636033,53.4113844],[-2.6360912,53.4114101],[-2.6361336,53.4114496],[-2.6362148,53.4115253]]]}},
{"type":"Feature","properties":{"highway":"cycleway","name":null,"category":"Dedicated cycleway"},"geometry":{"type":"MultiLineString","coordinates":[[[-2.6360849,53.4115721],[-2.6362148,53.4115253],[-2.6363911,53.4114723],[-2.6364666,53.4114723]]]}},
{"type":"Feature","properties":{"highway":"cycleway","name":null,"category":"Dedicated cycleway"},"geometry":{"type":"MultiLineString","coordinates":[[[-2.6330482,53.4142013],[-2.6330394,53.4141489],[-2.6330106,53.4140919]]]}},
{"type":"Feature","properties":{"highway":"cycleway","name":null,"category":"Dedicated cycleway"},"geometry":{"type":"MultiLineString","coordinates":[[[-2.6337143,53.4142186],[-2.6337042,53.4142642],[-2.6336935,53.4143128],[-2.6337081,53.4143419],[-2.6337397,53.4144051]]]}},
{"type":"Feature","properties":{"highway":"cycleway","name":null,"category":"Dedicated cycleway"},"geometry":{"type":"MultiLineString","coordinates":[[[-2.6354119,53.4143354],[-2.6354757,53.4143599],[-2.6355925,53.4144274],[-2.6357571,53.4145202],[-2.6358633,53.4145688],[-2.6360154,53.4146226],[-2.6361588,53.4146595],[-2.6363383,53.414698],[-2.6365062,53.4147255],[-2.6366387,53.414743],[-2.6367439,53.4147547],[-2.6369676,53.4147765],[-2.6371224,53.4147852],[-2.6373241,53.4147952],[-2.6374981,53.4147987],[-2.6376697,53.4148071],[-2.6378239,53.4148218],[-2.6379757,53.4148413],[-2.6380469,53.4148622],[-2.6380913,53.4148935],[-2.6381146,53.4149304],[-2.6381216,53.4150069],[-2.6381141,53.4150856],[-2.6381123,53.4151051],[-2.6380955,53.4151879],[-2.6380901,53.4152854],[-2.6380995,53.4153717],[-2.6380861,53.4154117],[-2.6380566,53.4154524],[-2.6380164,53.4154828],[-2.6379641,53.4155052],[-2.6378836,53.4155228],[-2.6377332,53.4155474]]]}},
{"type":"Feature","properties":{"highway":"cycleway","name":null,"category":"Dedicated cycleway"},"geometry":{"type":"MultiLineString","coordinates":[[[-2.6354119,53.4143354],[-2.6354542,53.4142838],[-2.6354797,53.4142527],[-2.6355411,53.41423],[-2.6356357,53.4141951]]]}},
{"type":"Feature","properties":{"highway":"cycleway","name":null,"category":"Dedicated cycleway"},"geometry":{"type":"MultiLineString","coordinates":[[[-2.6444562,53.409958],[-2.6445594,53.409948],[-2.6446407,53.4099402],[-2.6446229,53.4098747],[-2.6447133,53.4098659],[-2.6447996,53.4098576]]]}},
{"type":"Feature","properties":{"highway":"cycleway","name":null,"category":"Dedicated cycleway"},"geometry":{"type":"MultiLineString","coordinates":[[[-2.644286,53.4100492],[-2.6443696,53.4100256],[-2.6444266,53.4099939],[-2.6444562,53.409958]]]}},
{"type":"Feature","properties":{"highway":"cycleway","name":null,"category":"Dedicated cycleway"},"geometry":{"type":"MultiLineString","coordinates":[[[-2.6441226,53.4101417],[-2.6441415,53.4100692],[-2.644286,53.4100492]]]}},
{"type":"Feature","properties":{"highway":"cycleway","name":null,"category":"Dedicated cycleway"},"geometry":{"type":"MultiLineString","coordinates":[[[-2.6444357,53.4102174],[-2.6443402,53.4102003],[-2.644263,53.4101986],[-2.6441719,53.4101967],[-2.6441226,53.4101417]]]}},
{"type":"Feature","properties":{"highway":"cycleway","name":null,"category":"Dedicated cycleway"},"geometry":{"type":"MultiLineString","coordinates":[[[-2.6437721,53.4148682],[-2.6439826,53.414787],[-2.6442947,53.4146403],[-2.644618,53.4144576],[-2.6451755,53.4141136],[-2.6455175,53.413898],[-2.6455772,53.4138319],[-2.6455936,53.413792]]]}},
{"type":"Feature","properties":{"highway":"path","name":null,"category":"Shared path"},"geometry":{"type":"MultiLineString","coordinates":[[[-2.6285462,53.4119121],[-2.628485,53.4119107]]]}},
{"type":"Feature","properties":{"highway":"path","name":null,"category":"Shared path"},"geometry":{"type":"MultiLineString","coordinates":[[[-2.6310296,53.4076082],[-2.6313529,53.4074069],[-2.6317655,53.4071361],[-2.6318495,53.4071075],[-2.6320029,53.4069983],[-2.6320884,53.406951],[-2.632154,53.4069507],[-2.6322196,53.4069504]]]}},
{"type":"Feature","properties":{"highway":"path","name":null,"category":"Shared path"},"geometry":{"type":"MultiLineString","coordinates":[[[-2.6306058,53.4078681],[-2.630619,53.4078552],[-2.6306773,53.4078177]]]}},
{"type":"Feature","properties":{"highway":"cycleway","name":null,"category":"Dedicated cycleway"},"geometry":{"type":"MultiLineString","coordinates":[[[-2.6328512,53.413772],[-2.6330597,53.4138619]]]}},
{"type":"Feature","properties":{"highway":"cycleway","name":null,"category":"Dedicated cycleway"},"geometry":{"type":"MultiLineString","coordinates":[[[-2.6339056,53.4143947],[-2.6337397,53.4144051],[-2.6336174,53.4144593],[-2.6335199,53.4145344],[-2.6335005,53.4145611],[-2.6334751,53.4145962],[-2.6333898,53.41475],[-2.6333085,53.4148651],[-2.6332027,53.4150045]]]}},
{"type":"Feature","properties":{"highway":"cycleway","name":null,"category":"Dedicated cycleway"},"geometry":{"type":"MultiLineString","coordinates":[[[-2.6341185,53.4143447],[-2.6340021,53.4143721],[-2.6339056,53.4143947]]]}},
{"type":"Feature","properties":{"highway":"cycleway","name":null,"category":"Dedicated cycleway"},"geometry":{"type":"MultiLineString","coordinates":[[[-2.6332027,53.4150045],[-2.6331141,53.4150808],[-2.6330281,53.415155]]]}},
{"type":"Feature","properties":{"highway":"cycleway","name":null,"category":"Dedicated cycleway"},"geometry":{"type":"MultiLineString","coordinates":[[[-2.6316326,53.4155985],[-2.6315425,53.4156152],[-2.6314319,53.4156357]]]}},
{"type":"Feature","properties":{"highway":"cycleway","name":null,"category":"Dedicated cycleway"},"geometry":{"type":"MultiLineString","coordinates":[[[-2.6329581,53.4124272],[-2.633039,53.4125124],[-2.6329012,53.4125569],[-2.6327964,53.4125741]]]}},
{"type":"Feature","properties":{"highway":"cycleway","name":null,"category":"Dedicated cycleway"},"geometry":{"type":"MultiLineString","coordinates":[[[-2.6327964,53.4125741],[-2.6326748,53.4125605],[-2.6325976,53.4125518],[-2.6325226,53.4125606],[-2.6324109,53.4125737]]]}},
{"type":"Feature","properties":{"highway":"cycleway","name":null,"category":"Dedicated cycleway"},"geometry":{"type":"MultiLineString","coordinates":[[[-2.6324109,53.4125737],[-2.6323385,53.4125597],[-2.6322026,53.4125373],[-2.6322325,53.4124584]]]}},
{"type":"Feature","properties":{"highway":"cycleway","name":null,"category":"Dedicated cycleway"},"geometry":{"type":"MultiLineString","coordinates":[[[-2.6322545,53.4122752],[-2.6323131,53.4122452],[-2.6323612,53.4122108],[-2.6323953,53.4121748]]]}},
{"type":"Feature","properties":{"highway":"cycleway","name":null,"category":"Dedicated cycleway"},"geometry":{"type":"MultiLineString","coordinates":[[[-2.6323953,53.4121748],[-2.6324997,53.412187],[-2.6325747,53.4121957],[-2.6326542,53.4121832],[-2.6327482,53.4121684]]]}},
{"type":"Feature","properties":{"highway":"cycleway","name":null,"category":"Dedicated cycleway"},"geometry":{"type":"MultiLineString","coordinates":[[[-2.6327482,53.4121684],[-2.6327647,53.4121855],[-2.6328097,53.4122118],[-2.6328466,53.4122301],[-2.6328994,53.4122458]]]}},
{"type":"Feature","properties":{"highway":"cycleway","name":null,"category":"Dedicated cycleway"},"geometry":{"type":"MultiLineString","coordinates":[[[-2.6330239,53.4123091],[-2.6332018,53.412206]]]}},
{"type":"Feature","properties":{"highway":"cycleway","name":null,"category":"Dedicated cycleway"},"geometry":{"type":"MultiLineString","coordinates":[[[-2.6328994,53.4122458],[-2.632898,53.4123082],[-2.6328971,53.4123494],[-2.632923,53.4123824],[-2.6329581,53.4124272]]]}},
{"type":"Feature","properties":{"highway":"cycleway","name":null,"category":"Dedicated cycleway"},"geometry":{"type":"MultiLineString","coordinates":[[[-2.6451977,53.4074839],[-2.6451,53.4075119],[-2.6450267,53.4075446],[-2.644677,53.4077611],[-2.64459,53.4078229],[-2.6445339,53.4078684],[-2.6444816,53.407922],[-2.6444435,53.4079874],[-2.644386,53.4081241],[-2.6443355,53.4082951],[-2.6443149,53.408445]]]}},
{"type":"Feature","properties":{"highway":"cycleway","name":null,"category":"Dedicated cycleway"},"geometry":{"type":"MultiLineString","coordinates":[[[-2.6443149,53.408445],[-2.6443151,53.4085147],[-2.6443154,53.4085843]]]}},
{"type":"Feature","properties":{"highway":"cycleway","name":null,"category":"Dedicated cycleway"},"geometry":{"type":"MultiLineString","coordinates":[[[-2.6449005,53.4099906],[-2.6451007,53.4099851],[-2.6458625,53.4099338],[-2.6461093,53.4099149],[-2.6462976,53.4098977],[-2.6465791,53.4098653],[-2.6467727,53.4098368],[-2.6470246,53.409789],[-2.6474915,53.4096803],[-2.647833,53.4095754],[-2.6479876,53.4095279],[-2.6484712,53.4093258],[-2.6487498,53.4091959],[-2.6490012,53.4090674],[-2.6491151,53.4089994]]]}},
{"type":"Feature","properties":{"highway":"path","name":null,"category":"Shared path"},"geometry":{"type":"MultiLineString","coordinates":[[[-2.6430407,53.4054774],[-2.6430581,53.4054897],[-2.6431432,53.4056581],[-2.6431807,53.4057324],[-2.6433282,53.4060113],[-2.6434109,53.4061652],[-2.6434163,53.4062297],[-2.6434073,53.4062879],[-2.6433873,53.4063385]]]}},
{"type":"Feature","properties":{"highway":"cycleway","name":null,"category":"Dedicated cycleway"},"geometry":{"type":"MultiLineString","coordinates":[[[-2.6366718,53.4085912],[-2.6367065,53.408541]]]}},
{"type":"Feature","properties":{"highway":"cycleway","name":null,"category":"Dedicated cycleway"},"geometry":{"type":"MultiLineString","coordinates":[[[-2.6367845,53.4086323],[-2.6369264,53.4086934]]]}},
{"type":"Feature","properties":{"highway":"cycleway","name":null,"category":"Dedicated cycleway"},"geometry":{"type":"MultiLineString","coordinates":[[[-2.6331469,53.4145415],[-2.6331474,53.414605]]]}},
{"type":"Feature","properties":{"highway":"cycleway","name":null,"category":"Dedicated cycleway"},"geometry":{"type":"MultiLineString","coordinates":[[[-2.6331474,53.414605],[-2.633109,53.4146985],[-2.6330674,53.4147997]]]}},
{"type":"Feature","properties":{"highway":"cycleway","name":null,"category":"Dedicated cycleway"},"geometry":{"type":"MultiLineString","coordinates":[[[-2.6345731,53.4107115],[-2.6346185,53.4106745],[-2.634639,53.4106464],[-2.63465,53.410617],[-2.6346505,53.4105854],[-2.6346418,53.4105591],[-2.6346257,53.4105325],[-2.6345918,53.410501],[-2.6345538,53.4104723],[-2.6345866,53.4104178],[-2.6346181,53.4103904]]]}},
{"type":"Feature","properties":{"highway":"cycleway","name":null,"category":"Dedicated cycleway"},"geometry":{"type":"MultiLineString","coordinates":[[[-2.6347639,53.410804],[-2.6346619,53.4107545],[-2.6345731,53.4107115]]]}},
{"type":"Feature","properties":{"highway":"path","name":null,"category":"Shared path"},"geometry":{"type":"MultiLineString","coordinates":[[[-2.6340651,53.4102108],[-2.634006,53.410234]]]}},
{"type":"Feature","properties":{"highway":"path","name":null,"category":"Shared path"},"geometry":{"type":"MultiLineString","coordinates":[[[-2.6377761,53.4079059],[-2.6376491,53.4079285],[-2.6374321,53.4079672],[-2.6371594,53.4080157],[-2.6371371,53.407975]]]}},
{"type":"Feature","properties":{"highway":"path","name":null,"category":"Shared path"},"geometry":{"type":"MultiLineString","coordinates":[[[-2.638121,53.407803],[-2.6378948,53.4078667],[-2.6378029,53.4079012],[-2.6377761,53.4079059]]]}},
{"type":"Feature","properties":{"highway":"path","name":null,"category":"Shared path"},"geometry":{"type":"MultiLineString","coordinates":[[[-2.6371337,53.4057661],[-2.6371321,53.405784],[-2.6372387,53.4058294],[-2.6374318,53.4058747],[-2.6375255,53.4058697],[-2.637696,53.4058781],[-2.6378207,53.4058572],[-2.6379256,53.4058421],[-2.6381444,53.405808],[-2.6383889,53.4057754],[-2.6387903,53.40571]]]}},
{"type":"Feature","properties":{"highway":"path","name":null,"category":"Shared path"},"geometry":{"type":"MultiLineString","coordinates":[[[-2.6369436,53.4078895],[-2.6370258,53.4080626],[-2.6371196,53.4080468],[-2.6371594,53.4080157]]]}},
{"type":"Feature","properties":{"highway":"cycleway","name":null,"category":"Dedicated cycleway"},"geometry":{"type":"MultiLineString","coordinates":[[[-2.6450373,53.410183],[-2.6450273,53.4101299],[-2.6450198,53.4100857],[-2.6449216,53.4100955],[-2.6449198,53.4100461],[-2.6449005,53.4099906]]]}},
{"type":"Feature","properties":{"highway":"path","name":null,"category":"Shared path"},"geometry":{"type":"MultiLineString","coordinates":[[[-2.6377485,53.411593],[-2.6376895,53.4115869],[-2.6376301,53.4115873],[-2.6375723,53.4115925],[-2.6375153,53.4116008],[-2.6374691,53.4116112],[-2.6374304,53.4116285],[-2.637398,53.4116537]]]}},
{"type":"Feature","properties":{"highway":"cycleway","name":null,"category":"Dedicated cycleway"},"geometry":{"type":"MultiLineString","coordinates":[[[-2.6530905,53.4103133],[-2.6530213,53.4103585],[-2.6525935,53.4106378],[-2.651898,53.4107786],[-2.6514322,53.4108729],[-2.6504197,53.4110726],[-2.649318,53.4112989],[-2.6483089,53.4115052],[-2.6475983,53.4116628],[-2.6474717,53.4118358],[-2.6454755,53.4122586],[-2.6452655,53.4123037]]]}},
{"type":"Feature","properties":{"highway":"path","name":null,"category":"Shared path"},"geometry":{"type":"MultiLineString","coordinates":[[[-2.6483089,53.4115052],[-2.6484466,53.4117466],[-2.648081,53.4118215],[-2.6480566,53.4118306],[-2.6480454,53.4118439],[-2.6480454,53.4118627],[-2.6481013,53.411959]]]}},
{"type":"Feature","properties":{"highway":"path","name":null,"category":"Shared path"},"geometry":{"type":"MultiLineString","coordinates":[[[-2.6321974,53.4100082],[-2.6318871,53.4100943],[-2.6318923,53.4101009],[-2.6318682,53.4101266]]]}},
{"type":"Feature","properties":{"highway":"path","name":null,"category":"Shared path"},"geometry":{"type":"MultiLineString","coordinates":[[[-2.63599,53.4073363],[-2.6360043,53.4073103],[-2.6361334,53.4072782],[-2.6361774,53.4072712]]]}},
{"type":"Feature","properties":{"highway":"path","name":null,"category":"Shared path"},"geometry":{"type":"MultiLineString","coordinates":[[[-2.6329595,53.4061439],[-2.6329414,53.406181]]]}},
{"type":"Feature","properties":{"highway":"cycleway","name":null,"category":"Dedicated cycleway"},"geometry":{"type":"MultiLineString","coordinates":[[[-2.6471898,53.4078478],[-2.6472336,53.4078654],[-2.6474079,53.4079357],[-2.6483781,53.4083724],[-2.6484013,53.4083828],[-2.6489936,53.4087337],[-2.6492231,53.4088531],[-2.6492556,53.4088653],[-2.6492893,53.4088739],[-2.6493233,53.4088745]]]}},
{"type":"Feature","properties":{"highway":"path","name":null,"category":"Shared path"},"geometry":{"type":"MultiLineString","coordinates":[[[-2.636706,53.4088229],[-2.6366602,53.4088358],[-2.6366003,53.4089022],[-2.6365807,53.408921],[-2.6365603,53.4089354],[-2.6365388,53.4089467],[-2.636532,53.4089497],[-2.6365272,53.4089518],[-2.6365156,53.4089568],[-2.6364923,53.4089652]]]}},
{"type":"Feature","properties":{"highway":"path","name":null,"category":"Shared path"},"geometry":{"type":"MultiLineString","coordinates":[[[-2.6481394,53.4120251],[-2.6486133,53.4128968],[-2.6489625,53.413539]]]}},
{"type":"Feature","properties":{"highway":"path","name":null,"category":"Shared path"},"geometry":{"type":"MultiLineString","coordinates":[[[-2.6295663,53.4096327],[-2.6295731,53.4096643],[-2.6295945,53.4097304],[-2.6296119,53.409755],[-2.629637,53.4097749],[-2.6296723,53.4097911],[-2.6299047,53.4098129],[-2.6299529,53.4098467]]]}},
{"type":"Feature","properties":{"highway":"path","name":null,"category":"Shared path"},"geometry":{"type":"MultiLineString","coordinates":[[[-2.6437241,53.4119716],[-2.6438464,53.4119648]]]}},
{"type":"Feature","properties":{"highway":"path","name":null,"category":"Shared path"},"geometry":{"type":"MultiLineString","coordinates":[[[-2.6402886,53.4090234],[-2.6402385,53.4090367]]]}},
{"type":"Feature","properties":{"highway":"path","name":null,"category":"Shared path"},"geometry":{"type":"MultiLineString","coordinates":[[[-2.637906,53.4150816],[-2.6381141,53.4150856]]]}},
{"type":"Feature","properties":{"highway":"path","name":null,"category":"Shared path"},"geometry":{"type":"MultiLineString","coordinates":[[[-2.641506,53.4143152],[-2.6415176,53.4142034]]]}},
{"type":"Feature","properties":{"highway":"path","name":null,"category":"Shared path"},"geometry":{"type":"MultiLineString","coordinates":[[[-2.6332212,53.407549],[-2.6332114,53.4075152]]]}},
{"type":"Feature","properties":{"highway":"path","name":null,"category":"Shared path"},"geometry":{"type":"MultiLineString","coordinates":[[[-2.6326762,53.4077399],[-2.6326506,53.4076981],[-2.6326497,53.4076796],[-2.6326478,53.4076422]]]}},
{"type":"Feature","properties":{"highway":"path","name":null,"category":"Shared path"},"geometry":{"type":"MultiLineString","coordinates":[[[-2.643305,53.4056303],[-2.6431432,53.4056581]]]}},
{"type":"Feature","properties":{"highway":"cycleway","name":null,"category":"Dedicated cycleway"},"geometry":{"type":"MultiLineString","coordinates":[[[-2.6457769,53.4074189],[-2.6469837,53.4077742]]]}},
{"type":"Feature","properties":{"highway":"cycleway","name":null,"category":"Dedicated cycleway"},"geometry":{"type":"MultiLineString","coordinates":[[[-2.6469837,53.4077742],[-2.647097,53.4078146],[-2.6471898,53.4078478]]]}},
{"type":"Feature","properties":{"highway":"cycleway","name":null,"category":"Dedicated cycleway"},"geometry":{"type":"MultiLineString","coordinates":[[[-2.6500413,53.4083265],[-2.6500605,53.4083098],[-2.6501027,53.4082731]]]}},
{"type":"Feature","properties":{"highway":"cycleway","name":null,"category":"Dedicated cycleway"},"geometry":{"type":"MultiLineString","coordinates":[[[-2.6491151,53.4089994],[-2.6492178,53.4089377],[-2.6493233,53.4088745]]]}},
{"type":"Feature","properties":{"highway":"cycleway","name":null,"category":"Dedicated cycleway"},"geometry":{"type":"MultiLineString","coordinates":[[[-2.6490856,53.4089466],[-2.6485146,53.4085922],[-2.6481003,53.408371],[-2.6476295,53.4081569]]]}},
{"type":"Feature","properties":{"highway":"cycleway","name":null,"category":"Dedicated cycleway"},"geometry":{"type":"MultiLineString","coordinates":[[[-2.647488,53.4080957],[-2.647173,53.4079754],[-2.646881,53.4078847],[-2.6463309,53.4077573],[-2.6456636,53.4075702]]]}},
{"type":"Feature","properties":{"highway":"cycleway","name":null,"category":"Dedicated cycleway"},"geometry":{"type":"MultiLineString","coordinates":[[[-2.6476295,53.4081569],[-2.6475578,53.4081259],[-2.647488,53.4080957]]]}},
{"type":"Feature","properties":{"highway":"cycleway","name":null,"category":"Dedicated cycleway"},"geometry":{"type":"MultiLineString","coordinates":[[[-2.6460023,53.4064921],[-2.6460564,53.4065162],[-2.6461309,53.4065317],[-2.6471092,53.4066174],[-2.6480224,53.4067683],[-2.64802,53.4068028],[-2.6480019,53.4068834],[-2.6479591,53.406964],[-2.6476535,53.4072997],[-2.6475873,53.4074027],[-2.6472336,53.4078654]]]}},
{"type":"Feature","properties":{"highway":"path","name":null,"category":"Shared path"},"geometry":{"type":"MultiLineString","coordinates":[[[-2.6453166,53.4072525],[-2.6458539,53.4070316],[-2.645984,53.4068226]]]}},
{"type":"Feature","properties":{"highway":"path","name":null,"category":"Shared path"},"geometry":{"type":"MultiLineString","coordinates":[[[-2.646061,53.4068421],[-2.645984,53.4068226],[-2.6456398,53.4066944]]]}},
{"type":"Feature","properties":{"highway":"cycleway","name":null,"category":"Dedicated cycleway"},"geometry":{"type":"MultiLineString","coordinates":[[[-2.6457769,53.4074189],[-2.6456105,53.4073736],[-2.6455079,53.4073387],[-2.6454053,53.4072955],[-2.6453166,53.4072525]]]}},
{"type":"Feature","properties":{"highway":"cycleway","name":null,"category":"Dedicated cycleway"},"geometry":{"type":"MultiLineString","coordinates":[[[-2.6456636,53.4075702],[-2.6454156,53.407506],[-2.6452987,53.4074883],[-2.6451977,53.4074839]]]}},
{"type":"Feature","properties":{"highway":"cycleway","name":null,"category":"Dedicated cycleway"},"geometry":{"type":"MultiLineString","coordinates":[[[-2.6448076,53.4067679],[-2.6446966,53.4067822],[-2.6444962,53.4067995],[-2.644213,53.4068059],[-2.6439896,53.4067893]]]}},
{"type":"Feature","properties":{"highway":"cycleway","name":null,"category":"Dedicated cycleway"},"geometry":{"type":"MultiLineString","coordinates":[[[-2.6436592,53.4068866],[-2.6436756,53.4069198],[-2.6436856,53.4070739],[-2.6435591,53.4073065],[-2.6435425,53.4073217],[-2.6434718,53.4073594]]]}},
{"type":"Feature","properties":{"highway":"cycleway","name":null,"category":"Dedicated cycleway"},"geometry":{"type":"MultiLineString","coordinates":[[[-2.6443154,53.4085843],[-2.6443155,53.408616],[-2.6443643,53.4089068],[-2.6444044,53.4090424],[-2.6444536,53.4091609],[-2.6445229,53.4092849],[-2.6447312,53.4096388],[-2.6447996,53.4098576],[-2.6448163,53.409909],[-2.644823,53.4099326],[-2.6448416,53.4099548],[-2.6448678,53.4099739],[-2.6449005,53.4099906]]]}},
{"type":"Feature","properties":{"highway":"cycleway","name":null,"category":"Dedicated cycleway"},"geometry":{"type":"MultiLineString","coordinates":[[[-2.6491151,53.4089994],[-2.6491129,53.408982],[-2.6491018,53.4089618],[-2.6490856,53.4089466]]]}},
{"type":"Feature","properties":{"highway":"cycleway","name":null,"category":"Dedicated cycleway"},"geometry":{"type":"MultiLineString","coordinates":[[[-2.6496835,53.408627],[-2.6498015,53.4085344],[-2.6500413,53.4083265]]]}},
{"type":"Feature","properties":{"highway":"cycleway","name":null,"category":"Dedicated cycleway"},"geometry":{"type":"MultiLineString","coordinates":[[[-2.6493233,53.4088745],[-2.6494215,53.408819],[-2.6495817,53.408707],[-2.6496835,53.408627]]]}},
{"type":"Feature","properties":{"highway":"cycleway","name":null,"category":"Dedicated cycleway"},"geometry":{"type":"MultiLineString","coordinates":[[[-2.6451447,53.4101711],[-2.6450373,53.410183]]]}},
{"type":"Feature","properties":{"highway":"cycleway","name":null,"category":"Dedicated cycleway"},"geometry":{"type":"MultiLineString","coordinates":[[[-2.6455936,53.413792],[-2.6456075,53.4137583],[-2.6456192,53.4136736],[-2.6456015,53.4135889]]]}},
{"type":"Feature","properties":{"highway":"cycleway","name":null,"category":"Dedicated cycleway"},"geometry":{"type":"MultiLineString","coordinates":[[[-2.6473177,53.4144867],[-2.6471912,53.4145386],[-2.6471382,53.4145542],[-2.6470858,53.4145627],[-2.6470393,53.4145655],[-2.6469906,53.4145647],[-2.6469386,53.4145587],[-2.6468861,53.4145456],[-2.6468337,53.4145281],[-2.6467876,53.4145006]]]}},
{"type":"Feature","properties":{"highway":"cycleway","name":null,"category":"Dedicated cycleway"},"geometry":{"type":"MultiLineString","coordinates":[[[-2.6286859,53.4091987],[-2.6287116,53.4092249],[-2.6287434,53.4092523],[-2.6287847,53.4092794],[-2.6288607,53.4093227],[-2.6289332,53.4093556],[-2.6290088,53.4093816],[-2.6290888,53.4094045]]]}},
{"type":"Feature","properties":{"highway":"cycleway","name":null,"category":"Dedicated cycleway"},"geometry":{"type":"MultiLineString","coordinates":[[[-2.6286845,53.4116051],[-2.6286365,53.4115503]]]}},
{"type":"Feature","properties":{"highway":"path","name":null,"category":"Shared path"},"geometry":{"type":"MultiLineString","coordinates":[[[-2.6431253,53.4064435],[-2.6430537,53.4065278],[-2.6430183,53.4066154],[-2.6428927,53.4066744],[-2.6424277,53.4067513],[-2.6423628,53.4067983]]]}},
{"type":"Feature","properties":{"highway":"path","name":null,"category":"Shared path"},"geometry":{"type":"MultiLineString","coordinates":[[[-2.6424277,53.4067513],[-2.6423182,53.4067466]]]}},
{"type":"Feature","properties":{"highway":"path","name":null,"category":"Shared path"},"geometry":{"type":"MultiLineString","coordinates":[[[-2.6420069,53.4147184],[-2.6421008,53.4148437],[-2.6421742,53.4148573],[-2.6426325,53.4149421]]]}},
{"type":"Feature","properties":{"highway":"path","name":null,"category":"Shared path"},"geometry":{"type":"MultiLineString","coordinates":[[[-2.6404188,53.4095315],[-2.6404227,53.4094884],[-2.640394,53.4093917],[-2.6402921,53.4092222],[-2.6402385,53.4090367]]]}},
{"type":"Feature","properties":{"highway":"path","name":null,"category":"Shared path"},"geometry":{"type":"MultiLineString","coordinates":[[[-2.6371161,53.4055837],[-2.6371386,53.405675],[-2.6371391,53.4056885],[-2.6371394,53.4056984],[-2.6371367,53.4057236]]]}},
{"type":"Feature","properties":{"highway":"path","name":null,"category":"Shared path"},"geometry":{"type":"MultiLineString","coordinates":[[[-2.6371367,53.4057236],[-2.6371337,53.4057661]]]}},
{"type":"Feature","properties":{"highway":"path","name":null,"category":"Shared path"},"geometry":{"type":"MultiLineString","coordinates":[[[-2.6387903,53.40571],[-2.6387411,53.4056738],[-2.6386795,53.4056508],[-2.6385702,53.4056456]]]}},
{"type":"Feature","properties":{"highway":"path","name":null,"category":"Shared path"},"geometry":{"type":"MultiLineString","coordinates":[[[-2.6378207,53.4058572],[-2.6378183,53.4058182]]]}},
{"type":"Feature","properties":{"highway":"path","name":null,"category":"Shared path"},"geometry":{"type":"MultiLineString","coordinates":[[[-2.637805,53.4056064],[-2.6378036,53.4055838]]]}},
{"type":"Feature","properties":{"highway":"path","name":null,"category":"Shared path"},"geometry":{"type":"MultiLineString","coordinates":[[[-2.6376818,53.4055587],[-2.6376021,53.4056046],[-2.6375145,53.4056463],[-2.6374348,53.4056684],[-2.6373632,53.4056795],[-2.6372747,53.4056874],[-2.6371391,53.4056885]]]}},
{"type":"Feature","properties":{"highway":"path","name":null,"category":"Shared path"},"geometry":{"type":"MultiLineString","coordinates":[[[-2.6381651,53.4077907],[-2.6382506,53.4078545],[-2.6382801,53.4079024],[-2.6383624,53.4079593],[-2.6386002,53.4080713],[-2.6387738,53.4080181],[-2.6389079,53.4078695],[-2.6390604,53.4078267],[-2.6392722,53.4078259],[-2.6394572,53.4077338],[-2.6396605,53.4077096],[-2.6396892,53.407735]]]}},
{"type":"Feature","properties":{"highway":"path","name":null,"category":"Shared path"},"geometry":{"type":"MultiLineString","coordinates":[[[-2.6397448,53.407784],[-2.6398242,53.407868]]]}},
{"type":"Feature","properties":{"highway":"path","name":null,"category":"Shared path"},"geometry":{"type":"MultiLineString","coordinates":[[[-2.6396892,53.407735],[-2.6397448,53.407784]]]}},
{"type":"Feature","properties":{"highway":"path","name":null,"category":"Shared path"},"geometry":{"type":"MultiLineString","coordinates":[[[-2.6396605,53.4077096],[-2.639819,53.4076017],[-2.6399918,53.4075823],[-2.6402453,53.4074899],[-2.6402238,53.4073891],[-2.6401786,53.4073287]]]}},
{"type":"Feature","properties":{"highway":"path","name":null,"category":"Shared path"},"geometry":{"type":"MultiLineString","coordinates":[[[-2.6447003,53.4062963],[-2.6445552,53.4062934],[-2.6444167,53.406314],[-2.6442548,53.4063415],[-2.6441468,53.4063295],[-2.6440616,53.4062992],[-2.6439704,53.406316],[-2.6439664,53.4063527],[-2.6438927,53.4064375]]]}},
{"type":"Feature","properties":{"highway":"path","name":null,"category":"Shared path"},"geometry":{"type":"MultiLineString","coordinates":[[[-2.6439664,53.4063527],[-2.644067,53.4063631],[-2.6441468,53.4063295]]]}},
{"type":"Feature","properties":{"highway":"path","name":null,"category":"Shared path"},"geometry":{"type":"MultiLineString","coordinates":[[[-2.6447003,53.4062963],[-2.6448375,53.4062967],[-2.645053,53.4063071],[-2.6452654,53.4063173]]]}},
{"type":"Feature","properties":{"highway":"path","name":null,"category":"Shared path"},"geometry":{"type":"MultiLineString","coordinates":[[[-2.6444434,53.4060704],[-2.6444197,53.406212],[-2.6444167,53.406314]]]}},
{"type":"Feature","properties":{"highway":"cycleway","name":null,"category":"Dedicated cycleway"},"geometry":{"type":"MultiLineString","coordinates":[[[-2.64459,53.4078229],[-2.6445057,53.4077911],[-2.6444091,53.4077529]]]}},
{"type":"Feature","properties":{"highway":"cycleway","name":null,"category":"Dedicated cycleway"},"geometry":{"type":"MultiLineString","coordinates":[[[-2.6444091,53.4077529],[-2.6443732,53.4077957]]]}},
{"type":"Feature","properties":{"highway":"cycleway","name":null,"category":"Dedicated cycleway"},"geometry":{"type":"MultiLineString","coordinates":[[[-2.6452316,53.406922],[-2.6451491,53.4068764],[-2.645084,53.4068405]]]}},
{"type":"Feature","properties":{"highway":"cycleway","name":null,"category":"Dedicated cycleway"},"geometry":{"type":"MultiLineString","coordinates":[[[-2.6448616,53.406879],[-2.6448313,53.4068166],[-2.6448076,53.4067679]]]}},
{"type":"Feature","properties":{"highway":"cycle_lane_on_street","name":"Westbrook Crescent","category":"Cycle lane on street"},"geometry":{"type":"MultiLineString","coordinates":[[[-2.6367065,53.408541],[-2.6367394,53.408592]]]}}
]
}
