{
"type": "FeatureCollection",
"name": "LIVER_404_cycling",
"crs": { "type": "name", "properties": { "name": "urn:ogc:def:crs:OGC:1.3:CRS84" } },
"features": [
{"type":"Feature","properties":{"highway":"cycleway","name":null,"category":"Dedicated cycleway"},"geometry":{"type":"MultiLineString","coordinates":[[[-2.9784278,53.4012254],[-2.9783676,53.4012887]]]}},
{"type":"Feature","properties":{"highway":"cycleway","name":"Dickenson Street","category":"Dedicated cycleway"},"geometry":{"type":"MultiLineString","coordinates":[[[-2.9832859,53.3993181],[-2.983352,53.3992806]]]}},
{"type":"Feature","properties":{"highway":"cycleway","name":"Mount Street","category":"Dedicated cycleway"},"geometry":{"type":"MultiLineString","coordinates":[[[-2.971192,53.3997299],[-2.9715088,53.399779],[-2.9714477,53.399889]]]}},
{"type":"Feature","properties":{"highway":"cycleway","name":null,"category":"Dedicated cycleway"},"geometry":{"type":"MultiLineString","coordinates":[[[-2.9809514,53.3992386],[-2.9811016,53.3991532]]]}},
{"type":"Feature","properties":{"highway":"cycleway","name":null,"category":"Dedicated cycleway"},"geometry":{"type":"MultiLineString","coordinates":[[[-2.9818613,53.399652],[-2.9818244,53.3996746],[-2.9815745,53.3998269]]]}},
{"type":"Feature","properties":{"highway":"path","name":null,"category":"Shared path"},"geometry":{"type":"MultiLineString","coordinates":[[[-2.9720009,53.3972876],[-2.9721945,53.3972894]]]}},
{"type":"Feature","properties":{"highway":"path","name":null,"category":"Shared path"},"geometry":{"type":"MultiLineString","coordinates":[[[-2.9721538,53.3970698],[-2.9720995,53.3970793]]]}},
{"type":"Feature","properties":{"highway":"path","name":null,"category":"Shared path"},"geometry":{"type":"MultiLineString","coordinates":[[[-2.971977,53.3973909],[-2.9720001,53.3973376],[-2.9720009,53.3972876],[-2.9720027,53.3971527]]]}},
{"type":"Feature","properties":{"highway":"path","name":null,"category":"Shared path"},"geometry":{"type":"MultiLineString","coordinates":[[[-2.9735751,53.3988215],[-2.9734644,53.3987977],[-2.9734142,53.3987893]]]}},
{"type":"Feature","properties":{"highway":"path","name":null,"category":"Shared path"},"geometry":{"type":"MultiLineString","coordinates":[[[-2.9720366,53.3975753],[-2.971977,53.3973909],[-2.9719279,53.3973479],[-2.9716941,53.3973427],[-2.9717114,53.3972653],[-2.9718615,53.397267],[-2.971905,53.3971542]]]}},
{"type":"Feature","properties":{"highway":"cycleway","name":null,"category":"Dedicated cycleway"},"geometry":{"type":"MultiLineString","coordinates":[[[-2.9762299,53.3917313],[-2.9762679,53.391763],[-2.9763081,53.3917742],[-2.9765102,53.3917543],[-2.9767148,53.3917154]]]}},
{"type":"Feature","properties":{"highway":"path","name":null,"category":"Shared path"},"geometry":{"type":"MultiLineString","coordinates":[[[-2.9639311,53.3960423],[-2.9638946,53.3960065],[-2.9638463,53.3959745],[-2.9637976,53.3959429],[-2.963604,53.3954897],[-2.9635785,53.3954224]]]}},
{"type":"Feature","properties":{"highway":"cycleway","name":"Nelson Street","category":"Dedicated cycleway"},"geometry":{"type":"MultiLineString","coordinates":[[[-2.9791662,53.3981244],[-2.9792874,53.3980657]]]}},
{"type":"Feature","properties":{"highway":"cycleway","name":"Kent Street","category":"Dedicated cycleway"},"geometry":{"type":"MultiLineString","coordinates":[[[-2.9804118,53.3995588],[-2.9803946,53.3995696],[-2.9803805,53.3995786]]]}},
{"type":"Feature","properties":{"highway":"path","name":null,"category":"Shared path"},"geometry":{"type":"MultiLineString","coordinates":[[[-2.9719995,53.395761],[-2.9719998,53.3957514],[-2.9720028,53.3956133],[-2.9718229,53.3955871],[-2.9716284,53.3955934],[-2.9715049,53.3956133],[-2.9714547,53.3956395],[-2.9714506,53.3957019],[-2.9715508,53.397231],[-2.9715859,53.3973213]]]}},
{"type":"Feature","properties":{"highway":"cycleway","name":null,"category":"Dedicated cycleway"},"geometry":{"type":"MultiLineString","coordinates":[[[-2.963652,53.3944446],[-2.9637088,53.3944044],[-2.9637487,53.3943728],[-2.9637871,53.3943479],[-2.9638671,53.394284],[-2.9640986,53.3943872],[-2.9641461,53.3943557],[-2.9641666,53.3943412]]]}},
{"type":"Feature","properties":{"highway":"cycleway","name":null,"category":"Dedicated cycleway"},"geometry":{"type":"MultiLineString","coordinates":[[[-2.9638671,53.394284],[-2.9638359,53.3942679],[-2.9636791,53.3941867],[-2.9635999,53.394126],[-2.9617517,53.3932706],[-2.9616226,53.393206],[-2.9614907,53.3931427],[-2.9614581,53.393127],[-2.9594175,53.3921468],[-2.9593332,53.3921119],[-2.9592374,53.3920676],[-2.9591958,53.3920471],[-2.9560943,53.3905889],[-2.9560209,53.390554]]]}},
{"type":"Feature","properties":{"highway":"cycleway","name":null,"category":"Dedicated cycleway"},"geometry":{"type":"MultiLineString","coordinates":[[[-2.9615499,53.3930987],[-2.9614907,53.3931427],[-2.9614004,53.3932142],[-2.9613202,53.3932778],[-2.9612667,53.3933231]]]}},
{"type":"Feature","properties":{"highway":"cycleway","name":null,"category":"Dedicated cycleway"},"geometry":{"type":"MultiLineString","coordinates":[[[-2.984966,53.4001993],[-2.9839896,53.399643],[-2.9838835,53.3995763],[-2.983352,53.3992806],[-2.9823155,53.3986635],[-2.9822931,53.3986145],[-2.9822976,53.3985597]]]}},
{"type":"Feature","properties":{"highway":"path","name":null,"category":"Shared path"},"geometry":{"type":"MultiLineString","coordinates":[[[-2.9717105,53.3962151],[-2.971575,53.3962955],[-2.9716244,53.3972491],[-2.9715859,53.3973213],[-2.9716459,53.397417],[-2.9716931,53.3981127],[-2.9717404,53.3981435],[-2.9718999,53.3981397]]]}},
{"type":"Feature","properties":{"highway":"path","name":null,"category":"Shared path"},"geometry":{"type":"MultiLineString","coordinates":[[[-2.9715278,53.3953485],[-2.9715714,53.3954302],[-2.9712148,53.3955241],[-2.9712143,53.3955711],[-2.9711665,53.39559]]]}},
{"type":"Feature","properties":{"highway":"cycleway","name":null,"category":"Dedicated cycleway"},"geometry":{"type":"MultiLineString","coordinates":[[[-2.9617249,53.3930227],[-2.961873,53.3930188]]]}},
{"type":"Feature","properties":{"highway":"cycleway","name":null,"category":"Dedicated cycleway"},"geometry":{"type":"MultiLineString","coordinates":[[[-2.9639944,53.3945455],[-2.9638629,53.3945461]]]}},
{"type":"Feature","properties":{"highway":"cycleway","name":null,"category":"Dedicated cycleway"},"geometry":{"type":"MultiLineString","coordinates":[[[-2.9767148,53.3917154],[-2.9768471,53.3916895]]]}},
{"type":"Feature","properties":{"highway":"cycleway","name":null,"category":"Dedicated cycleway"},"geometry":{"type":"MultiLineString","coordinates":[[[-2.9820972,53.3982574],[-2.9822158,53.3982968],[-2.9823212,53.3984718],[-2.9823699,53.3985498],[-2.982409,53.3985776]]]}},
{"type":"Feature","properties":{"highway":"cycleway","name":null,"category":"Dedicated cycleway"},"geometry":{"type":"MultiLineString","coordinates":[[[-2.982409,53.3985776],[-2.9824737,53.3986161],[-2.9825499,53.3986618]]]}},
{"type":"Feature","properties":{"highway":"cycleway","name":null,"category":"Dedicated cycleway"},"geometry":{"type":"MultiLineString","coordinates":[[[-2.9825499,53.3986618],[-2.9829488,53.3989017]]]}},
{"type":"Feature","properties":{"highway":"cycleway","name":null,"category":"Dedicated cycleway"},"geometry":{"type":"MultiLineString","coordinates":[[[-2.9829488,53.3989017],[-2.9830227,53.398947],[-2.9830944,53.3989896]]]}},
{"type":"Feature","properties":{"highway":"cycleway","name":null,"category":"Dedicated cycleway"},"geometry":{"type":"MultiLineString","coordinates":[[[-2.9830944,53.3989896],[-2.9832176,53.3990248],[-2.9833222,53.3990504],[-2.9836213,53.3992255],[-2.9836743,53.3993131],[-2.9837645,53.399365]]]}},
{"type":"Feature","properties":{"highway":"cycleway","name":null,"category":"Dedicated cycleway"},"geometry":{"type":"MultiLineString","coordinates":[[[-2.981907,53.3996242],[-2.9818613,53.399652]]]}},
{"type":"Feature","properties":{"highway":"cycleway","name":null,"category":"Dedicated cycleway"},"geometry":{"type":"MultiLineString","coordinates":[[[-2.9815745,53.3998269],[-2.9815287,53.3998556]]]}},
{"type":"Feature","properties":{"highway":"cycleway","name":null,"category":"Dedicated cycleway"},"geometry":{"type":"MultiLineString","coordinates":[[[-2.9779283,53.4000074],[-2.9778165,53.3999953]]]}},
{"type":"Feature","properties":{"highway":"cycleway","name":null,"category":"Dedicated cycleway"},"geometry":{"type":"MultiLineString","coordinates":[[[-2.9797425,53.3995927],[-2.9796799,53.3996269]]]}},
{"type":"Feature","properties":{"highway":"cycleway","name":null,"category":"Dedicated cycleway"},"geometry":{"type":"MultiLineString","coordinates":[[[-2.9766298,53.398667],[-2.976562,53.3987067]]]}},
{"type":"Feature","properties":{"highway":"cycle_lane_on_street","name":"Catharine Street","category":"Cycle lane on street"},"geometry":{"type":"MultiLineString","coordinates":[[[-2.9677295,53.4004557],[-2.967912,53.4001283],[-2.9681855,53.3996936],[-2.9683142,53.3993696],[-2.9685279,53.3987403],[-2.9685342,53.3987181],[-2.9686429,53.3984151]]]}},
{"type":"Feature","properties":{"highway":"cycle_lane_on_street","name":"Princes Road","category":"Cycle lane on street"},"geometry":{"type":"MultiLineString","coordinates":[[[-2.9662388,53.3953634],[-2.9660087,53.3952517],[-2.9657463,53.3951226],[-2.9651191,53.3948235]]]}},
{"type":"Feature","properties":{"highway":"cycle_lane_on_street","name":"Catharine Street","category":"Cycle lane on street"},"geometry":{"type":"MultiLineString","coordinates":[[[-2.9678741,53.3961974],[-2.9678546,53.3961568],[-2.9676614,53.3960554]]]}},
{"type":"Feature","properties":{"highway":"cycle_lane_on_street","name":"Catharine Street","category":"Cycle lane on street"},"geometry":{"type":"MultiLineString","coordinates":[[[-2.9686721,53.3982146],[-2.9685811,53.3979328],[-2.9685518,53.3978592],[-2.9683583,53.3973878],[-2.9682463,53.397115]]]}}
]
}
