{
"type": "FeatureCollection",
"name": "LIVER_121_cycling",
"crs": { "type": "name", "properties": { "name": "urn:ogc:def:crs:OGC:1.3:CRS84" } },
"features": [
{"type":"Feature","properties":{"highway":"cycleway","name":null,"category":"Dedicated cycleway"},"geometry":{"type":"MultiLineString","coordinates":[[[-2.9838832,53.4128814],[-2.9838922,53.4129352],[-2.983941,53.4131734],[-2.983982,53.4132061],[-2.9840149,53.4133495],[-2.9839945,53.4133767],[-2.984003,53.4134134],[-2.9843332,53.4135036]]]}},
{"type":"Feature","properties":{"highway":"cycleway","name":null,"category":"Dedicated cycleway"},"geometry":{"type":"MultiLineString","coordinates":[[[-2.9715224,53.4115763],[-2.9715398,53.4116414],[-2.9715568,53.4117048],[-2.971735,53.4116895],[-2.9717448,53.4117589],[-2.9717538,53.4118221]]]}},
{"type":"Feature","properties":{"highway":"cycleway","name":null,"category":"Dedicated cycleway"},"geometry":{"type":"MultiLineString","coordinates":[[[-2.9845438,53.4137416],[-2.9844712,53.4138033],[-2.9844171,53.413882],[-2.9841771,53.4142311],[-2.9841532,53.4143597]]]}},
{"type":"Feature","properties":{"highway":"cycleway","name":null,"category":"Dedicated cycleway"},"geometry":{"type":"MultiLineString","coordinates":[[[-2.9826828,53.4135673],[-2.9825882,53.413611],[-2.9824995,53.4136477],[-2.9823858,53.4136434],[-2.9823123,53.4136416],[-2.9822506,53.4136286],[-2.9821953,53.4136105],[-2.9820105,53.4133822],[-2.9819952,53.4133366],[-2.9818695,53.4133273],[-2.9817291,53.4133179]]]}},
{"type":"Feature","properties":{"highway":"path","name":null,"category":"Shared path"},"geometry":{"type":"MultiLineString","coordinates":[[[-2.9783088,53.4198304],[-2.978355,53.4198278],[-2.9801158,53.4197294]]]}},
{"type":"Feature","properties":{"highway":"cycleway","name":null,"category":"Dedicated cycleway"},"geometry":{"type":"MultiLineString","coordinates":[[[-2.9826828,53.4135673],[-2.982736,53.4136103],[-2.9829532,53.4136279],[-2.9838008,53.4135863],[-2.9843391,53.4135152],[-2.9845921,53.4134792],[-2.9851634,53.4133913],[-2.98607,53.4132474],[-2.9866466,53.4131594],[-2.9875049,53.4130284],[-2.9886674,53.4128512],[-2.9887489,53.4128204]]]}},
{"type":"Feature","properties":{"highway":"cycleway","name":null,"category":"Dedicated cycleway"},"geometry":{"type":"MultiLineString","coordinates":[[[-2.9818928,53.4162385],[-2.9819155,53.4161493],[-2.9819467,53.416064]]]}},
{"type":"Feature","properties":{"highway":"cycleway","name":null,"category":"Dedicated cycleway"},"geometry":{"type":"MultiLineString","coordinates":[[[-2.9798422,53.416666],[-2.9797314,53.4167187],[-2.9795705,53.4167634],[-2.9792218,53.416853],[-2.9790414,53.4169099],[-2.9789482,53.4169393],[-2.9786478,53.4170544],[-2.9785191,53.4170832],[-2.978421,53.4170521],[-2.9783635,53.417032],[-2.9782562,53.4171471],[-2.9781865,53.4171298],[-2.9780953,53.4171087],[-2.9779665,53.4171727],[-2.9774668,53.417274]]]}},
{"type":"Feature","properties":{"highway":"cycleway","name":"Monument Place","category":"Dedicated cycleway"},"geometry":{"type":"MultiLineString","coordinates":[[[-2.9718852,53.4094732],[-2.9718716,53.4093945],[-2.9718516,53.4091043],[-2.971847,53.4090577],[-2.9718413,53.4089559]]]}},
{"type":"Feature","properties":{"highway":"cycleway","name":null,"category":"Dedicated cycleway"},"geometry":{"type":"MultiLineString","coordinates":[[[-2.9781626,53.4198386],[-2.9781188,53.4198408],[-2.9781394,53.4199559],[-2.9780143,53.4199603]]]}},
{"type":"Feature","properties":{"highway":"cycleway","name":null,"category":"Dedicated cycleway"},"geometry":{"type":"MultiLineString","coordinates":[[[-2.9732659,53.4117157],[-2.9732879,53.4117426],[-2.9734244,53.411898],[-2.9734649,53.4119173],[-2.9735084,53.4119285],[-2.9735979,53.4119306],[-2.9737278,53.4119263]]]}},
{"type":"Feature","properties":{"highway":"path","name":null,"category":"Shared path"},"geometry":{"type":"MultiLineString","coordinates":[[[-2.9821283,53.4102441],[-2.9824164,53.4102402],[-2.982539,53.4101783],[-2.9826091,53.4101104],[-2.9826425,53.4100149]]]}},
{"type":"Feature","properties":{"highway":"cycleway","name":"Brow Side","category":"Dedicated cycleway"},"geometry":{"type":"MultiLineString","coordinates":[[[-2.9708238,53.4180997],[-2.9709373,53.4181651],[-2.9710205,53.4182804],[-2.9711268,53.4182488]]]}},
{"type":"Feature","properties":{"highway":"cycleway","name":null,"category":"Dedicated cycleway"},"geometry":{"type":"MultiLineString","coordinates":[[[-2.9818392,53.4164253],[-2.9810286,53.4164773],[-2.9809721,53.416481],[-2.9807372,53.4165154],[-2.9803593,53.4165956],[-2.9799292,53.4166865],[-2.9797314,53.4167187]]]}},
{"type":"Feature","properties":{"highway":"cycleway","name":null,"category":"Dedicated cycleway"},"geometry":{"type":"MultiLineString","coordinates":[[[-2.9818392,53.4164253],[-2.9825126,53.4163773]]]}},
{"type":"Feature","properties":{"highway":"cycleway","name":null,"category":"Dedicated cycleway"},"geometry":{"type":"MultiLineString","coordinates":[[[-2.9826187,53.4163697],[-2.9826321,53.4163688]]]}},
{"type":"Feature","properties":{"highway":"cycleway","name":null,"category":"Dedicated cycleway"},"geometry":{"type":"MultiLineString","coordinates":[[[-2.9825126,53.4163773],[-2.9826187,53.4163697]]]}},
{"type":"Feature","properties":{"highway":"cycleway","name":null,"category":"Dedicated cycleway"},"geometry":{"type":"MultiLineString","coordinates":[[[-2.9826321,53.4163688],[-2.9827686,53.4163596],[-2.9832147,53.4163295],[-2.9834222,53.4163049],[-2.9835541,53.4162729],[-2.9836407,53.4162107],[-2.9836668,53.4161444],[-2.9836833,53.4160592],[-2.9836957,53.4159871],[-2.983643,53.4159867]]]}},
{"type":"Feature","properties":{"highway":"cycleway","name":null,"category":"Dedicated cycleway"},"geometry":{"type":"MultiLineString","coordinates":[[[-2.9836957,53.4159871],[-2.9837876,53.4159854]]]}},
{"type":"Feature","properties":{"highway":"cycleway","name":null,"category":"Dedicated cycleway"},"geometry":{"type":"MultiLineString","coordinates":[[[-2.9819467,53.416064],[-2.9820714,53.416066],[-2.9821896,53.4160679],[-2.9821916,53.4160242],[-2.9823228,53.4160263],[-2.9824191,53.4160278]]]}},
{"type":"Feature","properties":{"highway":"cycleway","name":null,"category":"Dedicated cycleway"},"geometry":{"type":"MultiLineString","coordinates":[[[-2.9824191,53.4160278],[-2.9826214,53.41604]]]}},
{"type":"Feature","properties":{"highway":"cycleway","name":null,"category":"Dedicated cycleway"},"geometry":{"type":"MultiLineString","coordinates":[[[-2.9829136,53.4144907],[-2.9828496,53.4144534],[-2.9826724,53.4143424],[-2.9826791,53.4143187]]]}},
{"type":"Feature","properties":{"highway":"cycleway","name":null,"category":"Dedicated cycleway"},"geometry":{"type":"MultiLineString","coordinates":[[[-2.9826791,53.4143187],[-2.9826188,53.4142807]]]}},
{"type":"Feature","properties":{"highway":"cycleway","name":null,"category":"Dedicated cycleway"},"geometry":{"type":"MultiLineString","coordinates":[[[-2.9826188,53.4142807],[-2.9825523,53.414236],[-2.9825376,53.414045],[-2.9823697,53.4140482]]]}},
{"type":"Feature","properties":{"highway":"cycleway","name":null,"category":"Dedicated cycleway"},"geometry":{"type":"MultiLineString","coordinates":[[[-2.9823697,53.4140482],[-2.9822832,53.4140466],[-2.9820653,53.4139727],[-2.982,53.4139497],[-2.9819146,53.4139211],[-2.9819151,53.4138485],[-2.9818033,53.4138505]]]}},
{"type":"Feature","properties":{"highway":"cycleway","name":null,"category":"Dedicated cycleway"},"geometry":{"type":"MultiLineString","coordinates":[[[-2.9825376,53.414045],[-2.9825355,53.4139603],[-2.982534,53.4137326],[-2.9824995,53.4136477]]]}},
{"type":"Feature","properties":{"highway":"cycleway","name":null,"category":"Dedicated cycleway"},"geometry":{"type":"MultiLineString","coordinates":[[[-2.978228,53.4111467],[-2.9781033,53.4111563],[-2.9780807,53.4111581],[-2.9780517,53.4111728],[-2.9780347,53.4111892]]]}},
{"type":"Feature","properties":{"highway":"cycleway","name":null,"category":"Dedicated cycleway"},"geometry":{"type":"MultiLineString","coordinates":[[[-2.9780807,53.4111581],[-2.9779414,53.4111757],[-2.9777936,53.4111982],[-2.9777224,53.411201],[-2.9776474,53.4112161],[-2.9770738,53.4113585],[-2.9770031,53.4113806],[-2.976942,53.4114064],[-2.9768899,53.4114379],[-2.9768232,53.4114863]]]}},
{"type":"Feature","properties":{"highway":"cycleway","name":null,"category":"Dedicated cycleway"},"geometry":{"type":"MultiLineString","coordinates":[[[-2.9776474,53.4112161],[-2.9776035,53.4111392],[-2.9775554,53.4110548]]]}},
{"type":"Feature","properties":{"highway":"cycleway","name":null,"category":"Dedicated cycleway"},"geometry":{"type":"MultiLineString","coordinates":[[[-2.9775765,53.4108982],[-2.9775771,53.4108336],[-2.977578,53.410756],[-2.9776206,53.4107364],[-2.9776933,53.4107029]]]}},
{"type":"Feature","properties":{"highway":"cycleway","name":null,"category":"Dedicated cycleway"},"geometry":{"type":"MultiLineString","coordinates":[[[-2.9771757,53.410876],[-2.9772282,53.4108805],[-2.9773049,53.4108854],[-2.9773023,53.41092],[-2.9772932,53.4109579],[-2.9772792,53.4109908],[-2.9772637,53.4110205],[-2.9772464,53.4110408]]]}},
{"type":"Feature","properties":{"highway":"cycleway","name":null,"category":"Dedicated cycleway"},"geometry":{"type":"MultiLineString","coordinates":[[[-2.9762905,53.4115186],[-2.9761824,53.4115421],[-2.9760629,53.4115681]]]}},
{"type":"Feature","properties":{"highway":"cycleway","name":null,"category":"Dedicated cycleway"},"geometry":{"type":"MultiLineString","coordinates":[[[-2.9768232,53.4114863],[-2.9767838,53.4115245],[-2.9767578,53.4115624],[-2.9767425,53.4115973],[-2.9767315,53.4116355],[-2.9767293,53.4116704],[-2.9767315,53.4117073],[-2.976737,53.4117399],[-2.976753,53.4117776],[-2.9768508,53.4119461],[-2.9768667,53.4119735]]]}},
{"type":"Feature","properties":{"highway":"cycleway","name":null,"category":"Dedicated cycleway"},"geometry":{"type":"MultiLineString","coordinates":[[[-2.9761271,53.4116484],[-2.9760871,53.411592],[-2.9760629,53.4115681],[-2.9760355,53.4115511],[-2.976001,53.4115369],[-2.9759614,53.4115275],[-2.9759218,53.4115209],[-2.975881,53.411519],[-2.9758374,53.4115193],[-2.9756704,53.4115331],[-2.9750224,53.4115818],[-2.9746406,53.4116104],[-2.9741424,53.411647],[-2.9740836,53.4116571],[-2.9740401,53.4116706],[-2.9740026,53.4116891],[-2.9739759,53.411708],[-2.9739425,53.411742],[-2.9739002,53.4117977],[-2.9738399,53.411886],[-2.9737995,53.4119729]]]}},
{"type":"Feature","properties":{"highway":"cycleway","name":null,"category":"Dedicated cycleway"},"geometry":{"type":"MultiLineString","coordinates":[[[-2.9777232,53.4107258],[-2.9776933,53.4107029],[-2.9776554,53.4106711],[-2.977624,53.4106358],[-2.9776075,53.4106037],[-2.9776034,53.4105735],[-2.9776053,53.4105489],[-2.9776144,53.4105252],[-2.9776297,53.4105044],[-2.9776646,53.4104794]]]}},
{"type":"Feature","properties":{"highway":"cycleway","name":null,"category":"Dedicated cycleway"},"geometry":{"type":"MultiLineString","coordinates":[[[-2.9772007,53.4107436],[-2.9772538,53.4107485],[-2.97728,53.41075],[-2.977302,53.4107428],[-2.977306,53.4107331],[-2.9773121,53.4107122],[-2.9773237,53.4106051],[-2.9773324,53.4105644],[-2.9773423,53.4105344],[-2.9773573,53.4104973],[-2.9773776,53.4104566],[-2.9773171,53.4104758],[-2.9772578,53.4104947]]]}},
{"type":"Feature","properties":{"highway":"cycleway","name":null,"category":"Dedicated cycleway"},"geometry":{"type":"MultiLineString","coordinates":[[[-2.9733229,53.4113867],[-2.9732915,53.4113259],[-2.9732586,53.4112621]]]}},
{"type":"Feature","properties":{"highway":"cycleway","name":null,"category":"Dedicated cycleway"},"geometry":{"type":"MultiLineString","coordinates":[[[-2.9686942,53.4153661],[-2.9686969,53.4154605],[-2.9687398,53.4155484],[-2.9688551,53.4156203],[-2.9689096,53.4156793],[-2.968964,53.4159154],[-2.9689662,53.4159753],[-2.9689618,53.4160272],[-2.9689394,53.4163308],[-2.9689394,53.4163747],[-2.9689551,53.4164266],[-2.9689707,53.4165038],[-2.9689662,53.4165624],[-2.968935,53.4167102],[-2.9689327,53.4167368],[-2.9689394,53.4167754],[-2.9689863,53.4172046],[-2.9690824,53.4174198]]]}},
{"type":"Feature","properties":{"highway":"path","name":null,"category":"Shared path"},"geometry":{"type":"MultiLineString","coordinates":[[[-2.9696398,53.4200097],[-2.969536,53.4198865],[-2.9695194,53.4198676],[-2.9694084,53.419735],[-2.9691156,53.4195504],[-2.9686924,53.4192925],[-2.9686055,53.4193612],[-2.9685318,53.4194366],[-2.9684486,53.4194929],[-2.9683277,53.4195459],[-2.9682352,53.4195943],[-2.9681823,53.4196731],[-2.9681761,53.4197763]]]}},
{"type":"Feature","properties":{"highway":"path","name":null,"category":"Shared path"},"geometry":{"type":"MultiLineString","coordinates":[[[-2.9694084,53.419735],[-2.9693234,53.4197654],[-2.9692081,53.4198138],[-2.9690929,53.4198318],[-2.9689077,53.4198431],[-2.9687528,53.4198521],[-2.9685507,53.4198735],[-2.9683806,53.4198195],[-2.9682495,53.4198603]]]}},
{"type":"Feature","properties":{"highway":"path","name":null,"category":"Shared path"},"geometry":{"type":"MultiLineString","coordinates":[[[-2.9694084,53.419735],[-2.9695312,53.4196675],[-2.9696143,53.419574],[-2.9696162,53.4194896],[-2.9695754,53.4193928],[-2.9694632,53.4192835],[-2.9692705,53.419207],[-2.9690551,53.4191721],[-2.9688851,53.419198],[-2.9686924,53.4192925]]]}},
{"type":"Feature","properties":{"highway":"path","name":null,"category":"Shared path"},"geometry":{"type":"MultiLineString","coordinates":[[[-2.9700461,53.4192737],[-2.9695754,53.4193928],[-2.9691156,53.4195504],[-2.9683806,53.4198195]]]}},
{"type":"Feature","properties":{"highway":"cycleway","name":null,"category":"Dedicated cycleway"},"geometry":{"type":"MultiLineString","coordinates":[[[-2.9732436,53.4111976],[-2.973254,53.4112097],[-2.9732709,53.4112225],[-2.9732799,53.4112349],[-2.9732776,53.4112452],[-2.9732706,53.4112556],[-2.9732586,53.4112621],[-2.9731047,53.4113002]]]}},
{"type":"Feature","properties":{"highway":"cycleway","name":null,"category":"Dedicated cycleway"},"geometry":{"type":"MultiLineString","coordinates":[[[-2.9781626,53.4198386],[-2.9782704,53.4198326],[-2.9782902,53.4198314],[-2.9783088,53.4198304]]]}},
{"type":"Feature","properties":{"highway":"cycleway","name":null,"category":"Dedicated cycleway"},"geometry":{"type":"MultiLineString","coordinates":[[[-2.9824775,53.4089622],[-2.9824189,53.4089373],[-2.9824301,53.4088819],[-2.9824187,53.408794],[-2.9823718,53.4087424],[-2.9823172,53.4086938],[-2.9822568,53.4086506],[-2.9821311,53.4085693],[-2.9812519,53.4081246],[-2.981105,53.4080415],[-2.9809763,53.4079959],[-2.9808247,53.4079494],[-2.9806817,53.4079154],[-2.9803169,53.4078288],[-2.9801815,53.4077866],[-2.9800903,53.4077575],[-2.9799365,53.4077016],[-2.9798379,53.4076848],[-2.9797254,53.4076928],[-2.9796597,53.4077091],[-2.9796026,53.4077355],[-2.9795157,53.4078047],[-2.979469,53.4078502],[-2.9793594,53.4079627],[-2.979295,53.408089],[-2.9791079,53.4084758],[-2.9787988,53.409115],[-2.9786496,53.4093555]]]}},
{"type":"Feature","properties":{"highway":"cycleway","name":null,"category":"Dedicated cycleway"},"geometry":{"type":"MultiLineString","coordinates":[[[-2.9792425,53.4066221],[-2.9791698,53.4065316],[-2.9790479,53.4064088],[-2.9790229,53.406388],[-2.9786713,53.4059693],[-2.9783262,53.4055511],[-2.9783275,53.4054751],[-2.9783088,53.4053776]]]}},
{"type":"Feature","properties":{"highway":"cycleway","name":null,"category":"Dedicated cycleway"},"geometry":{"type":"MultiLineString","coordinates":[[[-2.9775554,53.4110548],[-2.9775765,53.4108982]]]}},
{"type":"Feature","properties":{"highway":"cycleway","name":null,"category":"Dedicated cycleway"},"geometry":{"type":"MultiLineString","coordinates":[[[-2.9776297,53.4105044],[-2.9775568,53.4104357]]]}},
{"type":"Feature","properties":{"highway":"cycleway","name":null,"category":"Dedicated cycleway"},"geometry":{"type":"MultiLineString","coordinates":[[[-2.9771838,53.410418],[-2.977225,53.4104045],[-2.9773045,53.4103786],[-2.9773608,53.4103589]]]}},
{"type":"Feature","properties":{"highway":"cycleway","name":null,"category":"Dedicated cycleway"},"geometry":{"type":"MultiLineString","coordinates":[[[-2.9773776,53.4104566],[-2.9773368,53.4104131],[-2.9773045,53.4103786]]]}},
{"type":"Feature","properties":{"highway":"cycleway","name":null,"category":"Dedicated cycleway"},"geometry":{"type":"MultiLineString","coordinates":[[[-2.9772331,53.4104498],[-2.977225,53.4104045]]]}},
{"type":"Feature","properties":{"highway":"cycleway","name":null,"category":"Dedicated cycleway"},"geometry":{"type":"MultiLineString","coordinates":[[[-2.977578,53.410756],[-2.9775345,53.410747],[-2.9774317,53.4107408],[-2.977306,53.4107331]]]}},
{"type":"Feature","properties":{"highway":"cycleway","name":null,"category":"Dedicated cycleway"},"geometry":{"type":"MultiLineString","coordinates":[[[-2.9772331,53.4104498],[-2.9773171,53.4104758]]]}},
{"type":"Feature","properties":{"highway":"cycleway","name":null,"category":"Dedicated cycleway"},"geometry":{"type":"MultiLineString","coordinates":[[[-2.9782701,53.4111854],[-2.978228,53.4111467],[-2.9786638,53.4111205]]]}},
{"type":"Feature","properties":{"highway":"cycleway","name":null,"category":"Dedicated cycleway"},"geometry":{"type":"MultiLineString","coordinates":[[[-2.9777561,53.4111118],[-2.9777224,53.411201]]]}},
{"type":"Feature","properties":{"highway":"cycleway","name":null,"category":"Dedicated cycleway"},"geometry":{"type":"MultiLineString","coordinates":[[[-2.9766393,53.4114372],[-2.9766869,53.4114347],[-2.9767498,53.4114585],[-2.9768232,53.4114863]]]}},
{"type":"Feature","properties":{"highway":"cycleway","name":null,"category":"Dedicated cycleway"},"geometry":{"type":"MultiLineString","coordinates":[[[-2.9766393,53.4114372],[-2.9765082,53.4114626],[-2.976438,53.4114763]]]}},
{"type":"Feature","properties":{"highway":"cycleway","name":null,"category":"Dedicated cycleway"},"geometry":{"type":"MultiLineString","coordinates":[[[-2.976438,53.4114763],[-2.9762905,53.4115186]]]}},
{"type":"Feature","properties":{"highway":"cycleway","name":null,"category":"Dedicated cycleway"},"geometry":{"type":"MultiLineString","coordinates":[[[-2.9732799,53.4112349],[-2.9733617,53.4112195],[-2.9734298,53.4112067]]]}},
{"type":"Feature","properties":{"highway":"cycleway","name":null,"category":"Dedicated cycleway"},"geometry":{"type":"MultiLineString","coordinates":[[[-2.9735101,53.4112046],[-2.9734607,53.4112123],[-2.9734426,53.4112115],[-2.9734298,53.4112067],[-2.9734176,53.411187]]]}},
{"type":"Feature","properties":{"highway":"cycleway","name":null,"category":"Dedicated cycleway"},"geometry":{"type":"MultiLineString","coordinates":[[[-2.9734301,53.411364],[-2.9733229,53.4113867],[-2.9733077,53.4114061],[-2.9732392,53.4115903]]]}},
{"type":"Feature","properties":{"highway":"cycleway","name":null,"category":"Dedicated cycleway"},"geometry":{"type":"MultiLineString","coordinates":[[[-2.9740836,53.4116571],[-2.9739479,53.4116665],[-2.9736987,53.4116837],[-2.9735885,53.4116914]]]}},
{"type":"Feature","properties":{"highway":"cycleway","name":null,"category":"Dedicated cycleway"},"geometry":{"type":"MultiLineString","coordinates":[[[-2.9732392,53.4115903],[-2.9732526,53.411653],[-2.9732659,53.4117157]]]}},
{"type":"Feature","properties":{"highway":"cycleway","name":null,"category":"Dedicated cycleway"},"geometry":{"type":"MultiLineString","coordinates":[[[-2.9735885,53.4116914],[-2.9735488,53.4116895],[-2.9732659,53.4117157],[-2.973217,53.4117203]]]}},
{"type":"Feature","properties":{"highway":"cycleway","name":null,"category":"Dedicated cycleway"},"geometry":{"type":"MultiLineString","coordinates":[[[-2.9768508,53.4119461],[-2.9767973,53.4119978]]]}},
{"type":"Feature","properties":{"highway":"cycleway","name":null,"category":"Dedicated cycleway"},"geometry":{"type":"MultiLineString","coordinates":[[[-2.9717538,53.4118221],[-2.9716588,53.4118271]]]}},
{"type":"Feature","properties":{"highway":"cycleway","name":null,"category":"Dedicated cycleway"},"geometry":{"type":"MultiLineString","coordinates":[[[-2.9716588,53.4118271],[-2.9716695,53.411893]]]}},
{"type":"Feature","properties":{"highway":"cycleway","name":null,"category":"Dedicated cycleway"},"geometry":{"type":"MultiLineString","coordinates":[[[-2.9716695,53.411893],[-2.9715881,53.4119362]]]}},
{"type":"Feature","properties":{"highway":"cycleway","name":null,"category":"Dedicated cycleway"},"geometry":{"type":"MultiLineString","coordinates":[[[-2.9716588,53.4118271],[-2.9716088,53.4118297]]]}},
{"type":"Feature","properties":{"highway":"cycleway","name":null,"category":"Dedicated cycleway"},"geometry":{"type":"MultiLineString","coordinates":[[[-2.9718308,53.411818],[-2.9717538,53.4118221]]]}},
{"type":"Feature","properties":{"highway":"cycleway","name":null,"category":"Dedicated cycleway"},"geometry":{"type":"MultiLineString","coordinates":[[[-2.9716695,53.411893],[-2.9716789,53.4119512]]]}},
{"type":"Feature","properties":{"highway":"cycleway","name":null,"category":"Dedicated cycleway"},"geometry":{"type":"MultiLineString","coordinates":[[[-2.9714976,53.4114552],[-2.9715713,53.4114162]]]}},
{"type":"Feature","properties":{"highway":"cycleway","name":null,"category":"Dedicated cycleway"},"geometry":{"type":"MultiLineString","coordinates":[[[-2.9715029,53.4115782],[-2.9715052,53.4115456],[-2.9715039,53.4114978],[-2.9714976,53.4114552]]]}},
{"type":"Feature","properties":{"highway":"cycleway","name":null,"category":"Dedicated cycleway"},"geometry":{"type":"MultiLineString","coordinates":[[[-2.9714414,53.411584],[-2.9715029,53.4115782]]]}},
{"type":"Feature","properties":{"highway":"cycleway","name":null,"category":"Dedicated cycleway"},"geometry":{"type":"MultiLineString","coordinates":[[[-2.9714976,53.4114552],[-2.9714888,53.4114219]]]}},
{"type":"Feature","properties":{"highway":"cycleway","name":null,"category":"Dedicated cycleway"},"geometry":{"type":"MultiLineString","coordinates":[[[-2.9715029,53.4115782],[-2.9715224,53.4115763]]]}},
{"type":"Feature","properties":{"highway":"cycleway","name":null,"category":"Dedicated cycleway"},"geometry":{"type":"MultiLineString","coordinates":[[[-2.9715224,53.4115763],[-2.9715818,53.4115693]]]}},
{"type":"Feature","properties":{"highway":"cycleway","name":null,"category":"Dedicated cycleway"},"geometry":{"type":"MultiLineString","coordinates":[[[-2.9692668,53.415188],[-2.9692583,53.4151705],[-2.9691935,53.4150363],[-2.9688651,53.4143565],[-2.9686898,53.4139935],[-2.968568,53.4137414],[-2.9686244,53.4137344]]]}},
{"type":"Feature","properties":{"highway":"cycleway","name":null,"category":"Dedicated cycleway"},"geometry":{"type":"MultiLineString","coordinates":[[[-2.9686942,53.4153661],[-2.968718,53.4153315],[-2.9688124,53.4152937],[-2.9689671,53.4152423],[-2.9692668,53.415188]]]}},
{"type":"Feature","properties":{"highway":"cycleway","name":null,"category":"Dedicated cycleway"},"geometry":{"type":"MultiLineString","coordinates":[[[-2.9694443,53.4153471],[-2.9693513,53.4153629],[-2.9692668,53.415188]]]}},
{"type":"Feature","properties":{"highway":"cycleway","name":null,"category":"Dedicated cycleway"},"geometry":{"type":"MultiLineString","coordinates":[[[-2.9797081,53.4076606],[-2.9796639,53.4075928],[-2.9796264,53.4075235]]]}},
{"type":"Feature","properties":{"highway":"cycleway","name":null,"category":"Dedicated cycleway"},"geometry":{"type":"MultiLineString","coordinates":[[[-2.9797254,53.4076928],[-2.9797081,53.4076606]]]}},
{"type":"Feature","properties":{"highway":"cycleway","name":null,"category":"Dedicated cycleway"},"geometry":{"type":"MultiLineString","coordinates":[[[-2.9796264,53.4075235],[-2.9796236,53.4074785],[-2.979644,53.4073837],[-2.9796255,53.4072699],[-2.9795174,53.4070725],[-2.9793484,53.406767]]]}},
{"type":"Feature","properties":{"highway":"cycleway","name":null,"category":"Dedicated cycleway"},"geometry":{"type":"MultiLineString","coordinates":[[[-2.9793484,53.406767],[-2.9793114,53.4067166],[-2.9792425,53.4066221]]]}},
{"type":"Feature","properties":{"highway":"cycleway","name":null,"category":"Dedicated cycleway"},"geometry":{"type":"MultiLineString","coordinates":[[[-2.9843332,53.4135036],[-2.9843391,53.4135152],[-2.9843695,53.4135752],[-2.9843922,53.4136338],[-2.9845128,53.4136221],[-2.9845279,53.4136694],[-2.9845438,53.4137416]]]}},
{"type":"Feature","properties":{"highway":"cycle_lane_on_street","name":"Shaw Street","category":"Cycle lane on street"},"geometry":{"type":"MultiLineString","coordinates":[[[-2.9704588,53.4172629],[-2.9700082,53.4165276],[-2.9699047,53.4163588],[-2.9694443,53.4153471]]]}},
{"type":"Feature","properties":{"highway":"cycle_lane_on_street","name":"Breck Road","category":"Cycle lane on street"},"geometry":{"type":"MultiLineString","coordinates":[[[-2.9677244,53.4194797],[-2.9672677,53.4195891],[-2.9670996,53.4196388],[-2.9666186,53.4197445],[-2.9660949,53.4198741],[-2.9658458,53.4199358],[-2.9653011,53.4200767],[-2.9650468,53.4201753],[-2.9649146,53.4202669],[-2.9648281,53.4203283],[-2.9644637,53.4206702],[-2.9642493,53.4208708],[-2.9640181,53.4210664],[-2.9639658,53.4211066],[-2.9637851,53.4212443],[-2.9635659,53.4213858],[-2.9632151,53.4215689],[-2.9629153,53.4216872],[-2.9625521,53.4218004],[-2.9621805,53.4218885],[-2.9618934,53.4219363],[-2.9614138,53.4220324],[-2.9613791,53.4220395],[-2.9610363,53.4221093]]]}},
{"type":"Feature","properties":{"highway":"cycle_lane_on_street","name":"Netherfield Road South","category":"Cycle lane on street"},"geometry":{"type":"MultiLineString","coordinates":[[[-2.9722874,53.4203519],[-2.9722184,53.420158],[-2.972184,53.4200927],[-2.9719347,53.4196726],[-2.9716659,53.4191643],[-2.9715605,53.4189682],[-2.9715192,53.4188904],[-2.971239,53.4183979],[-2.9711268,53.4182488]]]}},
{"type":"Feature","properties":{"highway":"cycle_lane_on_street","name":"Netherfield Road South","category":"Cycle lane on street"},"geometry":{"type":"MultiLineString","coordinates":[[[-2.9711268,53.4182488],[-2.9708935,53.417935],[-2.9708632,53.4178918],[-2.9705387,53.4173928],[-2.9704588,53.4172629]]]}},
{"type":"Feature","properties":{"highway":"cycle_lane_on_street","name":"Everton Road","category":"Cycle lane on street"},"geometry":{"type":"MultiLineString","coordinates":[[[-2.9677244,53.4194797],[-2.9676389,53.4192725],[-2.9674721,53.4187783],[-2.967326,53.4184305],[-2.9672001,53.4180641]]]}},
{"type":"Feature","properties":{"highway":"cycle_lane_on_street","name":"Netherfield Road North","category":"Cycle lane on street"},"geometry":{"type":"MultiLineString","coordinates":[[[-2.9735928,53.4235527],[-2.9735499,53.4234888],[-2.9733901,53.4231455],[-2.9732594,53.4228645],[-2.9731767,53.4227375],[-2.9731096,53.4226345],[-2.9730917,53.4226103],[-2.9730469,53.422538],[-2.9724935,53.4217219],[-2.97242,53.4216398],[-2.9721344,53.4211165],[-2.9720801,53.4209785],[-2.9720899,53.4208864],[-2.9722079,53.4205907],[-2.9722874,53.4203519]]]}},
{"type":"Feature","properties":{"highway":"cycle_lane_on_street","name":"Great Homer Street","category":"Cycle lane on street"},"geometry":{"type":"MultiLineString","coordinates":[[[-2.9791458,53.4272649],[-2.9791237,53.4270989],[-2.979028,53.4263786],[-2.9789946,53.4261484],[-2.9789903,53.4261184],[-2.978986,53.4260883],[-2.9789292,53.4258229],[-2.9788462,53.4252936],[-2.9787945,53.4249641],[-2.9787852,53.4249015],[-2.9787778,53.4248523],[-2.978724,53.424491],[-2.9786028,53.4236772],[-2.9784806,53.4227456],[-2.9784296,53.4223571],[-2.978393,53.4220849],[-2.9783869,53.4220413],[-2.9783608,53.4218543],[-2.9782922,53.4214326],[-2.978264,53.4212592],[-2.9782124,53.4208794],[-2.9781975,53.4206328],[-2.9782,53.4205924]]]}}
]
}
