{
"type": "FeatureCollection",
"name": "LANCA_59_cycling",
"crs": { "type": "name", "properties": { "name": "urn:ogc:def:crs:OGC:1.3:CRS84" } },
"features": [
{"type":"Feature","properties":{"highway":"cycleway","name":null,"category":"Dedicated cycleway"},"geometry":{"type":"MultiLineString","coordinates":[[[-2.7912466,54.0229662],[-2.7911548,54.0224965],[-2.791021,54.0219434],[-2.7910428,54.0218705],[-2.7910804,54.021745],[-2.7912563,54.021516],[-2.791656,54.0212601],[-2.7920064,54.0210633],[-2.7923292,54.0208786],[-2.7926985,54.0207541],[-2.7931116,54.0205141],[-2.793687,54.0201543],[-2.7942149,54.0198932]]]}},
{"type":"Feature","properties":{"highway":"bridleway","name":"Uggle Lane","category":"Bridleway"},"geometry":{"type":"MultiLineString","coordinates":[[[-2.7977943,54.0242784],[-2.7975883,54.0248839],[-2.7975079,54.0255379]]]}},
{"type":"Feature","properties":{"highway":"bridleway","name":"Uggle Lane","category":"Bridleway"},"geometry":{"type":"MultiLineString","coordinates":[[[-2.7979059,54.0242807],[-2.7981962,54.0242687]]]}},
{"type":"Feature","properties":{"highway":"bridleway","name":"Cinder Lane","category":"Bridleway"},"geometry":{"type":"MultiLineString","coordinates":[[[-2.7981962,54.0242687],[-2.798295,54.0242779],[-2.7983181,54.0243353],[-2.7984115,54.0248563],[-2.7986045,54.0260931]]]}},
{"type":"Feature","properties":{"highway":"cycleway","name":null,"category":"Dedicated cycleway"},"geometry":{"type":"MultiLineString","coordinates":[[[-2.8016227,54.0312389],[-2.8015735,54.0312088],[-2.8015737,54.031188],[-2.8016185,54.0310755],[-2.8016849,54.0308767],[-2.8016973,54.0308022],[-2.8016731,54.0307642],[-2.8016759,54.0307263],[-2.801675,54.0305687],[-2.8016604,54.0305072],[-2.8016818,54.0300364],[-2.8016673,54.0299804],[-2.8016391,54.0299262],[-2.8014599,54.0298204],[-2.8011902,54.0297238],[-2.8004133,54.0295305],[-2.8002486,54.0295041],[-2.8000984,54.0294966],[-2.7990955,54.0295078],[-2.7990088,54.0295111],[-2.7989838,54.0294997],[-2.7989724,54.0293726],[-2.7989825,54.0293353]]]}},
{"type":"Feature","properties":{"highway":"cycleway","name":null,"category":"Dedicated cycleway"},"geometry":{"type":"MultiLineString","coordinates":[[[-2.7837045,54.0317561],[-2.7838624,54.0317059],[-2.7842946,54.0315798],[-2.7850248,54.0313838],[-2.7852994,54.0313202],[-2.7854576,54.0312004],[-2.7857052,54.0309896],[-2.7859129,54.0308306],[-2.7860434,54.0306921],[-2.786134,54.0305626],[-2.7861512,54.0304559],[-2.7861876,54.0303606],[-2.7862315,54.0303053],[-2.786377,54.0301854],[-2.7865185,54.0302056],[-2.786531,54.0301915],[-2.7865799,54.0301363],[-2.7867992,54.0298602],[-2.7868914,54.0297442],[-2.7871297,54.0295321]]]}},
{"type":"Feature","properties":{"highway":"cycleway","name":null,"category":"Dedicated cycleway"},"geometry":{"type":"MultiLineString","coordinates":[[[-2.789619,54.0238506],[-2.7896827,54.0238039],[-2.7896901,54.0237653],[-2.7896656,54.023662],[-2.7896564,54.0236289]]]}},
{"type":"Feature","properties":{"highway":"track","name":null,"category":"Track"},"geometry":{"type":"MultiLineString","coordinates":[[[-2.7837417,54.0265469],[-2.7837863,54.0264838],[-2.7836975,54.0263922],[-2.7836329,54.0263241],[-2.7835919,54.0262808],[-2.7835535,54.0262131],[-2.7835583,54.026168]]]}},
{"type":"Feature","properties":{"highway":"path","name":null,"category":"Shared path"},"geometry":{"type":"MultiLineString","coordinates":[[[-2.7852994,54.0313202],[-2.7853556,54.0313304],[-2.7853962,54.0313283],[-2.7854634,54.0313416],[-2.7855259,54.0314328]]]}},
{"type":"Feature","properties":{"highway":"path","name":null,"category":"Shared path"},"geometry":{"type":"MultiLineString","coordinates":[[[-2.7859014,54.0320883],[-2.7855282,54.0318162],[-2.7852817,54.0316249]]]}},
{"type":"Feature","properties":{"highway":"path","name":null,"category":"Shared path"},"geometry":{"type":"MultiLineString","coordinates":[[[-2.7858958,54.0315924],[-2.785931,54.0315797],[-2.7859663,54.0315897],[-2.7860066,54.0316241],[-2.7860478,54.031779],[-2.7860312,54.0319015],[-2.7859014,54.0320883],[-2.785745,54.03229],[-2.7856931,54.0323102],[-2.7856295,54.0323118],[-2.7855414,54.0322873],[-2.7853928,54.0321692]]]}},
{"type":"Feature","properties":{"highway":"cycleway","name":null,"category":"Dedicated cycleway"},"geometry":{"type":"MultiLineString","coordinates":[[[-2.7906946,54.027093],[-2.7906898,54.0271185],[-2.7906685,54.0272197],[-2.7905987,54.027712]]]}},
{"type":"Feature","properties":{"highway":"cycleway","name":null,"category":"Dedicated cycleway"},"geometry":{"type":"MultiLineString","coordinates":[[[-2.803237,54.028466],[-2.803269,54.028463],[-2.8034951,54.0284532]]]}},
{"type":"Feature","properties":{"highway":"cycleway","name":null,"category":"Dedicated cycleway"},"geometry":{"type":"MultiLineString","coordinates":[[[-2.7939478,54.0227564],[-2.7939672,54.0227765],[-2.793989,54.0228513],[-2.794006,54.0228779],[-2.7940395,54.0229034],[-2.7940912,54.0229387],[-2.7941143,54.0229495],[-2.7941436,54.0229844],[-2.7941545,54.0230155],[-2.7941953,54.0233387],[-2.7942133,54.0233566],[-2.7943471,54.0233855],[-2.7944137,54.0234024],[-2.7944754,54.0234381],[-2.7945273,54.0234758],[-2.7945811,54.0235355],[-2.79461,54.0235768],[-2.7946358,54.0236274],[-2.7946663,54.0236958],[-2.7946949,54.023753],[-2.7947501,54.0238101],[-2.7947868,54.0238407],[-2.7947909,54.02391]]]}},
{"type":"Feature","properties":{"highway":"track","name":null,"category":"Track"},"geometry":{"type":"MultiLineString","coordinates":[[[-2.798295,54.0242779],[-2.798294,54.0242515],[-2.7982897,54.0242363],[-2.7982452,54.024239],[-2.7981931,54.0242442]]]}},
{"type":"Feature","properties":{"highway":"track","name":null,"category":"Track"},"geometry":{"type":"MultiLineString","coordinates":[[[-2.7981931,54.0242442],[-2.7979028,54.0242558]]]}},
{"type":"Feature","properties":{"highway":"track","name":null,"category":"Track"},"geometry":{"type":"MultiLineString","coordinates":[[[-2.7979028,54.0242558],[-2.7977882,54.0242457],[-2.7976023,54.0242169],[-2.7974928,54.024167],[-2.7973724,54.024077]]]}},
{"type":"Feature","properties":{"highway":"track","name":null,"category":"Track"},"geometry":{"type":"MultiLineString","coordinates":[[[-2.7813573,54.0252913],[-2.7814641,54.0253177],[-2.7816064,54.0253226],[-2.781644,54.0253226],[-2.7817277,54.0252833],[-2.7817946,54.025244],[-2.7818323,54.0252366]]]}},
{"type":"Feature","properties":{"highway":"track","name":null,"category":"Track"},"geometry":{"type":"MultiLineString","coordinates":[[[-2.7802965,54.0257235],[-2.7803463,54.0257405],[-2.7804077,54.0257615],[-2.780423,54.0257781]]]}},
{"type":"Feature","properties":{"highway":"path","name":null,"category":"Shared path"},"geometry":{"type":"MultiLineString","coordinates":[[[-2.7781437,54.0258172],[-2.7776742,54.0252577],[-2.7764118,54.0254191],[-2.7763507,54.025455],[-2.7763075,54.0255103],[-2.7762769,54.0256076],[-2.7760657,54.0262803],[-2.777519,54.0262653],[-2.7786897,54.0262653],[-2.7786948,54.0261951],[-2.7803492,54.0262085],[-2.7803463,54.0257405]]]}},
{"type":"Feature","properties":{"highway":"track","name":null,"category":"Track"},"geometry":{"type":"MultiLineString","coordinates":[[[-2.7814263,54.0291293],[-2.7812578,54.0291541],[-2.7810714,54.0291874],[-2.7808993,54.0292182],[-2.7807504,54.0292781],[-2.7804447,54.0298208],[-2.780273,54.0300571],[-2.7802355,54.03018],[-2.7802355,54.0303439],[-2.7801764,54.030451],[-2.7800852,54.0305109],[-2.7798657,54.0304537]]]}},
{"type":"Feature","properties":{"highway":"path","name":null,"category":"Shared path"},"geometry":{"type":"MultiLineString","coordinates":[[[-2.7858958,54.0315924],[-2.7855282,54.0318162],[-2.7852928,54.0319298],[-2.7852285,54.0319468],[-2.7851526,54.0319589],[-2.7850266,54.0319013]]]}},
{"type":"Feature","properties":{"highway":"path","name":null,"category":"Shared path"},"geometry":{"type":"MultiLineString","coordinates":[[[-2.7853928,54.0321692],[-2.7851526,54.0319589],[-2.7848124,54.031656],[-2.7849391,54.0316375],[-2.785199,54.0316384],[-2.7852817,54.0316249],[-2.7853794,54.03156],[-2.7855259,54.0314328],[-2.7856419,54.0315013],[-2.7858958,54.0315924]]]}},
{"type":"Feature","properties":{"highway":"path","name":null,"category":"Shared path"},"geometry":{"type":"MultiLineString","coordinates":[[[-2.783885,54.0314115],[-2.7839147,54.0314987],[-2.7840357,54.0314944],[-2.7840834,54.0315138],[-2.7839991,54.0315461],[-2.7838881,54.0316145],[-2.783867,54.0316581],[-2.7838624,54.0317059]]]}},
{"type":"Feature","properties":{"highway":"track","name":"Cinder Lane","category":"Track"},"geometry":{"type":"MultiLineString","coordinates":[[[-2.7986045,54.0260931],[-2.7986084,54.0261275],[-2.798673,54.0267062],[-2.7987076,54.0268942],[-2.7987253,54.0269902],[-2.7987388,54.0273812],[-2.7987349,54.027437]]]}},
{"type":"Feature","properties":{"highway":"track","name":null,"category":"Track"},"geometry":{"type":"MultiLineString","coordinates":[[[-2.7814372,54.0248295],[-2.7814903,54.0248759],[-2.781574,54.0249791],[-2.7817288,54.0251216],[-2.7818104,54.0251966],[-2.7818323,54.0252366],[-2.7818752,54.0252974],[-2.7818731,54.0253527],[-2.7817518,54.0256181],[-2.7816053,54.025956],[-2.7814317,54.0263075],[-2.7812818,54.0264262]]]}},
{"type":"Feature","properties":{"highway":"path","name":null,"category":"Shared path"},"geometry":{"type":"MultiLineString","coordinates":[[[-2.7937883,54.02752],[-2.7938097,54.0274898],[-2.7938154,54.0273351]]]}},
{"type":"Feature","properties":{"highway":"path","name":null,"category":"Shared path"},"geometry":{"type":"MultiLineString","coordinates":[[[-2.7910428,54.0218705],[-2.7909233,54.0218406],[-2.7908365,54.0218102],[-2.7907915,54.0217494],[-2.7908065,54.0216827],[-2.79089,54.0216092],[-2.7909768,54.0215327],[-2.7910235,54.0214738]]]}},
{"type":"Feature","properties":{"highway":"track","name":null,"category":"Track"},"geometry":{"type":"MultiLineString","coordinates":[[[-2.7979916,54.032666],[-2.7979963,54.0326318],[-2.7981621,54.0324426],[-2.7981878,54.0323891],[-2.7982952,54.0316669],[-2.7982929,54.0315777],[-2.7982791,54.0314362],[-2.7981925,54.0313747],[-2.7980757,54.0312952],[-2.797973,54.031217],[-2.797924,54.0311389]]]}},
{"type":"Feature","properties":{"highway":"track","name":null,"category":"Track"},"geometry":{"type":"MultiLineString","coordinates":[[[-2.7982791,54.0314362],[-2.7982891,54.0306479],[-2.7982207,54.0301327]]]}},
{"type":"Feature","properties":{"highway":"path","name":null,"category":"Shared path"},"geometry":{"type":"MultiLineString","coordinates":[[[-2.7827995,54.0319699],[-2.7829074,54.0319312],[-2.7830717,54.0318549],[-2.7830272,54.0317915],[-2.7829906,54.0317646],[-2.7829641,54.031724],[-2.7829796,54.0317198]]]}},
{"type":"Feature","properties":{"highway":"path","name":null,"category":"Shared path"},"geometry":{"type":"MultiLineString","coordinates":[[[-2.7854477,54.0325646],[-2.7852486,54.032381],[-2.7852512,54.0323432],[-2.7852486,54.0322936],[-2.7852204,54.0322479],[-2.7848818,54.0319507],[-2.7846511,54.0317425]]]}},
{"type":"Feature","properties":{"highway":"path","name":null,"category":"Shared path"},"geometry":{"type":"MultiLineString","coordinates":[[[-2.7856813,54.0325246],[-2.7855995,54.0325065],[-2.7854477,54.0325646],[-2.7854038,54.0325876],[-2.7853679,54.0326152],[-2.7853394,54.0326268]]]}},
{"type":"Feature","properties":{"highway":"path","name":null,"category":"Shared path"},"geometry":{"type":"MultiLineString","coordinates":[[[-2.7852486,54.032381],[-2.7852231,54.0323795],[-2.7849817,54.0321652]]]}},
{"type":"Feature","properties":{"highway":"path","name":null,"category":"Shared path"},"geometry":{"type":"MultiLineString","coordinates":[[[-2.7850266,54.0319013],[-2.7848818,54.0319507]]]}},
{"type":"Feature","properties":{"highway":"cycleway","name":null,"category":"Dedicated cycleway"},"geometry":{"type":"MultiLineString","coordinates":[[[-2.793919,54.0227267],[-2.7939478,54.0227564]]]}},
{"type":"Feature","properties":{"highway":"path","name":null,"category":"Shared path"},"geometry":{"type":"MultiLineString","coordinates":[[[-2.7948221,54.0275367],[-2.7945543,54.0275011]]]}},
{"type":"Feature","properties":{"highway":"bridleway","name":"Uggle Lane","category":"Bridleway"},"geometry":{"type":"MultiLineString","coordinates":[[[-2.7979059,54.0242807],[-2.7977943,54.0242784]]]}},
{"type":"Feature","properties":{"highway":"path","name":null,"category":"Shared path"},"geometry":{"type":"MultiLineString","coordinates":[[[-2.7953966,54.0285306],[-2.7955081,54.0285522],[-2.7954339,54.0286979],[-2.7953206,54.0286771]]]}},
{"type":"Feature","properties":{"highway":"path","name":null,"category":"Shared path"},"geometry":{"type":"MultiLineString","coordinates":[[[-2.7944982,54.029785],[-2.7944098,54.0297787],[-2.7943907,54.0298344]]]}},
{"type":"Feature","properties":{"highway":"cycleway","name":null,"category":"Dedicated cycleway"},"geometry":{"type":"MultiLineString","coordinates":[[[-2.7896564,54.0236289],[-2.7896471,54.0235958]]]}},
{"type":"Feature","properties":{"highway":"cycleway","name":null,"category":"Dedicated cycleway"},"geometry":{"type":"MultiLineString","coordinates":[[[-2.7895952,54.0238727],[-2.789619,54.0238506]]]}},
{"type":"Feature","properties":{"highway":"path","name":null,"category":"Shared path"},"geometry":{"type":"MultiLineString","coordinates":[[[-2.7920626,54.0306636],[-2.7920124,54.0305195],[-2.792,54.0304839],[-2.7919665,54.0303553],[-2.7919598,54.0300142],[-2.7919553,54.0296993],[-2.791955,54.0296602],[-2.7919642,54.0296167],[-2.7917498,54.0293923],[-2.7912785,54.0288859],[-2.7911043,54.0286825],[-2.7911743,54.0286444]]]}},
{"type":"Feature","properties":{"highway":"path","name":null,"category":"Shared path"},"geometry":{"type":"MultiLineString","coordinates":[[[-2.7911743,54.0286444],[-2.7912276,54.0286217]]]}},
{"type":"Feature","properties":{"highway":"cycleway","name":null,"category":"Dedicated cycleway"},"geometry":{"type":"MultiLineString","coordinates":[[[-2.7951984,54.0233494],[-2.7951515,54.0234253],[-2.795071,54.0235852],[-2.7949995,54.0236108]]]}}
]
}
