{
"type": "FeatureCollection",
"name": "WESLA_143_walking",
"crs": { "type": "name", "properties": { "name": "urn:ogc:def:crs:OGC:1.3:CRS84" } },
"features": [
{"type":"Feature","properties":{"highway":"track","name":null,"category":"Track"},"geometry":{"type":"MultiLineString","coordinates":[[[-2.8289259,53.7080689],[-2.8285289,53.7077895],[-2.832048,53.7064241],[-2.8321767,53.7064813],[-2.8323913,53.7072497],[-2.8329599,53.7084118],[-2.832907,53.7085214],[-2.8328741,53.7085897],[-2.8325736,53.7091612],[-2.8325052,53.709239],[-2.8320382,53.710039],[-2.8320578,53.7101344],[-2.833314,53.712133],[-2.8343117,53.7136252],[-2.8344809,53.713748],[-2.8345478,53.7137966],[-2.8359897,53.7160547],[-2.8363717,53.7167109],[-2.8387642,53.7161522],[-2.843914,53.7149204],[-2.8476922,53.7140529]]]}},
{"type":"Feature","properties":{"highway":"footway","name":null,"category":"Footpath (pedestrian only)"},"geometry":{"type":"MultiLineString","coordinates":[[[-2.8451353,53.7062532],[-2.8450333,53.7062832],[-2.8450171,53.7063011],[-2.8450131,53.7063299],[-2.8450131,53.7063934],[-2.845032,53.7064754],[-2.8450455,53.7065335],[-2.8450414,53.7065695],[-2.8450232,53.7066042],[-2.8450111,53.7066378],[-2.8450394,53.7066497],[-2.8450695,53.706651],[-2.8450961,53.7066521],[-2.8451507,53.7066497],[-2.8452074,53.7066425],[-2.8453467,53.7066045]]]}},
{"type":"Feature","properties":{"highway":"footway","name":null,"category":"Footpath (pedestrian only)"},"geometry":{"type":"MultiLineString","coordinates":[[[-2.8450695,53.706651],[-2.8450232,53.706712],[-2.8449888,53.7067623],[-2.8449504,53.7068043],[-2.8448937,53.7068498],[-2.844835,53.7068881],[-2.8447965,53.7069157],[-2.8447763,53.7069576],[-2.8447745,53.7070228]]]}},
{"type":"Feature","properties":{"highway":"footway","name":null,"category":"Footpath (pedestrian only)"},"geometry":{"type":"MultiLineString","coordinates":[[[-2.845032,53.7064754],[-2.8447513,53.7063967],[-2.8444939,53.7063223],[-2.8442393,53.7060896],[-2.8441831,53.7059205],[-2.8441763,53.7058229],[-2.8442888,53.7057484]]]}},
{"type":"Feature","properties":{"highway":"footway","name":null,"category":"Footpath (pedestrian only)"},"geometry":{"type":"MultiLineString","coordinates":[[[-2.8487352,53.7080051],[-2.8486608,53.7079884],[-2.8486424,53.7079627],[-2.8485584,53.707805],[-2.848535,53.7077493],[-2.8484903,53.7076429],[-2.8484706,53.7075958],[-2.8484706,53.7075798],[-2.848501,53.7071988],[-2.8485358,53.7069169],[-2.8485478,53.706691],[-2.8484004,53.706689]]]}},
{"type":"Feature","properties":{"highway":"footway","name":null,"category":"Footpath (pedestrian only)"},"geometry":{"type":"MultiLineString","coordinates":[[[-2.8489563,53.7077474],[-2.8485584,53.707805]]]}},
{"type":"Feature","properties":{"highway":"footway","name":null,"category":"Footpath (pedestrian only)"},"geometry":{"type":"MultiLineString","coordinates":[[[-2.8488268,53.7075978],[-2.8484903,53.7076429]]]}},
{"type":"Feature","properties":{"highway":"footway","name":null,"category":"Footpath (pedestrian only)"},"geometry":{"type":"MultiLineString","coordinates":[[[-2.8488566,53.7077064],[-2.848535,53.7077493]]]}},
{"type":"Feature","properties":{"highway":"footway","name":null,"category":"Footpath (pedestrian only)"},"geometry":{"type":"MultiLineString","coordinates":[[[-2.8499297,53.7062739],[-2.849945,53.7059582],[-2.8499692,53.7056915],[-2.8499692,53.7055513],[-2.8499419,53.7053877],[-2.8499024,53.7052611]]]}},
{"type":"Feature","properties":{"highway":"footway","name":null,"category":"Footpath (pedestrian only)"},"geometry":{"type":"MultiLineString","coordinates":[[[-2.8448376,53.7086721],[-2.8447443,53.7084063],[-2.8448048,53.7083395],[-2.8448304,53.7082856]]]}},
{"type":"Feature","properties":{"highway":"track","name":null,"category":"Track"},"geometry":{"type":"MultiLineString","coordinates":[[[-2.8500687,53.7081766],[-2.8501488,53.7083261],[-2.8502052,53.7083935],[-2.8502977,53.708484],[-2.8503835,53.7085705],[-2.8504694,53.7086031]]]}},
{"type":"Feature","properties":{"highway":"path","name":null,"category":"Shared path"},"geometry":{"type":"MultiLineString","coordinates":[[[-2.8460464,53.7066539],[-2.8461564,53.7066364],[-2.8464165,53.7066642],[-2.8464869,53.7066511],[-2.8465728,53.7066464],[-2.8467471,53.7066371]]]}},
{"type":"Feature","properties":{"highway":"track","name":null,"category":"Track"},"geometry":{"type":"MultiLineString","coordinates":[[[-2.839184,53.702934],[-2.8393261,53.7034431]]]}},
{"type":"Feature","properties":{"highway":"path","name":null,"category":"Shared path"},"geometry":{"type":"MultiLineString","coordinates":[[[-2.8454925,53.7058351],[-2.8453995,53.7057947],[-2.8455619,53.705649],[-2.8456511,53.7056731]]]}}
]
}
