{
"type": "FeatureCollection",
"name": "WESLA_239_walking",
"crs": { "type": "name", "properties": { "name": "urn:ogc:def:crs:OGC:1.3:CRS84" } },
"features": [
{"type":"Feature","properties":{"highway":"footway","name":null,"category":"Footpath (pedestrian only)"},"geometry":{"type":"MultiLineString","coordinates":[[[-2.841623,53.6335745],[-2.8535884,53.6356517]]]}},
{"type":"Feature","properties":{"highway":"footway","name":null,"category":"Footpath (pedestrian only)"},"geometry":{"type":"MultiLineString","coordinates":[[[-2.8415684,53.6388912],[-2.8417848,53.6389126],[-2.8421469,53.638911],[-2.8422891,53.6387536],[-2.8423079,53.6387059],[-2.8423535,53.6386773],[-2.8424259,53.6386391],[-2.8425359,53.6385278],[-2.8426136,53.6383338],[-2.8426539,53.638127],[-2.8426673,53.6378917],[-2.8428148,53.6377104],[-2.8428658,53.6376547],[-2.8429918,53.6372969],[-2.8430428,53.6371856],[-2.8432332,53.6370584],[-2.8433217,53.6369407],[-2.8433861,53.6367658],[-2.8434103,53.6366274],[-2.8435283,53.6361456],[-2.8436678,53.636004],[-2.8436812,53.6357448],[-2.8435605,53.6355126],[-2.8423642,53.6352216],[-2.8420397,53.6351357],[-2.8420423,53.6350625],[-2.8418573,53.634956],[-2.8410499,53.6347095],[-2.8406127,53.6345616],[-2.8402533,53.63456],[-2.8400012,53.634517],[-2.839446,53.6343803],[-2.8387834,53.6342053],[-2.8384509,53.6340861],[-2.8383945,53.6340527],[-2.8378098,53.6340908],[-2.8370776,53.6340161],[-2.8364258,53.6339159],[-2.8359805,53.6338682],[-2.83542,53.6339541],[-2.8348621,53.6338888],[-2.834736,53.6340813],[-2.834626,53.6344089],[-2.8345858,53.6346045],[-2.8346663,53.6348653],[-2.8346502,53.6351834],[-2.8347709,53.6352502],[-2.8347882,53.6352856],[-2.8348138,53.6353377],[-2.8346314,53.6354506],[-2.8344758,53.6357861],[-2.8343685,53.6360438],[-2.8345831,53.6360819],[-2.8347762,53.6361408],[-2.8350766,53.6362394],[-2.8356426,53.6364334],[-2.836238,53.6366576],[-2.8363453,53.6366942],[-2.8363614,53.6367642],[-2.8364862,53.6370365]]]}},
{"type":"Feature","properties":{"highway":"footway","name":null,"category":"Footpath (pedestrian only)"},"geometry":{"type":"MultiLineString","coordinates":[[[-2.8363675,53.637203],[-2.8362729,53.6371792],[-2.8360074,53.6371777],[-2.8357445,53.6369184],[-2.8356104,53.6368214],[-2.8350176,53.6367197],[-2.8342747,53.6366052],[-2.8338294,53.6365718]]]}},
{"type":"Feature","properties":{"highway":"footway","name":null,"category":"Footpath (pedestrian only)"},"geometry":{"type":"MultiLineString","coordinates":[[[-2.8338294,53.6365718],[-2.8335692,53.636567],[-2.8332739,53.6364851],[-2.8332256,53.636445],[-2.8330456,53.636238],[-2.8329718,53.636178],[-2.8328129,53.6361058],[-2.8324481,53.6360088],[-2.8319867,53.635837]]]}},
{"type":"Feature","properties":{"highway":"footway","name":null,"category":"Footpath (pedestrian only)"},"geometry":{"type":"MultiLineString","coordinates":[[[-2.8312629,53.6323174],[-2.8318902,53.632265],[-2.8326519,53.6322205],[-2.8331776,53.6322078],[-2.8337033,53.632265],[-2.8344329,53.6324304],[-2.8353449,53.6325386],[-2.8359242,53.632634],[-2.836053,53.632704],[-2.8367718,53.6328312],[-2.837717,53.6329792]]]}},
{"type":"Feature","properties":{"highway":"footway","name":null,"category":"Footpath (pedestrian only)"},"geometry":{"type":"MultiLineString","coordinates":[[[-2.8420397,53.6351357],[-2.841986,53.6352677],[-2.8417253,53.635345]]]}},
{"type":"Feature","properties":{"highway":"footway","name":null,"category":"Footpath (pedestrian only)"},"geometry":{"type":"MultiLineString","coordinates":[[[-2.8366824,53.6370373],[-2.8367369,53.6369916],[-2.836863,53.6369534],[-2.836927,53.6368312]]]}},
{"type":"Feature","properties":{"highway":"footway","name":null,"category":"Footpath (pedestrian only)"},"geometry":{"type":"MultiLineString","coordinates":[[[-2.8347882,53.6352856],[-2.8350543,53.635309]]]}},
{"type":"Feature","properties":{"highway":"footway","name":null,"category":"Footpath (pedestrian only)"},"geometry":{"type":"MultiLineString","coordinates":[[[-2.8370776,53.6340161],[-2.8371716,53.6342633]]]}},
{"type":"Feature","properties":{"highway":"track","name":"Hunter's Lane","category":"Track"},"geometry":{"type":"MultiLineString","coordinates":[[[-2.8535926,53.6592194],[-2.8542192,53.6582899],[-2.8547004,53.65766],[-2.8551902,53.6570189],[-2.8552438,53.6568409],[-2.8548361,53.6559189],[-2.8546752,53.6555629],[-2.8547825,53.6553689],[-2.8547718,53.655245],[-2.8529157,53.6541259],[-2.8526429,53.6539831],[-2.8501691,53.6526888],[-2.8484954,53.6519893],[-2.8476049,53.6516015],[-2.847283,53.6511309],[-2.84665,53.6502788],[-2.8458216,53.649249],[-2.8453143,53.6486184],[-2.8439571,53.6468892],[-2.8434475,53.646259],[-2.8430988,53.6450131],[-2.8427448,53.6440814],[-2.8428413,53.643016],[-2.842852,53.6425009],[-2.8434958,53.6413178],[-2.8440353,53.6403683]]]}},
{"type":"Feature","properties":{"highway":"footway","name":"Sandy Lane","category":"Footpath (pedestrian only)"},"geometry":{"type":"MultiLineString","coordinates":[[[-2.8340808,53.6486956],[-2.8344031,53.64822],[-2.8346177,53.6478336],[-2.8346606,53.6473058],[-2.8344621,53.6459512],[-2.834151,53.6446506],[-2.8339252,53.6437028]]]}},
{"type":"Feature","properties":{"highway":"bridleway","name":"Birch Lane","category":"Bridleway"},"geometry":{"type":"MultiLineString","coordinates":[[[-2.8427448,53.6440814],[-2.8429057,53.6440521],[-2.8449582,53.6438468],[-2.8457542,53.6438104],[-2.8470739,53.6437882],[-2.8487583,53.6437452],[-2.8505339,53.643447],[-2.8511024,53.6433288]]]}},
{"type":"Feature","properties":{"highway":"footway","name":null,"category":"Footpath (pedestrian only)"},"geometry":{"type":"MultiLineString","coordinates":[[[-2.838362,53.6438549],[-2.8387214,53.642679],[-2.8390698,53.6415253],[-2.8392468,53.6409757]]]}},
{"type":"Feature","properties":{"highway":"footway","name":"Birch Lane","category":"Footpath (pedestrian only)"},"geometry":{"type":"MultiLineString","coordinates":[[[-2.8338136,53.643668],[-2.8339252,53.6437028],[-2.8340358,53.6437374],[-2.835315,53.6437729],[-2.838362,53.6438549]]]}},
{"type":"Feature","properties":{"highway":"footway","name":null,"category":"Footpath (pedestrian only)"},"geometry":{"type":"MultiLineString","coordinates":[[[-2.8384777,53.6330984],[-2.8384562,53.6332702],[-2.8383945,53.6340527]]]}},
{"type":"Feature","properties":{"highway":"track","name":null,"category":"Track"},"geometry":{"type":"MultiLineString","coordinates":[[[-2.8396647,53.6332578],[-2.841623,53.6335745]]]}},
{"type":"Feature","properties":{"highway":"footway","name":null,"category":"Footpath (pedestrian only)"},"geometry":{"type":"MultiLineString","coordinates":[[[-2.837717,53.6329792],[-2.8384777,53.6330984],[-2.8391681,53.6332147],[-2.8396647,53.6332578]]]}},
{"type":"Feature","properties":{"highway":"track","name":null,"category":"Track"},"geometry":{"type":"MultiLineString","coordinates":[[[-2.841623,53.6335745],[-2.841692,53.6336324],[-2.8416818,53.6336806],[-2.8412746,53.6343809],[-2.8413051,53.6344231],[-2.8414222,53.6344594],[-2.8446038,53.6350099],[-2.8446111,53.63508],[-2.8439756,53.6363814],[-2.8439904,53.6364471],[-2.8440569,53.6364909],[-2.8456629,53.6367723]]]}},
{"type":"Feature","properties":{"highway":"track","name":null,"category":"Track"},"geometry":{"type":"MultiLineString","coordinates":[[[-2.8396647,53.6332578],[-2.8395082,53.6332792],[-2.839381,53.6333094],[-2.839269,53.6333607],[-2.8391468,53.6336656]]]}},
{"type":"Feature","properties":{"highway":"track","name":null,"category":"Track"},"geometry":{"type":"MultiLineString","coordinates":[[[-2.8396647,53.6332578],[-2.8403939,53.631601],[-2.8411737,53.629891]]]}},
{"type":"Feature","properties":{"highway":"footway","name":null,"category":"Footpath (pedestrian only)"},"geometry":{"type":"MultiLineString","coordinates":[[[-2.8494688,53.6404318],[-2.849379,53.6404285],[-2.8492795,53.6404129],[-2.8492732,53.6404261],[-2.8491733,53.6404138],[-2.8491547,53.6404285],[-2.8478518,53.6401811]]]}},
{"type":"Feature","properties":{"highway":"footway","name":null,"category":"Footpath (pedestrian only)"},"geometry":{"type":"MultiLineString","coordinates":[[[-2.8417087,53.6400882],[-2.8422464,53.639034],[-2.8415684,53.6388912]]]}},
{"type":"Feature","properties":{"highway":"footway","name":null,"category":"Footpath (pedestrian only)"},"geometry":{"type":"MultiLineString","coordinates":[[[-2.8365921,53.6372683],[-2.8366388,53.6372729],[-2.8369461,53.6373033],[-2.8372369,53.6372486],[-2.8374558,53.6372794],[-2.8377427,53.6373195],[-2.8380173,53.6373647],[-2.838466,53.6374278],[-2.8383945,53.6376788],[-2.8383387,53.6379919],[-2.838286,53.6381575],[-2.8384584,53.6382502],[-2.8387166,53.6383349],[-2.8387439,53.6383736],[-2.8392582,53.6385087],[-2.8396605,53.6386009],[-2.8400763,53.6386502],[-2.8405457,53.6387313],[-2.8408273,53.6386947],[-2.8410499,53.6387504],[-2.8411948,53.6388124],[-2.8412564,53.6388379],[-2.8414791,53.6388824],[-2.8415684,53.6388912]]]}},
{"type":"Feature","properties":{"highway":"footway","name":null,"category":"Footpath (pedestrian only)"},"geometry":{"type":"MultiLineString","coordinates":[[[-2.8338294,53.6365718],[-2.8339769,53.6365511],[-2.8341808,53.6364223],[-2.8343283,53.6361567],[-2.8343685,53.6360438]]]}},
{"type":"Feature","properties":{"highway":"bridleway","name":"Birch Lane","category":"Bridleway"},"geometry":{"type":"MultiLineString","coordinates":[[[-2.838362,53.6438549],[-2.8388996,53.6438497],[-2.839225,53.6438883],[-2.8402418,53.6440093],[-2.8412534,53.6441418],[-2.8427448,53.6440814]]]}}
]
}
