{
"type": "FeatureCollection",
"name": "WESLA_52_walking",
"crs": { "type": "name", "properties": { "name": "urn:ogc:def:crs:OGC:1.3:CRS84" } },
"features": [
{"type":"Feature","properties":{"highway":"footway","name":null,"category":"Footpath (pedestrian only)"},"geometry":{"type":"MultiLineString","coordinates":[[[-2.8071975,53.5423211],[-2.8072201,53.5423555],[-2.8072516,53.5424021],[-2.8074394,53.5423539]]]}},
{"type":"Feature","properties":{"highway":"footway","name":null,"category":"Footpath (pedestrian only)"},"geometry":{"type":"MultiLineString","coordinates":[[[-2.8077706,53.5428046],[-2.8079557,53.5427567],[-2.8079751,53.5427859],[-2.8079973,53.5428081]]]}},
{"type":"Feature","properties":{"highway":"footway","name":null,"category":"Footpath (pedestrian only)"},"geometry":{"type":"MultiLineString","coordinates":[[[-2.8074394,53.5423539],[-2.8077706,53.5428046]]]}},
{"type":"Feature","properties":{"highway":"path","name":"Liverpool Road","category":"Shared path"},"geometry":{"type":"MultiLineString","coordinates":[[[-2.8068909,53.5464589],[-2.8065786,53.5465768]]]}},
{"type":"Feature","properties":{"highway":"track","name":null,"category":"Track"},"geometry":{"type":"MultiLineString","coordinates":[[[-2.8224849,53.5489112],[-2.8220943,53.5489615],[-2.8214731,53.5490175],[-2.8204861,53.5490732],[-2.819676,53.5490429],[-2.8187453,53.5490047],[-2.8165433,53.5489027],[-2.8147971,53.5488581]]]}},
{"type":"Feature","properties":{"highway":"footway","name":null,"category":"Footpath (pedestrian only)"},"geometry":{"type":"MultiLineString","coordinates":[[[-2.8142202,53.5508292],[-2.8144795,53.5506284],[-2.8145935,53.5503696],[-2.8146137,53.5499781],[-2.8147971,53.5488581],[-2.814832,53.5484167],[-2.8148819,53.5468222],[-2.8148516,53.5467447],[-2.8149485,53.545729],[-2.8148884,53.5454817]]]}},
{"type":"Feature","properties":{"highway":"footway","name":null,"category":"Footpath (pedestrian only)"},"geometry":{"type":"MultiLineString","coordinates":[[[-2.804213,53.5390304],[-2.806837,53.5401046],[-2.808902,53.540948]]]}},
{"type":"Feature","properties":{"highway":"path","name":null,"category":"Shared path"},"geometry":{"type":"MultiLineString","coordinates":[[[-2.8073378,53.547957],[-2.8071267,53.5477196],[-2.8071476,53.5474047],[-2.8068539,53.547025],[-2.806697,53.5468604],[-2.8065752,53.5467246],[-2.8063866,53.5466593]]]}},
{"type":"Feature","properties":{"highway":"footway","name":null,"category":"Footpath (pedestrian only)"},"geometry":{"type":"MultiLineString","coordinates":[[[-2.8079674,53.5428324],[-2.8080466,53.5435513]]]}},
{"type":"Feature","properties":{"highway":"footway","name":null,"category":"Footpath (pedestrian only)"},"geometry":{"type":"MultiLineString","coordinates":[[[-2.8134901,53.5449345],[-2.8133796,53.5448395],[-2.8132462,53.5447247],[-2.8131442,53.544637]]]}},
{"type":"Feature","properties":{"highway":"footway","name":null,"category":"Footpath (pedestrian only)"},"geometry":{"type":"MultiLineString","coordinates":[[[-2.8136781,53.5447243],[-2.8133796,53.5448395],[-2.8130858,53.5449573]]]}},
{"type":"Feature","properties":{"highway":"footway","name":null,"category":"Footpath (pedestrian only)"},"geometry":{"type":"MultiLineString","coordinates":[[[-2.8129584,53.5448384],[-2.8132462,53.5447247],[-2.8135507,53.5446066]]]}},
{"type":"Feature","properties":{"highway":"footway","name":null,"category":"Footpath (pedestrian only)"},"geometry":{"type":"MultiLineString","coordinates":[[[-2.8127321,53.5452612],[-2.8125196,53.5451314],[-2.8124991,53.54513],[-2.8124026,53.5451694],[-2.8123067,53.5451576]]]}},
{"type":"Feature","properties":{"highway":"path","name":null,"category":"Shared path"},"geometry":{"type":"MultiLineString","coordinates":[[[-2.8130893,53.5450619],[-2.8129686,53.5451292],[-2.8127321,53.5452612],[-2.8126517,53.5453067],[-2.8122807,53.5455165]]]}},
{"type":"Feature","properties":{"highway":"path","name":null,"category":"Shared path"},"geometry":{"type":"MultiLineString","coordinates":[[[-2.8131364,53.5452304],[-2.8129686,53.5451292],[-2.8127043,53.5449622]]]}},
{"type":"Feature","properties":{"highway":"path","name":null,"category":"Shared path"},"geometry":{"type":"MultiLineString","coordinates":[[[-2.8126517,53.5453067],[-2.8128721,53.5454398]]]}},
{"type":"Feature","properties":{"highway":"footway","name":null,"category":"Footpath (pedestrian only)"},"geometry":{"type":"MultiLineString","coordinates":[[[-2.8080471,53.5437627],[-2.8079143,53.5437636],[-2.807811,53.5437799],[-2.8077043,53.5438219],[-2.8076062,53.543873],[-2.8074565,53.5439231],[-2.8071604,53.54401],[-2.8069177,53.544052],[-2.8068314,53.5440291]]]}},
{"type":"Feature","properties":{"highway":"footway","name":null,"category":"Footpath (pedestrian only)"},"geometry":{"type":"MultiLineString","coordinates":[[[-2.8078971,53.5440458],[-2.8077439,53.5439865],[-2.8076471,53.5439365],[-2.8076062,53.543873]]]}},
{"type":"Feature","properties":{"highway":"footway","name":null,"category":"Footpath (pedestrian only)"},"geometry":{"type":"MultiLineString","coordinates":[[[-2.8065876,53.5436778],[-2.8065068,53.5436541],[-2.8064273,53.5435275]]]}},
{"type":"Feature","properties":{"highway":"footway","name":null,"category":"Footpath (pedestrian only)"},"geometry":{"type":"MultiLineString","coordinates":[[[-2.8067823,53.5459986],[-2.8072169,53.5463816]]]}},
{"type":"Feature","properties":{"highway":"footway","name":null,"category":"Footpath (pedestrian only)"},"geometry":{"type":"MultiLineString","coordinates":[[[-2.805884,53.5480086],[-2.8060802,53.5479299],[-2.8063139,53.5478362]]]}},
{"type":"Feature","properties":{"highway":"footway","name":null,"category":"Footpath (pedestrian only)"},"geometry":{"type":"MultiLineString","coordinates":[[[-2.8065182,53.5483197],[-2.8064376,53.548248],[-2.8060802,53.5479299]]]}},
{"type":"Feature","properties":{"highway":"footway","name":null,"category":"Footpath (pedestrian only)"},"geometry":{"type":"MultiLineString","coordinates":[[[-2.8062771,53.5484136],[-2.8062039,53.5483471],[-2.8058604,53.5480348],[-2.805884,53.5480086]]]}},
{"type":"Feature","properties":{"highway":"footway","name":null,"category":"Footpath (pedestrian only)"},"geometry":{"type":"MultiLineString","coordinates":[[[-2.805877,53.5485694],[-2.8058354,53.5485313],[-2.8055091,53.5482322],[-2.8054367,53.5481658],[-2.8054446,53.5481489],[-2.8058257,53.5479945],[-2.805884,53.5480086]]]}},
{"type":"Feature","properties":{"highway":"footway","name":null,"category":"Footpath (pedestrian only)"},"geometry":{"type":"MultiLineString","coordinates":[[[-2.8057554,53.5485617],[-2.8058354,53.5485313]]]}},
{"type":"Feature","properties":{"highway":"footway","name":null,"category":"Footpath (pedestrian only)"},"geometry":{"type":"MultiLineString","coordinates":[[[-2.8024438,53.5489918],[-2.8025449,53.5489322],[-2.8025953,53.548917],[-2.8034239,53.548668],[-2.8034852,53.5486496],[-2.8036616,53.5487179]]]}},
{"type":"Feature","properties":{"highway":"footway","name":null,"category":"Footpath (pedestrian only)"},"geometry":{"type":"MultiLineString","coordinates":[[[-2.8037491,53.5487863],[-2.8032111,53.548964],[-2.8032102,53.5489683],[-2.8031969,53.5490305],[-2.803167,53.5490445],[-2.8030971,53.5490784]]]}},
{"type":"Feature","properties":{"highway":"path","name":null,"category":"Shared path"},"geometry":{"type":"MultiLineString","coordinates":[[[-2.8080986,53.5477259],[-2.8081916,53.5479672],[-2.8083131,53.5482782],[-2.808396,53.5483942],[-2.8085,53.5485894],[-2.8096794,53.5500314],[-2.8100616,53.5505045],[-2.8103986,53.5506611],[-2.8107957,53.5507424],[-2.8111378,53.5507404]]]}},
{"type":"Feature","properties":{"highway":"path","name":null,"category":"Shared path"},"geometry":{"type":"MultiLineString","coordinates":[[[-2.808116,53.5475172],[-2.8082404,53.5476789],[-2.8082761,53.5477254],[-2.8082842,53.5477364],[-2.8083022,53.547761],[-2.8081916,53.5479672]]]}},
{"type":"Feature","properties":{"highway":"path","name":null,"category":"Shared path"},"geometry":{"type":"MultiLineString","coordinates":[[[-2.8084503,53.5476902],[-2.8082842,53.5477364]]]}},
{"type":"Feature","properties":{"highway":"path","name":null,"category":"Shared path"},"geometry":{"type":"MultiLineString","coordinates":[[[-2.8083518,53.5476465],[-2.8082761,53.5477254]]]}},
{"type":"Feature","properties":{"highway":"path","name":null,"category":"Shared path"},"geometry":{"type":"MultiLineString","coordinates":[[[-2.8071476,53.5474047],[-2.8073427,53.5476321],[-2.8073853,53.5476762],[-2.8074392,53.547723],[-2.8076254,53.5478509],[-2.8077361,53.5479611],[-2.8075731,53.5480173],[-2.8074813,53.5480543],[-2.8074457,53.5480679],[-2.8074176,53.5480751],[-2.8073928,53.548079],[-2.8073646,53.5480799],[-2.8073308,53.5480771],[-2.8072923,53.5480702],[-2.8071953,53.548049]]]}},
{"type":"Feature","properties":{"highway":"path","name":null,"category":"Shared path"},"geometry":{"type":"MultiLineString","coordinates":[[[-2.8071143,53.5480301],[-2.807151,53.5480171],[-2.807092,53.5479678],[-2.8071267,53.5477196]]]}},
{"type":"Feature","properties":{"highway":"path","name":"Liverpool Road","category":"Shared path"},"geometry":{"type":"MultiLineString","coordinates":[[[-2.8065786,53.5465768],[-2.8064876,53.546611],[-2.8063866,53.5466593]]]}},
{"type":"Feature","properties":{"highway":"path","name":"Liverpool Road","category":"Shared path"},"geometry":{"type":"MultiLineString","coordinates":[[[-2.8070602,53.5464364],[-2.8068909,53.5464589]]]}},
{"type":"Feature","properties":{"highway":"path","name":null,"category":"Shared path"},"geometry":{"type":"MultiLineString","coordinates":[[[-2.8062039,53.5483471],[-2.8064376,53.548248],[-2.8064758,53.5482337],[-2.8065447,53.548254]]]}},
{"type":"Feature","properties":{"highway":"footway","name":null,"category":"Footpath (pedestrian only)"},"geometry":{"type":"MultiLineString","coordinates":[[[-2.8078108,53.5480367],[-2.8077519,53.5479639],[-2.8077361,53.5479611]]]}},
{"type":"Feature","properties":{"highway":"path","name":null,"category":"Shared path"},"geometry":{"type":"MultiLineString","coordinates":[[[-2.8055934,53.5466629],[-2.8056255,53.5466248],[-2.8052049,53.5460518],[-2.8050208,53.5460373]]]}},
{"type":"Feature","properties":{"highway":"path","name":null,"category":"Shared path"},"geometry":{"type":"MultiLineString","coordinates":[[[-2.802348,53.5460139],[-2.8022124,53.5458256],[-2.8022667,53.545718],[-2.8022322,53.5456674],[-2.8021869,53.5456021]]]}},
{"type":"Feature","properties":{"highway":"path","name":null,"category":"Shared path"},"geometry":{"type":"MultiLineString","coordinates":[[[-2.8013694,53.546531],[-2.8016196,53.5464708],[-2.8023302,53.5463]]]}},
{"type":"Feature","properties":{"highway":"path","name":null,"category":"Shared path"},"geometry":{"type":"MultiLineString","coordinates":[[[-2.8019026,53.5470456],[-2.8018221,53.5469017],[-2.8016612,53.5467774],[-2.8015204,53.5467105],[-2.8013694,53.546531],[-2.8013058,53.5464555],[-2.8012757,53.5464107],[-2.8011791,53.5462671],[-2.8010175,53.5460268],[-2.8009551,53.5459348],[-2.8007741,53.5459781],[-2.8006071,53.546018],[-2.8005011,53.5458571],[-2.8001067,53.5459556],[-2.7998185,53.5460276],[-2.7999017,53.5461482]]]}},
{"type":"Feature","properties":{"highway":"footway","name":null,"category":"Footpath (pedestrian only)"},"geometry":{"type":"MultiLineString","coordinates":[[[-2.8053374,53.5487311],[-2.8053563,53.5487244],[-2.8053721,53.5487135],[-2.8053806,53.5487],[-2.805381,53.5486855],[-2.805373,53.5486719],[-2.8053578,53.5486607],[-2.805337,53.5486532],[-2.8053132,53.5486504],[-2.8052892,53.5486525],[-2.8052678,53.5486593],[-2.8052517,53.5486701],[-2.8052431,53.5486821],[-2.8052412,53.5486951],[-2.8052461,53.5487078],[-2.8052574,53.548719]]]}},
{"type":"Feature","properties":{"highway":"footway","name":"Westgate Mews","category":"Footpath (pedestrian only)"},"geometry":{"type":"MultiLineString","coordinates":[[[-2.8055091,53.5482322],[-2.8050578,53.5484076]]]}},
{"type":"Feature","properties":{"highway":"footway","name":"Sandy Lane","category":"Footpath (pedestrian only)"},"geometry":{"type":"MultiLineString","coordinates":[[[-2.8054378,53.5486841],[-2.805353,53.5485979],[-2.8052527,53.5485889]]]}},
{"type":"Feature","properties":{"highway":"footway","name":null,"category":"Footpath (pedestrian only)"},"geometry":{"type":"MultiLineString","coordinates":[[[-2.8052574,53.548719],[-2.8053142,53.5487699]]]}},
{"type":"Feature","properties":{"highway":"footway","name":null,"category":"Footpath (pedestrian only)"},"geometry":{"type":"MultiLineString","coordinates":[[[-2.8054785,53.5487246],[-2.8053727,53.5487643],[-2.8053374,53.5487311]]]}},
{"type":"Feature","properties":{"highway":"footway","name":null,"category":"Footpath (pedestrian only)"},"geometry":{"type":"MultiLineString","coordinates":[[[-2.8020367,53.5474151],[-2.8020142,53.5475108],[-2.8020288,53.5475244],[-2.8022075,53.5476903],[-2.8023554,53.5478276],[-2.8024404,53.5479066],[-2.8026066,53.5480609],[-2.8027475,53.5481917],[-2.80277,53.5482126],[-2.8028858,53.54832],[-2.8030715,53.5484976],[-2.8029874,53.5485304]]]}},
{"type":"Feature","properties":{"highway":"footway","name":null,"category":"Footpath (pedestrian only)"},"geometry":{"type":"MultiLineString","coordinates":[[[-2.8027475,53.5481917],[-2.8024471,53.5483127],[-2.802385,53.5483378],[-2.8023452,53.5483538],[-2.802219,53.5484046],[-2.8019469,53.5485105]]]}},
{"type":"Feature","properties":{"highway":"footway","name":null,"category":"Footpath (pedestrian only)"},"geometry":{"type":"MultiLineString","coordinates":[[[-2.8026066,53.5480609],[-2.8022363,53.5481973],[-2.802385,53.5483378]]]}},
{"type":"Feature","properties":{"highway":"footway","name":null,"category":"Footpath (pedestrian only)"},"geometry":{"type":"MultiLineString","coordinates":[[[-2.8022363,53.5481973],[-2.8020039,53.5479767],[-2.8023554,53.5478276]]]}},
{"type":"Feature","properties":{"highway":"footway","name":null,"category":"Footpath (pedestrian only)"},"geometry":{"type":"MultiLineString","coordinates":[[[-2.8028858,53.54832],[-2.8029909,53.5482827],[-2.8031097,53.5482404],[-2.8032064,53.5483354],[-2.8033607,53.548487],[-2.8033657,53.5485014],[-2.8034239,53.548668]]]}},
{"type":"Feature","properties":{"highway":"footway","name":null,"category":"Footpath (pedestrian only)"},"geometry":{"type":"MultiLineString","coordinates":[[[-2.8029909,53.5482827],[-2.802867,53.5481714],[-2.80277,53.5482126]]]}},
{"type":"Feature","properties":{"highway":"footway","name":null,"category":"Footpath (pedestrian only)"},"geometry":{"type":"MultiLineString","coordinates":[[[-2.802867,53.5481714],[-2.8030682,53.5480987],[-2.8031532,53.5481085],[-2.8033296,53.5482897],[-2.8032064,53.5483354]]]}},
{"type":"Feature","properties":{"highway":"footway","name":null,"category":"Footpath (pedestrian only)"},"geometry":{"type":"MultiLineString","coordinates":[[[-2.8030682,53.5480987],[-2.8029816,53.5480185],[-2.8027408,53.5477954],[-2.8025039,53.5475761],[-2.8022075,53.5476903]]]}},
{"type":"Feature","properties":{"highway":"footway","name":null,"category":"Footpath (pedestrian only)"},"geometry":{"type":"MultiLineString","coordinates":[[[-2.8025039,53.5475761],[-2.8025276,53.5474509]]]}},
{"type":"Feature","properties":{"highway":"footway","name":null,"category":"Footpath (pedestrian only)"},"geometry":{"type":"MultiLineString","coordinates":[[[-2.8027408,53.5477954],[-2.8024404,53.5479066]]]}},
{"type":"Feature","properties":{"highway":"footway","name":null,"category":"Footpath (pedestrian only)"},"geometry":{"type":"MultiLineString","coordinates":[[[-2.8031532,53.5481085],[-2.8036314,53.5479295],[-2.8039849,53.5482649],[-2.8033657,53.5485014]]]}},
{"type":"Feature","properties":{"highway":"footway","name":null,"category":"Footpath (pedestrian only)"},"geometry":{"type":"MultiLineString","coordinates":[[[-2.8023452,53.5483538],[-2.8024302,53.5484333],[-2.8023115,53.5484811],[-2.802219,53.5484046]]]}},
{"type":"Feature","properties":{"highway":"footway","name":null,"category":"Footpath (pedestrian only)"},"geometry":{"type":"MultiLineString","coordinates":[[[-2.8024471,53.5483127],[-2.8025909,53.548442],[-2.8028858,53.54832]]]}},
{"type":"Feature","properties":{"highway":"footway","name":null,"category":"Footpath (pedestrian only)"},"geometry":{"type":"MultiLineString","coordinates":[[[-2.8025909,53.548442],[-2.8023663,53.548531],[-2.8023115,53.5484811]]]}},
{"type":"Feature","properties":{"highway":"footway","name":null,"category":"Footpath (pedestrian only)"},"geometry":{"type":"MultiLineString","coordinates":[[[-2.8022363,53.5481973],[-2.8018133,53.548353]]]}},
{"type":"Feature","properties":{"highway":"footway","name":null,"category":"Footpath (pedestrian only)"},"geometry":{"type":"MultiLineString","coordinates":[[[-2.8029816,53.5480185],[-2.8031375,53.54796]]]}}
]
}
