{
"type": "FeatureCollection",
"name": "SALFO_39_walking",
"crs": { "type": "name", "properties": { "name": "urn:ogc:def:crs:OGC:1.3:CRS84" } },
"features": [
{"type":"Feature","properties":{"highway":"footway","name":null,"category":"Footpath (pedestrian only)"},"geometry":{"type":"MultiLineString","coordinates":[[[-2.2557445,53.5142982],[-2.2545844,53.5140819]]]}},
{"type":"Feature","properties":{"highway":"path","name":null,"category":"Shared path"},"geometry":{"type":"MultiLineString","coordinates":[[[-2.2452103,53.5112021],[-2.2451311,53.5112076],[-2.2450734,53.5112133]]]}},
{"type":"Feature","properties":{"highway":"footway","name":null,"category":"Footpath (pedestrian only)"},"geometry":{"type":"MultiLineString","coordinates":[[[-2.2585365,53.5117909],[-2.2585054,53.512246],[-2.2586092,53.5122552],[-2.2586819,53.5123015],[-2.2586871,53.5123849],[-2.2584639,53.5127243],[-2.2582823,53.5128755],[-2.2582355,53.5130144],[-2.2582615,53.5134465],[-2.2581888,53.5135359],[-2.2581214,53.5136224],[-2.2581257,53.5137556],[-2.2581171,53.5140746],[-2.2581318,53.5142241],[-2.2580954,53.514508],[-2.2580596,53.5146892],[-2.2582335,53.5148516],[-2.2584141,53.5150843]]]}},
{"type":"Feature","properties":{"highway":"footway","name":null,"category":"Footpath (pedestrian only)"},"geometry":{"type":"MultiLineString","coordinates":[[[-2.2585054,53.512246],[-2.2583601,53.5122552],[-2.2582044,53.512246],[-2.2580487,53.5122367],[-2.2578671,53.5122768],[-2.2577425,53.5123663],[-2.2575816,53.5124435],[-2.2574,53.5125577],[-2.2572858,53.512678],[-2.2571768,53.5127737],[-2.2569848,53.5128694],[-2.2567461,53.5131039],[-2.2566527,53.5132428],[-2.2564191,53.5134094],[-2.2562219,53.5135452],[-2.2560766,53.5137149],[-2.2560561,53.5137922],[-2.2560299,53.5138908],[-2.2558742,53.5141192],[-2.2557445,53.5142982]]]}},
{"type":"Feature","properties":{"highway":"footway","name":null,"category":"Footpath (pedestrian only)"},"geometry":{"type":"MultiLineString","coordinates":[[[-2.2584639,53.5127243],[-2.2607008,53.5127484]]]}},
{"type":"Feature","properties":{"highway":"footway","name":null,"category":"Footpath (pedestrian only)"},"geometry":{"type":"MultiLineString","coordinates":[[[-2.2581257,53.5137556],[-2.2577991,53.513907],[-2.2566806,53.5139084],[-2.2563995,53.5139425],[-2.2563257,53.5139612],[-2.2558742,53.5141192]]]}},
{"type":"Feature","properties":{"highway":"footway","name":"Church Lane","category":"Footpath (pedestrian only)"},"geometry":{"type":"MultiLineString","coordinates":[[[-2.2742254,53.516369],[-2.2741191,53.5163556],[-2.2740738,53.5163498],[-2.2737809,53.5162136],[-2.2735788,53.5161081],[-2.2731426,53.5158564],[-2.2725954,53.5155821],[-2.2723961,53.5154816],[-2.2722414,53.5154035],[-2.2716942,53.5152185],[-2.2709646,53.5149633],[-2.270698,53.5148826]]]}},
{"type":"Feature","properties":{"highway":"footway","name":"Great Clowes Street","category":"Footpath (pedestrian only)"},"geometry":{"type":"MultiLineString","coordinates":[[[-2.2630336,53.5080099],[-2.2629539,53.5080046],[-2.2629469,53.5080267],[-2.2627968,53.5084986]]]}},
{"type":"Feature","properties":{"highway":"path","name":null,"category":"Shared path"},"geometry":{"type":"MultiLineString","coordinates":[[[-2.24735,53.5085304],[-2.2472372,53.5085189],[-2.2471275,53.5084744],[-2.2469124,53.5082885],[-2.2468737,53.5082707],[-2.2467932,53.5082335],[-2.246637,53.5081614],[-2.2464877,53.5080435]]]}},
{"type":"Feature","properties":{"highway":"path","name":null,"category":"Shared path"},"geometry":{"type":"MultiLineString","coordinates":[[[-2.2458341,53.5081007],[-2.2459677,53.5083436],[-2.2460681,53.5083849],[-2.2462188,53.5085471],[-2.2462715,53.5086038],[-2.2466962,53.5088809]]]}},
{"type":"Feature","properties":{"highway":"track","name":null,"category":"Track"},"geometry":{"type":"MultiLineString","coordinates":[[[-2.2681015,53.5115687],[-2.2682749,53.51157],[-2.2692916,53.5115777],[-2.2702276,53.511417],[-2.2711789,53.5114282],[-2.2724478,53.5113284],[-2.2729306,53.5113444],[-2.2731172,53.5113464],[-2.2738659,53.5111589],[-2.2741585,53.5111206],[-2.2747457,53.5110377]]]}},
{"type":"Feature","properties":{"highway":"path","name":null,"category":"Shared path"},"geometry":{"type":"MultiLineString","coordinates":[[[-2.2748633,53.5088197],[-2.2724804,53.5103198],[-2.2722478,53.5103274],[-2.2716368,53.5103728],[-2.2701144,53.510414],[-2.2690287,53.510313],[-2.2687024,53.510203],[-2.2681701,53.5101237],[-2.2667847,53.5100027],[-2.2657416,53.509649],[-2.2646411,53.5089448],[-2.262969,53.5092705]]]}},
{"type":"Feature","properties":{"highway":"path","name":null,"category":"Shared path"},"geometry":{"type":"MultiLineString","coordinates":[[[-2.2681701,53.5101237],[-2.2677143,53.5105269],[-2.2676064,53.5107372],[-2.2673803,53.511178],[-2.2674311,53.5115885]]]}},
{"type":"Feature","properties":{"highway":"path","name":null,"category":"Shared path"},"geometry":{"type":"MultiLineString","coordinates":[[[-2.2434468,53.514652],[-2.2434572,53.5146746],[-2.2435982,53.5149802]]]}},
{"type":"Feature","properties":{"highway":"path","name":"Cliff Crescent","category":"Shared path"},"geometry":{"type":"MultiLineString","coordinates":[[[-2.2619184,53.5079101],[-2.261767,53.5079435]]]}},
{"type":"Feature","properties":{"highway":"footway","name":null,"category":"Footpath (pedestrian only)"},"geometry":{"type":"MultiLineString","coordinates":[[[-2.2715569,53.5134998],[-2.2715747,53.5137434]]]}},
{"type":"Feature","properties":{"highway":"path","name":null,"category":"Shared path"},"geometry":{"type":"MultiLineString","coordinates":[[[-2.2426668,53.5132107],[-2.242659,53.5132418],[-2.2422291,53.5133663]]]}},
{"type":"Feature","properties":{"highway":"path","name":null,"category":"Shared path"},"geometry":{"type":"MultiLineString","coordinates":[[[-2.2468949,53.5167707],[-2.2470498,53.5160339],[-2.2471101,53.5159927],[-2.2473369,53.5159232],[-2.2475807,53.5158488],[-2.247733,53.5157439],[-2.2478453,53.515705]]]}},
{"type":"Feature","properties":{"highway":"footway","name":null,"category":"Footpath (pedestrian only)"},"geometry":{"type":"MultiLineString","coordinates":[[[-2.2737489,53.5078195],[-2.2737139,53.5080085],[-2.2735926,53.5082442],[-2.2734884,53.5083963],[-2.2733529,53.5085177],[-2.273165,53.5086525],[-2.2730921,53.5086865],[-2.2720852,53.509016],[-2.271923,53.5090534],[-2.2717671,53.5090648],[-2.269274,53.5091485],[-2.269176,53.5091334],[-2.2691178,53.5091055],[-2.2691021,53.5090603],[-2.2691433,53.5087104],[-2.2691306,53.5085866],[-2.2690884,53.5084677],[-2.2689683,53.508336],[-2.2688112,53.5082187],[-2.2686241,53.5081275],[-2.2681883,53.5079812],[-2.2680056,53.5078947],[-2.267842,53.5078081],[-2.2687088,53.5073807],[-2.2693221,53.5068457],[-2.2699612,53.5064945]]]}},
{"type":"Feature","properties":{"highway":"footway","name":null,"category":"Footpath (pedestrian only)"},"geometry":{"type":"MultiLineString","coordinates":[[[-2.2685415,53.5083263],[-2.2684867,53.508349],[-2.2679229,53.5081835],[-2.2676937,53.5081213],[-2.2675214,53.5080964],[-2.2673561,53.5081053],[-2.267214,53.5081523],[-2.2671213,53.5082202],[-2.2670791,53.5082834],[-2.2670619,53.5083499],[-2.267086,53.5084205],[-2.267129,53.5084859],[-2.2672287,53.5085381],[-2.2673783,53.5085892],[-2.2675141,53.5086117],[-2.2676293,53.5086137],[-2.2677738,53.5085964],[-2.2678666,53.5085565],[-2.2678993,53.5085227],[-2.2679027,53.5084818],[-2.2678666,53.5084368],[-2.2678047,53.5084256],[-2.2677789,53.5084389]]]}},
{"type":"Feature","properties":{"highway":"footway","name":null,"category":"Footpath (pedestrian only)"},"geometry":{"type":"MultiLineString","coordinates":[[[-2.2558191,53.518067],[-2.2559609,53.5177355]]]}},
{"type":"Feature","properties":{"highway":"path","name":null,"category":"Shared path"},"geometry":{"type":"MultiLineString","coordinates":[[[-2.2663232,53.5117689],[-2.266252,53.5116278],[-2.2660104,53.5109137],[-2.2654137,53.5103384],[-2.2648542,53.5100006],[-2.2639361,53.5100505],[-2.2631595,53.5095686]]]}},
{"type":"Feature","properties":{"highway":"path","name":null,"category":"Shared path"},"geometry":{"type":"MultiLineString","coordinates":[[[-2.262828,53.5097243],[-2.2628818,53.5097074],[-2.2631595,53.5095686]]]}},
{"type":"Feature","properties":{"highway":"footway","name":null,"category":"Footpath (pedestrian only)"},"geometry":{"type":"MultiLineString","coordinates":[[[-2.2728927,53.5123021],[-2.2721932,53.5122912],[-2.2714763,53.512331],[-2.2709174,53.5123563],[-2.2703038,53.5124466],[-2.2689915,53.5124105],[-2.2689915,53.5120673],[-2.2692523,53.5116418],[-2.2692916,53.5115777]]]}},
{"type":"Feature","properties":{"highway":"footway","name":null,"category":"Footpath (pedestrian only)"},"geometry":{"type":"MultiLineString","coordinates":[[[-2.2692523,53.5116418],[-2.2699454,53.5116193],[-2.2702276,53.511417]]]}},
{"type":"Feature","properties":{"highway":"footway","name":null,"category":"Footpath (pedestrian only)"},"geometry":{"type":"MultiLineString","coordinates":[[[-2.2631595,53.5095686],[-2.262969,53.5092705],[-2.2628571,53.5090954],[-2.2626091,53.5090883]]]}},
{"type":"Feature","properties":{"highway":"footway","name":null,"category":"Footpath (pedestrian only)"},"geometry":{"type":"MultiLineString","coordinates":[[[-2.2599817,53.5050122],[-2.2606059,53.504875]]]}},
{"type":"Feature","properties":{"highway":"footway","name":null,"category":"Footpath (pedestrian only)"},"geometry":{"type":"MultiLineString","coordinates":[[[-2.2605291,53.5052132],[-2.2604124,53.5052096],[-2.260254,53.5051534],[-2.2600924,53.5051813]]]}},
{"type":"Feature","properties":{"highway":"footway","name":null,"category":"Footpath (pedestrian only)"},"geometry":{"type":"MultiLineString","coordinates":[[[-2.2607171,53.5054916],[-2.2602598,53.5054715]]]}},
{"type":"Feature","properties":{"highway":"footway","name":null,"category":"Footpath (pedestrian only)"},"geometry":{"type":"MultiLineString","coordinates":[[[-2.2677789,53.5084389],[-2.2677617,53.5083806],[-2.2677738,53.5083397],[-2.2678047,53.5082916]]]}},
{"type":"Feature","properties":{"highway":"path","name":null,"category":"Shared path"},"geometry":{"type":"MultiLineString","coordinates":[[[-2.2479083,53.5100141],[-2.2482372,53.5101544],[-2.2482545,53.5101771],[-2.2485557,53.5103121],[-2.2485608,53.5103403],[-2.2485458,53.5104348],[-2.2485309,53.5104861],[-2.2485277,53.5105025],[-2.2485008,53.5106408],[-2.2485079,53.510699],[-2.2485193,53.5107181],[-2.2485479,53.5107663],[-2.2486291,53.5108572],[-2.2487678,53.5108966]]]}},
{"type":"Feature","properties":{"highway":"path","name":null,"category":"Shared path"},"geometry":{"type":"MultiLineString","coordinates":[[[-2.2461811,53.5100364],[-2.2463266,53.510047],[-2.2463846,53.5100856],[-2.2464711,53.5102533],[-2.2465157,53.5103064],[-2.2465743,53.510376],[-2.2465913,53.5103962],[-2.2463976,53.5107789]]]}},
{"type":"Feature","properties":{"highway":"path","name":null,"category":"Shared path"},"geometry":{"type":"MultiLineString","coordinates":[[[-2.2451311,53.5112076],[-2.2449608,53.5108998]]]}},
{"type":"Feature","properties":{"highway":"path","name":null,"category":"Shared path"},"geometry":{"type":"MultiLineString","coordinates":[[[-2.2554203,53.5062205],[-2.2553944,53.5061636],[-2.2553273,53.5061174],[-2.2552293,53.5060896],[-2.2551516,53.5060706],[-2.2550984,53.506037],[-2.2550348,53.5059478]]]}},
{"type":"Feature","properties":{"highway":"footway","name":null,"category":"Footpath (pedestrian only)"},"geometry":{"type":"MultiLineString","coordinates":[[[-2.2611801,53.506948],[-2.261046,53.5069766],[-2.2609896,53.5069891]]]}},
{"type":"Feature","properties":{"highway":"footway","name":null,"category":"Footpath (pedestrian only)"},"geometry":{"type":"MultiLineString","coordinates":[[[-2.2609049,53.5068024],[-2.260955,53.5069246],[-2.2609896,53.5069891],[-2.2610253,53.5070575],[-2.2610438,53.5071226]]]}},
{"type":"Feature","properties":{"highway":"path","name":null,"category":"Shared path"},"geometry":{"type":"MultiLineString","coordinates":[[[-2.2609602,53.5071031],[-2.2608734,53.5070882]]]}},
{"type":"Feature","properties":{"highway":"path","name":null,"category":"Shared path"},"geometry":{"type":"MultiLineString","coordinates":[[[-2.260955,53.5069246],[-2.2609213,53.5069307],[-2.2608764,53.5068289],[-2.2607666,53.5068494]]]}},
{"type":"Feature","properties":{"highway":"footway","name":null,"category":"Footpath (pedestrian only)"},"geometry":{"type":"MultiLineString","coordinates":[[[-2.2610224,53.5067786],[-2.2609049,53.5068024]]]}},
{"type":"Feature","properties":{"highway":"path","name":null,"category":"Shared path"},"geometry":{"type":"MultiLineString","coordinates":[[[-2.2608058,53.5063914],[-2.2606786,53.5064156],[-2.2605843,53.5064347]]]}},
{"type":"Feature","properties":{"highway":"footway","name":null,"category":"Footpath (pedestrian only)"},"geometry":{"type":"MultiLineString","coordinates":[[[-2.26156,53.5075712],[-2.2614102,53.507602]]]}},
{"type":"Feature","properties":{"highway":"path","name":null,"category":"Shared path"},"geometry":{"type":"MultiLineString","coordinates":[[[-2.2476066,53.5111506],[-2.2477537,53.5110379],[-2.2478882,53.5109721],[-2.247908,53.5106811],[-2.2478811,53.5106674]]]}},
{"type":"Feature","properties":{"highway":"path","name":null,"category":"Shared path"},"geometry":{"type":"MultiLineString","coordinates":[[[-2.2479502,53.5111532],[-2.2479555,53.5110026],[-2.2478882,53.5109721]]]}},
{"type":"Feature","properties":{"highway":"path","name":null,"category":"Shared path"},"geometry":{"type":"MultiLineString","coordinates":[[[-2.2472151,53.5105162],[-2.2470335,53.5103908],[-2.2469517,53.5103642],[-2.2467552,53.510332],[-2.2466879,53.5103446],[-2.2465743,53.510376]]]}},
{"type":"Feature","properties":{"highway":"path","name":null,"category":"Shared path"},"geometry":{"type":"MultiLineString","coordinates":[[[-2.2474981,53.5103286],[-2.2471786,53.5101846],[-2.2471166,53.510172],[-2.2469794,53.5101697],[-2.2468752,53.5102018],[-2.2466919,53.5102826],[-2.2466127,53.5102999],[-2.2465157,53.5103064],[-2.2457597,53.5103618],[-2.2446962,53.5104397]]]}},
{"type":"Feature","properties":{"highway":"path","name":null,"category":"Shared path"},"geometry":{"type":"MultiLineString","coordinates":[[[-2.2457597,53.5103618],[-2.2457021,53.5100832]]]}},
{"type":"Feature","properties":{"highway":"path","name":null,"category":"Shared path"},"geometry":{"type":"MultiLineString","coordinates":[[[-2.2447711,53.5097436],[-2.2448652,53.5102012]]]}},
{"type":"Feature","properties":{"highway":"path","name":null,"category":"Shared path"},"geometry":{"type":"MultiLineString","coordinates":[[[-2.2440706,53.5094902],[-2.2440236,53.5095538],[-2.2440866,53.5098282],[-2.2441408,53.5099471]]]}},
{"type":"Feature","properties":{"highway":"path","name":null,"category":"Shared path"},"geometry":{"type":"MultiLineString","coordinates":[[[-2.2443554,53.5094463],[-2.244542,53.5094684],[-2.244815,53.5093916],[-2.2448809,53.5093923],[-2.2449167,53.5094015],[-2.245059,53.5094378],[-2.245451,53.5094187]]]}},
{"type":"Feature","properties":{"highway":"footway","name":null,"category":"Footpath (pedestrian only)"},"geometry":{"type":"MultiLineString","coordinates":[[[-2.2431683,53.5145749],[-2.2433466,53.5145553],[-2.2433493,53.5145426],[-2.2430516,53.5139401],[-2.2429584,53.5137483],[-2.2429457,53.5137367],[-2.2429168,53.5137391],[-2.2421101,53.5139333],[-2.2420592,53.5139449],[-2.2419385,53.5139764],[-2.241867,53.5139913],[-2.2418486,53.5139951],[-2.2416365,53.5140498]]]}},
{"type":"Feature","properties":{"highway":"footway","name":null,"category":"Footpath (pedestrian only)"},"geometry":{"type":"MultiLineString","coordinates":[[[-2.2431817,53.5139126],[-2.2431678,53.5139155],[-2.2431173,53.5139262],[-2.2430716,53.5139359],[-2.2430516,53.5139401]]]}},
{"type":"Feature","properties":{"highway":"footway","name":null,"category":"Footpath (pedestrian only)"},"geometry":{"type":"MultiLineString","coordinates":[[[-2.2432074,53.5139694],[-2.2433708,53.5139541],[-2.2434073,53.5139361],[-2.2434439,53.5139182],[-2.2434707,53.5138958],[-2.2444457,53.5136646],[-2.2444598,53.5136825],[-2.2444926,53.5137251],[-2.2445161,53.5137579],[-2.2449774,53.5144261],[-2.2450519,53.5145797]]]}},
{"type":"Feature","properties":{"highway":"footway","name":null,"category":"Footpath (pedestrian only)"},"geometry":{"type":"MultiLineString","coordinates":[[[-2.2434572,53.5146746],[-2.243529,53.5146638],[-2.2435462,53.5146463],[-2.2435659,53.5146262],[-2.2435906,53.5146011],[-2.2435988,53.5145928],[-2.2434399,53.5144824],[-2.2432074,53.5139694],[-2.2431817,53.5139126],[-2.2430704,53.513657],[-2.2430539,53.5135904],[-2.2430429,53.5135458],[-2.2430134,53.5134184],[-2.2429785,53.5131502],[-2.2429615,53.5130308],[-2.2429222,53.5125274]]]}},
{"type":"Feature","properties":{"highway":"path","name":null,"category":"Shared path"},"geometry":{"type":"MultiLineString","coordinates":[[[-2.2714645,53.5041701],[-2.2711271,53.5046481],[-2.2707411,53.5050781],[-2.2702999,53.5054754],[-2.2699383,53.5057779],[-2.2695293,53.5061885],[-2.2690559,53.506638],[-2.268872,53.5066562],[-2.2686208,53.5065979],[-2.2683879,53.506649],[-2.2677567,53.5069405],[-2.2668682,53.5073959],[-2.2660715,53.5077093],[-2.2654894,53.5079535],[-2.2651278,53.5081977],[-2.2650052,53.508358],[-2.2650543,53.508471],[-2.2651891,53.5085985],[-2.26552,53.5088427],[-2.2660531,53.509014],[-2.266623,53.5091816],[-2.2671378,53.5092946],[-2.2680631,53.5094768],[-2.2685901,53.5095606],[-2.2690926,53.5096335],[-2.2695216,53.5096481],[-2.270067,53.5096372],[-2.2705817,53.5096445],[-2.2711884,53.5096372],[-2.2716419,53.5096153],[-2.2721015,53.5095388],[-2.2726714,53.5094039],[-2.2732597,53.5091525],[-2.2735783,53.5089447],[-2.2738602,53.5086605],[-2.2741299,53.5083726],[-2.2742574,53.5081076]]]}},
{"type":"Feature","properties":{"highway":"path","name":null,"category":"Shared path"},"geometry":{"type":"MultiLineString","coordinates":[[[-2.2620005,53.5053042],[-2.262177,53.5053718],[-2.2623355,53.5054148]]]}},
{"type":"Feature","properties":{"highway":"footway","name":null,"category":"Footpath (pedestrian only)"},"geometry":{"type":"MultiLineString","coordinates":[[[-2.2591304,53.5054131],[-2.2587899,53.5054895]]]}},
{"type":"Feature","properties":{"highway":"footway","name":null,"category":"Footpath (pedestrian only)"},"geometry":{"type":"MultiLineString","coordinates":[[[-2.2587783,53.5050508],[-2.2587675,53.5050334],[-2.2587194,53.5049564],[-2.2585504,53.5048886]]]}},
{"type":"Feature","properties":{"highway":"footway","name":null,"category":"Footpath (pedestrian only)"},"geometry":{"type":"MultiLineString","coordinates":[[[-2.2582607,53.504952],[-2.2583187,53.5050428],[-2.2583329,53.5050495],[-2.2583552,53.5050521],[-2.2583902,53.5050521],[-2.2584312,53.5050477],[-2.2585198,53.5050344],[-2.2585727,53.5050295],[-2.2586263,53.505026],[-2.258674,53.5050255],[-2.2587217,53.5050282],[-2.2587675,53.5050334]]]}},
{"type":"Feature","properties":{"highway":"path","name":null,"category":"Shared path"},"geometry":{"type":"MultiLineString","coordinates":[[[-2.2535147,53.5081723],[-2.2533693,53.5081548],[-2.2532656,53.5081822]]]}},
{"type":"Feature","properties":{"highway":"path","name":null,"category":"Shared path"},"geometry":{"type":"MultiLineString","coordinates":[[[-2.2532656,53.5081822],[-2.2532388,53.5082785],[-2.2531151,53.5087234],[-2.2530139,53.5090875],[-2.2529429,53.5091475],[-2.2528887,53.5091429],[-2.2528391,53.50914],[-2.2526941,53.5091155],[-2.2525404,53.5090972],[-2.2523416,53.5090875],[-2.2522797,53.5090915],[-2.2522437,53.5090938],[-2.2521774,53.5090915],[-2.2521006,53.5090812],[-2.2519114,53.5090567],[-2.2513505,53.5089927],[-2.2512832,53.5089738],[-2.2512513,53.5089577],[-2.2512179,53.5089407],[-2.251118,53.5088425],[-2.2508952,53.5086186],[-2.25073,53.5084718],[-2.2506579,53.5084104],[-2.2506388,53.5083941],[-2.2505514,53.5083415],[-2.250365,53.508261],[-2.2502641,53.5082197]]]}},
{"type":"Feature","properties":{"highway":"path","name":null,"category":"Shared path"},"geometry":{"type":"MultiLineString","coordinates":[[[-2.2531151,53.5087234],[-2.2527518,53.5086754],[-2.2524135,53.5086306],[-2.252369,53.5087651],[-2.2523347,53.5088195],[-2.2522928,53.5088867],[-2.2522712,53.5089472],[-2.2522724,53.5090038],[-2.2522797,53.5090915]]]}},
{"type":"Feature","properties":{"highway":"path","name":null,"category":"Shared path"},"geometry":{"type":"MultiLineString","coordinates":[[[-2.2524135,53.5086306],[-2.2522775,53.5086109],[-2.2522497,53.5086106],[-2.2522254,53.5086132],[-2.2512513,53.5089577]]]}},
{"type":"Feature","properties":{"highway":"path","name":null,"category":"Shared path"},"geometry":{"type":"MultiLineString","coordinates":[[[-2.2532656,53.5081822],[-2.2525316,53.5080791],[-2.2525011,53.5080791],[-2.2524706,53.5080866],[-2.2524478,53.5080987],[-2.2524312,53.5081221],[-2.2523721,53.5082812],[-2.2522497,53.5086106]]]}},
{"type":"Feature","properties":{"highway":"footway","name":null,"category":"Footpath (pedestrian only)"},"geometry":{"type":"MultiLineString","coordinates":[[[-2.2532388,53.5082785],[-2.2531744,53.5082716],[-2.2531515,53.5082691],[-2.2528408,53.5083977],[-2.2527803,53.5085874],[-2.2527518,53.5086754]]]}},
{"type":"Feature","properties":{"highway":"path","name":null,"category":"Shared path"},"geometry":{"type":"MultiLineString","coordinates":[[[-2.2512089,53.5090192],[-2.2512513,53.5089577]]]}},
{"type":"Feature","properties":{"highway":"path","name":null,"category":"Shared path"},"geometry":{"type":"MultiLineString","coordinates":[[[-2.2532367,53.5091493],[-2.2531102,53.509137],[-2.2529429,53.5091475]]]}},
{"type":"Feature","properties":{"highway":"path","name":null,"category":"Shared path"},"geometry":{"type":"MultiLineString","coordinates":[[[-2.2563257,53.5139612],[-2.2562018,53.5138336],[-2.2560561,53.5137922]]]}},
{"type":"Feature","properties":{"highway":"footway","name":null,"category":"Footpath (pedestrian only)"},"geometry":{"type":"MultiLineString","coordinates":[[[-2.2495669,53.5157137],[-2.24952,53.5158234],[-2.2494699,53.5158905]]]}},
{"type":"Feature","properties":{"highway":"footway","name":null,"category":"Footpath (pedestrian only)"},"geometry":{"type":"MultiLineString","coordinates":[[[-2.2493098,53.5155391],[-2.2494378,53.515611],[-2.2495414,53.5156692]]]}},
{"type":"Feature","properties":{"highway":"footway","name":null,"category":"Footpath (pedestrian only)"},"geometry":{"type":"MultiLineString","coordinates":[[[-2.2605914,53.5060222],[-2.2596106,53.5061962]]]}},
{"type":"Feature","properties":{"highway":"footway","name":null,"category":"Footpath (pedestrian only)"},"geometry":{"type":"MultiLineString","coordinates":[[[-2.2648542,53.5100006],[-2.2650865,53.5100274],[-2.2653143,53.5100702],[-2.265572,53.5101272],[-2.2658058,53.5102056],[-2.2659676,53.5102912],[-2.2661234,53.5103767],[-2.2662673,53.5104337],[-2.2664351,53.5104694],[-2.2666449,53.51053],[-2.2668786,53.5105799],[-2.2669685,53.5106262],[-2.2670884,53.5106761],[-2.2673581,53.5107117],[-2.2676064,53.5107372]]]}},
{"type":"Feature","properties":{"highway":"footway","name":null,"category":"Footpath (pedestrian only)"},"geometry":{"type":"MultiLineString","coordinates":[[[-2.2682749,53.51157],[-2.2682452,53.5114745],[-2.2681373,53.5114068],[-2.2680714,53.5113818],[-2.2679515,53.5113283],[-2.2678436,53.5112856],[-2.2677537,53.5112464],[-2.2676758,53.5112285],[-2.2675739,53.5112107],[-2.267472,53.5111929],[-2.2673803,53.511178]]]}},
{"type":"Feature","properties":{"highway":"footway","name":null,"category":"Footpath (pedestrian only)"},"geometry":{"type":"MultiLineString","coordinates":[[[-2.2496029,53.5156806],[-2.2496374,53.5156746],[-2.249669,53.515669]]]}},
{"type":"Feature","properties":{"highway":"footway","name":null,"category":"Footpath (pedestrian only)"},"geometry":{"type":"MultiLineString","coordinates":[[[-2.2495414,53.5156692],[-2.249572,53.515686],[-2.2496029,53.5156806]]]}},
{"type":"Feature","properties":{"highway":"footway","name":null,"category":"Footpath (pedestrian only)"},"geometry":{"type":"MultiLineString","coordinates":[[[-2.249572,53.515686],[-2.2495669,53.5157137]]]}},
{"type":"Feature","properties":{"highway":"footway","name":null,"category":"Footpath (pedestrian only)"},"geometry":{"type":"MultiLineString","coordinates":[[[-2.2494638,53.5159178],[-2.2494751,53.5159412],[-2.249486,53.5159638]]]}},
{"type":"Feature","properties":{"highway":"footway","name":null,"category":"Footpath (pedestrian only)"},"geometry":{"type":"MultiLineString","coordinates":[[[-2.2494699,53.5158905],[-2.2494578,53.515903],[-2.2494638,53.5159178]]]}},
{"type":"Feature","properties":{"highway":"footway","name":null,"category":"Footpath (pedestrian only)"},"geometry":{"type":"MultiLineString","coordinates":[[[-2.2492301,53.515479],[-2.2492463,53.5155022],[-2.2492596,53.5155212]]]}},
{"type":"Feature","properties":{"highway":"footway","name":null,"category":"Footpath (pedestrian only)"},"geometry":{"type":"MultiLineString","coordinates":[[[-2.2492596,53.5155212],[-2.2492669,53.5155317],[-2.2492971,53.515532],[-2.2493098,53.5155391]]]}},
{"type":"Feature","properties":{"highway":"footway","name":null,"category":"Footpath (pedestrian only)"},"geometry":{"type":"MultiLineString","coordinates":[[[-2.2494578,53.515903],[-2.2494297,53.5158993]]]}},
{"type":"Feature","properties":{"highway":"footway","name":null,"category":"Footpath (pedestrian only)"},"geometry":{"type":"MultiLineString","coordinates":[[[-2.2492669,53.5155317],[-2.2492473,53.5155419]]]}},
{"type":"Feature","properties":{"highway":"footway","name":null,"category":"Footpath (pedestrian only)"},"geometry":{"type":"MultiLineString","coordinates":[[[-2.2492473,53.5155419],[-2.2491258,53.5156173],[-2.2490324,53.5156895]]]}},
{"type":"Feature","properties":{"highway":"footway","name":null,"category":"Footpath (pedestrian only)"},"geometry":{"type":"MultiLineString","coordinates":[[[-2.2494297,53.5158993],[-2.249308,53.5159084],[-2.2491172,53.515876]]]}},
{"type":"Feature","properties":{"highway":"footway","name":null,"category":"Footpath (pedestrian only)"},"geometry":{"type":"MultiLineString","coordinates":[[[-2.2497589,53.5157837],[-2.2496952,53.5156645],[-2.2496766,53.5155423]]]}},
{"type":"Feature","properties":{"highway":"footway","name":null,"category":"Footpath (pedestrian only)"},"geometry":{"type":"MultiLineString","coordinates":[[[-2.2496952,53.5156645],[-2.249669,53.515669]]]}},
{"type":"Feature","properties":{"highway":"footway","name":null,"category":"Footpath (pedestrian only)"},"geometry":{"type":"MultiLineString","coordinates":[[[-2.2497055,53.5160131],[-2.2495892,53.5159766],[-2.2495234,53.5159716],[-2.2494905,53.5159733],[-2.2494579,53.5159815],[-2.2494248,53.5159923],[-2.2493794,53.5160238],[-2.2493643,53.5160884]]]}},
{"type":"Feature","properties":{"highway":"footway","name":null,"category":"Footpath (pedestrian only)"},"geometry":{"type":"MultiLineString","coordinates":[[[-2.249486,53.5159638],[-2.2494905,53.5159733]]]}},
{"type":"Feature","properties":{"highway":"footway","name":null,"category":"Footpath (pedestrian only)"},"geometry":{"type":"MultiLineString","coordinates":[[[-2.2490749,53.51599],[-2.2490921,53.5158744],[-2.2490862,53.515832],[-2.2490678,53.5157816],[-2.2490379,53.515733],[-2.2490135,53.5157014],[-2.2489766,53.5156636],[-2.2489503,53.5156452],[-2.2488736,53.5155916]]]}},
{"type":"Feature","properties":{"highway":"footway","name":null,"category":"Footpath (pedestrian only)"},"geometry":{"type":"MultiLineString","coordinates":[[[-2.2490324,53.5156895],[-2.2490135,53.5157014]]]}},
{"type":"Feature","properties":{"highway":"footway","name":null,"category":"Footpath (pedestrian only)"},"geometry":{"type":"MultiLineString","coordinates":[[[-2.2491172,53.515876],[-2.2490921,53.5158744]]]}},
{"type":"Feature","properties":{"highway":"footway","name":null,"category":"Footpath (pedestrian only)"},"geometry":{"type":"MultiLineString","coordinates":[[[-2.2494146,53.5153362],[-2.2493371,53.5154278],[-2.2492804,53.5154497],[-2.2492217,53.5154671],[-2.2491528,53.5154688],[-2.2490904,53.5154587],[-2.2488343,53.5153379]]]}},
{"type":"Feature","properties":{"highway":"footway","name":null,"category":"Footpath (pedestrian only)"},"geometry":{"type":"MultiLineString","coordinates":[[[-2.2492301,53.515479],[-2.2492217,53.5154671]]]}},
{"type":"Feature","properties":{"highway":"path","name":null,"category":"Shared path"},"geometry":{"type":"MultiLineString","coordinates":[[[-2.2476146,53.511358],[-2.2476617,53.5113878],[-2.247658,53.5114591],[-2.2476677,53.5114724],[-2.2476858,53.5114796],[-2.2479482,53.5115061],[-2.2482945,53.5115449],[-2.2485658,53.5115523],[-2.2486226,53.5115538],[-2.2487547,53.5115574],[-2.2491438,53.5115886],[-2.2491851,53.5116282]]]}},
{"type":"Feature","properties":{"highway":"path","name":null,"category":"Shared path"},"geometry":{"type":"MultiLineString","coordinates":[[[-2.2486265,53.511467],[-2.2486226,53.5115538]]]}},
{"type":"Feature","properties":{"highway":"path","name":null,"category":"Shared path"},"geometry":{"type":"MultiLineString","coordinates":[[[-2.2491438,53.5115886],[-2.2492065,53.511495],[-2.249168,53.5114558]]]}},
{"type":"Feature","properties":{"highway":"path","name":null,"category":"Shared path"},"geometry":{"type":"MultiLineString","coordinates":[[[-2.2485796,53.510542],[-2.2486001,53.5105693],[-2.2486086,53.5105976],[-2.248605,53.5106209],[-2.2485193,53.5107181]]]}},
{"type":"Feature","properties":{"highway":"path","name":null,"category":"Shared path"},"geometry":{"type":"MultiLineString","coordinates":[[[-2.2471947,53.5127551],[-2.2470698,53.5126643],[-2.2469489,53.5125763]]]}},
{"type":"Feature","properties":{"highway":"path","name":null,"category":"Shared path"},"geometry":{"type":"MultiLineString","coordinates":[[[-2.2470698,53.5126643],[-2.2470157,53.5126894],[-2.2469825,53.5127145],[-2.2469029,53.5127668],[-2.2467442,53.5128285],[-2.2466234,53.5128859]]]}},
{"type":"Feature","properties":{"highway":"path","name":null,"category":"Shared path"},"geometry":{"type":"MultiLineString","coordinates":[[[-2.2482081,53.5091957],[-2.2481627,53.5087716],[-2.248103,53.5082139],[-2.2480934,53.508124],[-2.2481214,53.5080694]]]}},
{"type":"Feature","properties":{"highway":"path","name":null,"category":"Shared path"},"geometry":{"type":"MultiLineString","coordinates":[[[-2.248103,53.5082139],[-2.2476277,53.5082513],[-2.2475973,53.5082537]]]}},
{"type":"Feature","properties":{"highway":"path","name":null,"category":"Shared path"},"geometry":{"type":"MultiLineString","coordinates":[[[-2.2475173,53.5080422],[-2.2475705,53.5082439],[-2.2475973,53.5082537]]]}},
{"type":"Feature","properties":{"highway":"path","name":null,"category":"Shared path"},"geometry":{"type":"MultiLineString","coordinates":[[[-2.2476277,53.5082513],[-2.2476634,53.5084247],[-2.2477273,53.5084792],[-2.2477283,53.5084835],[-2.247778,53.5087067],[-2.2477436,53.5087906],[-2.2477454,53.5088],[-2.2477488,53.5088183],[-2.247784,53.5090077],[-2.2477297,53.5090658],[-2.2478196,53.5094954]]]}},
{"type":"Feature","properties":{"highway":"path","name":null,"category":"Shared path"},"geometry":{"type":"MultiLineString","coordinates":[[[-2.2477134,53.5088215],[-2.2477488,53.5088183]]]}},
{"type":"Feature","properties":{"highway":"path","name":null,"category":"Shared path"},"geometry":{"type":"MultiLineString","coordinates":[[[-2.2477454,53.5088],[-2.2481627,53.5087716]]]}},
{"type":"Feature","properties":{"highway":"path","name":null,"category":"Shared path"},"geometry":{"type":"MultiLineString","coordinates":[[[-2.2477283,53.5084835],[-2.2474103,53.5085107],[-2.24735,53.5085304]]]}},
{"type":"Feature","properties":{"highway":"path","name":null,"category":"Shared path"},"geometry":{"type":"MultiLineString","coordinates":[[[-2.2486855,53.507691],[-2.2480579,53.5080336]]]}},
{"type":"Feature","properties":{"highway":"path","name":null,"category":"Shared path"},"geometry":{"type":"MultiLineString","coordinates":[[[-2.2506579,53.5084104],[-2.2508308,53.508381],[-2.2511751,53.5083401],[-2.2517375,53.5082976],[-2.2521545,53.5082809],[-2.2523721,53.5082812]]]}},
{"type":"Feature","properties":{"highway":"footway","name":null,"category":"Footpath (pedestrian only)"},"geometry":{"type":"MultiLineString","coordinates":[[[-2.2498952,53.5166782],[-2.2498722,53.5166648],[-2.2498346,53.5166418]]]}},
{"type":"Feature","properties":{"highway":"footway","name":null,"category":"Footpath (pedestrian only)"},"geometry":{"type":"MultiLineString","coordinates":[[[-2.2493643,53.5160884],[-2.2493286,53.516221],[-2.2491804,53.5164928],[-2.2490828,53.5166052],[-2.249062,53.5166596],[-2.2490731,53.5166965]]]}},
{"type":"Feature","properties":{"highway":"footway","name":null,"category":"Footpath (pedestrian only)"},"geometry":{"type":"MultiLineString","coordinates":[[[-2.2490731,53.5166965],[-2.2490491,53.516729]]]}},
{"type":"Feature","properties":{"highway":"footway","name":null,"category":"Footpath (pedestrian only)"},"geometry":{"type":"MultiLineString","coordinates":[[[-2.2497055,53.5160131],[-2.2497837,53.516058],[-2.2499483,53.5161506],[-2.2501375,53.5162669],[-2.2503141,53.5163408],[-2.2509122,53.5165276],[-2.251695,53.5167369],[-2.2520278,53.5168245]]]}},
{"type":"Feature","properties":{"highway":"footway","name":null,"category":"Footpath (pedestrian only)"},"geometry":{"type":"MultiLineString","coordinates":[[[-2.2520278,53.5168245],[-2.2520722,53.5168335]]]}},
{"type":"Feature","properties":{"highway":"footway","name":null,"category":"Footpath (pedestrian only)"},"geometry":{"type":"MultiLineString","coordinates":[[[-2.2497589,53.5157837],[-2.2498192,53.5158334],[-2.2499286,53.515878]]]}},
{"type":"Feature","properties":{"highway":"footway","name":null,"category":"Footpath (pedestrian only)"},"geometry":{"type":"MultiLineString","coordinates":[[[-2.2490749,53.51599],[-2.2489917,53.5162321],[-2.2488117,53.5167152],[-2.2487187,53.5170128],[-2.2486219,53.5173663]]]}},
{"type":"Feature","properties":{"highway":"footway","name":null,"category":"Footpath (pedestrian only)"},"geometry":{"type":"MultiLineString","coordinates":[[[-2.2486219,53.5173663],[-2.2486141,53.5174053]]]}},
{"type":"Feature","properties":{"highway":"footway","name":null,"category":"Footpath (pedestrian only)"},"geometry":{"type":"MultiLineString","coordinates":[[[-2.2488736,53.5155916],[-2.2482595,53.5152489]]]}},
{"type":"Feature","properties":{"highway":"footway","name":null,"category":"Footpath (pedestrian only)"},"geometry":{"type":"MultiLineString","coordinates":[[[-2.2488343,53.5153379],[-2.2480938,53.5149854]]]}},
{"type":"Feature","properties":{"highway":"footway","name":null,"category":"Footpath (pedestrian only)"},"geometry":{"type":"MultiLineString","coordinates":[[[-2.2494146,53.5153362],[-2.2496115,53.5149419]]]}},
{"type":"Feature","properties":{"highway":"footway","name":null,"category":"Footpath (pedestrian only)"},"geometry":{"type":"MultiLineString","coordinates":[[[-2.2496115,53.5149419],[-2.2496384,53.5148778]]]}},
{"type":"Feature","properties":{"highway":"footway","name":null,"category":"Footpath (pedestrian only)"},"geometry":{"type":"MultiLineString","coordinates":[[[-2.2496766,53.5155423],[-2.2496728,53.5154241],[-2.2496766,53.5153594],[-2.2498076,53.5150005],[-2.2498516,53.514966]]]}},
{"type":"Feature","properties":{"highway":"footway","name":null,"category":"Footpath (pedestrian only)"},"geometry":{"type":"MultiLineString","coordinates":[[[-2.2498516,53.514966],[-2.2498768,53.5149067]]]}},
{"type":"Feature","properties":{"highway":"footway","name":null,"category":"Footpath (pedestrian only)"},"geometry":{"type":"MultiLineString","coordinates":[[[-2.2482595,53.5152489],[-2.2480357,53.515113],[-2.2474876,53.5147898]]]}},
{"type":"Feature","properties":{"highway":"footway","name":null,"category":"Footpath (pedestrian only)"},"geometry":{"type":"MultiLineString","coordinates":[[[-2.2480938,53.5149854],[-2.2480437,53.514958],[-2.2479294,53.5148954]]]}},
{"type":"Feature","properties":{"highway":"footway","name":null,"category":"Footpath (pedestrian only)"},"geometry":{"type":"MultiLineString","coordinates":[[[-2.2479294,53.5148954],[-2.2476046,53.5147086]]]}},
{"type":"Feature","properties":{"highway":"footway","name":null,"category":"Footpath (pedestrian only)"},"geometry":{"type":"MultiLineString","coordinates":[[[-2.2476046,53.5147086],[-2.2475439,53.5147507],[-2.2474876,53.5147898]]]}},
{"type":"Feature","properties":{"highway":"path","name":null,"category":"Shared path"},"geometry":{"type":"MultiLineString","coordinates":[[[-2.2485658,53.5115523],[-2.2484427,53.5116019],[-2.2484092,53.5116556],[-2.2483886,53.5118776],[-2.2484737,53.5118858],[-2.2485353,53.5119281]]]}},
{"type":"Feature","properties":{"highway":"footway","name":"Great Clowes Street","category":"Footpath (pedestrian only)"},"geometry":{"type":"MultiLineString","coordinates":[[[-2.2627649,53.5085986],[-2.2626091,53.5090883],[-2.2625711,53.5091176],[-2.2625073,53.5091331]]]}},
{"type":"Feature","properties":{"highway":"footway","name":"Great Clowes Street","category":"Footpath (pedestrian only)"},"geometry":{"type":"MultiLineString","coordinates":[[[-2.2627968,53.5084986],[-2.2627649,53.5085986]]]}},
{"type":"Feature","properties":{"highway":"pedestrian","name":null,"category":"Pedestrian area/street"},"geometry":{"type":"MultiLineString","coordinates":[[[-2.2506326,53.5070248],[-2.2510471,53.5071173]]]}},
{"type":"Feature","properties":{"highway":"pedestrian","name":null,"category":"Pedestrian area/street"},"geometry":{"type":"MultiLineString","coordinates":[[[-2.2501507,53.5079516],[-2.2505143,53.5080219]]]}}
]
}
