{
"type": "FeatureCollection",
"name": "CUMBE_854_cycling",
"crs": { "type": "name", "properties": { "name": "urn:ogc:def:crs:OGC:1.3:CRS84" } },
"features": [
{"type":"Feature","properties":{"highway":"track","name":null,"category":"Track"},"geometry":{"type":"MultiLineString","coordinates":[[[-2.9482264,54.8891104],[-2.9476188,54.8897366]]]}},
{"type":"Feature","properties":{"highway":"cycleway","name":null,"category":"Dedicated cycleway"},"geometry":{"type":"MultiLineString","coordinates":[[[-2.9625657,54.8875651],[-2.9625231,54.8875804],[-2.9624656,54.8876152],[-2.9623458,54.8876858],[-2.9620201,54.8878507],[-2.9618764,54.887921],[-2.9616882,54.8880131],[-2.9616137,54.8880446],[-2.961499,54.88809],[-2.9613141,54.8881756],[-2.9608252,54.8883764],[-2.960718,54.8884187],[-2.9606117,54.8884567],[-2.9603169,54.8885618],[-2.9597433,54.8887674],[-2.959532,54.8888431],[-2.9594216,54.8888824],[-2.9593036,54.8889194],[-2.9589477,54.8890326],[-2.9586339,54.8891205],[-2.9584771,54.8891639],[-2.9576454,54.8894006],[-2.9571007,54.8895647],[-2.9568028,54.889671],[-2.9565848,54.8897487],[-2.9563054,54.8898577],[-2.9558318,54.8900597],[-2.955521,54.8902275],[-2.9553935,54.8903029],[-2.9552484,54.8904004],[-2.9550026,54.890543],[-2.9545641,54.8908203],[-2.9544294,54.8909162],[-2.9543514,54.8909689]]]}},
{"type":"Feature","properties":{"highway":"cycleway","name":null,"category":"Dedicated cycleway"},"geometry":{"type":"MultiLineString","coordinates":[[[-2.9554038,54.8902015],[-2.9554829,54.8900738],[-2.955605,54.889984],[-2.9556763,54.8899508],[-2.9557119,54.8899342],[-2.9558644,54.889863],[-2.9562448,54.8897122],[-2.9564079,54.8896498],[-2.9588487,54.8889213],[-2.9592592,54.8887836],[-2.959385,54.8887413],[-2.9594717,54.8887112],[-2.9596162,54.8886589],[-2.9602737,54.888421],[-2.9606249,54.8882877],[-2.9611383,54.8880778],[-2.9616338,54.887853],[-2.9618158,54.8877705]]]}},
{"type":"Feature","properties":{"highway":"path","name":null,"category":"Shared path"},"geometry":{"type":"MultiLineString","coordinates":[[[-2.9508151,54.8908956],[-2.9508707,54.8907603],[-2.9513318,54.8905365]]]}},
{"type":"Feature","properties":{"highway":"cycleway","name":null,"category":"Dedicated cycleway"},"geometry":{"type":"MultiLineString","coordinates":[[[-2.9633865,54.8868226],[-2.9634983,54.8867904],[-2.9635333,54.8867693],[-2.964532,54.8861705],[-2.9645345,54.8861688],[-2.9647556,54.8860218],[-2.9649914,54.8858748],[-2.9651055,54.8857821]]]}},
{"type":"Feature","properties":{"highway":"cycleway","name":null,"category":"Dedicated cycleway"},"geometry":{"type":"MultiLineString","coordinates":[[[-2.9651055,54.8857821],[-2.9652133,54.8857157],[-2.9653991,54.8855919],[-2.9658848,54.885288],[-2.9663584,54.884982]]]}},
{"type":"Feature","properties":{"highway":"cycleway","name":null,"category":"Dedicated cycleway"},"geometry":{"type":"MultiLineString","coordinates":[[[-2.9667949,54.8848045],[-2.9668571,54.8848297],[-2.9668705,54.8848447],[-2.9668697,54.8848679],[-2.9668566,54.8848838],[-2.9667863,54.8849289],[-2.9666924,54.8849895],[-2.9660574,54.8854006],[-2.9656627,54.8856565],[-2.9654118,54.8858206],[-2.9653063,54.8858866],[-2.9650711,54.8860368],[-2.9649594,54.886132]]]}},
{"type":"Feature","properties":{"highway":"cycleway","name":null,"category":"Dedicated cycleway"},"geometry":{"type":"MultiLineString","coordinates":[[[-2.9489656,54.8940821],[-2.9489656,54.8940237]]]}},
{"type":"Feature","properties":{"highway":"cycleway","name":null,"category":"Dedicated cycleway"},"geometry":{"type":"MultiLineString","coordinates":[[[-2.9649594,54.886132],[-2.9645389,54.886392],[-2.9638876,54.8867782],[-2.9628979,54.8873917],[-2.9625657,54.8875651]]]}},
{"type":"Feature","properties":{"highway":"cycleway","name":null,"category":"Dedicated cycleway"},"geometry":{"type":"MultiLineString","coordinates":[[[-2.9618158,54.8877705],[-2.9621109,54.8876091],[-2.9624241,54.8874332],[-2.9625308,54.8873733],[-2.9628495,54.887181],[-2.9629048,54.8871187]]]}},
{"type":"Feature","properties":{"highway":"cycleway","name":null,"category":"Dedicated cycleway"},"geometry":{"type":"MultiLineString","coordinates":[[[-2.9629048,54.8871187],[-2.9633865,54.8868226]]]}},
{"type":"Feature","properties":{"highway":"cycleway","name":null,"category":"Dedicated cycleway"},"geometry":{"type":"MultiLineString","coordinates":[[[-2.9663584,54.884982],[-2.9664947,54.8848939],[-2.966611,54.8848188],[-2.9666937,54.8847618]]]}},
{"type":"Feature","properties":{"highway":"cycleway","name":null,"category":"Dedicated cycleway"},"geometry":{"type":"MultiLineString","coordinates":[[[-2.9489655,54.8939867],[-2.9489668,54.8939481]]]}},
{"type":"Feature","properties":{"highway":"cycleway","name":null,"category":"Dedicated cycleway"},"geometry":{"type":"MultiLineString","coordinates":[[[-2.9489656,54.8940237],[-2.9489655,54.8939867]]]}}
]
}
