{
"type": "FeatureCollection",
"name": "CUMBE_85_cycling",
"crs": { "type": "name", "properties": { "name": "urn:ogc:def:crs:OGC:1.3:CRS84" } },
"features": [
{"type":"Feature","properties":{"highway":"cycleway","name":null,"category":"Dedicated cycleway"},"geometry":{"type":"MultiLineString","coordinates":[[[-2.939257,54.8968152],[-2.9391284,54.8968934],[-2.9389457,54.8970728],[-2.9387173,54.8972544],[-2.9386348,54.8973868],[-2.9386286,54.8973969],[-2.9385899,54.8974269],[-2.9385203,54.8974839],[-2.9383443,54.8976279],[-2.9383129,54.8976526],[-2.9382624,54.897706],[-2.9382476,54.8977095],[-2.938194,54.8977224],[-2.9380775,54.8977802],[-2.9377246,54.8979283],[-2.9373282,54.8980682],[-2.9366367,54.8982701],[-2.9363168,54.8983701],[-2.936261,54.8983851],[-2.9359338,54.8984738],[-2.935839,54.8985374],[-2.9357973,54.8986279],[-2.9357277,54.8987265],[-2.935607,54.8990057],[-2.9355217,54.8992075],[-2.9355217,54.8993566],[-2.9356897,54.8995446],[-2.9359058,54.8997544]]]}},
{"type":"Feature","properties":{"highway":"cycleway","name":null,"category":"Dedicated cycleway"},"geometry":{"type":"MultiLineString","coordinates":[[[-2.9427667,54.8957965],[-2.9426958,54.8958086],[-2.9426571,54.8957824],[-2.9426126,54.8957703],[-2.9425496,54.8957627],[-2.9422709,54.8958306],[-2.9417516,54.8959735],[-2.9412635,54.8961068],[-2.9407904,54.8962591],[-2.9406006,54.89631],[-2.9404212,54.8963645],[-2.9398111,54.8965716],[-2.9395626,54.8966674],[-2.939257,54.8968152]]]}},
{"type":"Feature","properties":{"highway":"cycleway","name":"Eden Bridge","category":"Dedicated cycleway"},"geometry":{"type":"MultiLineString","coordinates":[[[-2.9359058,54.8997544],[-2.9359444,54.8997922],[-2.9370675,54.9008929]]]}},
{"type":"Feature","properties":{"highway":"cycleway","name":null,"category":"Dedicated cycleway"},"geometry":{"type":"MultiLineString","coordinates":[[[-2.9370675,54.9008929],[-2.9374826,54.9013115],[-2.93755,54.9013651],[-2.9376021,54.9014502],[-2.9376387,54.9015774],[-2.9376334,54.901664]]]}},
{"type":"Feature","properties":{"highway":"cycleway","name":"Zero Path","category":"Dedicated cycleway"},"geometry":{"type":"MultiLineString","coordinates":[[[-2.9297386,54.8964758],[-2.9298406,54.8967611],[-2.9298832,54.8968184],[-2.9301856,54.897104],[-2.9303313,54.8972488],[-2.9304031,54.897316],[-2.9304211,54.8973285],[-2.9307538,54.8975591],[-2.9312053,54.8978137],[-2.9319107,54.8982646]]]}},
{"type":"Feature","properties":{"highway":"path","name":null,"category":"Shared path"},"geometry":{"type":"MultiLineString","coordinates":[[[-2.9360525,54.8997367],[-2.9361055,54.8997934],[-2.9360337,54.89982]]]}},
{"type":"Feature","properties":{"highway":"path","name":"Swifts Bank","category":"Shared path"},"geometry":{"type":"MultiLineString","coordinates":[[[-2.9340396,54.9002796],[-2.9342312,54.9002518],[-2.9344576,54.900215],[-2.9346164,54.9001842],[-2.9346517,54.9001724],[-2.9349723,54.9000649],[-2.9351351,54.9000175],[-2.9354438,54.8999489],[-2.9356098,54.8999256]]]}},
{"type":"Feature","properties":{"highway":"cycleway","name":null,"category":"Dedicated cycleway"},"geometry":{"type":"MultiLineString","coordinates":[[[-2.9382985,54.8911109],[-2.9383661,54.8911495],[-2.9390767,54.8915552],[-2.9400712,54.8922353]]]}},
{"type":"Feature","properties":{"highway":"cycleway","name":null,"category":"Dedicated cycleway"},"geometry":{"type":"MultiLineString","coordinates":[[[-2.9400712,54.8922353],[-2.9405856,54.8926634],[-2.9423892,54.8941644]]]}},
{"type":"Feature","properties":{"highway":"cycleway","name":null,"category":"Dedicated cycleway"},"geometry":{"type":"MultiLineString","coordinates":[[[-2.9382985,54.8911109],[-2.9379004,54.8907881],[-2.9375951,54.8904436],[-2.9372404,54.8898165],[-2.9371151,54.8894063]]]}},
{"type":"Feature","properties":{"highway":"cycleway","name":null,"category":"Dedicated cycleway"},"geometry":{"type":"MultiLineString","coordinates":[[[-2.9423892,54.8941644],[-2.9418823,54.8944254]]]}},
{"type":"Feature","properties":{"highway":"cycleway","name":null,"category":"Dedicated cycleway"},"geometry":{"type":"MultiLineString","coordinates":[[[-2.9427667,54.8957965],[-2.9428276,54.8957858],[-2.9428073,54.8957348],[-2.942815,54.8957032],[-2.9428542,54.8956777],[-2.9429716,54.8956449]]]}},
{"type":"Feature","properties":{"highway":"cycleway","name":null,"category":"Dedicated cycleway"},"geometry":{"type":"MultiLineString","coordinates":[[[-2.9424316,54.895533],[-2.9425588,54.8955079],[-2.9426438,54.8954912]]]}},
{"type":"Feature","properties":{"highway":"cycleway","name":null,"category":"Dedicated cycleway"},"geometry":{"type":"MultiLineString","coordinates":[[[-2.9443537,54.8953102],[-2.9447862,54.8952286],[-2.9448874,54.8952126]]]}},
{"type":"Feature","properties":{"highway":"cycleway","name":null,"category":"Dedicated cycleway"},"geometry":{"type":"MultiLineString","coordinates":[[[-2.9429716,54.8956449],[-2.9443537,54.8953102]]]}},
{"type":"Feature","properties":{"highway":"cycleway","name":null,"category":"Dedicated cycleway"},"geometry":{"type":"MultiLineString","coordinates":[[[-2.9428049,54.895469],[-2.9431329,54.8953859],[-2.943176,54.895375]]]}},
{"type":"Feature","properties":{"highway":"cycleway","name":null,"category":"Dedicated cycleway"},"geometry":{"type":"MultiLineString","coordinates":[[[-2.9442178,54.8951492],[-2.94436,54.8951114],[-2.9445732,54.8950613],[-2.9447371,54.8950211],[-2.9448401,54.8950001]]]}},
{"type":"Feature","properties":{"highway":"path","name":null,"category":"Shared path"},"geometry":{"type":"MultiLineString","coordinates":[[[-2.9372592,54.901309],[-2.9371008,54.901305]]]}},
{"type":"Feature","properties":{"highway":"track","name":null,"category":"Track"},"geometry":{"type":"MultiLineString","coordinates":[[[-2.9312551,54.8993672],[-2.9313034,54.898886],[-2.9314268,54.898778],[-2.9317151,54.8986341]]]}},
{"type":"Feature","properties":{"highway":"cycleway","name":"Swifts Bank","category":"Dedicated cycleway"},"geometry":{"type":"MultiLineString","coordinates":[[[-2.9327788,54.8996388],[-2.9328404,54.8996233],[-2.9328848,54.8996256],[-2.9329738,54.8996762],[-2.9330446,54.8997477],[-2.9330901,54.899808],[-2.9331509,54.8999028],[-2.9332233,54.8999701],[-2.9334376,54.9001117],[-2.9335096,54.9001696],[-2.9336314,54.9002039],[-2.933721,54.9002199],[-2.9338256,54.9002239],[-2.9340396,54.9002796]]]}},
{"type":"Feature","properties":{"highway":"track","name":null,"category":"Track"},"geometry":{"type":"MultiLineString","coordinates":[[[-2.9317151,54.8986341],[-2.9320876,54.8985067]]]}},
{"type":"Feature","properties":{"highway":"cycleway","name":null,"category":"Dedicated cycleway"},"geometry":{"type":"MultiLineString","coordinates":[[[-2.9455395,54.895198],[-2.9455409,54.8951704],[-2.9455799,54.895149],[-2.9459257,54.8950604],[-2.94653,54.8949093]]]}},
{"type":"Feature","properties":{"highway":"cycleway","name":null,"category":"Dedicated cycleway"},"geometry":{"type":"MultiLineString","coordinates":[[[-2.943176,54.895375],[-2.9435396,54.8952879],[-2.9436814,54.8952872],[-2.9442178,54.8951492]]]}},
{"type":"Feature","properties":{"highway":"path","name":null,"category":"Shared path"},"geometry":{"type":"MultiLineString","coordinates":[[[-2.9315393,54.8916715],[-2.9314923,54.8916488]]]}},
{"type":"Feature","properties":{"highway":"track","name":null,"category":"Track"},"geometry":{"type":"MultiLineString","coordinates":[[[-2.9482264,54.8891104],[-2.9476188,54.8897366]]]}},
{"type":"Feature","properties":{"highway":"track","name":null,"category":"Track"},"geometry":{"type":"MultiLineString","coordinates":[[[-2.9456469,54.9015904],[-2.9461618,54.9017426],[-2.946435,54.9017901],[-2.9465428,54.9017582],[-2.9466606,54.9016426]]]}},
{"type":"Feature","properties":{"highway":"path","name":null,"category":"Shared path"},"geometry":{"type":"MultiLineString","coordinates":[[[-2.9400463,54.8974768],[-2.9399465,54.8974526],[-2.9397246,54.8974181],[-2.9396182,54.8974168],[-2.9395189,54.8974374],[-2.9394539,54.8974718],[-2.9394073,54.8975182],[-2.9393043,54.8976208],[-2.9391889,54.8976878],[-2.9390446,54.8977469],[-2.9390364,54.8977737],[-2.9390892,54.8978139],[-2.9394018,54.8979299]]]}},
{"type":"Feature","properties":{"highway":"path","name":null,"category":"Shared path"},"geometry":{"type":"MultiLineString","coordinates":[[[-2.9360337,54.89982],[-2.9356909,54.8999254]]]}},
{"type":"Feature","properties":{"highway":"path","name":null,"category":"Shared path"},"geometry":{"type":"MultiLineString","coordinates":[[[-2.9356909,54.8999254],[-2.9356098,54.8999256]]]}},
{"type":"Feature","properties":{"highway":"cycleway","name":"Eden Bridge","category":"Dedicated cycleway"},"geometry":{"type":"MultiLineString","coordinates":[[[-2.936841,54.9009694],[-2.9356643,54.8998359]]]}},
{"type":"Feature","properties":{"highway":"cycleway","name":null,"category":"Dedicated cycleway"},"geometry":{"type":"MultiLineString","coordinates":[[[-2.936841,54.9009694],[-2.9370561,54.9012197],[-2.9370648,54.901234],[-2.9370931,54.9012898],[-2.9371008,54.901305],[-2.9371589,54.9014157],[-2.9371915,54.9016198],[-2.9371829,54.9017434],[-2.937153,54.9019212]]]}},
{"type":"Feature","properties":{"highway":"cycleway","name":null,"category":"Dedicated cycleway"},"geometry":{"type":"MultiLineString","coordinates":[[[-2.9356643,54.8998359],[-2.9353235,54.8995271]]]}},
{"type":"Feature","properties":{"highway":"cycleway","name":null,"category":"Dedicated cycleway"},"geometry":{"type":"MultiLineString","coordinates":[[[-2.9353235,54.8995271],[-2.9352439,54.8995556],[-2.9356098,54.8999256]]]}},
{"type":"Feature","properties":{"highway":"path","name":null,"category":"Shared path"},"geometry":{"type":"MultiLineString","coordinates":[[[-2.9474699,54.9017728],[-2.9474421,54.9018029],[-2.9472572,54.9019231],[-2.9471671,54.9019637],[-2.9470852,54.9019658],[-2.9468672,54.9019029],[-2.9466895,54.9018558],[-2.946435,54.9017901]]]}},
{"type":"Feature","properties":{"highway":"cycleway","name":null,"category":"Dedicated cycleway"},"geometry":{"type":"MultiLineString","coordinates":[[[-2.9353235,54.8995271],[-2.9351365,54.8993359],[-2.9350698,54.8992676],[-2.9349401,54.8991467],[-2.9347523,54.8990053],[-2.9345779,54.898923],[-2.934323,54.8987764],[-2.934115,54.8986792],[-2.9340743,54.8986658],[-2.9340232,54.8986592],[-2.9339823,54.8986583],[-2.933933,54.898601]]]}},
{"type":"Feature","properties":{"highway":"path","name":null,"category":"Shared path"},"geometry":{"type":"MultiLineString","coordinates":[[[-2.9344985,54.903863],[-2.9345704,54.9039073],[-2.9349805,54.9040916],[-2.9350655,54.9041464],[-2.9352565,54.9042695],[-2.9353785,54.9043474],[-2.9355076,54.9044697],[-2.9355851,54.9045519],[-2.935615,54.9046235]]]}},
{"type":"Feature","properties":{"highway":"track","name":null,"category":"Track"},"geometry":{"type":"MultiLineString","coordinates":[[[-2.9445542,54.9011167],[-2.9444445,54.9010797],[-2.9444003,54.9009565],[-2.9443364,54.9007896],[-2.9443188,54.9006929],[-2.9443815,54.9006573]]]}},
{"type":"Feature","properties":{"highway":"cycleway","name":null,"category":"Dedicated cycleway"},"geometry":{"type":"MultiLineString","coordinates":[[[-2.9625657,54.8875651],[-2.9625231,54.8875804],[-2.9624656,54.8876152],[-2.9623458,54.8876858],[-2.9620201,54.8878507],[-2.9618764,54.887921],[-2.9616882,54.8880131],[-2.9616137,54.8880446],[-2.961499,54.88809],[-2.9613141,54.8881756],[-2.9608252,54.8883764],[-2.960718,54.8884187],[-2.9606117,54.8884567],[-2.9603169,54.8885618],[-2.9597433,54.8887674],[-2.959532,54.8888431],[-2.9594216,54.8888824],[-2.9593036,54.8889194],[-2.9589477,54.8890326],[-2.9586339,54.8891205],[-2.9584771,54.8891639],[-2.9576454,54.8894006],[-2.9571007,54.8895647],[-2.9568028,54.889671],[-2.9565848,54.8897487],[-2.9563054,54.8898577],[-2.9558318,54.8900597],[-2.955521,54.8902275],[-2.9553935,54.8903029],[-2.9552484,54.8904004],[-2.9550026,54.890543],[-2.9545641,54.8908203],[-2.9544294,54.8909162],[-2.9543514,54.8909689]]]}},
{"type":"Feature","properties":{"highway":"path","name":null,"category":"Shared path"},"geometry":{"type":"MultiLineString","coordinates":[[[-2.9508151,54.8908956],[-2.9508707,54.8907603],[-2.9513318,54.8905365]]]}},
{"type":"Feature","properties":{"highway":"path","name":null,"category":"Shared path"},"geometry":{"type":"MultiLineString","coordinates":[[[-2.9417592,54.9031874],[-2.9418531,54.9031721],[-2.9419608,54.9031406]]]}},
{"type":"Feature","properties":{"highway":"cycleway","name":null,"category":"Dedicated cycleway"},"geometry":{"type":"MultiLineString","coordinates":[[[-2.9427101,54.8954825],[-2.9428049,54.895469]]]}},
{"type":"Feature","properties":{"highway":"cycleway","name":null,"category":"Dedicated cycleway"},"geometry":{"type":"MultiLineString","coordinates":[[[-2.9426438,54.8954912],[-2.9427101,54.8954825]]]}},
{"type":"Feature","properties":{"highway":"cycleway","name":null,"category":"Dedicated cycleway"},"geometry":{"type":"MultiLineString","coordinates":[[[-2.9406006,54.89631],[-2.9405633,54.8962729],[-2.9405234,54.8962373],[-2.9404534,54.896259],[-2.9404102,54.8962222],[-2.9403127,54.8961384]]]}},
{"type":"Feature","properties":{"highway":"path","name":null,"category":"Shared path"},"geometry":{"type":"MultiLineString","coordinates":[[[-2.932328,54.8959212],[-2.9321635,54.8958694]]]}},
{"type":"Feature","properties":{"highway":"path","name":null,"category":"Shared path"},"geometry":{"type":"MultiLineString","coordinates":[[[-2.9329193,54.8966686],[-2.9329418,54.8966668],[-2.9330019,54.8966795]]]}},
{"type":"Feature","properties":{"highway":"cycleway","name":null,"category":"Dedicated cycleway"},"geometry":{"type":"MultiLineString","coordinates":[[[-2.9335012,54.8973214],[-2.9335718,54.8973875],[-2.9337602,54.8975405],[-2.9338288,54.89759],[-2.934068,54.8977393],[-2.9342564,54.8978253]]]}},
{"type":"Feature","properties":{"highway":"path","name":null,"category":"Shared path"},"geometry":{"type":"MultiLineString","coordinates":[[[-2.9336898,54.8973498],[-2.9335942,54.8973793],[-2.9335718,54.8973875]]]}},
{"type":"Feature","properties":{"highway":"path","name":null,"category":"Shared path"},"geometry":{"type":"MultiLineString","coordinates":[[[-2.9319629,54.8957922],[-2.9318683,54.8958567]]]}},
{"type":"Feature","properties":{"highway":"cycleway","name":null,"category":"Dedicated cycleway"},"geometry":{"type":"MultiLineString","coordinates":[[[-2.9313407,54.8953347],[-2.9314453,54.8956213],[-2.9316722,54.8957607],[-2.9318683,54.8958567],[-2.931974,54.89591],[-2.9321539,54.8959966],[-2.9322828,54.8960709],[-2.932386,54.8961303],[-2.9325144,54.8962486],[-2.9327754,54.8965077],[-2.9329193,54.8966686],[-2.9332509,54.8970796],[-2.9335012,54.8973214]]]}},
{"type":"Feature","properties":{"highway":"cycleway","name":null,"category":"Dedicated cycleway"},"geometry":{"type":"MultiLineString","coordinates":[[[-2.9337352,54.8979016],[-2.9336063,54.8978237],[-2.9334281,54.8977],[-2.9331806,54.8974933],[-2.9329331,54.8972532],[-2.9327968,54.8971015],[-2.9324223,54.8966511],[-2.9322816,54.8964849],[-2.9320658,54.8962987],[-2.9319216,54.8962068],[-2.9317716,54.8961306],[-2.9315848,54.8960424]]]}},
{"type":"Feature","properties":{"highway":"path","name":null,"category":"Shared path"},"geometry":{"type":"MultiLineString","coordinates":[[[-2.9315466,54.8961634],[-2.9316604,54.8961794],[-2.9316974,54.8961582],[-2.9315335,54.8960839],[-2.9315594,54.896063],[-2.9315848,54.8960424]]]}},
{"type":"Feature","properties":{"highway":"path","name":null,"category":"Shared path"},"geometry":{"type":"MultiLineString","coordinates":[[[-2.9313772,54.8978087],[-2.9311449,54.8976598],[-2.9310353,54.8975878],[-2.9310954,54.8975664],[-2.9311856,54.8975267],[-2.931011,54.8974872],[-2.9308495,54.8974412],[-2.9307305,54.8973886],[-2.9306131,54.8973369],[-2.9305567,54.8972921],[-2.9305155,54.8973009],[-2.9304211,54.8973285]]]}},
{"type":"Feature","properties":{"highway":"path","name":null,"category":"Shared path"},"geometry":{"type":"MultiLineString","coordinates":[[[-2.9312708,54.8974892],[-2.9312877,54.8974365],[-2.9314637,54.897108],[-2.931476,54.8970869]]]}},
{"type":"Feature","properties":{"highway":"path","name":null,"category":"Shared path"},"geometry":{"type":"MultiLineString","coordinates":[[[-2.93124,54.8975065],[-2.9312474,54.897474],[-2.931251,54.8974344],[-2.9312475,54.897377],[-2.9312435,54.8973608],[-2.9312395,54.8973377],[-2.9311896,54.8972785]]]}},
{"type":"Feature","properties":{"highway":"path","name":null,"category":"Shared path"},"geometry":{"type":"MultiLineString","coordinates":[[[-2.9314192,54.8970857],[-2.9314053,54.8971068],[-2.931333,54.8971641],[-2.9312626,54.8972156],[-2.9312395,54.8972318],[-2.931198,54.8972532]]]}},
{"type":"Feature","properties":{"highway":"path","name":null,"category":"Shared path"},"geometry":{"type":"MultiLineString","coordinates":[[[-2.9313673,54.8970761],[-2.9311006,54.8971479],[-2.9310794,54.8971536],[-2.9310513,54.8971612],[-2.9306478,54.8972665],[-2.9306066,54.8972758],[-2.9305567,54.8972921]]]}},
{"type":"Feature","properties":{"highway":"path","name":null,"category":"Shared path"},"geometry":{"type":"MultiLineString","coordinates":[[[-2.9311665,54.8972457],[-2.9311202,54.8971988],[-2.9310794,54.8971536]]]}},
{"type":"Feature","properties":{"highway":"path","name":null,"category":"Shared path"},"geometry":{"type":"MultiLineString","coordinates":[[[-2.9310794,54.8971536],[-2.9310149,54.8970713]]]}},
{"type":"Feature","properties":{"highway":"path","name":null,"category":"Shared path"},"geometry":{"type":"MultiLineString","coordinates":[[[-2.9311856,54.8975267],[-2.93124,54.8975065],[-2.9312708,54.8974892],[-2.9313305,54.8974521],[-2.9315699,54.8973406],[-2.9316947,54.8973291],[-2.9317173,54.8973162],[-2.9317279,54.8972765],[-2.9316947,54.8972207],[-2.931554,54.8970749],[-2.9315328,54.897084],[-2.931476,54.8970869],[-2.9314192,54.8970857],[-2.9313673,54.8970761]]]}},
{"type":"Feature","properties":{"highway":"path","name":null,"category":"Shared path"},"geometry":{"type":"MultiLineString","coordinates":[[[-2.931554,54.8970749],[-2.9315736,54.8970593],[-2.9315717,54.8970514],[-2.9317109,54.8970532],[-2.9321548,54.8970777],[-2.9322457,54.8970762],[-2.9321861,54.8969922],[-2.9321299,54.8969207]]]}},
{"type":"Feature","properties":{"highway":"track","name":null,"category":"Track"},"geometry":{"type":"MultiLineString","coordinates":[[[-2.926419,54.8976155],[-2.9262403,54.8974459]]]}},
{"type":"Feature","properties":{"highway":"track","name":null,"category":"Track"},"geometry":{"type":"MultiLineString","coordinates":[[[-2.9276799,54.8980448],[-2.927767,54.8980944],[-2.9277898,54.8981018],[-2.9278278,54.8981141],[-2.9278917,54.8981132],[-2.9282129,54.8980406],[-2.9283937,54.898029],[-2.9287196,54.8980478],[-2.9292995,54.898098],[-2.9294975,54.8981034],[-2.9296347,54.8980819],[-2.9304875,54.897812],[-2.9305982,54.8977797]]]}},
{"type":"Feature","properties":{"highway":"track","name":null,"category":"Track"},"geometry":{"type":"MultiLineString","coordinates":[[[-2.9277898,54.8981018],[-2.9277414,54.8981572],[-2.9277091,54.8981788],[-2.9276214,54.8982118],[-2.9268818,54.898426],[-2.9267636,54.8985001],[-2.9267833,54.8985701],[-2.9270483,54.8988801]]]}},
{"type":"Feature","properties":{"highway":"cycleway","name":null,"category":"Dedicated cycleway"},"geometry":{"type":"MultiLineString","coordinates":[[[-2.9489656,54.8940821],[-2.9489656,54.8940237]]]}},
{"type":"Feature","properties":{"highway":"cycleway","name":null,"category":"Dedicated cycleway"},"geometry":{"type":"MultiLineString","coordinates":[[[-2.9485632,54.8941113],[-2.9485858,54.8941088],[-2.9487495,54.8940912],[-2.9489656,54.8940821]]]}},
{"type":"Feature","properties":{"highway":"cycleway","name":null,"category":"Dedicated cycleway"},"geometry":{"type":"MultiLineString","coordinates":[[[-2.9482533,54.8942046],[-2.9484527,54.8941446],[-2.9485632,54.8941113]]]}},
{"type":"Feature","properties":{"highway":"cycleway","name":null,"category":"Dedicated cycleway"},"geometry":{"type":"MultiLineString","coordinates":[[[-2.9468812,54.8947305],[-2.9468683,54.894711],[-2.946893,54.8946884],[-2.9471026,54.8946093],[-2.9475103,54.8944391],[-2.9475925,54.8944068],[-2.9478255,54.8943152],[-2.9482279,54.8942119],[-2.9482533,54.8942046]]]}},
{"type":"Feature","properties":{"highway":"cycleway","name":null,"category":"Dedicated cycleway"},"geometry":{"type":"MultiLineString","coordinates":[[[-2.94653,54.8949093],[-2.9466294,54.8948709],[-2.9467185,54.8948365],[-2.946792,54.8948124],[-2.9467501,54.8947779],[-2.9468124,54.8947557],[-2.9468812,54.8947305]]]}},
{"type":"Feature","properties":{"highway":"cycleway","name":null,"category":"Dedicated cycleway"},"geometry":{"type":"MultiLineString","coordinates":[[[-2.9448874,54.8952126],[-2.9452072,54.8951666],[-2.9452483,54.8951699],[-2.9452765,54.8951823],[-2.9453034,54.895225]]]}},
{"type":"Feature","properties":{"highway":"cycleway","name":null,"category":"Dedicated cycleway"},"geometry":{"type":"MultiLineString","coordinates":[[[-2.9453034,54.895225],[-2.9454223,54.895214],[-2.9455395,54.895198]]]}},
{"type":"Feature","properties":{"highway":"cycleway","name":null,"category":"Dedicated cycleway"},"geometry":{"type":"MultiLineString","coordinates":[[[-2.9338191,54.8962953],[-2.9338852,54.8963325],[-2.9339396,54.8963631]]]}},
{"type":"Feature","properties":{"highway":"cycleway","name":null,"category":"Dedicated cycleway"},"geometry":{"type":"MultiLineString","coordinates":[[[-2.9418823,54.8944254],[-2.941866,54.8944522],[-2.9419967,54.8945301],[-2.9420948,54.8945918],[-2.9421742,54.8946939],[-2.9422816,54.8947718],[-2.9427019,54.8950457],[-2.9429774,54.8952525],[-2.9431329,54.8953859]]]}},
{"type":"Feature","properties":{"highway":"cycleway","name":null,"category":"Dedicated cycleway"},"geometry":{"type":"MultiLineString","coordinates":[[[-2.9455395,54.895198],[-2.9455217,54.8952571],[-2.9455698,54.8954306],[-2.9456462,54.8955977],[-2.945828,54.8957611],[-2.9465842,54.8964183]]]}},
{"type":"Feature","properties":{"highway":"cycleway","name":null,"category":"Dedicated cycleway"},"geometry":{"type":"MultiLineString","coordinates":[[[-2.9489655,54.8939867],[-2.9489668,54.8939481]]]}},
{"type":"Feature","properties":{"highway":"cycleway","name":null,"category":"Dedicated cycleway"},"geometry":{"type":"MultiLineString","coordinates":[[[-2.9489656,54.8940237],[-2.9489655,54.8939867]]]}},
{"type":"Feature","properties":{"highway":"cycle_lane_on_street","name":"Victoria Viaduct","category":"Cycle lane on street"},"geometry":{"type":"MultiLineString","coordinates":[[[-2.9354649,54.8922541],[-2.9354057,54.8922963],[-2.9353676,54.8923229],[-2.9353141,54.8923668],[-2.9349232,54.8925974],[-2.9348021,54.8926641],[-2.9347577,54.8926772],[-2.934726,54.8926868],[-2.9346993,54.892692],[-2.9346726,54.8926971],[-2.9346186,54.8927048],[-2.9345507,54.8927083],[-2.9344923,54.8927118]]]}},
{"type":"Feature","properties":{"highway":"cycle_lane_on_street","name":"Victoria Viaduct","category":"Cycle lane on street"},"geometry":{"type":"MultiLineString","coordinates":[[[-2.935768,54.8918649],[-2.9356291,54.8921369],[-2.9354649,54.8922541]]]}}
]
}
