{
"type": "FeatureCollection",
"name": "CUMBE_1046_cycling",
"crs": { "type": "name", "properties": { "name": "urn:ogc:def:crs:OGC:1.3:CRS84" } },
"features": [
{"type":"Feature","properties":{"highway":"track","name":null,"category":"Track"},"geometry":{"type":"MultiLineString","coordinates":[[[-2.7673922,54.9642875],[-2.7678895,54.9645664],[-2.768379,54.9648715]]]}},
{"type":"Feature","properties":{"highway":"track","name":null,"category":"Track"},"geometry":{"type":"MultiLineString","coordinates":[[[-2.768379,54.9648715],[-2.7685801,54.9650174],[-2.7686403,54.9650519],[-2.7687205,54.9650836],[-2.7688685,54.9651268],[-2.7691042,54.9651786],[-2.7694102,54.9652204],[-2.7695055,54.965229],[-2.7695682,54.9652391],[-2.7696209,54.9652535],[-2.7696811,54.9652794],[-2.7699467,54.9654678],[-2.7700085,54.9654869],[-2.7703823,54.9654841],[-2.7704833,54.9654914],[-2.7707789,54.9655118],[-2.7715085,54.965553]]]}},
{"type":"Feature","properties":{"highway":"track","name":null,"category":"Track"},"geometry":{"type":"MultiLineString","coordinates":[[[-2.7568921,54.9608514],[-2.7564479,54.9607591],[-2.7563956,54.9607544],[-2.7563071,54.9607602],[-2.7556897,54.9608306],[-2.7550582,54.9609103],[-2.7543724,54.9609865],[-2.7539621,54.9610339],[-2.7535699,54.9610685],[-2.7534533,54.9610893],[-2.7532803,54.9611332],[-2.7530832,54.9612209],[-2.7525523,54.9614715],[-2.7521742,54.9616308],[-2.7516573,54.9618583],[-2.7513657,54.9619865],[-2.7511344,54.9620892],[-2.7507121,54.9622555],[-2.7503501,54.9624033],[-2.7500182,54.9625626],[-2.7497829,54.9626411],[-2.7495738,54.9627012],[-2.749262,54.9627658],[-2.7489021,54.9628755],[-2.7485038,54.9629887],[-2.7482685,54.9630441],[-2.7479146,54.9631226],[-2.7473213,54.9632496],[-2.7467883,54.9633685],[-2.7462212,54.9634863],[-2.7461065,54.9635083]]]}}
]
}
