{
"type": "FeatureCollection",
"name": "TRAFF_22_toilets",
"crs": { "type": "name", "properties": { "name": "urn:ogc:def:crs:OGC:1.3:CRS84" } },
"features": [
{ "type": "Feature", "properties": { "name": "Altrincham Crematorium", "payment_info": "Free", "accessible": "False", "radar": "Unknown", "women": "Unknown", "men": "Unknown", "baby_change": "Unknown", "Mon": "Unknown", "Tue": "Unknown", "Wed": "Unknown", "Thu": "Unknown", "Fri": "Unknown", "Sat": "Unknown", "Sun": "Unknown", "index_right": 35, "park_offical_id": "TRAFF_22" }, "geometry": { "type": "Point", "coordinates": [ -2.394455367, 53.404313433 ] } }
]
}
