{
"type": "FeatureCollection",
"name": "MANCH_20_walking",
"crs": { "type": "name", "properties": { "name": "urn:ogc:def:crs:OGC:1.3:CRS84" } },
"features": [
{"type":"Feature","properties":{"highway":"footway","name":null,"category":"Footpath (pedestrian only)"},"geometry":{"type":"MultiLineString","coordinates":[[[-2.2751993,53.376774],[-2.2748394,53.3771339],[-2.27426,53.3774731],[-2.2753014,53.3780367]]]}},
{"type":"Feature","properties":{"highway":"footway","name":null,"category":"Footpath (pedestrian only)"},"geometry":{"type":"MultiLineString","coordinates":[[[-2.2752198,53.3795141],[-2.2752011,53.3791782]]]}},
{"type":"Feature","properties":{"highway":"footway","name":null,"category":"Footpath (pedestrian only)"},"geometry":{"type":"MultiLineString","coordinates":[[[-2.2781078,53.3786837],[-2.2775981,53.3784395],[-2.2774694,53.3785419],[-2.2779568,53.3787912]]]}},
{"type":"Feature","properties":{"highway":"path","name":null,"category":"Shared path"},"geometry":{"type":"MultiLineString","coordinates":[[[-2.2823057,53.3771869],[-2.2814126,53.3777662]]]}},
{"type":"Feature","properties":{"highway":"path","name":null,"category":"Shared path"},"geometry":{"type":"MultiLineString","coordinates":[[[-2.2823057,53.3771869],[-2.2818511,53.3776915],[-2.281955,53.3777626]]]}},
{"type":"Feature","properties":{"highway":"path","name":null,"category":"Shared path"},"geometry":{"type":"MultiLineString","coordinates":[[[-2.2818511,53.3776915],[-2.2814126,53.3777662]]]}},
{"type":"Feature","properties":{"highway":"footway","name":null,"category":"Footpath (pedestrian only)"},"geometry":{"type":"MultiLineString","coordinates":[[[-2.2826349,53.3781856],[-2.281955,53.3777626]]]}},
{"type":"Feature","properties":{"highway":"path","name":null,"category":"Shared path"},"geometry":{"type":"MultiLineString","coordinates":[[[-2.282705,53.3782524],[-2.2826596,53.3782011],[-2.2826349,53.3781856]]]}},
{"type":"Feature","properties":{"highway":"path","name":null,"category":"Shared path"},"geometry":{"type":"MultiLineString","coordinates":[[[-2.2748581,53.3860119],[-2.2749237,53.3860223],[-2.2759854,53.3862292]]]}},
{"type":"Feature","properties":{"highway":"footway","name":null,"category":"Footpath (pedestrian only)"},"geometry":{"type":"MultiLineString","coordinates":[[[-2.2731348,53.3801809],[-2.2732627,53.3799961],[-2.2733118,53.3798533],[-2.2717584,53.3795934],[-2.2699429,53.379335],[-2.2695787,53.3790619]]]}},
{"type":"Feature","properties":{"highway":"footway","name":null,"category":"Footpath (pedestrian only)"},"geometry":{"type":"MultiLineString","coordinates":[[[-2.2685657,53.3798537],[-2.2685573,53.3798933],[-2.2704257,53.3798341],[-2.2715947,53.3799796],[-2.2731348,53.3801809],[-2.2734926,53.3802901],[-2.2736388,53.3804838]]]}},
{"type":"Feature","properties":{"highway":"path","name":null,"category":"Shared path"},"geometry":{"type":"MultiLineString","coordinates":[[[-2.2870343,53.3806023],[-2.2867558,53.3807557],[-2.2862327,53.3807497],[-2.2840055,53.3807596],[-2.2840028,53.3804297]]]}},
{"type":"Feature","properties":{"highway":"path","name":null,"category":"Shared path"},"geometry":{"type":"MultiLineString","coordinates":[[[-2.2840055,53.3807596],[-2.2839711,53.3808631],[-2.283974,53.3811713],[-2.2839507,53.3813382],[-2.2838656,53.3814759],[-2.283805,53.3815636],[-2.2837245,53.3816129],[-2.2835011,53.3817202],[-2.2834065,53.381778],[-2.2833635,53.3818565],[-2.2833188,53.3819234],[-2.2832627,53.3819817],[-2.2831104,53.3821285],[-2.2829865,53.3822446],[-2.282915,53.3823424],[-2.2829008,53.3824092]]]}},
{"type":"Feature","properties":{"highway":"path","name":null,"category":"Shared path"},"geometry":{"type":"MultiLineString","coordinates":[[[-2.2870343,53.3806023],[-2.2878923,53.3799189]]]}},
{"type":"Feature","properties":{"highway":"path","name":null,"category":"Shared path"},"geometry":{"type":"MultiLineString","coordinates":[[[-2.2867558,53.3807557],[-2.2866481,53.3809535]]]}},
{"type":"Feature","properties":{"highway":"path","name":null,"category":"Shared path"},"geometry":{"type":"MultiLineString","coordinates":[[[-2.2834785,53.3808604],[-2.2826904,53.3808139],[-2.2823919,53.3807895],[-2.282099,53.3807495],[-2.2818287,53.3806386]]]}},
{"type":"Feature","properties":{"highway":"path","name":null,"category":"Shared path"},"geometry":{"type":"MultiLineString","coordinates":[[[-2.2862327,53.3807497],[-2.2866481,53.3809535],[-2.2870881,53.3812687]]]}},
{"type":"Feature","properties":{"highway":"path","name":null,"category":"Shared path"},"geometry":{"type":"MultiLineString","coordinates":[[[-2.2840055,53.3807596],[-2.2838773,53.3807582],[-2.2834785,53.3808604]]]}},
{"type":"Feature","properties":{"highway":"path","name":null,"category":"Shared path"},"geometry":{"type":"MultiLineString","coordinates":[[[-2.2778768,53.3807237],[-2.2778685,53.3808413],[-2.2778202,53.3809053],[-2.2777773,53.3809757],[-2.2777411,53.3810209],[-2.2777183,53.3810493],[-2.2776378,53.3811037],[-2.2775252,53.3811645],[-2.2773964,53.3812285],[-2.2772945,53.3812733]]]}},
{"type":"Feature","properties":{"highway":"path","name":null,"category":"Shared path"},"geometry":{"type":"MultiLineString","coordinates":[[[-2.277416,53.3808053],[-2.2775413,53.3808637],[-2.2776056,53.3808989],[-2.27767,53.3809373],[-2.2777076,53.3809725],[-2.2777411,53.3810209]]]}},
{"type":"Feature","properties":{"highway":"footway","name":null,"category":"Footpath (pedestrian only)"},"geometry":{"type":"MultiLineString","coordinates":[[[-2.2769029,53.3811229],[-2.2767613,53.3809162]]]}},
{"type":"Feature","properties":{"highway":"footway","name":null,"category":"Footpath (pedestrian only)"},"geometry":{"type":"MultiLineString","coordinates":[[[-2.2817394,53.3861673],[-2.2822842,53.38635],[-2.2829007,53.3865523],[-2.2832021,53.3866383],[-2.2833983,53.3866845],[-2.2836066,53.3867209],[-2.2836263,53.3867224],[-2.2836443,53.3867202],[-2.2836596,53.3867137],[-2.2836696,53.3867061],[-2.2838107,53.3864462],[-2.2839416,53.3862726],[-2.2840271,53.3861657],[-2.2840872,53.3861064],[-2.284292,53.3859159],[-2.284479,53.385767],[-2.2846804,53.385618],[-2.2848569,53.3855205]]]}},
{"type":"Feature","properties":{"highway":"path","name":null,"category":"Shared path"},"geometry":{"type":"MultiLineString","coordinates":[[[-2.2840872,53.3861064],[-2.2837854,53.3859927]]]}},
{"type":"Feature","properties":{"highway":"path","name":null,"category":"Shared path"},"geometry":{"type":"MultiLineString","coordinates":[[[-2.2829537,53.3852412],[-2.2830986,53.3852608],[-2.2831323,53.3852681],[-2.2831511,53.3852804],[-2.2832017,53.3853318],[-2.2832257,53.3853867]]]}},
{"type":"Feature","properties":{"highway":"path","name":null,"category":"Shared path"},"geometry":{"type":"MultiLineString","coordinates":[[[-2.2809846,53.3910562],[-2.2810401,53.3909872],[-2.2810096,53.390979],[-2.280985,53.3909725],[-2.2807112,53.3908996],[-2.2805214,53.3908499],[-2.2802626,53.3907749],[-2.2800236,53.3906937],[-2.2798653,53.3906401],[-2.2794456,53.3904721],[-2.2787626,53.3901263],[-2.2784622,53.389945],[-2.2783579,53.3898419],[-2.2782332,53.3897283]]]}},
{"type":"Feature","properties":{"highway":"path","name":null,"category":"Shared path"},"geometry":{"type":"MultiLineString","coordinates":[[[-2.2781327,53.3897544],[-2.2782332,53.3897283],[-2.2783583,53.3896843],[-2.2788276,53.3895117],[-2.2788434,53.389505],[-2.2786709,53.3890142],[-2.2793072,53.3885705],[-2.2796751,53.3885499],[-2.2799943,53.3885135],[-2.2802341,53.3884481],[-2.2804577,53.3883656],[-2.2806569,53.3882432],[-2.2808114,53.3881208],[-2.2808846,53.3880371],[-2.2812749,53.3877946],[-2.281346,53.3877546],[-2.2813718,53.3877673]]]}},
{"type":"Feature","properties":{"highway":"footway","name":null,"category":"Footpath (pedestrian only)"},"geometry":{"type":"MultiLineString","coordinates":[[[-2.280985,53.3909725],[-2.2810472,53.3908972],[-2.2809599,53.3908717]]]}},
{"type":"Feature","properties":{"highway":"path","name":null,"category":"Shared path"},"geometry":{"type":"MultiLineString","coordinates":[[[-2.2807731,53.3906623],[-2.2807944,53.3906375],[-2.2808279,53.3906471],[-2.2808777,53.390609],[-2.2809954,53.3905709],[-2.2811659,53.3908003],[-2.2810096,53.390979]]]}},
{"type":"Feature","properties":{"highway":"path","name":null,"category":"Shared path"},"geometry":{"type":"MultiLineString","coordinates":[[[-2.2820881,53.3854919],[-2.282284,53.3854037],[-2.2823597,53.3853291],[-2.2825136,53.3851413],[-2.2825521,53.3850429],[-2.2825679,53.3849515]]]}},
{"type":"Feature","properties":{"highway":"path","name":null,"category":"Shared path"},"geometry":{"type":"MultiLineString","coordinates":[[[-2.2833544,53.385697],[-2.2829109,53.3857443]]]}},
{"type":"Feature","properties":{"highway":"footway","name":"Footpath and Steps","category":"Footpath (pedestrian only)"},"geometry":{"type":"MultiLineString","coordinates":[[[-2.2746717,53.3857863],[-2.2748246,53.3860079],[-2.2748581,53.3860119]]]}},
{"type":"Feature","properties":{"highway":"path","name":null,"category":"Shared path"},"geometry":{"type":"MultiLineString","coordinates":[[[-2.2741965,53.3857586],[-2.2745902,53.3858056],[-2.2746717,53.3857863],[-2.2748167,53.3856649],[-2.2749007,53.3855667],[-2.2749476,53.3854961],[-2.2749626,53.3854734],[-2.2752125,53.3847047],[-2.2756491,53.3841037],[-2.2758919,53.3837472],[-2.2761138,53.3834394],[-2.2761721,53.3833496],[-2.2764442,53.3829965],[-2.276464,53.3829666],[-2.2766255,53.3827596],[-2.2766854,53.3826624],[-2.2768458,53.3824018],[-2.2768528,53.3823426],[-2.2768563,53.3822605],[-2.2767968,53.3820898],[-2.2766672,53.3816671],[-2.2766994,53.3815809],[-2.2766999,53.3815794],[-2.2767839,53.381454]]]}},
{"type":"Feature","properties":{"highway":"footway","name":null,"category":"Footpath (pedestrian only)"},"geometry":{"type":"MultiLineString","coordinates":[[[-2.2760914,53.3862894],[-2.2760394,53.3862647]]]}},
{"type":"Feature","properties":{"highway":"path","name":null,"category":"Shared path"},"geometry":{"type":"MultiLineString","coordinates":[[[-2.2759854,53.3862292],[-2.2759982,53.3862172],[-2.2760029,53.3862117],[-2.2761851,53.3859743],[-2.2762223,53.3859776]]]}},
{"type":"Feature","properties":{"highway":"path","name":null,"category":"Shared path"},"geometry":{"type":"MultiLineString","coordinates":[[[-2.2748581,53.3860119],[-2.2748621,53.385988],[-2.2749869,53.3855042],[-2.2749476,53.3854961]]]}},
{"type":"Feature","properties":{"highway":"path","name":null,"category":"Shared path"},"geometry":{"type":"MultiLineString","coordinates":[[[-2.2766994,53.3815809],[-2.2763396,53.3815148],[-2.276056,53.3814627],[-2.2755794,53.381341],[-2.2755645,53.3813372],[-2.2750593,53.3812008],[-2.2746581,53.3810946]]]}},
{"type":"Feature","properties":{"highway":"path","name":null,"category":"Shared path"},"geometry":{"type":"MultiLineString","coordinates":[[[-2.2761879,53.3817129],[-2.2763396,53.3815148]]]}},
{"type":"Feature","properties":{"highway":"path","name":null,"category":"Shared path"},"geometry":{"type":"MultiLineString","coordinates":[[[-2.2754277,53.3815244],[-2.2755794,53.381341]]]}},
{"type":"Feature","properties":{"highway":"path","name":null,"category":"Shared path"},"geometry":{"type":"MultiLineString","coordinates":[[[-2.2719365,53.3805588],[-2.2727824,53.3807424],[-2.272839,53.380639]]]}},
{"type":"Feature","properties":{"highway":"path","name":null,"category":"Shared path"},"geometry":{"type":"MultiLineString","coordinates":[[[-2.2745902,53.3858056],[-2.274608,53.3858226],[-2.2746255,53.385845],[-2.2746268,53.3858706],[-2.2746241,53.3859002],[-2.2746107,53.3859338],[-2.2745718,53.3860042],[-2.2743251,53.3864217],[-2.2741789,53.3865929],[-2.2740542,53.3867225],[-2.2740019,53.3867864],[-2.2739576,53.3868944],[-2.2738597,53.3875303],[-2.2738248,53.3877051],[-2.2737598,53.3878734],[-2.2736149,53.3882078],[-2.2734708,53.3884453],[-2.2733096,53.3886967],[-2.2732445,53.3888431],[-2.2731983,53.3890262],[-2.2731996,53.3891342],[-2.2732144,53.3892026],[-2.2732238,53.389243],[-2.2732358,53.3892942],[-2.2733304,53.3895969],[-2.2733646,53.3896865],[-2.27338,53.3897324],[-2.2733847,53.3897468],[-2.2733639,53.3897904],[-2.2732527,53.3899613],[-2.2731659,53.3901335],[-2.2731008,53.3901732],[-2.2730678,53.390184],[-2.2730429,53.3901856],[-2.2730185,53.3901738],[-2.2730013,53.3901563],[-2.272976,53.3901461],[-2.2729483,53.3901441],[-2.2729215,53.3901548],[-2.2728765,53.3901649],[-2.2728253,53.390177],[-2.27275,53.3902092],[-2.2726143,53.390265],[-2.2724967,53.3903433],[-2.2723351,53.3905384],[-2.2721228,53.3911551],[-2.271952,53.3914043],[-2.2715193,53.3918862],[-2.2713588,53.392065],[-2.2712572,53.3921957],[-2.2708392,53.3926586]]]}},
{"type":"Feature","properties":{"highway":"path","name":null,"category":"Shared path"},"geometry":{"type":"MultiLineString","coordinates":[[[-2.2817054,53.388984],[-2.2827089,53.3888833]]]}},
{"type":"Feature","properties":{"highway":"path","name":null,"category":"Shared path"},"geometry":{"type":"MultiLineString","coordinates":[[[-2.2816767,53.3888946],[-2.2826775,53.3887884]]]}},
{"type":"Feature","properties":{"highway":"path","name":null,"category":"Shared path"},"geometry":{"type":"MultiLineString","coordinates":[[[-2.2812749,53.3877946],[-2.2811572,53.3877278],[-2.2809006,53.3878925],[-2.2805219,53.3876856],[-2.2801769,53.3874629],[-2.2802335,53.3874102],[-2.2801822,53.3873722],[-2.2802848,53.3873173]]]}},
{"type":"Feature","properties":{"highway":"footway","name":null,"category":"Footpath (pedestrian only)"},"geometry":{"type":"MultiLineString","coordinates":[[[-2.2797786,53.386325],[-2.2789431,53.3859673],[-2.278874,53.386034],[-2.2797298,53.3863905],[-2.2798698,53.3864107]]]}},
{"type":"Feature","properties":{"highway":"path","name":null,"category":"Shared path"},"geometry":{"type":"MultiLineString","coordinates":[[[-2.2760537,53.3864117],[-2.2764306,53.3864745],[-2.2763139,53.3867837],[-2.2759276,53.3867377]]]}},
{"type":"Feature","properties":{"highway":"path","name":null,"category":"Shared path"},"geometry":{"type":"MultiLineString","coordinates":[[[-2.2777369,53.3869838],[-2.2774113,53.3868533],[-2.2771241,53.3868282],[-2.2771638,53.3867182],[-2.2777997,53.3869057]]]}},
{"type":"Feature","properties":{"highway":"path","name":null,"category":"Shared path"},"geometry":{"type":"MultiLineString","coordinates":[[[-2.2774319,53.3860566],[-2.2772107,53.3862486],[-2.2770698,53.3862022],[-2.2771879,53.3859831]]]}},
{"type":"Feature","properties":{"highway":"path","name":null,"category":"Shared path"},"geometry":{"type":"MultiLineString","coordinates":[[[-2.2760914,53.3862894],[-2.2759651,53.3863345],[-2.2755445,53.3874085],[-2.2753489,53.3881031],[-2.2751578,53.3883319],[-2.2749945,53.3886755],[-2.2748174,53.3890908],[-2.2747143,53.3891949],[-2.2746754,53.3892899],[-2.2745679,53.3897917],[-2.2741159,53.3897989],[-2.2740006,53.3899261]]]}},
{"type":"Feature","properties":{"highway":"path","name":null,"category":"Shared path"},"geometry":{"type":"MultiLineString","coordinates":[[[-2.2745679,53.3897917],[-2.2746111,53.3898375],[-2.2746554,53.3898702],[-2.2746939,53.3898869],[-2.2748772,53.3899169],[-2.2749555,53.3899976],[-2.2750781,53.3900854],[-2.2751796,53.3901362],[-2.2752882,53.3901961],[-2.2753874,53.3902434],[-2.2754143,53.3902594],[-2.2754166,53.3902754],[-2.2754225,53.3902942],[-2.2754095,53.3903549]]]}},
{"type":"Feature","properties":{"highway":"path","name":null,"category":"Shared path"},"geometry":{"type":"MultiLineString","coordinates":[[[-2.2834474,53.3857803],[-2.2834384,53.3857678],[-2.2834169,53.385738],[-2.2833544,53.385697],[-2.2833258,53.3856289]]]}},
{"type":"Feature","properties":{"highway":"path","name":null,"category":"Shared path"},"geometry":{"type":"MultiLineString","coordinates":[[[-2.2838107,53.3864462],[-2.2837028,53.3864146],[-2.28358,53.3863682],[-2.2834788,53.3863073],[-2.2833888,53.3862324],[-2.2832941,53.3861647],[-2.283198,53.3861145],[-2.2831013,53.3860619],[-2.2830167,53.3860015],[-2.2829717,53.3859499],[-2.2829109,53.3857443]]]}},
{"type":"Feature","properties":{"highway":"path","name":null,"category":"Shared path"},"geometry":{"type":"MultiLineString","coordinates":[[[-2.2835051,53.3860723],[-2.2834494,53.3860627],[-2.2833984,53.3860463],[-2.2833585,53.3860259],[-2.2833545,53.3860238],[-2.2833196,53.3859962],[-2.2832954,53.3859648],[-2.2832829,53.385931],[-2.2832829,53.3858964],[-2.2832952,53.3858626],[-2.2833193,53.3858312],[-2.283354,53.3858035],[-2.2833979,53.3857809],[-2.2834384,53.3857678],[-2.2834489,53.3857644],[-2.2835045,53.3857548],[-2.2835624,53.3857525],[-2.2836246,53.3857583],[-2.283683,53.3857727],[-2.2837341,53.3857947],[-2.2837753,53.3858231],[-2.2838044,53.3858565],[-2.2838196,53.385893],[-2.2838203,53.3859306],[-2.2838063,53.3859673],[-2.2837854,53.3859927],[-2.2837785,53.3860011],[-2.2837383,53.38603],[-2.2836879,53.3860527],[-2.2836301,53.3860677],[-2.2835681,53.3860744],[-2.2835051,53.3860723]]]}},
{"type":"Feature","properties":{"highway":"footway","name":null,"category":"Footpath (pedestrian only)"},"geometry":{"type":"MultiLineString","coordinates":[[[-2.2760117,53.3862501],[-2.2759942,53.386237]]]}},
{"type":"Feature","properties":{"highway":"footway","name":null,"category":"Footpath (pedestrian only)"},"geometry":{"type":"MultiLineString","coordinates":[[[-2.2759942,53.386237],[-2.2759854,53.3862292]]]}},
{"type":"Feature","properties":{"highway":"footway","name":null,"category":"Footpath (pedestrian only)"},"geometry":{"type":"MultiLineString","coordinates":[[[-2.280406,53.3921323],[-2.2800532,53.3920302],[-2.2796204,53.391905],[-2.279008,53.3917098],[-2.2790283,53.3916841],[-2.2790514,53.3916486]]]}},
{"type":"Feature","properties":{"highway":"path","name":null,"category":"Shared path"},"geometry":{"type":"MultiLineString","coordinates":[[[-2.2902333,53.3873222],[-2.2900224,53.3872546],[-2.2892363,53.3871006]]]}},
{"type":"Feature","properties":{"highway":"footway","name":null,"category":"Footpath (pedestrian only)"},"geometry":{"type":"MultiLineString","coordinates":[[[-2.2902778,53.385574],[-2.2885951,53.3852752]]]}},
{"type":"Feature","properties":{"highway":"path","name":null,"category":"Shared path"},"geometry":{"type":"MultiLineString","coordinates":[[[-2.283204,53.3779666],[-2.2831611,53.3779522],[-2.2826596,53.3782011]]]}},
{"type":"Feature","properties":{"highway":"footway","name":null,"category":"Footpath (pedestrian only)"},"geometry":{"type":"MultiLineString","coordinates":[[[-2.2777173,53.3813738],[-2.2784231,53.3815542],[-2.2786264,53.3816071]]]}},
{"type":"Feature","properties":{"highway":"footway","name":null,"category":"Footpath (pedestrian only)"},"geometry":{"type":"MultiLineString","coordinates":[[[-2.2786264,53.3816071],[-2.2788338,53.381661],[-2.2789157,53.3816823],[-2.2797648,53.3820986]]]}},
{"type":"Feature","properties":{"highway":"footway","name":null,"category":"Footpath (pedestrian only)"},"geometry":{"type":"MultiLineString","coordinates":[[[-2.2761958,53.3811725],[-2.2764391,53.3811867],[-2.2768814,53.3812157],[-2.2772945,53.3812733],[-2.2774645,53.3813092],[-2.2777173,53.3813738]]]}},
{"type":"Feature","properties":{"highway":"footway","name":null,"category":"Footpath (pedestrian only)"},"geometry":{"type":"MultiLineString","coordinates":[[[-2.2742459,53.3809805],[-2.2745416,53.3810638],[-2.2746581,53.3810946],[-2.275372,53.381243],[-2.275688,53.3812955],[-2.2766587,53.3814249],[-2.2767839,53.381454],[-2.2769167,53.3815075],[-2.2769974,53.3815586],[-2.2770512,53.3816038],[-2.2770819,53.3815918]]]}},
{"type":"Feature","properties":{"highway":"footway","name":null,"category":"Footpath (pedestrian only)"},"geometry":{"type":"MultiLineString","coordinates":[[[-2.28128,53.3823223],[-2.281282,53.3823844],[-2.281282,53.3824232]]]}},
{"type":"Feature","properties":{"highway":"footway","name":null,"category":"Footpath (pedestrian only)"},"geometry":{"type":"MultiLineString","coordinates":[[[-2.289359,53.3795052],[-2.2898756,53.3791783],[-2.2903484,53.3788858],[-2.2908229,53.3785923],[-2.2910211,53.378415],[-2.2911697,53.3779336],[-2.2913042,53.377334],[-2.2918705,53.3769286],[-2.2922669,53.3765908],[-2.2925288,53.3762023],[-2.2927977,53.3757421],[-2.2929252,53.3756196],[-2.2930809,53.3755098],[-2.2933003,53.3755225],[-2.2937392,53.3753325],[-2.2954451,53.3746315],[-2.2955689,53.3744792]]]}},
{"type":"Feature","properties":{"highway":"footway","name":null,"category":"Footpath (pedestrian only)"},"geometry":{"type":"MultiLineString","coordinates":[[[-2.2925783,53.3873948],[-2.2924728,53.3873949]]]}},
{"type":"Feature","properties":{"highway":"footway","name":null,"category":"Footpath (pedestrian only)"},"geometry":{"type":"MultiLineString","coordinates":[[[-2.2919274,53.3873932],[-2.2919395,53.3873652],[-2.2919448,53.3873452],[-2.2919422,53.3873204],[-2.2919274,53.387298],[-2.2919086,53.3872692],[-2.2918966,53.3872365],[-2.2918952,53.3872061],[-2.2918939,53.3871725],[-2.2919019,53.3871349],[-2.2919073,53.3871053],[-2.2919194,53.3870549],[-2.2919628,53.3869523]]]}},
{"type":"Feature","properties":{"highway":"footway","name":null,"category":"Footpath (pedestrian only)"},"geometry":{"type":"MultiLineString","coordinates":[[[-2.2921031,53.3873936],[-2.2921071,53.387546]]]}},
{"type":"Feature","properties":{"highway":"footway","name":null,"category":"Footpath (pedestrian only)"},"geometry":{"type":"MultiLineString","coordinates":[[[-2.2918028,53.3873929],[-2.2918108,53.3872782],[-2.2917451,53.3872214],[-2.2915322,53.3871387]]]}},
{"type":"Feature","properties":{"highway":"footway","name":null,"category":"Footpath (pedestrian only)"},"geometry":{"type":"MultiLineString","coordinates":[[[-2.2924728,53.3873949],[-2.2922722,53.3873958]]]}},
{"type":"Feature","properties":{"highway":"footway","name":null,"category":"Footpath (pedestrian only)"},"geometry":{"type":"MultiLineString","coordinates":[[[-2.2922722,53.3873958],[-2.2922302,53.3873953],[-2.2921031,53.3873936],[-2.2919274,53.3873932],[-2.2918028,53.3873929],[-2.2915935,53.3874339]]]}},
{"type":"Feature","properties":{"highway":"footway","name":null,"category":"Footpath (pedestrian only)"},"geometry":{"type":"MultiLineString","coordinates":[[[-2.2902333,53.3873222],[-2.2903506,53.3873877],[-2.2908093,53.3875397],[-2.2913023,53.3875403]]]}},
{"type":"Feature","properties":{"highway":"footway","name":null,"category":"Footpath (pedestrian only)"},"geometry":{"type":"MultiLineString","coordinates":[[[-2.2909046,53.3883346],[-2.291158,53.3882579],[-2.2912099,53.3882296],[-2.2912519,53.3882067],[-2.2912495,53.3879487]]]}},
{"type":"Feature","properties":{"highway":"footway","name":null,"category":"Footpath (pedestrian only)"},"geometry":{"type":"MultiLineString","coordinates":[[[-2.2912099,53.3882296],[-2.2913699,53.3883123],[-2.2917293,53.3884323],[-2.2923891,53.3885138]]]}},
{"type":"Feature","properties":{"highway":"footway","name":null,"category":"Footpath (pedestrian only)"},"geometry":{"type":"MultiLineString","coordinates":[[[-2.2917451,53.3872214],[-2.2914564,53.3873178],[-2.2905525,53.3873258],[-2.2904157,53.3872826]]]}},
{"type":"Feature","properties":{"highway":"footway","name":null,"category":"Footpath (pedestrian only)"},"geometry":{"type":"MultiLineString","coordinates":[[[-2.2922302,53.3873953],[-2.2921013,53.387272]]]}},
{"type":"Feature","properties":{"highway":"footway","name":null,"category":"Footpath (pedestrian only)"},"geometry":{"type":"MultiLineString","coordinates":[[[-2.2935434,53.3870915],[-2.2935417,53.3873333],[-2.2935437,53.3873491]]]}},
{"type":"Feature","properties":{"highway":"footway","name":null,"category":"Footpath (pedestrian only)"},"geometry":{"type":"MultiLineString","coordinates":[[[-2.2925905,53.3879797],[-2.292615,53.3879294],[-2.2926068,53.3877844],[-2.2926055,53.3876943],[-2.2926014,53.3874979],[-2.2926026,53.3873799],[-2.2926592,53.3873286],[-2.2927056,53.387273],[-2.2929158,53.3871246]]]}},
{"type":"Feature","properties":{"highway":"footway","name":null,"category":"Footpath (pedestrian only)"},"geometry":{"type":"MultiLineString","coordinates":[[[-2.2912639,53.3800503],[-2.291314,53.3800825],[-2.290841,53.3803607],[-2.2907669,53.3804043]]]}},
{"type":"Feature","properties":{"highway":"footway","name":null,"category":"Footpath (pedestrian only)"},"geometry":{"type":"MultiLineString","coordinates":[[[-2.2850395,53.3925538],[-2.2850243,53.3924838],[-2.2850203,53.3924508],[-2.2850136,53.3924115],[-2.2850857,53.3924084],[-2.2850738,53.392332],[-2.285057,53.3922561]]]}},
{"type":"Feature","properties":{"highway":"footway","name":null,"category":"Footpath (pedestrian only)"},"geometry":{"type":"MultiLineString","coordinates":[[[-2.283867,53.3926323],[-2.2837751,53.3926279],[-2.2831299,53.3925888],[-2.2829274,53.392587],[-2.2829054,53.3926026]]]}},
{"type":"Feature","properties":{"highway":"footway","name":null,"category":"Footpath (pedestrian only)"},"geometry":{"type":"MultiLineString","coordinates":[[[-2.2837751,53.3926279],[-2.2837692,53.3925541],[-2.2835733,53.392549],[-2.2835766,53.3925206],[-2.2837221,53.3925247],[-2.2837204,53.3924929],[-2.2837235,53.3924598],[-2.2837291,53.3924193],[-2.2837853,53.3924169],[-2.2837887,53.3923718],[-2.2837992,53.3922021]]]}},
{"type":"Feature","properties":{"highway":"footway","name":null,"category":"Footpath (pedestrian only)"},"geometry":{"type":"MultiLineString","coordinates":[[[-2.2831299,53.3925888],[-2.2831513,53.3925105],[-2.2829757,53.3924964],[-2.2829828,53.3924566],[-2.2829858,53.3924259],[-2.2829964,53.3923875],[-2.2830505,53.3923896],[-2.2830679,53.392343],[-2.2831087,53.3921753]]]}},
{"type":"Feature","properties":{"highway":"footway","name":null,"category":"Footpath (pedestrian only)"},"geometry":{"type":"MultiLineString","coordinates":[[[-2.2820852,53.3925089],[-2.2821155,53.392448],[-2.2818908,53.3923988],[-2.2819002,53.3923768],[-2.2820418,53.3923953],[-2.2820422,53.3923559],[-2.2820522,53.3923254],[-2.282061,53.3922911],[-2.2821254,53.3922993],[-2.2821395,53.3922525],[-2.2821987,53.3920864]]]}},
{"type":"Feature","properties":{"highway":"footway","name":null,"category":"Footpath (pedestrian only)"},"geometry":{"type":"MultiLineString","coordinates":[[[-2.2790514,53.3916486],[-2.2794483,53.3917657]]]}},
{"type":"Feature","properties":{"highway":"footway","name":null,"category":"Footpath (pedestrian only)"},"geometry":{"type":"MultiLineString","coordinates":[[[-2.2805309,53.3919655],[-2.2805741,53.3918331],[-2.2805865,53.391795]]]}},
{"type":"Feature","properties":{"highway":"footway","name":null,"category":"Footpath (pedestrian only)"},"geometry":{"type":"MultiLineString","coordinates":[[[-2.279161,53.3915593],[-2.2792136,53.3915003],[-2.2793844,53.3915507],[-2.2794304,53.3915078],[-2.2794625,53.391394]]]}},
{"type":"Feature","properties":{"highway":"footway","name":null,"category":"Footpath (pedestrian only)"},"geometry":{"type":"MultiLineString","coordinates":[[[-2.2794304,53.3915078],[-2.2796113,53.3915705],[-2.2798239,53.3916339],[-2.2801397,53.3917175],[-2.2802799,53.3917534],[-2.2805741,53.3918331]]]}},
{"type":"Feature","properties":{"highway":"footway","name":null,"category":"Footpath (pedestrian only)"},"geometry":{"type":"MultiLineString","coordinates":[[[-2.279008,53.3917098],[-2.2786685,53.391599],[-2.2781956,53.3914272],[-2.2780986,53.3913943],[-2.2776796,53.391252],[-2.2774645,53.391189],[-2.2773765,53.3911632],[-2.2768735,53.3910159],[-2.2768384,53.3910056],[-2.2760608,53.3907646]]]}},
{"type":"Feature","properties":{"highway":"path","name":null,"category":"Shared path"},"geometry":{"type":"MultiLineString","coordinates":[[[-2.2789233,53.3815384],[-2.27901,53.3814256],[-2.2790826,53.3813971],[-2.279171,53.3813867],[-2.279275,53.3813926],[-2.279417,53.3814281],[-2.2798958,53.3815296]]]}},
{"type":"Feature","properties":{"highway":"path","name":null,"category":"Shared path"},"geometry":{"type":"MultiLineString","coordinates":[[[-2.27901,53.3814256],[-2.2790243,53.3812903],[-2.279158,53.3811287],[-2.2793261,53.3810633],[-2.2794983,53.3810485]]]}},
{"type":"Feature","properties":{"highway":"path","name":"Chelt Walk","category":"Shared path"},"geometry":{"type":"MultiLineString","coordinates":[[[-2.2786784,53.3795126],[-2.278338,53.3794244]]]}},
{"type":"Feature","properties":{"highway":"path","name":null,"category":"Shared path"},"geometry":{"type":"MultiLineString","coordinates":[[[-2.2796692,53.3791461],[-2.2798207,53.3790735],[-2.2802536,53.3786958],[-2.2802458,53.3786574]]]}},
{"type":"Feature","properties":{"highway":"path","name":null,"category":"Shared path"},"geometry":{"type":"MultiLineString","coordinates":[[[-2.2805692,53.379899],[-2.2807766,53.3795196],[-2.2824671,53.3782382],[-2.282705,53.3782524]]]}},
{"type":"Feature","properties":{"highway":"path","name":null,"category":"Shared path"},"geometry":{"type":"MultiLineString","coordinates":[[[-2.2845051,53.3772837],[-2.2851064,53.377023],[-2.2855426,53.3768838],[-2.2861267,53.3767639],[-2.2863828,53.3767062],[-2.2868133,53.3767356],[-2.2874809,53.376888],[-2.2882652,53.377161],[-2.2888491,53.3775872],[-2.2894243,53.3781799],[-2.2899079,53.3784658],[-2.2901476,53.3786581],[-2.2903484,53.3788858]]]}},
{"type":"Feature","properties":{"highway":"footway","name":null,"category":"Footpath (pedestrian only)"},"geometry":{"type":"MultiLineString","coordinates":[[[-2.2885773,53.3921172],[-2.2884608,53.3920481],[-2.288104,53.3920193],[-2.287783,53.3920946],[-2.2875166,53.3921601],[-2.2872868,53.3922066],[-2.2870151,53.3922705],[-2.286779,53.3923105],[-2.2865626,53.3923553],[-2.2863609,53.3923868]]]}},
{"type":"Feature","properties":{"highway":"footway","name":null,"category":"Footpath (pedestrian only)"},"geometry":{"type":"MultiLineString","coordinates":[[[-2.2790514,53.3916486],[-2.2789566,53.3916196],[-2.2789833,53.3915924],[-2.2790091,53.3915627],[-2.2783391,53.3913318],[-2.2783821,53.3912885]]]}},
{"type":"Feature","properties":{"highway":"footway","name":null,"category":"Footpath (pedestrian only)"},"geometry":{"type":"MultiLineString","coordinates":[[[-2.279124,53.3915987],[-2.279161,53.3915593]]]}},
{"type":"Feature","properties":{"highway":"footway","name":null,"category":"Footpath (pedestrian only)"},"geometry":{"type":"MultiLineString","coordinates":[[[-2.2821014,53.3872042],[-2.2820095,53.3872733],[-2.2820578,53.3873158],[-2.2816317,53.3875365]]]}},
{"type":"Feature","properties":{"highway":"path","name":null,"category":"Shared path"},"geometry":{"type":"MultiLineString","coordinates":[[[-2.2766255,53.3827596],[-2.276542,53.3826606],[-2.2765066,53.3826131],[-2.2763298,53.3826503],[-2.276277,53.3825575]]]}},
{"type":"Feature","properties":{"highway":"path","name":null,"category":"Shared path"},"geometry":{"type":"MultiLineString","coordinates":[[[-2.2752964,53.3823383],[-2.2751695,53.3823344],[-2.2749559,53.3824411],[-2.2748433,53.382429],[-2.2744503,53.3823684]]]}},
{"type":"Feature","properties":{"highway":"path","name":null,"category":"Shared path"},"geometry":{"type":"MultiLineString","coordinates":[[[-2.2778094,53.3908317],[-2.2777073,53.3908553],[-2.2776996,53.3908632],[-2.2775693,53.3909979],[-2.2775183,53.3910508],[-2.2775752,53.3910708],[-2.2775187,53.3911331],[-2.2774861,53.3911677],[-2.2774645,53.391189]]]}},
{"type":"Feature","properties":{"highway":"path","name":null,"category":"Shared path"},"geometry":{"type":"MultiLineString","coordinates":[[[-2.2776996,53.3908632],[-2.2769117,53.3906175]]]}},
{"type":"Feature","properties":{"highway":"path","name":null,"category":"Shared path"},"geometry":{"type":"MultiLineString","coordinates":[[[-2.2773981,53.3913179],[-2.277393,53.3912559],[-2.2773649,53.3911775],[-2.2773765,53.3911632]]]}},
{"type":"Feature","properties":{"highway":"path","name":null,"category":"Shared path"},"geometry":{"type":"MultiLineString","coordinates":[[[-2.2767615,53.3911304],[-2.2767708,53.3910836],[-2.2768145,53.3910795],[-2.2768735,53.3910159]]]}},
{"type":"Feature","properties":{"highway":"footway","name":null,"category":"Footpath (pedestrian only)"},"geometry":{"type":"MultiLineString","coordinates":[[[-2.2794639,53.3773952],[-2.2798046,53.377481],[-2.279466,53.377729],[-2.2792624,53.3776557]]]}},
{"type":"Feature","properties":{"highway":"footway","name":null,"category":"Footpath (pedestrian only)"},"geometry":{"type":"MultiLineString","coordinates":[[[-2.2815573,53.37694],[-2.2813507,53.3768094],[-2.2811166,53.3768186],[-2.2808855,53.3768297],[-2.280639,53.3768407],[-2.2805219,53.3768131],[-2.2804942,53.3767396],[-2.2805712,53.3766753],[-2.2806182,53.3765965]]]}},
{"type":"Feature","properties":{"highway":"footway","name":null,"category":"Footpath (pedestrian only)"},"geometry":{"type":"MultiLineString","coordinates":[[[-2.2804942,53.3767396],[-2.2802816,53.3767506],[-2.2802264,53.3767542],[-2.2800228,53.3767672],[-2.2799549,53.3767699],[-2.2798841,53.3767727],[-2.2796349,53.3767875]]]}},
{"type":"Feature","properties":{"highway":"footway","name":null,"category":"Footpath (pedestrian only)"},"geometry":{"type":"MultiLineString","coordinates":[[[-2.2796064,53.3765804],[-2.279878,53.3765558],[-2.2799087,53.3765724],[-2.2800074,53.3766256],[-2.2802264,53.3767542]]]}},
{"type":"Feature","properties":{"highway":"footway","name":null,"category":"Footpath (pedestrian only)"},"geometry":{"type":"MultiLineString","coordinates":[[[-2.2799549,53.3767699],[-2.2799087,53.3765724]]]}},
{"type":"Feature","properties":{"highway":"footway","name":null,"category":"Footpath (pedestrian only)"},"geometry":{"type":"MultiLineString","coordinates":[[[-2.2776415,53.3766072],[-2.2782573,53.376758],[-2.2782649,53.3768051]]]}},
{"type":"Feature","properties":{"highway":"footway","name":null,"category":"Footpath (pedestrian only)"},"geometry":{"type":"MultiLineString","coordinates":[[[-2.2782649,53.3768051],[-2.2783083,53.3770452],[-2.2777309,53.3770833]]]}},
{"type":"Feature","properties":{"highway":"footway","name":null,"category":"Footpath (pedestrian only)"},"geometry":{"type":"MultiLineString","coordinates":[[[-2.2732627,53.3799961],[-2.2734087,53.3800015],[-2.2735207,53.3800095],[-2.2737671,53.3799828],[-2.2738433,53.3799667],[-2.2739239,53.3799053],[-2.2740314,53.3798171],[-2.2741882,53.3797342],[-2.2743584,53.3796487],[-2.2745242,53.3795846],[-2.2746676,53.3795525],[-2.274834,53.3795478]]]}},
{"type":"Feature","properties":{"highway":"footway","name":null,"category":"Footpath (pedestrian only)"},"geometry":{"type":"MultiLineString","coordinates":[[[-2.2906947,53.3896001],[-2.2908514,53.3893908],[-2.2909071,53.3893196]]]}},
{"type":"Feature","properties":{"highway":"footway","name":null,"category":"Footpath (pedestrian only)"},"geometry":{"type":"MultiLineString","coordinates":[[[-2.2728919,53.3842164],[-2.2716233,53.3842766]]]}},
{"type":"Feature","properties":{"highway":"footway","name":null,"category":"Footpath (pedestrian only)"},"geometry":{"type":"MultiLineString","coordinates":[[[-2.2715979,53.3841786],[-2.2728792,53.3841216]]]}},
{"type":"Feature","properties":{"highway":"footway","name":null,"category":"Footpath (pedestrian only)"},"geometry":{"type":"MultiLineString","coordinates":[[[-2.2715115,53.3848095],[-2.2716533,53.3848374],[-2.271709,53.384859],[-2.2717197,53.3848858],[-2.271709,53.3849358],[-2.2716554,53.384961],[-2.2716084,53.3849634],[-2.2714341,53.3849071]]]}},
{"type":"Feature","properties":{"highway":"path","name":null,"category":"Shared path"},"geometry":{"type":"MultiLineString","coordinates":[[[-2.2816757,53.3861886],[-2.2817394,53.3861673],[-2.2819976,53.3858364],[-2.282106,53.3856357],[-2.2821159,53.3856065],[-2.2820881,53.3854919],[-2.2820438,53.3854553]]]}},
{"type":"Feature","properties":{"highway":"path","name":null,"category":"Shared path"},"geometry":{"type":"MultiLineString","coordinates":[[[-2.2829537,53.3852412],[-2.2829514,53.3852627],[-2.2828855,53.3854392],[-2.2828554,53.3855367],[-2.2828639,53.3856045],[-2.2829109,53.3857443]]]}},
{"type":"Feature","properties":{"highway":"path","name":null,"category":"Shared path"},"geometry":{"type":"MultiLineString","coordinates":[[[-2.2821662,53.385016],[-2.2822486,53.3849935],[-2.2823405,53.384971],[-2.2825247,53.3849529]]]}},
{"type":"Feature","properties":{"highway":"path","name":null,"category":"Shared path"},"geometry":{"type":"MultiLineString","coordinates":[[[-2.2826874,53.3849476],[-2.2827328,53.3849497],[-2.2827773,53.3849626],[-2.2828828,53.3850295],[-2.2829173,53.3850888],[-2.282948,53.385186],[-2.2829537,53.3852412]]]}},
{"type":"Feature","properties":{"highway":"path","name":null,"category":"Shared path"},"geometry":{"type":"MultiLineString","coordinates":[[[-2.2825247,53.3849529],[-2.2825679,53.3849515],[-2.2826874,53.3849476]]]}},
{"type":"Feature","properties":{"highway":"path","name":null,"category":"Shared path"},"geometry":{"type":"MultiLineString","coordinates":[[[-2.2827328,53.3849497],[-2.2827455,53.3847293],[-2.2827474,53.3845863],[-2.2828014,53.3843666],[-2.2828899,53.3842406],[-2.2829823,53.384131],[-2.28303,53.3840913]]]}},
{"type":"Feature","properties":{"highway":"path","name":null,"category":"Shared path"},"geometry":{"type":"MultiLineString","coordinates":[[[-2.2833585,53.3860259],[-2.283198,53.3861145]]]}},
{"type":"Feature","properties":{"highway":"footway","name":null,"category":"Footpath (pedestrian only)"},"geometry":{"type":"MultiLineString","coordinates":[[[-2.2909071,53.3893196],[-2.2905429,53.3892196],[-2.290441,53.3892445],[-2.2903901,53.3892682],[-2.2903501,53.3892557]]]}},
{"type":"Feature","properties":{"highway":"footway","name":null,"category":"Footpath (pedestrian only)"},"geometry":{"type":"MultiLineString","coordinates":[[[-2.2909071,53.3893196],[-2.2912849,53.3894269],[-2.2914684,53.3894791]]]}},
{"type":"Feature","properties":{"highway":"footway","name":null,"category":"Footpath (pedestrian only)"},"geometry":{"type":"MultiLineString","coordinates":[[[-2.2917317,53.3900488],[-2.2917127,53.3900739],[-2.2915579,53.3901149],[-2.291234,53.3901787],[-2.2911577,53.3901941],[-2.2910208,53.3902217],[-2.2906089,53.3903097],[-2.2903158,53.3903633],[-2.2902659,53.3903672],[-2.2902351,53.3903551],[-2.2901971,53.3903207],[-2.2901904,53.390308],[-2.2901348,53.3902029],[-2.2901064,53.3901516],[-2.2900521,53.3900531],[-2.2900073,53.38997],[-2.28998,53.3899194],[-2.2899065,53.3898067],[-2.2899334,53.3897876]]]}},
{"type":"Feature","properties":{"highway":"footway","name":null,"category":"Footpath (pedestrian only)"},"geometry":{"type":"MultiLineString","coordinates":[[[-2.2925852,53.3879256],[-2.2925905,53.3879797],[-2.2926027,53.388104]]]}},
{"type":"Feature","properties":{"highway":"footway","name":null,"category":"Footpath (pedestrian only)"},"geometry":{"type":"MultiLineString","coordinates":[[[-2.29357,53.3873694],[-2.2935788,53.3873836]]]}},
{"type":"Feature","properties":{"highway":"footway","name":null,"category":"Footpath (pedestrian only)"},"geometry":{"type":"MultiLineString","coordinates":[[[-2.29357,53.3873694],[-2.2935437,53.3873491]]]}},
{"type":"Feature","properties":{"highway":"footway","name":null,"category":"Footpath (pedestrian only)"},"geometry":{"type":"MultiLineString","coordinates":[[[-2.2773373,53.3815232],[-2.2773638,53.381478],[-2.2773747,53.3814595]]]}},
{"type":"Feature","properties":{"highway":"footway","name":null,"category":"Footpath (pedestrian only)"},"geometry":{"type":"MultiLineString","coordinates":[[[-2.2770819,53.3815918],[-2.277131,53.3815727],[-2.2771532,53.3815636]]]}},
{"type":"Feature","properties":{"highway":"footway","name":null,"category":"Footpath (pedestrian only)"},"geometry":{"type":"MultiLineString","coordinates":[[[-2.2771532,53.3815636],[-2.277242,53.3815294],[-2.2773227,53.3815469],[-2.2773373,53.3815232]]]}},
{"type":"Feature","properties":{"highway":"footway","name":null,"category":"Footpath (pedestrian only)"},"geometry":{"type":"MultiLineString","coordinates":[[[-2.2774518,53.3813289],[-2.2774645,53.3813092]]]}},
{"type":"Feature","properties":{"highway":"footway","name":null,"category":"Footpath (pedestrian only)"},"geometry":{"type":"MultiLineString","coordinates":[[[-2.2774067,53.3814067],[-2.2774332,53.3813617],[-2.2774518,53.3813289]]]}},
{"type":"Feature","properties":{"highway":"footway","name":null,"category":"Footpath (pedestrian only)"},"geometry":{"type":"MultiLineString","coordinates":[[[-2.2773747,53.3814595],[-2.2774067,53.3814067]]]}},
{"type":"Feature","properties":{"highway":"pedestrian","name":"Rushall Walk","category":"Pedestrian area/street"},"geometry":{"type":"MultiLineString","coordinates":[[[-2.2892763,53.3794645],[-2.2892792,53.3794217],[-2.2887418,53.3790962],[-2.288668,53.3790843]]]}},
{"type":"Feature","properties":{"highway":"pedestrian","name":"Falkirk Walk","category":"Pedestrian area/street"},"geometry":{"type":"MultiLineString","coordinates":[[[-2.2835139,53.3778337],[-2.2833515,53.3779602],[-2.283204,53.3779666],[-2.2827455,53.3782725]]]}},
{"type":"Feature","properties":{"highway":"pedestrian","name":null,"category":"Pedestrian area/street"},"geometry":{"type":"MultiLineString","coordinates":[[[-2.2864506,53.3816456],[-2.2871627,53.3820407],[-2.2872255,53.3820735]]]}}
]
}
