{
"type": "FeatureCollection",
"name": "89c93d7083b1_visibility",
"crs": { "type": "name", "properties": { "name": "urn:ogc:def:crs:OGC:1.3:CRS84" } },
"features": [
{ "type": "Feature", "properties": { "visible_points": 1, "total_points": 47, "visibility_pct": 2.1276595744680851 }, "geometry": { "type": "Point", "coordinates": [ -3.153229522522373, 54.517516807946556 ] } },
{ "type": "Feature", "properties": { "visible_points": 2, "total_points": 54, "visibility_pct": 3.7037037037037033 }, "geometry": { "type": "Point", "coordinates": [ -3.153015519469367, 54.517518848484038 ] } },
{ "type": "Feature", "properties": { "visible_points": 1, "total_points": 60, "visibility_pct": 1.6666666666666667 }, "geometry": { "type": "Point", "coordinates": [ -3.152801516389649, 54.517520888642899 ] } },
{ "type": "Feature", "properties": { "visible_points": 1, "total_points": 57, "visibility_pct": 1.7543859649122806 }, "geometry": { "type": "Point", "coordinates": [ -3.153125559215234, 54.517625647599296 ] } },
{ "type": "Feature", "properties": { "visible_points": 3, "total_points": 64, "visibility_pct": 4.6875 }, "geometry": { "type": "Point", "coordinates": [ -3.152911555586337, 54.517627687955915 ] } },
{ "type": "Feature", "properties": { "visible_points": 0, "total_points": 71, "visibility_pct": 0.0 }, "geometry": { "type": "Point", "coordinates": [ -3.152697551930733, 54.517629727933901 ] } },
{ "type": "Feature", "properties": { "visible_points": 1, "total_points": 75, "visibility_pct": 1.3333333333333335 }, "geometry": { "type": "Point", "coordinates": [ -3.152483548248423, 54.517631767533238 ] } },
{ "type": "Feature", "properties": { "visible_points": 0, "total_points": 77, "visibility_pct": 0.0 }, "geometry": { "type": "Point", "coordinates": [ -3.152269544539404, 54.517633806753942 ] } },
{ "type": "Feature", "properties": { "visible_points": 1, "total_points": 66, "visibility_pct": 1.5151515151515151 }, "geometry": { "type": "Point", "coordinates": [ -3.153021595358908, 54.517734487163779 ] } },
{ "type": "Feature", "properties": { "visible_points": 0, "total_points": 74, "visibility_pct": 0.0 }, "geometry": { "type": "Point", "coordinates": [ -3.15280759115413, 54.517736527339522 ] } },
{ "type": "Feature", "properties": { "visible_points": 0, "total_points": 81, "visibility_pct": 0.0 }, "geometry": { "type": "Point", "coordinates": [ -3.15259358692263, 54.517738567136611 ] } },
{ "type": "Feature", "properties": { "visible_points": 0, "total_points": 85, "visibility_pct": 0.0 }, "geometry": { "type": "Point", "coordinates": [ -3.152379582664437, 54.517740606555066 ] } },
{ "type": "Feature", "properties": { "visible_points": 2, "total_points": 80, "visibility_pct": 2.5 }, "geometry": { "type": "Point", "coordinates": [ -3.152165578379534, 54.517742645594893 ] } },
{ "type": "Feature", "properties": { "visible_points": 1, "total_points": 70, "visibility_pct": 1.4285714285714286 }, "geometry": { "type": "Point", "coordinates": [ -3.151951574067935, 54.517744684256073 ] } },
{ "type": "Feature", "properties": { "visible_points": 0, "total_points": 76, "visibility_pct": 0.0 }, "geometry": { "type": "Point", "coordinates": [ -3.1529176309534, 54.517843326639991 ] } },
{ "type": "Feature", "properties": { "visible_points": 0, "total_points": 85, "visibility_pct": 0.0 }, "geometry": { "type": "Point", "coordinates": [ -3.152703626172722, 54.517845366634845 ] } },
{ "type": "Feature", "properties": { "visible_points": 0, "total_points": 91, "visibility_pct": 0.0 }, "geometry": { "type": "Point", "coordinates": [ -3.152489621365341, 54.517847406251072 ] } },
{ "type": "Feature", "properties": { "visible_points": 3, "total_points": 89, "visibility_pct": 3.3707865168539324 }, "geometry": { "type": "Point", "coordinates": [ -3.15227561653125, 54.517849445488629 ] } },
{ "type": "Feature", "properties": { "visible_points": 0, "total_points": 82, "visibility_pct": 0.0 }, "geometry": { "type": "Point", "coordinates": [ -3.152061611670463, 54.517851484347574 ] } },
{ "type": "Feature", "properties": { "visible_points": 0, "total_points": 71, "visibility_pct": 0.0 }, "geometry": { "type": "Point", "coordinates": [ -3.151847606782987, 54.517853522827863 ] } },
{ "type": "Feature", "properties": { "visible_points": 1, "total_points": 59, "visibility_pct": 1.6949152542372881 }, "geometry": { "type": "Point", "coordinates": [ -3.151633601868816, 54.517855560929519 ] } },
{ "type": "Feature", "properties": { "visible_points": 0, "total_points": 74, "visibility_pct": 0.0 }, "geometry": { "type": "Point", "coordinates": [ -3.153027671328554, 54.517950125835284 ] } },
{ "type": "Feature", "properties": { "visible_points": 1, "total_points": 85, "visibility_pct": 1.1764705882352942 }, "geometry": { "type": "Point", "coordinates": [ -3.152813665998695, 54.517952166027911 ] } },
{ "type": "Feature", "properties": { "visible_points": 0, "total_points": 94, "visibility_pct": 0.0 }, "geometry": { "type": "Point", "coordinates": [ -3.152599660642125, 54.517954205841896 ] } },
{ "type": "Feature", "properties": { "visible_points": 0, "total_points": 94, "visibility_pct": 0.0 }, "geometry": { "type": "Point", "coordinates": [ -3.152385655258847, 54.517956245277219 ] } },
{ "type": "Feature", "properties": { "visible_points": 2, "total_points": 91, "visibility_pct": 2.197802197802198 }, "geometry": { "type": "Point", "coordinates": [ -3.15217164984887, 54.517958284333915 ] } },
{ "type": "Feature", "properties": { "visible_points": 1, "total_points": 82, "visibility_pct": 1.2195121951219512 }, "geometry": { "type": "Point", "coordinates": [ -3.151957644412191, 54.517960323011962 ] } },
{ "type": "Feature", "properties": { "visible_points": 0, "total_points": 70, "visibility_pct": 0.0 }, "geometry": { "type": "Point", "coordinates": [ -3.151743638948828, 54.517962361311362 ] } },
{ "type": "Feature", "properties": { "visible_points": 0, "total_points": 77, "visibility_pct": 0.0 }, "geometry": { "type": "Point", "coordinates": [ -3.152923706400556, 54.518058965315845 ] } },
{ "type": "Feature", "properties": { "visible_points": 0, "total_points": 89, "visibility_pct": 0.0 }, "geometry": { "type": "Point", "coordinates": [ -3.152709700494794, 54.51806100532756 ] } },
{ "type": "Feature", "properties": { "visible_points": 0, "total_points": 95, "visibility_pct": 0.0 }, "geometry": { "type": "Point", "coordinates": [ -3.152495694562329, 54.518063044960677 ] } },
{ "type": "Feature", "properties": { "visible_points": 11, "total_points": 94, "visibility_pct": 11.702127659574469 }, "geometry": { "type": "Point", "coordinates": [ -3.152281688603151, 54.518065084215102 ] } },
{ "type": "Feature", "properties": { "visible_points": 0, "total_points": 90, "visibility_pct": 0.0 }, "geometry": { "type": "Point", "coordinates": [ -3.152067682617281, 54.518067123090916 ] } },
{ "type": "Feature", "properties": { "visible_points": 2, "total_points": 81, "visibility_pct": 2.4691358024691357 }, "geometry": { "type": "Point", "coordinates": [ -3.151853676604712, 54.518069161588087 ] } },
{ "type": "Feature", "properties": { "visible_points": 0, "total_points": 78, "visibility_pct": 0.0 }, "geometry": { "type": "Point", "coordinates": [ -3.152819740923352, 54.518167804708085 ] } },
{ "type": "Feature", "properties": { "visible_points": 1, "total_points": 89, "visibility_pct": 1.1235955056179776 }, "geometry": { "type": "Point", "coordinates": [ -3.152605734441696, 54.518169844538953 ] } },
{ "type": "Feature", "properties": { "visible_points": 2, "total_points": 94, "visibility_pct": 2.1276595744680851 }, "geometry": { "type": "Point", "coordinates": [ -3.15239172793332, 54.518171883991165 ] } },
{ "type": "Feature", "properties": { "visible_points": 14, "total_points": 92, "visibility_pct": 15.217391304347828 }, "geometry": { "type": "Point", "coordinates": [ -3.152177721398249, 54.518173923064722 ] } },
{ "type": "Feature", "properties": { "visible_points": 11, "total_points": 88, "visibility_pct": 12.5 }, "geometry": { "type": "Point", "coordinates": [ -3.151963714836482, 54.518175961759638 ] } },
{ "type": "Feature", "properties": { "visible_points": 13, "total_points": 78, "visibility_pct": 16.666666666666664 }, "geometry": { "type": "Point", "coordinates": [ -3.151749708248019, 54.518178000075913 ] } },
{ "type": "Feature", "properties": { "visible_points": 2, "total_points": 87, "visibility_pct": 2.2988505747126435 }, "geometry": { "type": "Point", "coordinates": [ -3.152501767839382, 54.518278683662054 ] } },
{ "type": "Feature", "properties": { "visible_points": 7, "total_points": 90, "visibility_pct": 7.7777777777777777 }, "geometry": { "type": "Point", "coordinates": [ -3.152287760755109, 54.518280722933376 ] } },
{ "type": "Feature", "properties": { "visible_points": 14, "total_points": 88, "visibility_pct": 15.909090909090908 }, "geometry": { "type": "Point", "coordinates": [ -3.152073753644133, 54.518282761826065 ] } },
{ "type": "Feature", "properties": { "visible_points": 15, "total_points": 83, "visibility_pct": 18.072289156626507 }, "geometry": { "type": "Point", "coordinates": [ -3.151859746506468, 54.518284800340084 ] } },
{ "type": "Feature", "properties": { "visible_points": 0, "total_points": 77, "visibility_pct": 0.0 }, "geometry": { "type": "Point", "coordinates": [ -3.152611808321336, 54.518385483227796 ] } },
{ "type": "Feature", "properties": { "visible_points": 2, "total_points": 82, "visibility_pct": 2.4390243902439024 }, "geometry": { "type": "Point", "coordinates": [ -3.15239780068786, 54.518387522696884 ] } },
{ "type": "Feature", "properties": { "visible_points": 10, "total_points": 82, "visibility_pct": 12.195121951219512 }, "geometry": { "type": "Point", "coordinates": [ -3.152183793027678, 54.518389561787323 ] } },
{ "type": "Feature", "properties": { "visible_points": 13, "total_points": 79, "visibility_pct": 16.455696202531644 }, "geometry": { "type": "Point", "coordinates": [ -3.151969785340799, 54.518391600499115 ] } },
{ "type": "Feature", "properties": { "visible_points": 15, "total_points": 73, "visibility_pct": 20.547945205479451 }, "geometry": { "type": "Point", "coordinates": [ -3.151755777627233, 54.518393638832251 ] } },
{ "type": "Feature", "properties": { "visible_points": 0, "total_points": 72, "visibility_pct": 0.0 }, "geometry": { "type": "Point", "coordinates": [ -3.152507841196509, 54.518494322355238 ] } },
{ "type": "Feature", "properties": { "visible_points": 6, "total_points": 74, "visibility_pct": 8.1081081081081088 }, "geometry": { "type": "Point", "coordinates": [ -3.152293832987116, 54.518496361643436 ] } },
{ "type": "Feature", "properties": { "visible_points": 9, "total_points": 72, "visibility_pct": 12.5 }, "geometry": { "type": "Point", "coordinates": [ -3.15207982475103, 54.518498400552978 ] } },
{ "type": "Feature", "properties": { "visible_points": 13, "total_points": 68, "visibility_pct": 19.117647058823529 }, "geometry": { "type": "Point", "coordinates": [ -3.151865816488248, 54.51850043908388 ] } },
{ "type": "Feature", "properties": { "visible_points": 0, "total_points": 65, "visibility_pct": 0.0 }, "geometry": { "type": "Point", "coordinates": [ -3.152403873522458, 54.518603161394395 ] } },
{ "type": "Feature", "properties": { "visible_points": 6, "total_points": 65, "visibility_pct": 9.2307692307692317 }, "geometry": { "type": "Point", "coordinates": [ -3.152189864737156, 54.518605200501703 ] } },
{ "type": "Feature", "properties": { "visible_points": 12, "total_points": 62, "visibility_pct": 19.35483870967742 }, "geometry": { "type": "Point", "coordinates": [ -3.151975855925154, 54.518607239230363 ] } },
{ "type": "Feature", "properties": { "visible_points": 7, "total_points": 58, "visibility_pct": 12.068965517241379 }, "geometry": { "type": "Point", "coordinates": [ -3.151761847086461, 54.518609277580353 ] } },
{ "type": "Feature", "properties": { "visible_points": 0, "total_points": 55, "visibility_pct": 0.0 }, "geometry": { "type": "Point", "coordinates": [ -3.152085895937967, 54.518714039271678 ] } },
{ "type": "Feature", "properties": { "visible_points": 6, "total_points": 53, "visibility_pct": 11.320754716981133 }, "geometry": { "type": "Point", "coordinates": [ -3.151871886550051, 54.518716077819462 ] } },
{ "type": "Feature", "properties": { "visible_points": 1, "total_points": 48, "visibility_pct": 2.083333333333333 }, "geometry": { "type": "Point", "coordinates": [ -3.151657877135445, 54.518718115988563 ] } },
{ "type": "Feature", "properties": { "visible_points": 7, "total_points": 47, "visibility_pct": 14.893617021276595 }, "geometry": { "type": "Point", "coordinates": [ -3.151981926589545, 54.518822877953397 ] } },
{ "type": "Feature", "properties": { "visible_points": 3, "total_points": 43, "visibility_pct": 6.9767441860465116 }, "geometry": { "type": "Point", "coordinates": [ -3.151767916625713, 54.51882491632027 ] } }
]
}
