{
"type": "FeatureCollection",
"name": "WIGAN_126_walking",
"crs": { "type": "name", "properties": { "name": "urn:ogc:def:crs:OGC:1.3:CRS84" } },
"features": [
{"type":"Feature","properties":{"highway":"footway","name":"Apple Lane","category":"Footpath (pedestrian only)"},"geometry":{"type":"MultiLineString","coordinates":[[[-2.715332,53.5821769],[-2.717094,53.5823366],[-2.7175577,53.5824326],[-2.7188929,53.5827877],[-2.7193674,53.582907],[-2.7196636,53.5829332],[-2.7209493,53.5828164]]]}},
{"type":"Feature","properties":{"highway":"footway","name":null,"category":"Footpath (pedestrian only)"},"geometry":{"type":"MultiLineString","coordinates":[[[-2.710538,53.577653],[-2.7108677,53.5775126]]]}},
{"type":"Feature","properties":{"highway":"footway","name":null,"category":"Footpath (pedestrian only)"},"geometry":{"type":"MultiLineString","coordinates":[[[-2.7135197,53.5789738],[-2.7135234,53.5788816],[-2.7142593,53.5785076]]]}},
{"type":"Feature","properties":{"highway":"footway","name":null,"category":"Footpath (pedestrian only)"},"geometry":{"type":"MultiLineString","coordinates":[[[-2.7167016,53.5771773],[-2.7162785,53.5775959],[-2.716035,53.5777359],[-2.7151565,53.5781785],[-2.714788,53.57833],[-2.7142593,53.5785076],[-2.7141294,53.5783948],[-2.7140614,53.578364]]]}},
{"type":"Feature","properties":{"highway":"footway","name":null,"category":"Footpath (pedestrian only)"},"geometry":{"type":"MultiLineString","coordinates":[[[-2.7148938,53.5769265],[-2.7151593,53.5767927],[-2.714628,53.5763596],[-2.7145866,53.5763858]]]}},
{"type":"Feature","properties":{"highway":"footway","name":null,"category":"Footpath (pedestrian only)"},"geometry":{"type":"MultiLineString","coordinates":[[[-2.7031523,53.5852375],[-2.7028916,53.585007],[-2.7023906,53.584564],[-2.7020902,53.5843538],[-2.7015645,53.5841182],[-2.7011568,53.5839971],[-2.7006632,53.5837105],[-2.7002019,53.5831373],[-2.7000029,53.5829477],[-2.6997942,53.5827488],[-2.6991719,53.5822838],[-2.6986355,53.5817997],[-2.6982707,53.5815131],[-2.6980669,53.5814239],[-2.6979596,53.5814558],[-2.6975841,53.5817743],[-2.6975519,53.5820036],[-2.6974124,53.5822583],[-2.6970262,53.5823539],[-2.696833,53.5824749],[-2.6967365,53.5829399],[-2.6967342,53.5830845],[-2.6967273,53.5833195]]]}},
{"type":"Feature","properties":{"highway":"footway","name":null,"category":"Footpath (pedestrian only)"},"geometry":{"type":"MultiLineString","coordinates":[[[-2.7151593,53.5767927],[-2.7162785,53.5775959]]]}},
{"type":"Feature","properties":{"highway":"track","name":null,"category":"Track"},"geometry":{"type":"MultiLineString","coordinates":[[[-2.7057161,53.5765823],[-2.7059736,53.5767734],[-2.7061147,53.5768018],[-2.7062598,53.5767264],[-2.7065262,53.576576],[-2.7066925,53.5766619],[-2.7066656,53.5770281],[-2.7066442,53.5772001],[-2.7066723,53.5772568],[-2.7066978,53.5773084],[-2.7070787,53.5773689],[-2.707599,53.5774262],[-2.7077376,53.5774554],[-2.7080818,53.5775281],[-2.7089902,53.5778183]]]}},
{"type":"Feature","properties":{"highway":"footway","name":null,"category":"Footpath (pedestrian only)"},"geometry":{"type":"MultiLineString","coordinates":[[[-2.7148541,53.5806379],[-2.7147724,53.5806722],[-2.7141676,53.5809043],[-2.7141542,53.5811813],[-2.7139745,53.5813406],[-2.7136244,53.5815082],[-2.713289,53.5816027]]]}},
{"type":"Feature","properties":{"highway":"footway","name":null,"category":"Footpath (pedestrian only)"},"geometry":{"type":"MultiLineString","coordinates":[[[-2.7082234,53.5840704],[-2.7084692,53.5841595],[-2.7094053,53.5839461],[-2.7095153,53.5840337],[-2.7095287,53.5842088],[-2.7093597,53.5844047],[-2.7090942,53.5849317],[-2.7089842,53.5851594],[-2.7084156,53.5854778]]]}},
{"type":"Feature","properties":{"highway":"footway","name":null,"category":"Footpath (pedestrian only)"},"geometry":{"type":"MultiLineString","coordinates":[[[-2.7093597,53.5844047],[-2.7091443,53.5842905]]]}},
{"type":"Feature","properties":{"highway":"footway","name":null,"category":"Footpath (pedestrian only)"},"geometry":{"type":"MultiLineString","coordinates":[[[-2.7182223,53.5786916],[-2.7175571,53.5783903]]]}},
{"type":"Feature","properties":{"highway":"footway","name":null,"category":"Footpath (pedestrian only)"},"geometry":{"type":"MultiLineString","coordinates":[[[-2.7065748,53.5821755],[-2.706653,53.582239],[-2.7069359,53.5826116],[-2.7069385,53.5826419],[-2.706387,53.5828437]]]}},
{"type":"Feature","properties":{"highway":"footway","name":"Apple Lane","category":"Footpath (pedestrian only)"},"geometry":{"type":"MultiLineString","coordinates":[[[-2.7148738,53.5788911],[-2.7149161,53.5792366],[-2.7150048,53.5793849],[-2.7150046,53.5794959],[-2.7149572,53.579596],[-2.7149259,53.5797718],[-2.7150168,53.5805696]]]}},
{"type":"Feature","properties":{"highway":"footway","name":null,"category":"Footpath (pedestrian only)"},"geometry":{"type":"MultiLineString","coordinates":[[[-2.7150168,53.5805696],[-2.7150113,53.5806148],[-2.7149717,53.5809737],[-2.7148925,53.58102],[-2.7148668,53.581156]]]}},
{"type":"Feature","properties":{"highway":"footway","name":null,"category":"Footpath (pedestrian only)"},"geometry":{"type":"MultiLineString","coordinates":[[[-2.7148668,53.581156],[-2.7148439,53.5813749]]]}},
{"type":"Feature","properties":{"highway":"footway","name":null,"category":"Footpath (pedestrian only)"},"geometry":{"type":"MultiLineString","coordinates":[[[-2.7090623,53.5748266],[-2.7088926,53.5749433],[-2.708791,53.5750145],[-2.7087727,53.5751461],[-2.7087666,53.5755396],[-2.7087462,53.5758123],[-2.7087218,53.5761937],[-2.7087239,53.5764786],[-2.708671,53.5767103],[-2.7085206,53.5768901],[-2.7083438,53.5770494],[-2.7083097,53.5770756],[-2.708234,53.5771339],[-2.7081547,53.57721],[-2.7080267,53.5773041],[-2.7078966,53.5773524],[-2.7078092,53.5773801],[-2.7077376,53.5774554]]]}},
{"type":"Feature","properties":{"highway":"footway","name":null,"category":"Footpath (pedestrian only)"},"geometry":{"type":"MultiLineString","coordinates":[[[-2.7077376,53.5774554],[-2.7075064,53.5774713],[-2.7073893,53.5774694],[-2.7071582,53.577506],[-2.7069087,53.5776597],[-2.7066221,53.5778371],[-2.7064373,53.5779176],[-2.7062093,53.5780073],[-2.7061785,53.578203],[-2.7060768,53.5786548],[-2.7059782,53.5789091],[-2.7058149,53.5792713],[-2.7057009,53.5794908],[-2.705744,53.5797268],[-2.7054483,53.5798073],[-2.7051771,53.5798127],[-2.704715,53.5797762],[-2.7045085,53.5798457],[-2.7042682,53.5799481],[-2.7040125,53.5800048],[-2.7036304,53.5802353],[-2.7033408,53.5804292],[-2.7029958,53.5806853],[-2.7026599,53.5808883],[-2.7021978,53.5811773],[-2.7017264,53.5815761],[-2.7013782,53.5819328],[-2.7008667,53.5823955],[-2.7000029,53.5829477]]]}},
{"type":"Feature","properties":{"highway":"footway","name":null,"category":"Footpath (pedestrian only)"},"geometry":{"type":"MultiLineString","coordinates":[[[-2.6967273,53.5833195],[-2.6968033,53.5833269],[-2.6983538,53.5838703],[-2.6997244,53.5843333],[-2.7011955,53.5848295],[-2.7020664,53.5851164],[-2.7021785,53.585122],[-2.7027506,53.5850499],[-2.7028916,53.585007]]]}},
{"type":"Feature","properties":{"highway":"footway","name":null,"category":"Footpath (pedestrian only)"},"geometry":{"type":"MultiLineString","coordinates":[[[-2.7016704,53.5752189],[-2.7013401,53.5758291],[-2.7013213,53.5760696],[-2.7014125,53.5761922],[-2.7025257,53.5766137],[-2.7024737,53.5766691],[-2.7033834,53.577754],[-2.7033568,53.5780968],[-2.7035296,53.5783048],[-2.7034082,53.5792724],[-2.7034502,53.5793917],[-2.7038845,53.5796079],[-2.7042682,53.5799481],[-2.7046962,53.5802812],[-2.7049536,53.5804751],[-2.7053248,53.5807559],[-2.7056807,53.5810303],[-2.7058563,53.5811812],[-2.7058856,53.5812818],[-2.705784,53.5814721],[-2.7062655,53.5816726],[-2.7062872,53.5817283],[-2.7064106,53.58181],[-2.7067224,53.582081],[-2.7070369,53.5823509],[-2.7073455,53.5826655],[-2.7073874,53.5827162],[-2.7074347,53.5827734],[-2.7076042,53.5829759],[-2.707686,53.5830834],[-2.7077143,53.5831297]]]}},
{"type":"Feature","properties":{"highway":"footway","name":null,"category":"Footpath (pedestrian only)"},"geometry":{"type":"MultiLineString","coordinates":[[[-2.7149359,53.5806036],[-2.7148541,53.5806379]]]}},
{"type":"Feature","properties":{"highway":"footway","name":null,"category":"Footpath (pedestrian only)"},"geometry":{"type":"MultiLineString","coordinates":[[[-2.7150168,53.5805696],[-2.7149359,53.5806036]]]}},
{"type":"Feature","properties":{"highway":"footway","name":null,"category":"Footpath (pedestrian only)"},"geometry":{"type":"MultiLineString","coordinates":[[[-2.6967273,53.5833195],[-2.6966194,53.5833282],[-2.6964146,53.5833793],[-2.6956287,53.5834637],[-2.6954061,53.5833857],[-2.6949233,53.5830099],[-2.6946336,53.5828379],[-2.6944681,53.5827418],[-2.6941723,53.5827743]]]}},
{"type":"Feature","properties":{"highway":"footway","name":null,"category":"Footpath (pedestrian only)"},"geometry":{"type":"MultiLineString","coordinates":[[[-2.7183017,53.578729],[-2.7182223,53.5786916]]]}},
{"type":"Feature","properties":{"highway":"footway","name":null,"category":"Footpath (pedestrian only)"},"geometry":{"type":"MultiLineString","coordinates":[[[-2.7069385,53.5826419],[-2.7070262,53.5826614],[-2.7073427,53.5827179],[-2.7073874,53.5827162]]]}}
]
}
