{
"type": "FeatureCollection",
"name": "WIGAN_33_walking",
"crs": { "type": "name", "properties": { "name": "urn:ogc:def:crs:OGC:1.3:CRS84" } },
"features": [
{"type":"Feature","properties":{"highway":"bridleway","name":null,"category":"Bridleway"},"geometry":{"type":"MultiLineString","coordinates":[[[-2.6830517,53.5903314],[-2.6831675,53.5903753],[-2.6832961,53.5904434],[-2.6834293,53.5905214],[-2.6835153,53.5905864],[-2.683545,53.5906404],[-2.6835636,53.5906758],[-2.683694,53.5907102],[-2.6839079,53.5907141],[-2.684336,53.5906953],[-2.6845373,53.5906799]]]}},
{"type":"Feature","properties":{"highway":"path","name":"Quakers Terrace","category":"Shared path"},"geometry":{"type":"MultiLineString","coordinates":[[[-2.6737009,53.5948845],[-2.6729068,53.5949302]]]}},
{"type":"Feature","properties":{"highway":"footway","name":null,"category":"Footpath (pedestrian only)"},"geometry":{"type":"MultiLineString","coordinates":[[[-2.67564,53.5918115],[-2.6756051,53.5918131],[-2.6756159,53.5918911],[-2.6756534,53.5918927],[-2.6756588,53.5920837],[-2.676442,53.5920551],[-2.6764634,53.5920885],[-2.6766512,53.5920805],[-2.6766271,53.5918577],[-2.6766566,53.5918529],[-2.6766535,53.5917837],[-2.6766137,53.5917812],[-2.6766002,53.5916173],[-2.6766271,53.5916109],[-2.6766244,53.5915791],[-2.6765857,53.5915725],[-2.6765687,53.5913958],[-2.6766043,53.5913912],[-2.6765976,53.5913323],[-2.6765627,53.5913275],[-2.676552,53.5911301],[-2.676391,53.5911285],[-2.675758,53.5911476],[-2.6757446,53.5911253],[-2.6755667,53.5911346],[-2.6755864,53.5913578],[-2.6755622,53.591361],[-2.675573,53.5914278],[-2.6755971,53.5914342],[-2.675608,53.5916496],[-2.67564,53.5918115]]]}},
{"type":"Feature","properties":{"highway":"footway","name":null,"category":"Footpath (pedestrian only)"},"geometry":{"type":"MultiLineString","coordinates":[[[-2.676391,53.5911285],[-2.6763883,53.5910728],[-2.676324,53.5910059],[-2.6761523,53.5909327],[-2.676045,53.5908961],[-2.6754979,53.5907369],[-2.6752082,53.5906382],[-2.6745288,53.5904001],[-2.6743862,53.5905704],[-2.674543,53.5906318],[-2.6744529,53.5907388],[-2.6742479,53.5909821],[-2.6743204,53.5910362],[-2.6741562,53.5911594]]]}},
{"type":"Feature","properties":{"highway":"footway","name":null,"category":"Footpath (pedestrian only)"},"geometry":{"type":"MultiLineString","coordinates":[[[-2.6752306,53.5909885],[-2.6751974,53.5909582],[-2.6749721,53.5907592],[-2.6748353,53.5907194],[-2.6744529,53.5907388]]]}},
{"type":"Feature","properties":{"highway":"footway","name":null,"category":"Footpath (pedestrian only)"},"geometry":{"type":"MultiLineString","coordinates":[[[-2.6745288,53.5904001],[-2.6743499,53.5903532],[-2.6742001,53.5903341]]]}},
{"type":"Feature","properties":{"highway":"footway","name":null,"category":"Footpath (pedestrian only)"},"geometry":{"type":"MultiLineString","coordinates":[[[-2.6752167,53.5917308],[-2.6752725,53.5916904],[-2.6745591,53.5917732],[-2.6745322,53.5918592],[-2.6746529,53.5920231],[-2.674273,53.5921142],[-2.674138,53.5921473],[-2.6738107,53.5920757],[-2.6737356,53.5921903],[-2.6736444,53.5921569],[-2.6735532,53.5920693],[-2.6735479,53.5920263],[-2.673475,53.5919582],[-2.6734717,53.5918022],[-2.6734697,53.5917099]]]}},
{"type":"Feature","properties":{"highway":"footway","name":null,"category":"Footpath (pedestrian only)"},"geometry":{"type":"MultiLineString","coordinates":[[[-2.6756354,53.5916507],[-2.675608,53.5916496],[-2.6752725,53.5916904],[-2.6750979,53.5914905]]]}},
{"type":"Feature","properties":{"highway":"footway","name":null,"category":"Footpath (pedestrian only)"},"geometry":{"type":"MultiLineString","coordinates":[[[-2.674273,53.5921142],[-2.6746829,53.5922195]]]}},
{"type":"Feature","properties":{"highway":"footway","name":null,"category":"Footpath (pedestrian only)"},"geometry":{"type":"MultiLineString","coordinates":[[[-2.6750258,53.5913975],[-2.6751331,53.5914739],[-2.6750979,53.5914905],[-2.6745591,53.5917732]]]}},
{"type":"Feature","properties":{"highway":"footway","name":null,"category":"Footpath (pedestrian only)"},"geometry":{"type":"MultiLineString","coordinates":[[[-2.6752537,53.5909506],[-2.6752306,53.5909885],[-2.6750553,53.5912765],[-2.6750258,53.5913975],[-2.6749346,53.591337],[-2.6750553,53.5912765]]]}},
{"type":"Feature","properties":{"highway":"footway","name":null,"category":"Footpath (pedestrian only)"},"geometry":{"type":"MultiLineString","coordinates":[[[-2.6735755,53.5918003],[-2.6735623,53.591813],[-2.6734717,53.5918022]]]}},
{"type":"Feature","properties":{"highway":"footway","name":null,"category":"Footpath (pedestrian only)"},"geometry":{"type":"MultiLineString","coordinates":[[[-2.672106,53.5912211],[-2.6720426,53.5912384],[-2.671955,53.5912965],[-2.672073,53.5914733],[-2.6721991,53.5914876],[-2.6723251,53.5915449],[-2.6723868,53.5915815],[-2.6724259,53.5916081]]]}},
{"type":"Feature","properties":{"highway":"footway","name":null,"category":"Footpath (pedestrian only)"},"geometry":{"type":"MultiLineString","coordinates":[[[-2.672073,53.5914733],[-2.6721025,53.5915528],[-2.6720539,53.5916329],[-2.6719872,53.5916977],[-2.6719681,53.5917541]]]}},
{"type":"Feature","properties":{"highway":"footway","name":null,"category":"Footpath (pedestrian only)"},"geometry":{"type":"MultiLineString","coordinates":[[[-2.6725475,53.5904278],[-2.6725772,53.5904177],[-2.6726977,53.5903593],[-2.6730493,53.5902967],[-2.6733846,53.5902761],[-2.6736233,53.5902569],[-2.6738942,53.5902554],[-2.6741268,53.5902615],[-2.6743555,53.5902676]]]}},
{"type":"Feature","properties":{"highway":"footway","name":null,"category":"Footpath (pedestrian only)"},"geometry":{"type":"MultiLineString","coordinates":[[[-2.676045,53.5908961],[-2.676137,53.5908418]]]}},
{"type":"Feature","properties":{"highway":"track","name":"Robin Hill Lane","category":"Track"},"geometry":{"type":"MultiLineString","coordinates":[[[-2.6809812,53.5946783],[-2.6808761,53.5946411],[-2.6797438,53.5934906],[-2.6796521,53.5934429],[-2.6795413,53.5934282],[-2.6794581,53.5934346],[-2.679375,53.5934616],[-2.6787453,53.5936903]]]}},
{"type":"Feature","properties":{"highway":"track","name":null,"category":"Track"},"geometry":{"type":"MultiLineString","coordinates":[[[-2.6734802,53.5978304],[-2.6733755,53.5978451],[-2.6732495,53.5979054],[-2.6731357,53.5980055],[-2.6730096,53.5981394],[-2.6728064,53.5983505],[-2.6725055,53.598628],[-2.6722657,53.5988282],[-2.6720095,53.5990176],[-2.6717839,53.5991901],[-2.671542,53.5993457],[-2.6713428,53.5994567],[-2.671107,53.5995628],[-2.670859,53.5996714],[-2.6706557,53.5997679],[-2.6704829,53.5998608],[-2.6702106,53.6000453],[-2.66993,53.6002552],[-2.6696292,53.6004736],[-2.6693914,53.60064],[-2.6692166,53.6007582],[-2.6691332,53.600798],[-2.6689198,53.6008885],[-2.6688049,53.6009176],[-2.6687466,53.6009323],[-2.6684975,53.6009953],[-2.6683326,53.6010281],[-2.6677104,53.6011366],[-2.6661448,53.6015222]]]}},
{"type":"Feature","properties":{"highway":"footway","name":null,"category":"Footpath (pedestrian only)"},"geometry":{"type":"MultiLineString","coordinates":[[[-2.670939,53.5953864],[-2.670909,53.5954298],[-2.6708337,53.5955099]]]}},
{"type":"Feature","properties":{"highway":"path","name":null,"category":"Shared path"},"geometry":{"type":"MultiLineString","coordinates":[[[-2.6714495,53.5953412],[-2.6714313,53.5952877],[-2.6714298,53.5952742],[-2.6713541,53.595209],[-2.6712763,53.5951874],[-2.6711539,53.5951399],[-2.6711202,53.5950585],[-2.6710558,53.5949725],[-2.6709968,53.5948706],[-2.6709716,53.5947819],[-2.6709485,53.5946923],[-2.670911,53.5946064],[-2.6708412,53.5945268],[-2.6707876,53.5944727],[-2.6706983,53.5944292],[-2.6705886,53.5944244],[-2.6704585,53.5944606],[-2.6703243,53.5944847],[-2.6702349,53.5944871],[-2.6700056,53.5944845],[-2.6699237,53.5943946],[-2.6698286,53.5942803],[-2.6697823,53.59423],[-2.6697104,53.5941373],[-2.6695917,53.5940243],[-2.6694819,53.5939384],[-2.6693755,53.5938805],[-2.6692502,53.5938337],[-2.6690776,53.5937967],[-2.6689949,53.5937922],[-2.6688485,53.5938188],[-2.6686412,53.5938839],[-2.6684908,53.593937],[-2.6683647,53.593978],[-2.6682184,53.5940046],[-2.6681559,53.5939955],[-2.6681249,53.5940311],[-2.6680639,53.5941083],[-2.6680232,53.5941638],[-2.6679988,53.5942362],[-2.6679907,53.5943231],[-2.6680192,53.5944389],[-2.6679988,53.594545],[-2.6680029,53.5946633],[-2.6679948,53.5947598],[-2.6680232,53.5948804],[-2.6680436,53.5949311],[-2.6680924,53.5949793],[-2.6681899,53.5950252],[-2.6683607,53.5950734],[-2.6685828,53.5951356],[-2.6687084,53.5951661],[-2.6688748,53.5952007],[-2.669034,53.5952165],[-2.6691809,53.5952364],[-2.6693172,53.5952701],[-2.6695171,53.59529],[-2.669664,53.5953142],[-2.6698888,53.5953236],[-2.6699989,53.5953259],[-2.670178,53.5953501],[-2.6706095,53.5952974],[-2.6708252,53.5952791],[-2.6709788,53.595249],[-2.6711611,53.5952312],[-2.6712761,53.5952175],[-2.6713541,53.595209]]]}},
{"type":"Feature","properties":{"highway":"path","name":null,"category":"Shared path"},"geometry":{"type":"MultiLineString","coordinates":[[[-2.6709788,53.595249],[-2.6710602,53.5952301],[-2.671108,53.5952102],[-2.6711539,53.5951399]]]}},
{"type":"Feature","properties":{"highway":"path","name":null,"category":"Shared path"},"geometry":{"type":"MultiLineString","coordinates":[[[-2.6706095,53.5952974],[-2.6704719,53.5951461],[-2.6703762,53.5950692],[-2.6701577,53.5949403],[-2.6700963,53.5948705],[-2.6701172,53.5948121],[-2.6701161,53.5947389],[-2.6701127,53.5946676],[-2.6700762,53.59457],[-2.6700264,53.5945189],[-2.6700056,53.5944845],[-2.66991,53.5945013],[-2.6697737,53.5945254],[-2.6695826,53.5945611]]]}},
{"type":"Feature","properties":{"highway":"path","name":null,"category":"Shared path"},"geometry":{"type":"MultiLineString","coordinates":[[[-2.6711539,53.5951399],[-2.6701161,53.5947389],[-2.6695826,53.5945611],[-2.6692217,53.5944207],[-2.6690173,53.5943473],[-2.6684218,53.5941106],[-2.6683138,53.5940539],[-2.6682184,53.5940046]]]}},
{"type":"Feature","properties":{"highway":"footway","name":null,"category":"Footpath (pedestrian only)"},"geometry":{"type":"MultiLineString","coordinates":[[[-2.6675564,53.591411],[-2.6673533,53.5914893],[-2.6671897,53.5915688],[-2.6670743,53.5916293],[-2.6670761,53.5916657]]]}},
{"type":"Feature","properties":{"highway":"path","name":null,"category":"Shared path"},"geometry":{"type":"MultiLineString","coordinates":[[[-2.6670761,53.5916657],[-2.6670743,53.5917296],[-2.6671253,53.5918045],[-2.667195,53.5919095],[-2.6671977,53.5919796],[-2.6671628,53.5920671],[-2.6671092,53.5921356],[-2.6670314,53.592169],[-2.6669912,53.5922232],[-2.6669295,53.5923171],[-2.6668624,53.5924317],[-2.6668222,53.592524],[-2.6667793,53.5926116],[-2.6667578,53.5927326],[-2.6667015,53.5927978],[-2.6666425,53.5928727],[-2.6665137,53.5930144],[-2.6664091,53.5931417],[-2.6663233,53.5932197],[-2.6662401,53.5933105],[-2.666208,53.5933885],[-2.6661865,53.5934458],[-2.6662053,53.5935094]]]}},
{"type":"Feature","properties":{"highway":"path","name":null,"category":"Shared path"},"geometry":{"type":"MultiLineString","coordinates":[[[-2.6662053,53.5935094],[-2.6662509,53.5935524],[-2.6663501,53.5935731],[-2.6665727,53.5936129],[-2.6668222,53.5936734],[-2.6672326,53.5937435],[-2.6674659,53.5938024],[-2.6677476,53.5938469],[-2.6679916,53.5939042],[-2.6680572,53.5939252],[-2.6681311,53.5939488],[-2.6681559,53.5939955]]]}},
{"type":"Feature","properties":{"highway":"path","name":null,"category":"Shared path"},"geometry":{"type":"MultiLineString","coordinates":[[[-2.6662053,53.5935094],[-2.6662026,53.5935763],[-2.6662536,53.5936989],[-2.6662831,53.5938485],[-2.6662938,53.593987],[-2.6663367,53.5941526],[-2.6663448,53.5942035],[-2.6664038,53.5942576],[-2.6664789,53.5943022],[-2.6666264,53.5942958],[-2.666841,53.5942879],[-2.6670394,53.5942704],[-2.6672272,53.5942513],[-2.6673881,53.5941908],[-2.6675705,53.5941176],[-2.6676242,53.5940555],[-2.6676885,53.5940061],[-2.6678361,53.5939663],[-2.6679326,53.5939377],[-2.6680572,53.5939252]]]}},
{"type":"Feature","properties":{"highway":"path","name":null,"category":"Shared path"},"geometry":{"type":"MultiLineString","coordinates":[[[-2.6666526,53.5917001],[-2.6666398,53.5917726],[-2.6666183,53.5918268],[-2.6665727,53.5919079],[-2.6665567,53.5919987],[-2.6665434,53.5920232],[-2.6665352,53.5920385],[-2.6664681,53.5922232],[-2.6663957,53.5924858],[-2.6663367,53.59268],[-2.6662428,53.5929364],[-2.6661462,53.5932643],[-2.6661516,53.5933327],[-2.6661865,53.5934458]]]}},
{"type":"Feature","properties":{"highway":"path","name":null,"category":"Shared path"},"geometry":{"type":"MultiLineString","coordinates":[[[-2.6658888,53.5922009],[-2.665862,53.5923203],[-2.6658646,53.5924667],[-2.6659317,53.5926657],[-2.6660014,53.592852],[-2.6660846,53.5930478],[-2.6661462,53.5932643]]]}},
{"type":"Feature","properties":{"highway":"footway","name":null,"category":"Footpath (pedestrian only)"},"geometry":{"type":"MultiLineString","coordinates":[[[-2.6723914,53.5949964],[-2.6728601,53.594951],[-2.6729068,53.5949302]]]}},
{"type":"Feature","properties":{"highway":"footway","name":null,"category":"Footpath (pedestrian only)"},"geometry":{"type":"MultiLineString","coordinates":[[[-2.6737009,53.5948845],[-2.6740913,53.5948444]]]}},
{"type":"Feature","properties":{"highway":"track","name":null,"category":"Track"},"geometry":{"type":"MultiLineString","coordinates":[[[-2.6732815,53.5958125],[-2.6732551,53.5956893],[-2.6732286,53.5955783],[-2.6731941,53.5954806],[-2.6731107,53.5953213],[-2.6730335,53.5951802],[-2.6729806,53.5950752],[-2.6729068,53.5949302]]]}},
{"type":"Feature","properties":{"highway":"path","name":null,"category":"Shared path"},"geometry":{"type":"MultiLineString","coordinates":[[[-2.6842267,53.5918205],[-2.6840627,53.5917685],[-2.683893,53.5915814],[-2.6838357,53.5914635],[-2.6837636,53.5913954],[-2.683742,53.5913423]]]}},
{"type":"Feature","properties":{"highway":"path","name":null,"category":"Shared path"},"geometry":{"type":"MultiLineString","coordinates":[[[-2.683742,53.5913423],[-2.6837841,53.5913015],[-2.6838683,53.5912824],[-2.6849135,53.5911292],[-2.6849336,53.5911162],[-2.6850058,53.59107],[-2.686126,53.590885]]]}},
{"type":"Feature","properties":{"highway":"footway","name":null,"category":"Footpath (pedestrian only)"},"geometry":{"type":"MultiLineString","coordinates":[[[-2.6864372,53.5906789],[-2.6861586,53.5906733]]]}},
{"type":"Feature","properties":{"highway":"footway","name":null,"category":"Footpath (pedestrian only)"},"geometry":{"type":"MultiLineString","coordinates":[[[-2.6786172,53.5905256],[-2.6784915,53.5906517],[-2.6783915,53.5908031],[-2.6783647,53.5909932]]]}},
{"type":"Feature","properties":{"highway":"footway","name":null,"category":"Footpath (pedestrian only)"},"geometry":{"type":"MultiLineString","coordinates":[[[-2.6796718,53.5897456],[-2.6795014,53.5898074],[-2.6794306,53.5898655],[-2.6793015,53.5899304],[-2.6791436,53.5900124],[-2.6790501,53.5900867],[-2.6790131,53.5901771],[-2.6789824,53.5902518],[-2.6789154,53.5903345],[-2.6788992,53.5903522],[-2.6788054,53.5904274],[-2.6787048,53.590471],[-2.6786172,53.5905256]]]}},
{"type":"Feature","properties":{"highway":"footway","name":null,"category":"Footpath (pedestrian only)"},"geometry":{"type":"MultiLineString","coordinates":[[[-2.6788992,53.5903522],[-2.6787017,53.5903384],[-2.6784003,53.5902735],[-2.6782901,53.5902949],[-2.6781934,53.5903228]]]}},
{"type":"Feature","properties":{"highway":"footway","name":null,"category":"Footpath (pedestrian only)"},"geometry":{"type":"MultiLineString","coordinates":[[[-2.6760673,53.5942849],[-2.6761267,53.5943487]]]}},
{"type":"Feature","properties":{"highway":"footway","name":null,"category":"Footpath (pedestrian only)"},"geometry":{"type":"MultiLineString","coordinates":[[[-2.6764079,53.5945027],[-2.6762522,53.594495],[-2.6762098,53.5944706]]]}},
{"type":"Feature","properties":{"highway":"footway","name":null,"category":"Footpath (pedestrian only)"},"geometry":{"type":"MultiLineString","coordinates":[[[-2.6727861,53.594753],[-2.6728601,53.594951]]]}},
{"type":"Feature","properties":{"highway":"bridleway","name":"The Line","category":"Bridleway"},"geometry":{"type":"MultiLineString","coordinates":[[[-2.6810474,53.5905309],[-2.6814493,53.5902463],[-2.6816404,53.5901798],[-2.6820967,53.5899348],[-2.6824325,53.5897675],[-2.6827267,53.5896042]]]}},
{"type":"Feature","properties":{"highway":"path","name":null,"category":"Shared path"},"geometry":{"type":"MultiLineString","coordinates":[[[-2.6723623,53.5899269],[-2.6726091,53.5896752]]]}},
{"type":"Feature","properties":{"highway":"footway","name":null,"category":"Footpath (pedestrian only)"},"geometry":{"type":"MultiLineString","coordinates":[[[-2.6869111,53.59519],[-2.6868318,53.595262],[-2.6868305,53.5952859],[-2.684501,53.5960706],[-2.6825134,53.5967885],[-2.6823974,53.5968114]]]}},
{"type":"Feature","properties":{"highway":"footway","name":null,"category":"Footpath (pedestrian only)"},"geometry":{"type":"MultiLineString","coordinates":[[[-2.6832477,53.5975184],[-2.6838438,53.5972732],[-2.6840128,53.5972828],[-2.6848027,53.5979919],[-2.6848159,53.5980177],[-2.6849811,53.5981423],[-2.6851796,53.5982092],[-2.684399,53.5985833],[-2.6850548,53.5990194],[-2.6862618,53.5998415],[-2.6863664,53.5998272],[-2.6866494,53.5998327],[-2.6869243,53.5998709],[-2.6872194,53.5999306],[-2.6873656,53.5999824],[-2.6874142,53.6000053]]]}},
{"type":"Feature","properties":{"highway":"footway","name":null,"category":"Footpath (pedestrian only)"},"geometry":{"type":"MultiLineString","coordinates":[[[-2.6823974,53.5968114],[-2.6823163,53.5968695],[-2.6820403,53.5971467],[-2.6819943,53.5972559],[-2.6818244,53.597487],[-2.6816262,53.597739],[-2.6813855,53.5979742],[-2.6811413,53.5982557],[-2.6810387,53.5983922],[-2.6810463,53.5984832]]]}},
{"type":"Feature","properties":{"highway":"footway","name":null,"category":"Footpath (pedestrian only)"},"geometry":{"type":"MultiLineString","coordinates":[[[-2.6799222,53.5997507],[-2.679559,53.5995628],[-2.6787164,53.5993799],[-2.6784588,53.5993158],[-2.6762257,53.5987601],[-2.6748965,53.5978406],[-2.6746952,53.5975897],[-2.6734646,53.5977565]]]}},
{"type":"Feature","properties":{"highway":"footway","name":null,"category":"Footpath (pedestrian only)"},"geometry":{"type":"MultiLineString","coordinates":[[[-2.6828666,53.590342],[-2.6827267,53.5896042]]]}},
{"type":"Feature","properties":{"highway":"footway","name":null,"category":"Footpath (pedestrian only)"},"geometry":{"type":"MultiLineString","coordinates":[[[-2.6782667,53.592614],[-2.6777107,53.5924861]]]}},
{"type":"Feature","properties":{"highway":"path","name":null,"category":"Shared path"},"geometry":{"type":"MultiLineString","coordinates":[[[-2.6699989,53.5953259],[-2.6699567,53.5952853],[-2.6699427,53.5952299],[-2.6699497,53.5951953],[-2.6700963,53.5948705]]]}},
{"type":"Feature","properties":{"highway":"path","name":null,"category":"Shared path"},"geometry":{"type":"MultiLineString","coordinates":[[[-2.670178,53.5953501],[-2.6701953,53.5954429]]]}},
{"type":"Feature","properties":{"highway":"footway","name":null,"category":"Footpath (pedestrian only)"},"geometry":{"type":"MultiLineString","coordinates":[[[-2.6715519,53.5954051],[-2.6715273,53.5953321]]]}},
{"type":"Feature","properties":{"highway":"path","name":null,"category":"Shared path"},"geometry":{"type":"MultiLineString","coordinates":[[[-2.6849336,53.5911162],[-2.6849721,53.5911564],[-2.6849912,53.5912124]]]}},
{"type":"Feature","properties":{"highway":"path","name":null,"category":"Shared path"},"geometry":{"type":"MultiLineString","coordinates":[[[-2.683742,53.5913423],[-2.6836276,53.5913598]]]}},
{"type":"Feature","properties":{"highway":"path","name":null,"category":"Shared path"},"geometry":{"type":"MultiLineString","coordinates":[[[-2.6836276,53.5913598],[-2.6834514,53.5913221],[-2.6829709,53.5915189],[-2.6822306,53.5918433],[-2.6820718,53.5919542],[-2.6818527,53.5922288],[-2.6817712,53.5923311],[-2.6815492,53.5925837],[-2.6814635,53.5926713],[-2.6813848,53.5927238],[-2.6812303,53.5928272],[-2.6811432,53.5929081],[-2.6807386,53.5932658],[-2.6806711,53.5933242]]]}},
{"type":"Feature","properties":{"highway":"path","name":null,"category":"Shared path"},"geometry":{"type":"MultiLineString","coordinates":[[[-2.6743017,53.5937712],[-2.6743344,53.5937177],[-2.674354,53.5936646],[-2.6743642,53.5936095],[-2.6743838,53.5935787],[-2.6744247,53.5935504],[-2.6744988,53.5935236],[-2.6745763,53.5935044],[-2.6746538,53.5935034],[-2.6747117,53.5934978],[-2.6747832,53.5934791],[-2.6748497,53.593462],[-2.6749578,53.5934448],[-2.6749814,53.593413]]]}},
{"type":"Feature","properties":{"highway":"path","name":null,"category":"Shared path"},"geometry":{"type":"MultiLineString","coordinates":[[[-2.6759355,53.5893287],[-2.6761479,53.5893052]]]}},
{"type":"Feature","properties":{"highway":"path","name":null,"category":"Shared path"},"geometry":{"type":"MultiLineString","coordinates":[[[-2.6761234,53.5889728],[-2.6760394,53.5889523],[-2.6760056,53.5889181],[-2.6759936,53.5888694],[-2.6760304,53.5887796],[-2.6760731,53.5887253],[-2.6761059,53.5887],[-2.6761324,53.5886909],[-2.676199,53.5886679],[-2.6762706,53.5886211],[-2.6763407,53.5885699],[-2.676429,53.5885541],[-2.6765147,53.5885541],[-2.6765619,53.5885519],[-2.6765941,53.5885461],[-2.6766283,53.5885337],[-2.6766517,53.5885147],[-2.6766535,53.5884869],[-2.6766475,53.5884478],[-2.6766196,53.5884057]]]}},
{"type":"Feature","properties":{"highway":"footway","name":null,"category":"Footpath (pedestrian only)"},"geometry":{"type":"MultiLineString","coordinates":[[[-2.6694027,53.5904838],[-2.6693267,53.5905133],[-2.6692532,53.5905419]]]}},
{"type":"Feature","properties":{"highway":"footway","name":null,"category":"Footpath (pedestrian only)"},"geometry":{"type":"MultiLineString","coordinates":[[[-2.6774311,53.5900855],[-2.6772872,53.5901192],[-2.6771624,53.5901128],[-2.6767842,53.5900889],[-2.6764771,53.5901065],[-2.676343,53.5901319],[-2.6756363,53.590163],[-2.6750167,53.5902179],[-2.6743555,53.5902676]]]}},
{"type":"Feature","properties":{"highway":"footway","name":null,"category":"Footpath (pedestrian only)"},"geometry":{"type":"MultiLineString","coordinates":[[[-2.6738541,53.5937553],[-2.6738392,53.5937027],[-2.6736783,53.5934226]]]}},
{"type":"Feature","properties":{"highway":"track","name":"Robin Hill Lane","category":"Track"},"geometry":{"type":"MultiLineString","coordinates":[[[-2.6787453,53.5936903],[-2.6787044,53.5937052],[-2.6783531,53.5938803]]]}},
{"type":"Feature","properties":{"highway":"path","name":null,"category":"Shared path"},"geometry":{"type":"MultiLineString","coordinates":[[[-2.6806711,53.5933242],[-2.6805164,53.5933615],[-2.6797297,53.5934265],[-2.6796521,53.5934429]]]}},
{"type":"Feature","properties":{"highway":"path","name":null,"category":"Shared path"},"geometry":{"type":"MultiLineString","coordinates":[[[-2.6746603,53.5891121],[-2.6747198,53.589245],[-2.6747205,53.5893135],[-2.6747161,53.5893659],[-2.6747212,53.5893932],[-2.6747402,53.5894218],[-2.6747782,53.5894699],[-2.6748023,53.5895237],[-2.6748358,53.5896511],[-2.6748745,53.5897009],[-2.6749621,53.5898945]]]}}
]
}
