{
"type": "FeatureCollection",
"name": "CHEWE_78_walking",
"crs": { "type": "name", "properties": { "name": "urn:ogc:def:crs:OGC:1.3:CRS84" } },
"features": [
{"type":"Feature","properties":{"highway":"footway","name":"Wrekin Way","category":"Footpath (pedestrian only)"},"geometry":{"type":"MultiLineString","coordinates":[[[-2.919906,53.1767198],[-2.919947,53.1767131],[-2.9201781,53.1765001],[-2.9202468,53.1765245]]]}},
{"type":"Feature","properties":{"highway":"footway","name":null,"category":"Footpath (pedestrian only)"},"geometry":{"type":"MultiLineString","coordinates":[[[-2.9225234,53.1755248],[-2.9221956,53.1753627],[-2.9220253,53.1752807],[-2.9218736,53.1751979],[-2.9218161,53.1751658],[-2.9217752,53.1751245],[-2.9217683,53.1750906],[-2.9218765,53.1749214],[-2.9218621,53.1748931]]]}},
{"type":"Feature","properties":{"highway":"footway","name":null,"category":"Footpath (pedestrian only)"},"geometry":{"type":"MultiLineString","coordinates":[[[-2.9269224,53.1774565],[-2.9267661,53.1771153],[-2.9258683,53.177195],[-2.9256384,53.1772171],[-2.9255779,53.1772219],[-2.9253339,53.1771468],[-2.925248,53.1770652],[-2.9251879,53.1769831],[-2.9251721,53.1769221]]]}},
{"type":"Feature","properties":{"highway":"footway","name":null,"category":"Footpath (pedestrian only)"},"geometry":{"type":"MultiLineString","coordinates":[[[-2.9299006,53.1779442],[-2.9297102,53.1775221],[-2.9294873,53.1771014],[-2.9294707,53.17707],[-2.9283145,53.1748425],[-2.927108,53.1725294],[-2.9270145,53.1723723]]]}},
{"type":"Feature","properties":{"highway":"footway","name":null,"category":"Footpath (pedestrian only)"},"geometry":{"type":"MultiLineString","coordinates":[[[-2.927108,53.1725294],[-2.9274568,53.1725822],[-2.9278862,53.1726828]]]}},
{"type":"Feature","properties":{"highway":"footway","name":null,"category":"Footpath (pedestrian only)"},"geometry":{"type":"MultiLineString","coordinates":[[[-2.9091506,53.1787322],[-2.9092067,53.1790254],[-2.9092019,53.1791135]]]}},
{"type":"Feature","properties":{"highway":"footway","name":null,"category":"Footpath (pedestrian only)"},"geometry":{"type":"MultiLineString","coordinates":[[[-2.9176706,53.1725668],[-2.9176623,53.1725589],[-2.9174164,53.1723525]]]}},
{"type":"Feature","properties":{"highway":"footway","name":null,"category":"Footpath (pedestrian only)"},"geometry":{"type":"MultiLineString","coordinates":[[[-2.9171118,53.1728134],[-2.917285,53.1725623],[-2.9174164,53.1723525],[-2.9176426,53.171989],[-2.9178121,53.1716499],[-2.9179028,53.1714793],[-2.9179542,53.1713235],[-2.9180159,53.1711137]]]}},
{"type":"Feature","properties":{"highway":"footway","name":null,"category":"Footpath (pedestrian only)"},"geometry":{"type":"MultiLineString","coordinates":[[[-2.9193249,53.1713381],[-2.9191948,53.1713388],[-2.9189918,53.1713845],[-2.9188434,53.1714305],[-2.9187611,53.1714761],[-2.9186565,53.171534],[-2.9185631,53.1715953],[-2.9183937,53.1717751],[-2.9182193,53.1719464],[-2.9181603,53.1720131],[-2.918087,53.1720785],[-2.9180208,53.1721296],[-2.9179229,53.1721795],[-2.9177411,53.1722432],[-2.9176292,53.1722727],[-2.9175032,53.1723282],[-2.9174164,53.1723525]]]}},
{"type":"Feature","properties":{"highway":"footway","name":null,"category":"Footpath (pedestrian only)"},"geometry":{"type":"MultiLineString","coordinates":[[[-2.9176418,53.172707],[-2.9174323,53.1729117]]]}},
{"type":"Feature","properties":{"highway":"footway","name":null,"category":"Footpath (pedestrian only)"},"geometry":{"type":"MultiLineString","coordinates":[[[-2.918277,53.1728911],[-2.9181361,53.1728805],[-2.9180731,53.1728531],[-2.9178684,53.1727729],[-2.9178143,53.1727382],[-2.9177946,53.1727049],[-2.9177907,53.1726982]]]}},
{"type":"Feature","properties":{"highway":"footway","name":null,"category":"Footpath (pedestrian only)"},"geometry":{"type":"MultiLineString","coordinates":[[[-2.917285,53.1725623],[-2.9174683,53.1725927],[-2.9175474,53.172612],[-2.9176111,53.1726329],[-2.9176258,53.1726325],[-2.9176345,53.1726248],[-2.9176419,53.1726156],[-2.91765,53.1726059],[-2.9176533,53.1725939],[-2.9176623,53.1725589]]]}},
{"type":"Feature","properties":{"highway":"footway","name":null,"category":"Footpath (pedestrian only)"},"geometry":{"type":"MultiLineString","coordinates":[[[-2.9182952,53.1726533],[-2.9181147,53.1726425],[-2.91789,53.1726373],[-2.9178726,53.1726401],[-2.9178652,53.1726594],[-2.9178478,53.1726811],[-2.9178371,53.1726891],[-2.9178216,53.1726944],[-2.9177946,53.1727049]]]}},
{"type":"Feature","properties":{"highway":"footway","name":null,"category":"Footpath (pedestrian only)"},"geometry":{"type":"MultiLineString","coordinates":[[[-2.9265941,53.1712916],[-2.9266264,53.1713806],[-2.9265623,53.1714809],[-2.926522,53.1716144],[-2.9264295,53.1717181],[-2.9264616,53.1718461]]]}},
{"type":"Feature","properties":{"highway":"footway","name":null,"category":"Footpath (pedestrian only)"},"geometry":{"type":"MultiLineString","coordinates":[[[-2.9093927,53.1776522],[-2.9099157,53.1776047]]]}},
{"type":"Feature","properties":{"highway":"path","name":null,"category":"Shared path"},"geometry":{"type":"MultiLineString","coordinates":[[[-2.9058593,53.176467],[-2.9064421,53.1763549],[-2.9066553,53.176289],[-2.9070321,53.1761306],[-2.9072467,53.1760904],[-2.9081131,53.1760623],[-2.9088225,53.1759964],[-2.909084,53.1760317],[-2.909485,53.1761298],[-2.9099316,53.1762906],[-2.9100791,53.1763806],[-2.9105807,53.1768653],[-2.9108221,53.1770509],[-2.9108409,53.1770863],[-2.910861,53.1771313],[-2.9112633,53.1774769],[-2.9112821,53.1775292],[-2.9112982,53.1775983],[-2.9113666,53.1777028],[-2.9113904,53.1778395],[-2.9114685,53.178288],[-2.9115426,53.1783771],[-2.9116607,53.1784986]]]}},
{"type":"Feature","properties":{"highway":"footway","name":null,"category":"Footpath (pedestrian only)"},"geometry":{"type":"MultiLineString","coordinates":[[[-2.9094818,53.1780202],[-2.9094781,53.178005],[-2.9093927,53.1776522],[-2.9087918,53.177706],[-2.9087583,53.1776875],[-2.9087498,53.1776422]]]}},
{"type":"Feature","properties":{"highway":"footway","name":null,"category":"Footpath (pedestrian only)"},"geometry":{"type":"MultiLineString","coordinates":[[[-2.9113904,53.1778395],[-2.9094818,53.1780202],[-2.9088809,53.1780771],[-2.9088064,53.1780798],[-2.9087608,53.178075],[-2.9085851,53.1780556],[-2.908506,53.1780468],[-2.9070109,53.178187]]]}},
{"type":"Feature","properties":{"highway":"footway","name":null,"category":"Footpath (pedestrian only)"},"geometry":{"type":"MultiLineString","coordinates":[[[-2.9204232,53.1674645],[-2.9203355,53.1673656],[-2.9202201,53.1672747],[-2.9199922,53.1671791],[-2.9196635,53.1670596]]]}},
{"type":"Feature","properties":{"highway":"footway","name":null,"category":"Footpath (pedestrian only)"},"geometry":{"type":"MultiLineString","coordinates":[[[-2.91563,53.1780974],[-2.9158812,53.1778302],[-2.9165749,53.1771317],[-2.9167768,53.1769285],[-2.9174084,53.1763105],[-2.9172886,53.1761061]]]}},
{"type":"Feature","properties":{"highway":"footway","name":null,"category":"Footpath (pedestrian only)"},"geometry":{"type":"MultiLineString","coordinates":[[[-2.9158812,53.1778302],[-2.915652,53.1774498]]]}},
{"type":"Feature","properties":{"highway":"footway","name":null,"category":"Footpath (pedestrian only)"},"geometry":{"type":"MultiLineString","coordinates":[[[-2.9158516,53.1755812],[-2.9157114,53.1756256],[-2.9156202,53.1756199],[-2.9154821,53.1755822],[-2.9154512,53.1756079],[-2.9151758,53.1755888],[-2.9147439,53.175451]]]}},
{"type":"Feature","properties":{"highway":"footway","name":null,"category":"Footpath (pedestrian only)"},"geometry":{"type":"MultiLineString","coordinates":[[[-2.9156062,53.1694108],[-2.9156097,53.1691543]]]}},
{"type":"Feature","properties":{"highway":"footway","name":null,"category":"Footpath (pedestrian only)"},"geometry":{"type":"MultiLineString","coordinates":[[[-2.915508,53.1696809],[-2.9154164,53.1696794],[-2.9153064,53.1697292],[-2.9151352,53.1697132]]]}},
{"type":"Feature","properties":{"highway":"footway","name":null,"category":"Footpath (pedestrian only)"},"geometry":{"type":"MultiLineString","coordinates":[[[-2.9201781,53.1765001],[-2.9202825,53.1764023],[-2.9203797,53.1763045],[-2.9204382,53.1762992],[-2.920494,53.1763076]]]}},
{"type":"Feature","properties":{"highway":"footway","name":null,"category":"Footpath (pedestrian only)"},"geometry":{"type":"MultiLineString","coordinates":[[[-2.9227534,53.1709106],[-2.9227012,53.1709439],[-2.9226396,53.1709712],[-2.9225081,53.1710034],[-2.9223834,53.1710163],[-2.9222989,53.1710195],[-2.9221769,53.1710251],[-2.9221071,53.1710838]]]}},
{"type":"Feature","properties":{"highway":"footway","name":null,"category":"Footpath (pedestrian only)"},"geometry":{"type":"MultiLineString","coordinates":[[[-2.920872,53.1743314],[-2.920927,53.1742832],[-2.9209471,53.1742165],[-2.9209498,53.1741722],[-2.9209967,53.1741353],[-2.9210369,53.1740999],[-2.9210986,53.1740597],[-2.9211335,53.1740364],[-2.9212207,53.1740018],[-2.9213655,53.1739351],[-2.9214931,53.1738416],[-2.9215278,53.1738161],[-2.9215573,53.1737631]]]}},
{"type":"Feature","properties":{"highway":"footway","name":null,"category":"Footpath (pedestrian only)"},"geometry":{"type":"MultiLineString","coordinates":[[[-2.9138554,53.17356],[-2.9137203,53.1737109],[-2.9137163,53.1737511],[-2.9137432,53.1738182],[-2.9135687,53.1739993],[-2.9133658,53.1740625]]]}},
{"type":"Feature","properties":{"highway":"footway","name":null,"category":"Footpath (pedestrian only)"},"geometry":{"type":"MultiLineString","coordinates":[[[-2.9262318,53.1754636],[-2.9262718,53.1755366],[-2.9263607,53.1755173],[-2.9266886,53.1756801],[-2.9270286,53.176298],[-2.9274751,53.176228]]]}},
{"type":"Feature","properties":{"highway":"footway","name":null,"category":"Footpath (pedestrian only)"},"geometry":{"type":"MultiLineString","coordinates":[[[-2.9144528,53.1687501],[-2.9144615,53.1686519],[-2.914491,53.1685072],[-2.9144219,53.1684346]]]}},
{"type":"Feature","properties":{"highway":"footway","name":null,"category":"Footpath (pedestrian only)"},"geometry":{"type":"MultiLineString","coordinates":[[[-2.9230997,53.1677663],[-2.9228702,53.167803],[-2.9221192,53.1679517],[-2.921804,53.1680224],[-2.920648,53.1682725],[-2.9203503,53.168332],[-2.920066,53.1683786],[-2.919555,53.168455],[-2.9192077,53.1685008],[-2.9185385,53.1685772],[-2.9177767,53.1686391],[-2.9166274,53.1686978],[-2.9153802,53.1686954],[-2.9148571,53.168672],[-2.9144615,53.1686519],[-2.9141477,53.1686246],[-2.9140681,53.1685872]]]}},
{"type":"Feature","properties":{"highway":"footway","name":null,"category":"Footpath (pedestrian only)"},"geometry":{"type":"MultiLineString","coordinates":[[[-2.9136252,53.1687706],[-2.9138459,53.1688031],[-2.9146986,53.1688592],[-2.9151441,53.168877],[-2.91604,53.1688996],[-2.9164745,53.1688979],[-2.9174307,53.1688618],[-2.9178319,53.1688432],[-2.9183024,53.1687942],[-2.91904,53.1687267],[-2.9198219,53.1686174],[-2.9203597,53.1685297],[-2.9209109,53.1684244],[-2.9217115,53.168254],[-2.9223043,53.1681109],[-2.9227294,53.1680289],[-2.9229426,53.1680096],[-2.9234623,53.1680577]]]}},
{"type":"Feature","properties":{"highway":"footway","name":null,"category":"Footpath (pedestrian only)"},"geometry":{"type":"MultiLineString","coordinates":[[[-2.9187278,53.178631],[-2.9181147,53.1783994],[-2.9181589,53.1783014],[-2.9182394,53.1782146],[-2.9182246,53.1781896]]]}},
{"type":"Feature","properties":{"highway":"footway","name":null,"category":"Footpath (pedestrian only)"},"geometry":{"type":"MultiLineString","coordinates":[[[-2.9171137,53.1770462],[-2.9169117,53.17725],[-2.9165749,53.1771317]]]}},
{"type":"Feature","properties":{"highway":"footway","name":null,"category":"Footpath (pedestrian only)"},"geometry":{"type":"MultiLineString","coordinates":[[[-2.9195462,53.1751543],[-2.9192761,53.1749954],[-2.9195376,53.1748282],[-2.9198181,53.1749751]]]}},
{"type":"Feature","properties":{"highway":"footway","name":null,"category":"Footpath (pedestrian only)"},"geometry":{"type":"MultiLineString","coordinates":[[[-2.920451,53.1745292],[-2.9213642,53.1749415],[-2.9215425,53.1750203],[-2.9216402,53.17486]]]}},
{"type":"Feature","properties":{"highway":"footway","name":null,"category":"Footpath (pedestrian only)"},"geometry":{"type":"MultiLineString","coordinates":[[[-2.9180825,53.1741779],[-2.9178451,53.1741835],[-2.9178116,53.1741931],[-2.9175098,53.1742534],[-2.9171478,53.1741445]]]}},
{"type":"Feature","properties":{"highway":"footway","name":null,"category":"Footpath (pedestrian only)"},"geometry":{"type":"MultiLineString","coordinates":[[[-2.917491,53.1755195],[-2.9175179,53.1755259],[-2.9177452,53.175306]]]}},
{"type":"Feature","properties":{"highway":"footway","name":null,"category":"Footpath (pedestrian only)"},"geometry":{"type":"MultiLineString","coordinates":[[[-2.9163162,53.1755186],[-2.9167776,53.1757003],[-2.9171437,53.1758418],[-2.917491,53.1755195],[-2.9170324,53.1753624]]]}},
{"type":"Feature","properties":{"highway":"footway","name":null,"category":"Footpath (pedestrian only)"},"geometry":{"type":"MultiLineString","coordinates":[[[-2.9164823,53.1753674],[-2.9168705,53.1755147],[-2.9169466,53.1755436],[-2.9167776,53.1757003]]]}},
{"type":"Feature","properties":{"highway":"footway","name":null,"category":"Footpath (pedestrian only)"},"geometry":{"type":"MultiLineString","coordinates":[[[-2.9165661,53.1752911],[-2.9162002,53.1751572]]]}},
{"type":"Feature","properties":{"highway":"footway","name":null,"category":"Footpath (pedestrian only)"},"geometry":{"type":"MultiLineString","coordinates":[[[-2.9168823,53.175003],[-2.9165661,53.1752911],[-2.9164823,53.1753674],[-2.9163162,53.1755186],[-2.9159542,53.1753762]]]}},
{"type":"Feature","properties":{"highway":"footway","name":null,"category":"Footpath (pedestrian only)"},"geometry":{"type":"MultiLineString","coordinates":[[[-2.9164926,53.1698269],[-2.9164852,53.1700355],[-2.9164782,53.1700638]]]}},
{"type":"Feature","properties":{"highway":"footway","name":null,"category":"Footpath (pedestrian only)"},"geometry":{"type":"MultiLineString","coordinates":[[[-2.9169721,53.1696817],[-2.9169694,53.1696295],[-2.9168822,53.1695716],[-2.916732,53.1695379],[-2.9165831,53.1695427],[-2.916445,53.1695765],[-2.9163846,53.1696159],[-2.9163766,53.1696845]]]}},
{"type":"Feature","properties":{"highway":"footway","name":null,"category":"Footpath (pedestrian only)"},"geometry":{"type":"MultiLineString","coordinates":[[[-2.9169251,53.1696821],[-2.9168715,53.1697493],[-2.9167856,53.1698008],[-2.9166555,53.1698377],[-2.9165429,53.1698377],[-2.9164926,53.1698269],[-2.9164423,53.169816],[-2.9163551,53.1697855],[-2.9162961,53.1697389],[-2.9162934,53.1696844]]]}},
{"type":"Feature","properties":{"highway":"footway","name":null,"category":"Footpath (pedestrian only)"},"geometry":{"type":"MultiLineString","coordinates":[[[-2.9251997,53.1756806],[-2.9251716,53.1756714],[-2.9251595,53.1756545],[-2.9249932,53.1756866],[-2.9249154,53.1755677],[-2.9246432,53.1756296],[-2.9246056,53.1755822],[-2.9242655,53.1756517]]]}},
{"type":"Feature","properties":{"highway":"footway","name":null,"category":"Footpath (pedestrian only)"},"geometry":{"type":"MultiLineString","coordinates":[[[-2.9262318,53.1754636],[-2.9259481,53.1749568]]]}},
{"type":"Feature","properties":{"highway":"footway","name":null,"category":"Footpath (pedestrian only)"},"geometry":{"type":"MultiLineString","coordinates":[[[-2.9164455,53.1796464],[-2.9163778,53.1797322]]]}},
{"type":"Feature","properties":{"highway":"footway","name":null,"category":"Footpath (pedestrian only)"},"geometry":{"type":"MultiLineString","coordinates":[[[-2.9097842,53.1722324],[-2.9100049,53.1724505],[-2.9102729,53.1727406],[-2.9109314,53.1734229],[-2.9119119,53.1744464],[-2.9121515,53.17415],[-2.9125663,53.174307],[-2.9126743,53.1742049],[-2.9130129,53.1743182],[-2.9132386,53.1744926]]]}},
{"type":"Feature","properties":{"highway":"footway","name":null,"category":"Footpath (pedestrian only)"},"geometry":{"type":"MultiLineString","coordinates":[[[-2.9214931,53.1738416],[-2.9214762,53.173785],[-2.9213533,53.1737404],[-2.9212306,53.1737113],[-2.9211904,53.1736479],[-2.9211651,53.1735515],[-2.9211397,53.1734628],[-2.9211101,53.1733525],[-2.921034,53.1732346],[-2.9209731,53.1731451],[-2.9208049,53.1730266],[-2.9206691,53.1729593],[-2.9206632,53.1729257],[-2.9205245,53.1728886],[-2.9204507,53.1728497],[-2.9204121,53.172712],[-2.9204513,53.1726178],[-2.9205036,53.1725612],[-2.9205263,53.1725365],[-2.9206227,53.172468],[-2.9207548,53.1724252],[-2.9209369,53.1723803],[-2.9211154,53.1723375],[-2.9212169,53.1722933],[-2.9213618,53.1722281],[-2.9214512,53.172176],[-2.9215575,53.1721064],[-2.9216493,53.172063],[-2.9216566,53.1719978],[-2.921514,53.1718993],[-2.9213135,53.1718067],[-2.9211758,53.1717198],[-2.920782,53.1715822],[-2.9205887,53.1715025],[-2.9203325,53.1714692],[-2.9200692,53.171517],[-2.9197889,53.1716937],[-2.9195521,53.1718921],[-2.9193999,53.1720543],[-2.9194289,53.1722093],[-2.9194869,53.1723222],[-2.919627,53.1724526],[-2.9197599,53.1725279],[-2.9198831,53.1726177],[-2.9200619,53.1726553],[-2.91983,53.1727263],[-2.9197044,53.1727915],[-2.9196756,53.1728001],[-2.9195932,53.1728248],[-2.9195135,53.1728349],[-2.9194917,53.172916],[-2.9194911,53.1729353],[-2.9194869,53.1730724],[-2.9195642,53.1731593],[-2.9197793,53.1733418],[-2.919888,53.173449],[-2.9200692,53.173575],[-2.9202262,53.1736821],[-2.9204268,53.1738009],[-2.9206587,53.1739327],[-2.9208134,53.1740268],[-2.9209498,53.1741722]]]}},
{"type":"Feature","properties":{"highway":"footway","name":null,"category":"Footpath (pedestrian only)"},"geometry":{"type":"MultiLineString","coordinates":[[[-2.9205036,53.1725612],[-2.9202376,53.1726311],[-2.9200619,53.1726553]]]}},
{"type":"Feature","properties":{"highway":"footway","name":null,"category":"Footpath (pedestrian only)"},"geometry":{"type":"MultiLineString","coordinates":[[[-2.9216566,53.1719978],[-2.9218098,53.1719863],[-2.9218838,53.1721123],[-2.921943,53.1722063],[-2.922165,53.172295],[-2.9222982,53.1723571],[-2.9222952,53.1724635],[-2.9222567,53.1725877],[-2.9221058,53.1725965],[-2.9218542,53.1725522],[-2.9215997,53.1724564],[-2.9214162,53.1723784],[-2.9212169,53.1722933]]]}},
{"type":"Feature","properties":{"highway":"footway","name":null,"category":"Footpath (pedestrian only)"},"geometry":{"type":"MultiLineString","coordinates":[[[-2.9196756,53.1728001],[-2.9196553,53.1728928],[-2.9195488,53.1729371],[-2.9194911,53.1729353]]]}},
{"type":"Feature","properties":{"highway":"footway","name":null,"category":"Footpath (pedestrian only)"},"geometry":{"type":"MultiLineString","coordinates":[[[-2.9204507,53.1728497],[-2.9200619,53.1726553]]]}},
{"type":"Feature","properties":{"highway":"footway","name":null,"category":"Footpath (pedestrian only)"},"geometry":{"type":"MultiLineString","coordinates":[[[-2.9168705,53.1755147],[-2.9169163,53.1754764]]]}},
{"type":"Feature","properties":{"highway":"footway","name":null,"category":"Footpath (pedestrian only)"},"geometry":{"type":"MultiLineString","coordinates":[[[-2.9219518,53.1747552],[-2.9217456,53.1746986]]]}},
{"type":"Feature","properties":{"highway":"pedestrian","name":"Kensington Green","category":"Pedestrian area/street"},"geometry":{"type":"MultiLineString","coordinates":[[[-2.9163277,53.1783276],[-2.91563,53.1780974],[-2.9155435,53.1780688]]]}}
]
}
