{
"type": "FeatureCollection",
"name": "CHEWE_265_walking",
"crs": { "type": "name", "properties": { "name": "urn:ogc:def:crs:OGC:1.3:CRS84" } },
"features": [
{"type":"Feature","properties":{"highway":"track","name":null,"category":"Track"},"geometry":{"type":"MultiLineString","coordinates":[[[-2.8852726,53.1340155],[-2.8830793,53.1335893]]]}},
{"type":"Feature","properties":{"highway":"path","name":null,"category":"Shared path"},"geometry":{"type":"MultiLineString","coordinates":[[[-2.8746508,53.1417095],[-2.874698,53.1415432],[-2.8750654,53.1402498],[-2.8752349,53.1401438],[-2.8752926,53.1399384],[-2.875188,53.1398064],[-2.8755649,53.1385443],[-2.8755738,53.138511]]]}},
{"type":"Feature","properties":{"highway":"path","name":null,"category":"Shared path"},"geometry":{"type":"MultiLineString","coordinates":[[[-2.8750654,53.1402498],[-2.8749573,53.1401179],[-2.8750186,53.1398973],[-2.875188,53.1398064]]]}},
{"type":"Feature","properties":{"highway":"path","name":null,"category":"Shared path"},"geometry":{"type":"MultiLineString","coordinates":[[[-2.8771348,53.1403298],[-2.8765685,53.1402772],[-2.8753899,53.1401676],[-2.8754512,53.1399578],[-2.8766216,53.1400683],[-2.8771925,53.1401222]]]}},
{"type":"Feature","properties":{"highway":"path","name":null,"category":"Shared path"},"geometry":{"type":"MultiLineString","coordinates":[[[-2.8776852,53.1396739],[-2.8778244,53.1396863],[-2.8778932,53.1396922],[-2.8779444,53.1396965],[-2.8781007,53.1397217],[-2.8782512,53.1397594],[-2.8784094,53.1398211],[-2.8785027,53.1398771],[-2.8785351,53.1399354],[-2.8784828,53.1401547]]]}},
{"type":"Feature","properties":{"highway":"path","name":null,"category":"Shared path"},"geometry":{"type":"MultiLineString","coordinates":[[[-2.8778932,53.1396922],[-2.8778835,53.1397217],[-2.8777939,53.1397137],[-2.8777083,53.1400168],[-2.8776987,53.1400509]]]}},
{"type":"Feature","properties":{"highway":"path","name":null,"category":"Shared path"},"geometry":{"type":"MultiLineString","coordinates":[[[-2.8777083,53.1400168],[-2.8772985,53.1399754],[-2.8772185,53.1400189],[-2.8771925,53.1401222]]]}},
{"type":"Feature","properties":{"highway":"path","name":null,"category":"Shared path"},"geometry":{"type":"MultiLineString","coordinates":[[[-2.8771348,53.1403298],[-2.8771042,53.1404532],[-2.8772071,53.1405275],[-2.8771785,53.1406406],[-2.8770108,53.1407172],[-2.8767536,53.1406932],[-2.8767345,53.1407469],[-2.8764556,53.1407212]]]}},
{"type":"Feature","properties":{"highway":"path","name":null,"category":"Shared path"},"geometry":{"type":"MultiLineString","coordinates":[[[-2.8770668,53.1408695],[-2.8774434,53.1409039],[-2.8775627,53.1404922]]]}},
{"type":"Feature","properties":{"highway":"path","name":null,"category":"Shared path"},"geometry":{"type":"MultiLineString","coordinates":[[[-2.8770055,53.1411091],[-2.8763751,53.1410452],[-2.876433,53.1408088]]]}},
{"type":"Feature","properties":{"highway":"path","name":null,"category":"Shared path"},"geometry":{"type":"MultiLineString","coordinates":[[[-2.875796,53.1373897],[-2.8757736,53.1374074],[-2.8757614,53.1374283],[-2.8757606,53.1374505],[-2.8757714,53.1374718],[-2.8757926,53.13749],[-2.8758222,53.1375033],[-2.8758572,53.1375105],[-2.8758942,53.1375107],[-2.8759329,53.1375031],[-2.8759648,53.137488],[-2.8759864,53.1374673],[-2.8759948,53.1374434],[-2.8759893,53.1374193],[-2.8759703,53.1373977],[-2.8759402,53.1373812],[-2.8759026,53.1373719],[-2.875862,53.1373709],[-2.8758265,53.1373772],[-2.875796,53.1373897]]]}},
{"type":"Feature","properties":{"highway":"path","name":null,"category":"Shared path"},"geometry":{"type":"MultiLineString","coordinates":[[[-2.8758942,53.1375107],[-2.8759335,53.1378701]]]}},
{"type":"Feature","properties":{"highway":"path","name":null,"category":"Shared path"},"geometry":{"type":"MultiLineString","coordinates":[[[-2.8759335,53.1378701],[-2.8759206,53.1379889],[-2.8758804,53.1380585],[-2.8757645,53.1381976],[-2.8756704,53.1383318]]]}},
{"type":"Feature","properties":{"highway":"path","name":null,"category":"Shared path"},"geometry":{"type":"MultiLineString","coordinates":[[[-2.8755547,53.1383323],[-2.8755028,53.1383487],[-2.8754622,53.138374],[-2.8754368,53.1384057],[-2.8754292,53.1384406],[-2.8754401,53.1384751],[-2.8754686,53.1385058],[-2.8755116,53.1385297],[-2.8755649,53.1385443],[-2.875628,53.1385479],[-2.8756894,53.1385385],[-2.8757419,53.1385173],[-2.8757794,53.1384867],[-2.8757975,53.1384503],[-2.875794,53.1384124],[-2.8757693,53.1383774],[-2.8757265,53.1383494],[-2.8756704,53.1383318],[-2.8756124,53.1383265],[-2.8755547,53.1383323]]]}},
{"type":"Feature","properties":{"highway":"path","name":null,"category":"Shared path"},"geometry":{"type":"MultiLineString","coordinates":[[[-2.8757975,53.1384503],[-2.8764655,53.1385479]]]}},
{"type":"Feature","properties":{"highway":"path","name":null,"category":"Shared path"},"geometry":{"type":"MultiLineString","coordinates":[[[-2.8754368,53.1384057],[-2.8753187,53.1383733],[-2.8751178,53.138303],[-2.8749972,53.1382527],[-2.8747126,53.1381342],[-2.8745452,53.138086],[-2.874351,53.1380559],[-2.8741209,53.1380567]]]}},
{"type":"Feature","properties":{"highway":"path","name":null,"category":"Shared path"},"geometry":{"type":"MultiLineString","coordinates":[[[-2.8766334,53.1417634],[-2.8766334,53.141713],[-2.8766334,53.141668],[-2.8766016,53.1416149],[-2.876572,53.1415727],[-2.8765266,53.1415373],[-2.8764244,53.1415073],[-2.8762995,53.1414909],[-2.8761564,53.1415059],[-2.8760747,53.1415536],[-2.8760156,53.1416285],[-2.876002,53.1416858],[-2.8760292,53.1417457],[-2.8761246,53.1418165],[-2.876186,53.1418438],[-2.8762564,53.141852],[-2.8763313,53.1418397],[-2.8764335,53.1418016],[-2.8764744,53.1417661],[-2.8764926,53.1417293],[-2.8764903,53.1416803],[-2.8764608,53.1416299]]]}},
{"type":"Feature","properties":{"highway":"path","name":null,"category":"Shared path"},"geometry":{"type":"MultiLineString","coordinates":[[[-2.8760292,53.1417457],[-2.8759543,53.1418002],[-2.8758657,53.1418411],[-2.875759,53.1418683],[-2.8756619,53.1418757],[-2.8753615,53.141852],[-2.8747619,53.1417852]]]}},
{"type":"Feature","properties":{"highway":"path","name":null,"category":"Shared path"},"geometry":{"type":"MultiLineString","coordinates":[[[-2.8756619,53.1418757],[-2.8757438,53.1422403],[-2.8757888,53.1424679],[-2.8759407,53.1432347],[-2.8761577,53.144317]]]}},
{"type":"Feature","properties":{"highway":"path","name":null,"category":"Shared path"},"geometry":{"type":"MultiLineString","coordinates":[[[-2.8747784,53.1423683],[-2.874768,53.1423117]]]}},
{"type":"Feature","properties":{"highway":"path","name":null,"category":"Shared path"},"geometry":{"type":"MultiLineString","coordinates":[[[-2.8768511,53.1418062],[-2.8767724,53.1418259],[-2.8767535,53.1418348],[-2.8767438,53.141851],[-2.8767098,53.1419925],[-2.8767132,53.1420068],[-2.8767253,53.1420188],[-2.8767412,53.1420273],[-2.8767608,53.1420315],[-2.8768129,53.1420371]]]}},
{"type":"Feature","properties":{"highway":"path","name":null,"category":"Shared path"},"geometry":{"type":"MultiLineString","coordinates":[[[-2.8767608,53.1420315],[-2.8767018,53.1422721],[-2.8766913,53.1422775],[-2.8765637,53.142288]]]}},
{"type":"Feature","properties":{"highway":"path","name":null,"category":"Shared path"},"geometry":{"type":"MultiLineString","coordinates":[[[-2.8768781,53.1424705],[-2.8766742,53.1424683],[-2.8764665,53.1424681],[-2.876262,53.1424679],[-2.8761667,53.1424679],[-2.8759084,53.1424679],[-2.8757888,53.1424679]]]}},
{"type":"Feature","properties":{"highway":"path","name":null,"category":"Shared path"},"geometry":{"type":"MultiLineString","coordinates":[[[-2.8764923,53.143069],[-2.8764465,53.1430724],[-2.8762601,53.1430862],[-2.8761582,53.1430937],[-2.876042,53.1431023],[-2.8760209,53.143002],[-2.8760057,53.1429298],[-2.8759962,53.1428845],[-2.8759877,53.1428443],[-2.8759649,53.1427358],[-2.8759539,53.1426837],[-2.8759311,53.1425755],[-2.8759217,53.142531],[-2.8759084,53.1424679],[-2.8758982,53.1424193],[-2.8758797,53.1423339],[-2.8760421,53.1423218],[-2.8761657,53.1423125],[-2.8762632,53.1423052],[-2.8764654,53.1422901],[-2.8764669,53.1424214],[-2.8764665,53.1424681],[-2.8764643,53.1425343],[-2.8764629,53.1425774],[-2.8764593,53.1426854],[-2.8764576,53.1427378],[-2.8764541,53.1428416],[-2.8764527,53.1428842],[-2.8764512,53.1429289],[-2.8764488,53.1430026],[-2.8764465,53.1430724]]]}},
{"type":"Feature","properties":{"highway":"path","name":null,"category":"Shared path"},"geometry":{"type":"MultiLineString","coordinates":[[[-2.8758982,53.1424193],[-2.8760527,53.1424199],[-2.8761664,53.1424203],[-2.8762623,53.1424206],[-2.8764669,53.1424214],[-2.8764913,53.1424215]]]}},
{"type":"Feature","properties":{"highway":"path","name":null,"category":"Shared path"},"geometry":{"type":"MultiLineString","coordinates":[[[-2.8762601,53.1430862],[-2.8762609,53.1430027],[-2.8762616,53.1429293],[-2.8762614,53.1428841],[-2.8762612,53.1428427],[-2.8762616,53.1427614]]]}},
{"type":"Feature","properties":{"highway":"path","name":null,"category":"Shared path"},"geometry":{"type":"MultiLineString","coordinates":[[[-2.8763115,53.1427615],[-2.8762616,53.1427614],[-2.8761632,53.1427612],[-2.8761171,53.1427612],[-2.8761172,53.1427363],[-2.8761175,53.1426848],[-2.8761177,53.1426565],[-2.8761679,53.1426566],[-2.8762606,53.1426568],[-2.8763121,53.1426569],[-2.8763119,53.1426846],[-2.8763116,53.1427365],[-2.8763115,53.1427615]]]}},
{"type":"Feature","properties":{"highway":"path","name":null,"category":"Shared path"},"geometry":{"type":"MultiLineString","coordinates":[[[-2.8764541,53.1428416],[-2.8762612,53.1428427],[-2.876162,53.1428433],[-2.8759877,53.1428443]]]}},
{"type":"Feature","properties":{"highway":"path","name":null,"category":"Shared path"},"geometry":{"type":"MultiLineString","coordinates":[[[-2.8764527,53.1428842],[-2.8762614,53.1428841],[-2.8761614,53.1428844],[-2.8759962,53.1428845]]]}},
{"type":"Feature","properties":{"highway":"path","name":null,"category":"Shared path"},"geometry":{"type":"MultiLineString","coordinates":[[[-2.8764512,53.1429289],[-2.8762616,53.1429293],[-2.8761607,53.1429295],[-2.8760057,53.1429298]]]}},
{"type":"Feature","properties":{"highway":"path","name":null,"category":"Shared path"},"geometry":{"type":"MultiLineString","coordinates":[[[-2.8765953,53.1430037],[-2.8764488,53.1430026],[-2.8762609,53.1430027],[-2.8761596,53.1430024],[-2.8760209,53.143002]]]}},
{"type":"Feature","properties":{"highway":"path","name":null,"category":"Shared path"},"geometry":{"type":"MultiLineString","coordinates":[[[-2.8761582,53.1430937],[-2.8761596,53.1430024],[-2.8761607,53.1429295],[-2.8761614,53.1428844],[-2.876162,53.1428433],[-2.8761632,53.1427612]]]}},
{"type":"Feature","properties":{"highway":"path","name":null,"category":"Shared path"},"geometry":{"type":"MultiLineString","coordinates":[[[-2.8761172,53.1427363],[-2.8759649,53.1427358]]]}},
{"type":"Feature","properties":{"highway":"path","name":null,"category":"Shared path"},"geometry":{"type":"MultiLineString","coordinates":[[[-2.8761175,53.1426848],[-2.8759539,53.1426837]]]}},
{"type":"Feature","properties":{"highway":"path","name":null,"category":"Shared path"},"geometry":{"type":"MultiLineString","coordinates":[[[-2.8764629,53.1425774],[-2.8762612,53.1425763],[-2.8761674,53.1425761],[-2.8759311,53.1425755]]]}},
{"type":"Feature","properties":{"highway":"path","name":null,"category":"Shared path"},"geometry":{"type":"MultiLineString","coordinates":[[[-2.8764643,53.1425343],[-2.8762615,53.1425331],[-2.8761671,53.1425325],[-2.8759217,53.142531]]]}},
{"type":"Feature","properties":{"highway":"path","name":null,"category":"Shared path"},"geometry":{"type":"MultiLineString","coordinates":[[[-2.8762632,53.1423052],[-2.8762623,53.1424206],[-2.876262,53.1424679],[-2.8762615,53.1425331],[-2.8762612,53.1425763],[-2.8762606,53.1426568]]]}},
{"type":"Feature","properties":{"highway":"path","name":null,"category":"Shared path"},"geometry":{"type":"MultiLineString","coordinates":[[[-2.8761657,53.1423125],[-2.8761664,53.1424203],[-2.8761667,53.1424679],[-2.8761671,53.1425325],[-2.8761674,53.1425761],[-2.8761679,53.1426566]]]}},
{"type":"Feature","properties":{"highway":"path","name":null,"category":"Shared path"},"geometry":{"type":"MultiLineString","coordinates":[[[-2.8763116,53.1427365],[-2.8764576,53.1427378]]]}},
{"type":"Feature","properties":{"highway":"path","name":null,"category":"Shared path"},"geometry":{"type":"MultiLineString","coordinates":[[[-2.8763119,53.1426846],[-2.8764593,53.1426854]]]}},
{"type":"Feature","properties":{"highway":"path","name":null,"category":"Shared path"},"geometry":{"type":"MultiLineString","coordinates":[[[-2.8756619,53.1418757],[-2.8755857,53.1413999]]]}},
{"type":"Feature","properties":{"highway":"path","name":null,"category":"Shared path"},"geometry":{"type":"MultiLineString","coordinates":[[[-2.8764654,53.1422901],[-2.8764653,53.1421558]]]}},
{"type":"Feature","properties":{"highway":"path","name":null,"category":"Shared path"},"geometry":{"type":"MultiLineString","coordinates":[[[-2.8760527,53.1424199],[-2.8760421,53.1423218]]]}},
{"type":"Feature","properties":{"highway":"footway","name":null,"category":"Footpath (pedestrian only)"},"geometry":{"type":"MultiLineString","coordinates":[[[-2.8704013,53.1434169],[-2.8704652,53.1431345],[-2.8705924,53.1429096],[-2.8708486,53.1424735],[-2.8709277,53.1421669],[-2.8708947,53.1417203]]]}},
{"type":"Feature","properties":{"highway":"footway","name":null,"category":"Footpath (pedestrian only)"},"geometry":{"type":"MultiLineString","coordinates":[[[-2.8708708,53.1416637],[-2.8706219,53.1411156],[-2.8702377,53.1407298],[-2.8699805,53.1404518],[-2.8698377,53.1403061],[-2.8694431,53.1399367],[-2.8692401,53.1397152],[-2.8690539,53.1394766],[-2.8688954,53.139265],[-2.8687888,53.1390044],[-2.868757,53.1386883],[-2.868781,53.1381077],[-2.8691095,53.13757],[-2.8692403,53.1373688],[-2.86949,53.1370675],[-2.8697964,53.1366597],[-2.8702994,53.13614],[-2.8706965,53.1358239],[-2.8707675,53.1356865],[-2.8709918,53.1356261],[-2.8712213,53.1353561],[-2.8714175,53.1353116],[-2.8715507,53.1353259],[-2.8716682,53.1352577],[-2.8718627,53.1351122]]]}},
{"type":"Feature","properties":{"highway":"footway","name":null,"category":"Footpath (pedestrian only)"},"geometry":{"type":"MultiLineString","coordinates":[[[-2.8708947,53.1417203],[-2.8708708,53.1416637]]]}},
{"type":"Feature","properties":{"highway":"path","name":null,"category":"Shared path"},"geometry":{"type":"MultiLineString","coordinates":[[[-2.87771,53.1403205],[-2.8777386,53.1404254],[-2.8778168,53.1404895],[-2.878384,53.1405394],[-2.8787036,53.1405675],[-2.8788295,53.1405174],[-2.8788942,53.1404638],[-2.8789111,53.1403948],[-2.8789205,53.1403292],[-2.8788899,53.1402603],[-2.8788154,53.1402055],[-2.8787035,53.1401742],[-2.8784828,53.1401547],[-2.8779934,53.1401115],[-2.8778515,53.1401305],[-2.8777459,53.1402356]]]}},
{"type":"Feature","properties":{"highway":"path","name":null,"category":"Shared path"},"geometry":{"type":"MultiLineString","coordinates":[[[-2.8791277,53.1404098],[-2.8789111,53.1403948]]]}}
]
}
