{
"type": "FeatureCollection",
"name": "CHEWE_113_walking",
"crs": { "type": "name", "properties": { "name": "urn:ogc:def:crs:OGC:1.3:CRS84" } },
"features": [
{"type":"Feature","properties":{"highway":"footway","name":"Heath Lane","category":"Footpath (pedestrian only)"},"geometry":{"type":"MultiLineString","coordinates":[[[-2.8598996,53.1827751],[-2.8597216,53.1825964],[-2.8595722,53.1824888],[-2.8593461,53.1823618],[-2.8592201,53.1823103],[-2.8590734,53.1822727],[-2.858807,53.1822042],[-2.8586426,53.1821481]]]}},
{"type":"Feature","properties":{"highway":"footway","name":"Walmoor Hill","category":"Footpath (pedestrian only)"},"geometry":{"type":"MultiLineString","coordinates":[[[-2.8686189,53.1878996],[-2.8672818,53.1871144],[-2.8672563,53.1870415]]]}},
{"type":"Feature","properties":{"highway":"footway","name":null,"category":"Footpath (pedestrian only)"},"geometry":{"type":"MultiLineString","coordinates":[[[-2.8598119,53.178435],[-2.8599325,53.1784401],[-2.8602044,53.1784645],[-2.8604465,53.1784333],[-2.8606443,53.1783721],[-2.860883,53.1783441],[-2.8611877,53.178229],[-2.8613953,53.1781832],[-2.8615666,53.1781935]]]}},
{"type":"Feature","properties":{"highway":"footway","name":null,"category":"Footpath (pedestrian only)"},"geometry":{"type":"MultiLineString","coordinates":[[[-2.860883,53.1783441],[-2.8607666,53.1782642],[-2.8607249,53.1782324]]]}},
{"type":"Feature","properties":{"highway":"footway","name":null,"category":"Footpath (pedestrian only)"},"geometry":{"type":"MultiLineString","coordinates":[[[-2.8633098,53.1778805],[-2.8634288,53.1779609],[-2.8634853,53.1779799],[-2.8636444,53.178049],[-2.8637289,53.1781012],[-2.8637914,53.1781652],[-2.8638911,53.1782668],[-2.8639823,53.1783383],[-2.8642045,53.1785023],[-2.8644243,53.1786296],[-2.864536,53.1786502],[-2.8647438,53.1786711],[-2.8648683,53.1786711],[-2.8651115,53.1786735],[-2.8652285,53.1787022],[-2.8654803,53.1787836],[-2.865722,53.1788353],[-2.8662964,53.1790338],[-2.8670256,53.1793272],[-2.8674618,53.17938],[-2.8681006,53.1794093],[-2.8686126,53.1793361],[-2.8687244,53.1792951]]]}},
{"type":"Feature","properties":{"highway":"footway","name":null,"category":"Footpath (pedestrian only)"},"geometry":{"type":"MultiLineString","coordinates":[[[-2.8668669,53.179693],[-2.8668398,53.1797264],[-2.8667946,53.1798628],[-2.8667879,53.1799458],[-2.8667825,53.1801082],[-2.8667718,53.1802408],[-2.8667544,53.1803621],[-2.8666994,53.1805229],[-2.8666914,53.1806081],[-2.8666914,53.180678],[-2.8666475,53.1807209],[-2.866522,53.1807794],[-2.8663643,53.1808436]]]}},
{"type":"Feature","properties":{"highway":"footway","name":null,"category":"Footpath (pedestrian only)"},"geometry":{"type":"MultiLineString","coordinates":[[[-2.8661177,53.1795793],[-2.8658521,53.1794257],[-2.8653566,53.1793039],[-2.8652295,53.1792474],[-2.8650881,53.1791748],[-2.8647923,53.1790818],[-2.8646059,53.1790488],[-2.8645308,53.1790183],[-2.8644654,53.1789696],[-2.8644234,53.1789296]]]}},
{"type":"Feature","properties":{"highway":"footway","name":null,"category":"Footpath (pedestrian only)"},"geometry":{"type":"MultiLineString","coordinates":[[[-2.8648219,53.1783415],[-2.8648521,53.1783601],[-2.8650686,53.1784476],[-2.8653129,53.1784858],[-2.8653462,53.1785304],[-2.8654714,53.1785892],[-2.8656386,53.1786301],[-2.8656936,53.1786542],[-2.8657012,53.1787039]]]}},
{"type":"Feature","properties":{"highway":"footway","name":null,"category":"Footpath (pedestrian only)"},"geometry":{"type":"MultiLineString","coordinates":[[[-2.8653129,53.1784858],[-2.8653777,53.1783627],[-2.8655461,53.1782259]]]}},
{"type":"Feature","properties":{"highway":"footway","name":null,"category":"Footpath (pedestrian only)"},"geometry":{"type":"MultiLineString","coordinates":[[[-2.8638278,53.1787228],[-2.8635951,53.1785058],[-2.863521,53.1783939],[-2.8634447,53.1783439],[-2.8633223,53.1782796],[-2.8630043,53.178253]]]}},
{"type":"Feature","properties":{"highway":"footway","name":null,"category":"Footpath (pedestrian only)"},"geometry":{"type":"MultiLineString","coordinates":[[[-2.8638278,53.1787228],[-2.8639227,53.1787722],[-2.8640946,53.1787993],[-2.8642665,53.1788297],[-2.8644234,53.1789296]]]}},
{"type":"Feature","properties":{"highway":"footway","name":null,"category":"Footpath (pedestrian only)"},"geometry":{"type":"MultiLineString","coordinates":[[[-2.8598205,53.1789239],[-2.8600837,53.178872],[-2.8602723,53.1787917],[-2.8604259,53.1786666],[-2.8605263,53.178663],[-2.8606457,53.1786438],[-2.8608811,53.1785959],[-2.860933,53.178574],[-2.8609769,53.1785553],[-2.8610815,53.1784878],[-2.8611727,53.1784412],[-2.8612629,53.1784155],[-2.8616024,53.1783413]]]}},
{"type":"Feature","properties":{"highway":"footway","name":null,"category":"Footpath (pedestrian only)"},"geometry":{"type":"MultiLineString","coordinates":[[[-2.8633318,53.17717],[-2.8630953,53.1773139],[-2.8627475,53.1773593]]]}},
{"type":"Feature","properties":{"highway":"footway","name":null,"category":"Footpath (pedestrian only)"},"geometry":{"type":"MultiLineString","coordinates":[[[-2.8651681,53.1766591],[-2.8648551,53.1764192]]]}},
{"type":"Feature","properties":{"highway":"footway","name":null,"category":"Footpath (pedestrian only)"},"geometry":{"type":"MultiLineString","coordinates":[[[-2.8618591,53.1718654],[-2.8617932,53.1718825],[-2.8616724,53.1719139],[-2.8615662,53.1720727],[-2.8612794,53.1725078],[-2.8610301,53.172935],[-2.8608293,53.1730468],[-2.8604153,53.173284],[-2.8592139,53.1739246],[-2.858251,53.1743009],[-2.8581,53.174394],[-2.8572346,53.1747888],[-2.8567436,53.175109],[-2.855952,53.1754975],[-2.8555814,53.1756547]]]}},
{"type":"Feature","properties":{"highway":"footway","name":null,"category":"Footpath (pedestrian only)"},"geometry":{"type":"MultiLineString","coordinates":[[[-2.8574185,53.1830567],[-2.85749,53.1830939],[-2.8575799,53.1831228],[-2.8581576,53.1833592]]]}},
{"type":"Feature","properties":{"highway":"footway","name":null,"category":"Footpath (pedestrian only)"},"geometry":{"type":"MultiLineString","coordinates":[[[-2.8595722,53.1824888],[-2.8595057,53.1825659],[-2.8594628,53.1826149],[-2.8593864,53.1826704],[-2.8593649,53.1826881],[-2.8592531,53.18269]]]}},
{"type":"Feature","properties":{"highway":"footway","name":null,"category":"Footpath (pedestrian only)"},"geometry":{"type":"MultiLineString","coordinates":[[[-2.8602494,53.1801219],[-2.8603982,53.1801393],[-2.8607874,53.1806055],[-2.8608682,53.1809827],[-2.8607998,53.1811329],[-2.8604685,53.1812827]]]}},
{"type":"Feature","properties":{"highway":"footway","name":null,"category":"Footpath (pedestrian only)"},"geometry":{"type":"MultiLineString","coordinates":[[[-2.8608682,53.1809827],[-2.8611271,53.1811594],[-2.861376,53.1813092],[-2.8614764,53.1813297]]]}},
{"type":"Feature","properties":{"highway":"footway","name":null,"category":"Footpath (pedestrian only)"},"geometry":{"type":"MultiLineString","coordinates":[[[-2.8614764,53.1813297],[-2.8613591,53.181509],[-2.8612483,53.1816429],[-2.8611861,53.1816826],[-2.861111,53.1817059],[-2.860989,53.1817477],[-2.8609058,53.1818],[-2.8608307,53.1818209],[-2.8607489,53.1818281],[-2.8606893,53.1818237]]]}},
{"type":"Feature","properties":{"highway":"footway","name":null,"category":"Footpath (pedestrian only)"},"geometry":{"type":"MultiLineString","coordinates":[[[-2.8581123,53.1778671],[-2.8581358,53.1777958]]]}},
{"type":"Feature","properties":{"highway":"footway","name":null,"category":"Footpath (pedestrian only)"},"geometry":{"type":"MultiLineString","coordinates":[[[-2.8558753,53.1806467],[-2.8558928,53.1805856],[-2.8559156,53.1805647],[-2.8559974,53.1805036],[-2.8560832,53.1804618],[-2.8561288,53.1804305],[-2.8561422,53.1804007],[-2.8561374,53.1803645],[-2.8560846,53.1802544],[-2.8558326,53.1800457]]]}},
{"type":"Feature","properties":{"highway":"footway","name":"Heath Lane","category":"Footpath (pedestrian only)"},"geometry":{"type":"MultiLineString","coordinates":[[[-2.8581748,53.1817226],[-2.8581132,53.1817197],[-2.8580023,53.1816883],[-2.8575625,53.1815074],[-2.8568664,53.1812302],[-2.8566518,53.1811321],[-2.8564762,53.1810421],[-2.8562629,53.1809336],[-2.8561087,53.1808484],[-2.8560108,53.1807905],[-2.8559236,53.1807142],[-2.8558753,53.1806467]]]}},
{"type":"Feature","properties":{"highway":"footway","name":null,"category":"Footpath (pedestrian only)"},"geometry":{"type":"MultiLineString","coordinates":[[[-2.8558326,53.1800457],[-2.8560405,53.1797882],[-2.856432,53.1792997],[-2.8567404,53.1789532],[-2.8570607,53.1786309],[-2.8572693,53.1784285],[-2.8574029,53.1783432],[-2.857667,53.17823],[-2.8578199,53.1781502],[-2.8579071,53.1780238],[-2.8580322,53.1779334]]]}},
{"type":"Feature","properties":{"highway":"footway","name":null,"category":"Footpath (pedestrian only)"},"geometry":{"type":"MultiLineString","coordinates":[[[-2.8581358,53.1777958],[-2.8582136,53.1776684],[-2.8582572,53.1775792],[-2.8582802,53.1775273],[-2.8584664,53.1771343],[-2.8586736,53.1768118],[-2.8589451,53.176521],[-2.8591812,53.1762919],[-2.8594172,53.1760588],[-2.8596377,53.1757978],[-2.8609141,53.174363],[-2.86117,53.1740886],[-2.8614678,53.1738057],[-2.8616059,53.1736739],[-2.8617708,53.1735034],[-2.8619921,53.1732679],[-2.8624061,53.1728152],[-2.8624988,53.1727537],[-2.862628,53.1726696]]]}},
{"type":"Feature","properties":{"highway":"footway","name":null,"category":"Footpath (pedestrian only)"},"geometry":{"type":"MultiLineString","coordinates":[[[-2.8580322,53.1779334],[-2.8581123,53.1778671]]]}},
{"type":"Feature","properties":{"highway":"footway","name":null,"category":"Footpath (pedestrian only)"},"geometry":{"type":"MultiLineString","coordinates":[[[-2.859778,53.1787653],[-2.8596261,53.1787675],[-2.8594297,53.1786965],[-2.8593351,53.1787309],[-2.8592876,53.1787714],[-2.8592509,53.1788809],[-2.8591356,53.1789645],[-2.8590806,53.1790199],[-2.8590129,53.1791198],[-2.8588231,53.1792135],[-2.8579926,53.179478]]]}},
{"type":"Feature","properties":{"highway":"footway","name":null,"category":"Footpath (pedestrian only)"},"geometry":{"type":"MultiLineString","coordinates":[[[-2.8614588,53.188001],[-2.8615603,53.1877635]]]}},
{"type":"Feature","properties":{"highway":"footway","name":null,"category":"Footpath (pedestrian only)"},"geometry":{"type":"MultiLineString","coordinates":[[[-2.8667544,53.1753382],[-2.8662693,53.1755183],[-2.865982,53.175625]]]}},
{"type":"Feature","properties":{"highway":"footway","name":null,"category":"Footpath (pedestrian only)"},"geometry":{"type":"MultiLineString","coordinates":[[[-2.8616878,53.1838736],[-2.8624588,53.1835765]]]}},
{"type":"Feature","properties":{"highway":"footway","name":null,"category":"Footpath (pedestrian only)"},"geometry":{"type":"MultiLineString","coordinates":[[[-2.8687996,53.1789885],[-2.8693709,53.1788679]]]}},
{"type":"Feature","properties":{"highway":"footway","name":null,"category":"Footpath (pedestrian only)"},"geometry":{"type":"MultiLineString","coordinates":[[[-2.8654013,53.175599],[-2.8659738,53.1755921]]]}},
{"type":"Feature","properties":{"highway":"track","name":null,"category":"Track"},"geometry":{"type":"MultiLineString","coordinates":[[[-2.8613196,53.1705809],[-2.8615065,53.1704738],[-2.8616947,53.1704261],[-2.8617288,53.1704037],[-2.86174,53.1702705],[-2.8618022,53.1702476],[-2.8620333,53.1702511],[-2.8622997,53.1702322],[-2.8627679,53.1701579]]]}},
{"type":"Feature","properties":{"highway":"path","name":null,"category":"Shared path"},"geometry":{"type":"MultiLineString","coordinates":[[[-2.863648,53.1881046],[-2.8631409,53.1880258]]]}},
{"type":"Feature","properties":{"highway":"footway","name":null,"category":"Footpath (pedestrian only)"},"geometry":{"type":"MultiLineString","coordinates":[[[-2.8600008,53.1710596],[-2.8597103,53.1708194],[-2.8596915,53.1707599],[-2.859654,53.1707238],[-2.8595923,53.1707198],[-2.8595359,53.1706997],[-2.8594984,53.1706595],[-2.8595427,53.1706032],[-2.8596164,53.1704971],[-2.8597063,53.1704472],[-2.8598055,53.1704392],[-2.8598887,53.1704585],[-2.8599092,53.170475],[-2.8599396,53.1704995],[-2.8599289,53.1705566],[-2.8597787,53.1706498],[-2.8597277,53.1706916],[-2.8596808,53.1707157],[-2.859654,53.1707238]]]}},
{"type":"Feature","properties":{"highway":"footway","name":null,"category":"Footpath (pedestrian only)"},"geometry":{"type":"MultiLineString","coordinates":[[[-2.8663046,53.1779889],[-2.8663413,53.1779204],[-2.8663052,53.1778289],[-2.8660901,53.1776186],[-2.8660248,53.1775804],[-2.8659162,53.177537],[-2.8657143,53.1774599]]]}},
{"type":"Feature","properties":{"highway":"footway","name":null,"category":"Footpath (pedestrian only)"},"geometry":{"type":"MultiLineString","coordinates":[[[-2.8616554,53.1821551],[-2.8617574,53.1822509],[-2.8619035,53.1823486],[-2.862146,53.1825092],[-2.8623477,53.1826332],[-2.8624571,53.1826898],[-2.8625548,53.1828184],[-2.8624829,53.1828679],[-2.8624539,53.182927],[-2.8624664,53.1829606]]]}},
{"type":"Feature","properties":{"highway":"footway","name":null,"category":"Footpath (pedestrian only)"},"geometry":{"type":"MultiLineString","coordinates":[[[-2.8625548,53.1828184],[-2.8626599,53.1828126],[-2.8627436,53.1828351],[-2.8627682,53.1828698]]]}},
{"type":"Feature","properties":{"highway":"footway","name":null,"category":"Footpath (pedestrian only)"},"geometry":{"type":"MultiLineString","coordinates":[[[-2.864149,53.1816176],[-2.8641923,53.1815988],[-2.8642826,53.1815569],[-2.8643819,53.1815124],[-2.8644173,53.1815016]]]}},
{"type":"Feature","properties":{"highway":"footway","name":null,"category":"Footpath (pedestrian only)"},"geometry":{"type":"MultiLineString","coordinates":[[[-2.8619076,53.1777508],[-2.8619801,53.1778014],[-2.8620189,53.1778609],[-2.8620565,53.1779075],[-2.8621023,53.1780401]]]}},
{"type":"Feature","properties":{"highway":"footway","name":null,"category":"Footpath (pedestrian only)"},"geometry":{"type":"MultiLineString","coordinates":[[[-2.8616777,53.1763372],[-2.8616817,53.1762838],[-2.8617152,53.1762268],[-2.8617614,53.176148],[-2.8618057,53.1760507],[-2.8618211,53.1760294],[-2.8618272,53.1759956],[-2.8618211,53.1759627],[-2.8617963,53.1759153],[-2.8617407,53.1758687],[-2.8616991,53.1758124],[-2.8617226,53.1757342]]]}},
{"type":"Feature","properties":{"highway":"footway","name":null,"category":"Footpath (pedestrian only)"},"geometry":{"type":"MultiLineString","coordinates":[[[-2.8670816,53.1786345],[-2.8670736,53.1785665],[-2.8669315,53.1785311],[-2.8668757,53.1784893]]]}},
{"type":"Feature","properties":{"highway":"footway","name":null,"category":"Footpath (pedestrian only)"},"geometry":{"type":"MultiLineString","coordinates":[[[-2.8630158,53.1754826],[-2.8629034,53.1754432],[-2.8625922,53.1754271],[-2.8624433,53.1754143]]]}},
{"type":"Feature","properties":{"highway":"footway","name":"Lucerne Close","category":"Footpath (pedestrian only)"},"geometry":{"type":"MultiLineString","coordinates":[[[-2.8598289,53.1783782],[-2.8597545,53.1783631],[-2.8597143,53.1783516],[-2.8596319,53.1783288],[-2.8593737,53.1782659],[-2.8592281,53.1782301],[-2.859122,53.1781989],[-2.8590144,53.1781562],[-2.8588972,53.178091],[-2.8588127,53.1780173],[-2.8587577,53.1779688],[-2.8586763,53.1778839],[-2.8585777,53.1778186],[-2.8584335,53.1777405],[-2.8582725,53.177687],[-2.8582136,53.1776684]]]}},
{"type":"Feature","properties":{"highway":"footway","name":null,"category":"Footpath (pedestrian only)"},"geometry":{"type":"MultiLineString","coordinates":[[[-2.8620675,53.1880748],[-2.862205,53.1880998],[-2.8622924,53.1881156],[-2.8624236,53.188219],[-2.8624736,53.1882223],[-2.862527,53.1882315],[-2.8627103,53.1881811],[-2.8630383,53.1882338]]]}},
{"type":"Feature","properties":{"highway":"footway","name":null,"category":"Footpath (pedestrian only)"},"geometry":{"type":"MultiLineString","coordinates":[[[-2.8646198,53.182561],[-2.8645135,53.1826034],[-2.8644115,53.1826388],[-2.8643873,53.1826501]]]}},
{"type":"Feature","properties":{"highway":"footway","name":null,"category":"Footpath (pedestrian only)"},"geometry":{"type":"MultiLineString","coordinates":[[[-2.8634349,53.1781619],[-2.8634295,53.1781937],[-2.8634015,53.1782256]]]}},
{"type":"Feature","properties":{"highway":"footway","name":null,"category":"Footpath (pedestrian only)"},"geometry":{"type":"MultiLineString","coordinates":[[[-2.8634015,53.1782256],[-2.8633223,53.1782796]]]}},
{"type":"Feature","properties":{"highway":"footway","name":null,"category":"Footpath (pedestrian only)"},"geometry":{"type":"MultiLineString","coordinates":[[[-2.8618268,53.1782725],[-2.8619685,53.1782442],[-2.8621008,53.1782001],[-2.8621933,53.178184],[-2.8623167,53.1781567],[-2.8624105,53.1781342],[-2.8624696,53.1781334],[-2.8625594,53.1781382],[-2.8627391,53.1781406],[-2.862808,53.1781678],[-2.8629148,53.1782298],[-2.8630043,53.178253]]]}},
{"type":"Feature","properties":{"highway":"footway","name":null,"category":"Footpath (pedestrian only)"},"geometry":{"type":"MultiLineString","coordinates":[[[-2.861723,53.1783223],[-2.8618268,53.1782725]]]}},
{"type":"Feature","properties":{"highway":"footway","name":null,"category":"Footpath (pedestrian only)"},"geometry":{"type":"MultiLineString","coordinates":[[[-2.8616024,53.1783413],[-2.861723,53.1783223]]]}},
{"type":"Feature","properties":{"highway":"footway","name":null,"category":"Footpath (pedestrian only)"},"geometry":{"type":"MultiLineString","coordinates":[[[-2.866933,53.1789458],[-2.866926,53.1790521],[-2.8669971,53.17913],[-2.8670256,53.1793272],[-2.867032,53.1793912],[-2.8669168,53.1796057]]]}},
{"type":"Feature","properties":{"highway":"footway","name":null,"category":"Footpath (pedestrian only)"},"geometry":{"type":"MultiLineString","coordinates":[[[-2.8669168,53.1796057],[-2.8668669,53.179693]]]}},
{"type":"Feature","properties":{"highway":"footway","name":null,"category":"Footpath (pedestrian only)"},"geometry":{"type":"MultiLineString","coordinates":[[[-2.8667879,53.1799458],[-2.866686,53.1799241],[-2.8666136,53.1798791],[-2.8665764,53.1797912]]]}},
{"type":"Feature","properties":{"highway":"footway","name":null,"category":"Footpath (pedestrian only)"},"geometry":{"type":"MultiLineString","coordinates":[[[-2.8644756,53.1789162],[-2.8645926,53.1788836]]]}},
{"type":"Feature","properties":{"highway":"footway","name":null,"category":"Footpath (pedestrian only)"},"geometry":{"type":"MultiLineString","coordinates":[[[-2.8644234,53.1789296],[-2.8644756,53.1789162]]]}},
{"type":"Feature","properties":{"highway":"footway","name":null,"category":"Footpath (pedestrian only)"},"geometry":{"type":"MultiLineString","coordinates":[[[-2.8646551,53.1787884],[-2.864536,53.1786502]]]}},
{"type":"Feature","properties":{"highway":"footway","name":null,"category":"Footpath (pedestrian only)"},"geometry":{"type":"MultiLineString","coordinates":[[[-2.8634853,53.1779799],[-2.8634092,53.1780644]]]}},
{"type":"Feature","properties":{"highway":"footway","name":null,"category":"Footpath (pedestrian only)"},"geometry":{"type":"MultiLineString","coordinates":[[[-2.8633363,53.1780758],[-2.8631227,53.1779528]]]}},
{"type":"Feature","properties":{"highway":"footway","name":null,"category":"Footpath (pedestrian only)"},"geometry":{"type":"MultiLineString","coordinates":[[[-2.8644234,53.1789296],[-2.8642651,53.1788921],[-2.8641595,53.1788932],[-2.8639772,53.1789378],[-2.8638593,53.1789648],[-2.8637693,53.1789854]]]}},
{"type":"Feature","properties":{"highway":"footway","name":null,"category":"Footpath (pedestrian only)"},"geometry":{"type":"MultiLineString","coordinates":[[[-2.8634908,53.1792506],[-2.8635269,53.1792028],[-2.86359,53.1791631],[-2.8636393,53.179093],[-2.8636449,53.1790847]]]}},
{"type":"Feature","properties":{"highway":"footway","name":null,"category":"Footpath (pedestrian only)"},"geometry":{"type":"MultiLineString","coordinates":[[[-2.8636932,53.1790126],[-2.8637693,53.1789854]]]}},
{"type":"Feature","properties":{"highway":"footway","name":null,"category":"Footpath (pedestrian only)"},"geometry":{"type":"MultiLineString","coordinates":[[[-2.8636449,53.1790847],[-2.8636932,53.1790126]]]}},
{"type":"Feature","properties":{"highway":"footway","name":null,"category":"Footpath (pedestrian only)"},"geometry":{"type":"MultiLineString","coordinates":[[[-2.8637693,53.1789854],[-2.8638034,53.1789492],[-2.8638627,53.1788562],[-2.8638603,53.178781],[-2.8638278,53.1787228]]]}},
{"type":"Feature","properties":{"highway":"footway","name":null,"category":"Footpath (pedestrian only)"},"geometry":{"type":"MultiLineString","coordinates":[[[-2.8646551,53.1787884],[-2.8647797,53.178808]]]}},
{"type":"Feature","properties":{"highway":"footway","name":null,"category":"Footpath (pedestrian only)"},"geometry":{"type":"MultiLineString","coordinates":[[[-2.8668398,53.1797264],[-2.8666932,53.1797785],[-2.8665764,53.1797912],[-2.8664593,53.1797433],[-2.8663332,53.1796829],[-2.866191,53.179623]]]}},
{"type":"Feature","properties":{"highway":"footway","name":null,"category":"Footpath (pedestrian only)"},"geometry":{"type":"MultiLineString","coordinates":[[[-2.866191,53.179623],[-2.8661177,53.1795793]]]}},
{"type":"Feature","properties":{"highway":"footway","name":null,"category":"Footpath (pedestrian only)"},"geometry":{"type":"MultiLineString","coordinates":[[[-2.8612206,53.1765281],[-2.8609254,53.1764757]]]}},
{"type":"Feature","properties":{"highway":"footway","name":null,"category":"Footpath (pedestrian only)"},"geometry":{"type":"MultiLineString","coordinates":[[[-2.8598385,53.1701588],[-2.8597425,53.1701821],[-2.8596835,53.1702352],[-2.8596138,53.1703349],[-2.859536,53.1704458],[-2.8594395,53.1705343],[-2.8593322,53.1706227],[-2.8591846,53.1706918],[-2.8590492,53.1707722],[-2.8589298,53.1708309],[-2.8586847,53.1709151]]]}},
{"type":"Feature","properties":{"highway":"footway","name":null,"category":"Footpath (pedestrian only)"},"geometry":{"type":"MultiLineString","coordinates":[[[-2.8601076,53.1704034],[-2.8600236,53.1704337],[-2.8599092,53.170475]]]}},
{"type":"Feature","properties":{"highway":"footway","name":null,"category":"Footpath (pedestrian only)"},"geometry":{"type":"MultiLineString","coordinates":[[[-2.8563671,53.1847033],[-2.8562335,53.1846542],[-2.8561075,53.184575],[-2.8561166,53.1844558],[-2.8560942,53.1843599]]]}},
{"type":"Feature","properties":{"highway":"footway","name":null,"category":"Footpath (pedestrian only)"},"geometry":{"type":"MultiLineString","coordinates":[[[-2.8555239,53.1833665],[-2.8555358,53.1834138],[-2.855764,53.1841999],[-2.855801,53.1842286],[-2.8559619,53.184277],[-2.8560354,53.1843062]]]}},
{"type":"Feature","properties":{"highway":"footway","name":null,"category":"Footpath (pedestrian only)"},"geometry":{"type":"MultiLineString","coordinates":[[[-2.8566072,53.1838108],[-2.856404,53.1837244],[-2.85636,53.183691],[-2.8563352,53.1835916],[-2.8562505,53.1832998],[-2.8562243,53.1832087],[-2.8559067,53.1832415],[-2.8557782,53.183341],[-2.8555239,53.1833665]]]}},
{"type":"Feature","properties":{"highway":"track","name":null,"category":"Track"},"geometry":{"type":"MultiLineString","coordinates":[[[-2.8663567,53.187747],[-2.8662877,53.1873829],[-2.8668764,53.1873443],[-2.8669408,53.187358],[-2.8674571,53.1873154],[-2.8675315,53.1876775],[-2.8669683,53.187713],[-2.8664969,53.187734],[-2.8663567,53.187747],[-2.8662392,53.1877579]]]}},
{"type":"Feature","properties":{"highway":"footway","name":null,"category":"Footpath (pedestrian only)"},"geometry":{"type":"MultiLineString","coordinates":[[[-2.8598515,53.178023],[-2.8600058,53.1780557]]]}},
{"type":"Feature","properties":{"highway":"footway","name":null,"category":"Footpath (pedestrian only)"},"geometry":{"type":"MultiLineString","coordinates":[[[-2.8617674,53.1748565],[-2.8616684,53.174871],[-2.8616346,53.1748984],[-2.8615849,53.1750891],[-2.861581,53.1752595],[-2.8615969,53.1754465],[-2.8615651,53.1755669],[-2.861492,53.1756952],[-2.8613523,53.1758516],[-2.8611257,53.1760447],[-2.8609646,53.1762282],[-2.8609164,53.1763125]]]}},
{"type":"Feature","properties":{"highway":"footway","name":null,"category":"Footpath (pedestrian only)"},"geometry":{"type":"MultiLineString","coordinates":[[[-2.8645483,53.1746159],[-2.8644102,53.1744982],[-2.8643895,53.1744754],[-2.8641551,53.1742169],[-2.8639805,53.1740244],[-2.8639161,53.1739504],[-2.8638314,53.1738532],[-2.8637116,53.1737157],[-2.8636118,53.173601],[-2.8634114,53.173371],[-2.8630811,53.1729917]]]}},
{"type":"Feature","properties":{"highway":"footway","name":null,"category":"Footpath (pedestrian only)"},"geometry":{"type":"MultiLineString","coordinates":[[[-2.8653169,53.1725339],[-2.8654791,53.1725189],[-2.8655219,53.172489],[-2.8655598,53.1724534],[-2.8656145,53.172432],[-2.8656881,53.1724093],[-2.8657284,53.1723908],[-2.8658139,53.1723153],[-2.8658804,53.172284],[-2.8659682,53.1722698],[-2.8660394,53.1722442],[-2.8660893,53.1721858],[-2.8661607,53.1721234],[-2.8661965,53.1720846],[-2.8662244,53.172045],[-2.8662273,53.1719837],[-2.866222,53.1719062],[-2.8661826,53.1717662],[-2.8661255,53.1715645],[-2.8661138,53.1715465],[-2.8648049,53.1716863],[-2.8647787,53.1717176],[-2.8650185,53.1722556],[-2.8650541,53.1722798],[-2.8650874,53.1722883],[-2.865142,53.1722855],[-2.8652132,53.1722698],[-2.8653319,53.1722698],[-2.8654174,53.1722798]]]}},
{"type":"Feature","properties":{"highway":"footway","name":null,"category":"Footpath (pedestrian only)"},"geometry":{"type":"MultiLineString","coordinates":[[[-2.8661607,53.1721234],[-2.8660624,53.1721433],[-2.8659134,53.1721593],[-2.8654815,53.1722399],[-2.8654459,53.1722542],[-2.8654174,53.1722798],[-2.8654791,53.1725189]]]}},
{"type":"Feature","properties":{"highway":"path","name":"Tudor Way","category":"Shared path"},"geometry":{"type":"MultiLineString","coordinates":[[[-2.8625574,53.181541],[-2.8625473,53.1815636]]]}},
{"type":"Feature","properties":{"highway":"path","name":"Tudor Way","category":"Shared path"},"geometry":{"type":"MultiLineString","coordinates":[[[-2.8625357,53.1815807],[-2.8625473,53.1815636]]]}},
{"type":"Feature","properties":{"highway":"path","name":null,"category":"Shared path"},"geometry":{"type":"MultiLineString","coordinates":[[[-2.8695629,53.1859187],[-2.870256,53.1860023],[-2.8701997,53.1862586],[-2.8701541,53.1862627],[-2.8701058,53.1862594],[-2.8700589,53.186241]]]}},
{"type":"Feature","properties":{"highway":"footway","name":null,"category":"Footpath (pedestrian only)"},"geometry":{"type":"MultiLineString","coordinates":[[[-2.8695452,53.187313],[-2.8695036,53.1874367],[-2.8694192,53.1874359],[-2.8694125,53.1874823]]]}},
{"type":"Feature","properties":{"highway":"footway","name":null,"category":"Footpath (pedestrian only)"},"geometry":{"type":"MultiLineString","coordinates":[[[-2.8695881,53.1871691],[-2.8696273,53.1871784],[-2.8696588,53.1871951],[-2.8696789,53.1872172],[-2.8696851,53.1872421],[-2.8696767,53.1872668],[-2.8696547,53.1872883],[-2.8696218,53.187304],[-2.8695819,53.187312],[-2.8695452,53.187313],[-2.8695007,53.1873021],[-2.8694692,53.1872854],[-2.8694491,53.1872633],[-2.8694429,53.1872383],[-2.8694513,53.1872136],[-2.8694733,53.1871922],[-2.8695062,53.1871765],[-2.8695313,53.1871701],[-2.8695881,53.1871691]]]}},
{"type":"Feature","properties":{"highway":"footway","name":null,"category":"Footpath (pedestrian only)"},"geometry":{"type":"MultiLineString","coordinates":[[[-2.8692378,53.187033],[-2.869336,53.187043],[-2.8694259,53.1870558],[-2.8694688,53.1870831],[-2.8695104,53.187141],[-2.8695313,53.1871701]]]}},
{"type":"Feature","properties":{"highway":"footway","name":null,"category":"Footpath (pedestrian only)"},"geometry":{"type":"MultiLineString","coordinates":[[[-2.8692973,53.1868146],[-2.8697033,53.1868549],[-2.8698738,53.1868718]]]}},
{"type":"Feature","properties":{"highway":"footway","name":null,"category":"Footpath (pedestrian only)"},"geometry":{"type":"MultiLineString","coordinates":[[[-2.8697379,53.1876996],[-2.8697364,53.1876668]]]}},
{"type":"Feature","properties":{"highway":"footway","name":null,"category":"Footpath (pedestrian only)"},"geometry":{"type":"MultiLineString","coordinates":[[[-2.869113,53.1874793],[-2.8693508,53.1874825],[-2.8694125,53.1874823],[-2.869729,53.187481],[-2.869959,53.1874814],[-2.8700717,53.1874843]]]}},
{"type":"Feature","properties":{"highway":"footway","name":null,"category":"Footpath (pedestrian only)"},"geometry":{"type":"MultiLineString","coordinates":[[[-2.869161,53.1877123],[-2.8693521,53.1875155],[-2.8693508,53.1874825]]]}},
{"type":"Feature","properties":{"highway":"path","name":null,"category":"Shared path"},"geometry":{"type":"MultiLineString","coordinates":[[[-2.8587616,53.1774976],[-2.8586667,53.1775136],[-2.8582802,53.1775273]]]}},
{"type":"Feature","properties":{"highway":"footway","name":null,"category":"Footpath (pedestrian only)"},"geometry":{"type":"MultiLineString","coordinates":[[[-2.860613,53.189288],[-2.8602795,53.1892303],[-2.8603506,53.1890543],[-2.8603238,53.189019],[-2.8595433,53.188892],[-2.8595245,53.1888639],[-2.8595392,53.1888253],[-2.8597659,53.188311],[-2.8600462,53.1876625],[-2.8602089,53.1873137]]]}},
{"type":"Feature","properties":{"highway":"footway","name":null,"category":"Footpath (pedestrian only)"},"geometry":{"type":"MultiLineString","coordinates":[[[-2.8635986,53.1769748],[-2.8635478,53.1769341],[-2.8633788,53.1767065]]]}},
{"type":"Feature","properties":{"highway":"footway","name":null,"category":"Footpath (pedestrian only)"},"geometry":{"type":"MultiLineString","coordinates":[[[-2.8647671,53.17645],[-2.8646703,53.1763972],[-2.8645939,53.1763321],[-2.8645402,53.1762839],[-2.864505,53.1762394]]]}},
{"type":"Feature","properties":{"highway":"footway","name":null,"category":"Footpath (pedestrian only)"},"geometry":{"type":"MultiLineString","coordinates":[[[-2.8631383,53.1750265],[-2.8631066,53.1750396],[-2.8630315,53.1750388],[-2.8629698,53.1750307],[-2.8629068,53.1750147],[-2.8627729,53.1749884]]]}},
{"type":"Feature","properties":{"highway":"footway","name":null,"category":"Footpath (pedestrian only)"},"geometry":{"type":"MultiLineString","coordinates":[[[-2.8637127,53.176931],[-2.8637731,53.1770081],[-2.8638268,53.1770603],[-2.8638724,53.1771214],[-2.8638831,53.177156],[-2.8639005,53.1771705]]]}},
{"type":"Feature","properties":{"highway":"footway","name":null,"category":"Footpath (pedestrian only)"},"geometry":{"type":"MultiLineString","coordinates":[[[-2.8602591,53.1789745],[-2.8602862,53.1790995]]]}},
{"type":"Feature","properties":{"highway":"footway","name":null,"category":"Footpath (pedestrian only)"},"geometry":{"type":"MultiLineString","coordinates":[[[-2.860458,53.1789627],[-2.8604002,53.1789548],[-2.8602591,53.1789745],[-2.8602098,53.1789813]]]}},
{"type":"Feature","properties":{"highway":"footway","name":null,"category":"Footpath (pedestrian only)"},"geometry":{"type":"MultiLineString","coordinates":[[[-2.860933,53.178574],[-2.8606336,53.1788246],[-2.860458,53.1789627],[-2.8604405,53.1789765],[-2.8602862,53.1790995],[-2.8601508,53.1792208],[-2.8600878,53.1793157],[-2.8599949,53.1793441]]]}},
{"type":"Feature","properties":{"highway":"footway","name":null,"category":"Footpath (pedestrian only)"},"geometry":{"type":"MultiLineString","coordinates":[[[-2.8645926,53.1788836],[-2.8646314,53.1788543],[-2.864651,53.1788128],[-2.8646551,53.1787884],[-2.8647438,53.1786711],[-2.8647642,53.1784975],[-2.8647166,53.1783609],[-2.8647041,53.1783377]]]}},
{"type":"Feature","properties":{"highway":"footway","name":null,"category":"Footpath (pedestrian only)"},"geometry":{"type":"MultiLineString","coordinates":[[[-2.8560846,53.1802544],[-2.8562361,53.1801853],[-2.8563729,53.180117],[-2.8564306,53.1800736],[-2.8564525,53.179967]]]}},
{"type":"Feature","properties":{"highway":"footway","name":null,"category":"Footpath (pedestrian only)"},"geometry":{"type":"MultiLineString","coordinates":[[[-2.8696351,53.1876362],[-2.8697345,53.1876205]]]}},
{"type":"Feature","properties":{"highway":"footway","name":null,"category":"Footpath (pedestrian only)"},"geometry":{"type":"MultiLineString","coordinates":[[[-2.8697345,53.1876205],[-2.869729,53.187481],[-2.8698041,53.1872238],[-2.8698121,53.1870671],[-2.8698738,53.1868718],[-2.8700133,53.1864153],[-2.8700522,53.1862908],[-2.8694622,53.1862446]]]}},
{"type":"Feature","properties":{"highway":"footway","name":null,"category":"Footpath (pedestrian only)"},"geometry":{"type":"MultiLineString","coordinates":[[[-2.8696356,53.1876992],[-2.8696337,53.1876671],[-2.8696351,53.1876362],[-2.8696349,53.1876128]]]}}
]
}
