{
"type": "FeatureCollection",
"name": "BURY__93_cycling",
"crs": { "type": "name", "properties": { "name": "urn:ogc:def:crs:OGC:1.3:CRS84" } },
"features": [
{"type":"Feature","properties":{"highway":"track","name":null,"category":"Track"},"geometry":{"type":"MultiLineString","coordinates":[[[-2.328751,53.6415572],[-2.3289945,53.6411233],[-2.328973,53.6408307]]]}},
{"type":"Feature","properties":{"highway":"track","name":null,"category":"Track"},"geometry":{"type":"MultiLineString","coordinates":[[[-2.3322185,53.6405145],[-2.3329642,53.6405508],[-2.33346,53.6405242]]]}},
{"type":"Feature","properties":{"highway":"track","name":null,"category":"Track"},"geometry":{"type":"MultiLineString","coordinates":[[[-2.3351815,53.6463212],[-2.3351873,53.6463677],[-2.3352145,53.6464855],[-2.3352266,53.6465511],[-2.3352122,53.6466192],[-2.3340369,53.6484651],[-2.3337454,53.6490785],[-2.333217,53.6493838],[-2.3326591,53.6494474],[-2.3326134,53.649512],[-2.3323802,53.6498417],[-2.3320976,53.6499942],[-2.3317579,53.6500579],[-2.3314411,53.6500657],[-2.3313038,53.6500195],[-2.3311573,53.6499701]]]}},
{"type":"Feature","properties":{"highway":"path","name":null,"category":"Shared path"},"geometry":{"type":"MultiLineString","coordinates":[[[-2.3289596,53.6420428],[-2.3287728,53.6422778],[-2.3282808,53.6425611],[-2.3281438,53.6425295],[-2.3279099,53.6426703],[-2.3276907,53.6427463],[-2.3275769,53.6426773]]]}},
{"type":"Feature","properties":{"highway":"path","name":null,"category":"Shared path"},"geometry":{"type":"MultiLineString","coordinates":[[[-2.3289596,53.6420428],[-2.3279674,53.6421045]]]}},
{"type":"Feature","properties":{"highway":"path","name":null,"category":"Shared path"},"geometry":{"type":"MultiLineString","coordinates":[[[-2.3282963,53.6415149],[-2.328751,53.6415572],[-2.3289596,53.6420428],[-2.3290977,53.6420131],[-2.3297103,53.6419838],[-2.3299279,53.6418356],[-2.3307862,53.641772],[-2.3317733,53.6417084],[-2.3323311,53.6419119],[-2.3325065,53.6418641]]]}},
{"type":"Feature","properties":{"highway":"path","name":null,"category":"Shared path"},"geometry":{"type":"MultiLineString","coordinates":[[[-2.3299279,53.6418356],[-2.3298421,53.641613],[-2.329767,53.6415112],[-2.3301854,53.6410215]]]}},
{"type":"Feature","properties":{"highway":"path","name":null,"category":"Shared path"},"geometry":{"type":"MultiLineString","coordinates":[[[-2.3297103,53.6419838],[-2.3292949,53.6425162],[-2.32922,53.6428514],[-2.32874,53.6431337],[-2.3271939,53.6444787],[-2.3269955,53.6446348]]]}},
{"type":"Feature","properties":{"highway":"path","name":null,"category":"Shared path"},"geometry":{"type":"MultiLineString","coordinates":[[[-2.3269955,53.6446348],[-2.3271953,53.6447309],[-2.3268915,53.6449194]]]}},
{"type":"Feature","properties":{"highway":"track","name":"Peel Avenue","category":"Track"},"geometry":{"type":"MultiLineString","coordinates":[[[-2.3283714,53.6413813],[-2.3282963,53.6415149],[-2.3280964,53.6415058]]]}},
{"type":"Feature","properties":{"highway":"cycleway","name":null,"category":"Dedicated cycleway"},"geometry":{"type":"MultiLineString","coordinates":[[[-2.315442,53.6439678],[-2.3153825,53.6440075],[-2.3153382,53.6440253],[-2.3148746,53.6440784],[-2.3147924,53.6440919],[-2.3146059,53.6441313]]]}},
{"type":"Feature","properties":{"highway":"path","name":"Tape Street","category":"Shared path"},"geometry":{"type":"MultiLineString","coordinates":[[[-2.3236831,53.648989],[-2.3237962,53.6485691]]]}},
{"type":"Feature","properties":{"highway":"track","name":null,"category":"Track"},"geometry":{"type":"MultiLineString","coordinates":[[[-2.3330297,53.6504247],[-2.3325509,53.6504242],[-2.3323545,53.6504104],[-2.3320515,53.6503689],[-2.3317552,53.6502979],[-2.3315088,53.650213],[-2.3312758,53.6501198]]]}},
{"type":"Feature","properties":{"highway":"track","name":null,"category":"Track"},"geometry":{"type":"MultiLineString","coordinates":[[[-2.3220813,53.6496252],[-2.3218718,53.6497777]]]}},
{"type":"Feature","properties":{"highway":"track","name":null,"category":"Track"},"geometry":{"type":"MultiLineString","coordinates":[[[-2.3220813,53.6496252],[-2.3222199,53.6497759]]]}},
{"type":"Feature","properties":{"highway":"path","name":null,"category":"Shared path"},"geometry":{"type":"MultiLineString","coordinates":[[[-2.3201762,53.6476556],[-2.320154,53.6476599],[-2.3198353,53.6477218],[-2.3197719,53.6477495]]]}},
{"type":"Feature","properties":{"highway":"path","name":"Winifred Street","category":"Shared path"},"geometry":{"type":"MultiLineString","coordinates":[[[-2.3223405,53.6421238],[-2.3225468,53.6419842]]]}},
{"type":"Feature","properties":{"highway":"path","name":"Hope Street","category":"Shared path"},"geometry":{"type":"MultiLineString","coordinates":[[[-2.3221152,53.6417664],[-2.3220426,53.6417298],[-2.3219646,53.6416904]]]}},
{"type":"Feature","properties":{"highway":"track","name":null,"category":"Track"},"geometry":{"type":"MultiLineString","coordinates":[[[-2.3302518,53.6473819],[-2.330268,53.6473803],[-2.330288,53.6473729],[-2.3303105,53.6473232],[-2.3303493,53.6472757],[-2.3307147,53.6470176],[-2.330771,53.6469961],[-2.330826,53.6469909],[-2.3309737,53.6470273]]]}},
{"type":"Feature","properties":{"highway":"path","name":null,"category":"Shared path"},"geometry":{"type":"MultiLineString","coordinates":[[[-2.3161932,53.6483161],[-2.3161931,53.6483065],[-2.3161877,53.6482974],[-2.3161774,53.64829],[-2.3161635,53.6482851],[-2.3161489,53.6482832],[-2.316134,53.6482841],[-2.3161204,53.6482878],[-2.3161093,53.6482937],[-2.3161019,53.6483015],[-2.316099,53.6483102],[-2.3161008,53.648319],[-2.3161071,53.648327],[-2.3161173,53.6483335],[-2.3161316,53.648338],[-2.3161476,53.6483394],[-2.3161635,53.6483375],[-2.3161774,53.6483326],[-2.3161877,53.6483251],[-2.3161932,53.6483161]]]}},
{"type":"Feature","properties":{"highway":"path","name":null,"category":"Shared path"},"geometry":{"type":"MultiLineString","coordinates":[[[-2.3161635,53.6482851],[-2.3161811,53.6482581],[-2.3162092,53.6482148]]]}},
{"type":"Feature","properties":{"highway":"path","name":null,"category":"Shared path"},"geometry":{"type":"MultiLineString","coordinates":[[[-2.3161811,53.6482581],[-2.3164194,53.648307],[-2.3163968,53.6483489],[-2.3161932,53.6483161]]]}},
{"type":"Feature","properties":{"highway":"path","name":null,"category":"Shared path"},"geometry":{"type":"MultiLineString","coordinates":[[[-2.3161316,53.648338],[-2.3161291,53.6483651],[-2.3166211,53.6483829],[-2.3166772,53.6483897]]]}},
{"type":"Feature","properties":{"highway":"path","name":null,"category":"Shared path"},"geometry":{"type":"MultiLineString","coordinates":[[[-2.3162092,53.6482148],[-2.3162407,53.648165]]]}},
{"type":"Feature","properties":{"highway":"path","name":null,"category":"Shared path"},"geometry":{"type":"MultiLineString","coordinates":[[[-2.3161019,53.6483015],[-2.3158492,53.6482807],[-2.3158953,53.6481982],[-2.31595,53.6481004]]]}},
{"type":"Feature","properties":{"highway":"path","name":null,"category":"Shared path"},"geometry":{"type":"MultiLineString","coordinates":[[[-2.3161811,53.6482581],[-2.3158953,53.6481982]]]}},
{"type":"Feature","properties":{"highway":"path","name":null,"category":"Shared path"},"geometry":{"type":"MultiLineString","coordinates":[[[-2.3161291,53.6483651],[-2.3158106,53.6483522]]]}},
{"type":"Feature","properties":{"highway":"path","name":null,"category":"Shared path"},"geometry":{"type":"MultiLineString","coordinates":[[[-2.3158492,53.6482807],[-2.3158106,53.6483522]]]}},
{"type":"Feature","properties":{"highway":"path","name":null,"category":"Shared path"},"geometry":{"type":"MultiLineString","coordinates":[[[-2.3159462,53.6486077],[-2.3159406,53.6486372]]]}},
{"type":"Feature","properties":{"highway":"path","name":null,"category":"Shared path"},"geometry":{"type":"MultiLineString","coordinates":[[[-2.3158106,53.6483522],[-2.3157991,53.6485737],[-2.3158619,53.6485969],[-2.3159036,53.6486002]]]}},
{"type":"Feature","properties":{"highway":"path","name":null,"category":"Shared path"},"geometry":{"type":"MultiLineString","coordinates":[[[-2.3198757,53.6377853],[-2.320132,53.6383094],[-2.3202983,53.6386199],[-2.3203598,53.6388304],[-2.3205661,53.6391561]]]}},
{"type":"Feature","properties":{"highway":"path","name":null,"category":"Shared path"},"geometry":{"type":"MultiLineString","coordinates":[[[-2.3267954,53.6449897],[-2.3271073,53.6449877],[-2.3271779,53.6449899],[-2.3272571,53.6449883],[-2.3273898,53.6449908],[-2.327629,53.6449963],[-2.3281485,53.6449298],[-2.3286795,53.6449787],[-2.3292482,53.6451272],[-2.3293942,53.6451349],[-2.3296714,53.6451537],[-2.3299355,53.6451728],[-2.3301464,53.6451669],[-2.3304208,53.6451499],[-2.3306189,53.6451748],[-2.330772,53.6452256],[-2.3312226,53.645595]]]}},
{"type":"Feature","properties":{"highway":"path","name":null,"category":"Shared path"},"geometry":{"type":"MultiLineString","coordinates":[[[-2.3263151,53.640934],[-2.3262601,53.6408943],[-2.3262737,53.6408264],[-2.3262857,53.640813],[-2.3262734,53.6407792]]]}},
{"type":"Feature","properties":{"highway":"path","name":null,"category":"Shared path"},"geometry":{"type":"MultiLineString","coordinates":[[[-2.3293021,53.6397125],[-2.3293566,53.6397016],[-2.3294628,53.6396173]]]}},
{"type":"Feature","properties":{"highway":"path","name":"Woodside Drive","category":"Shared path"},"geometry":{"type":"MultiLineString","coordinates":[[[-2.3267933,53.6412766],[-2.3267824,53.6412338],[-2.3268952,53.641066]]]}},
{"type":"Feature","properties":{"highway":"path","name":"Tower Avenue","category":"Shared path"},"geometry":{"type":"MultiLineString","coordinates":[[[-2.3274911,53.6413923],[-2.3276344,53.641195]]]}},
{"type":"Feature","properties":{"highway":"track","name":"Moor Road","category":"Track"},"geometry":{"type":"MultiLineString","coordinates":[[[-2.3312985,53.646206],[-2.3312489,53.6462658],[-2.3310567,53.646406],[-2.3307906,53.6466146],[-2.3304251,53.6470454],[-2.3303037,53.6472366],[-2.3302518,53.6473819],[-2.3302374,53.6474396],[-2.3302403,53.6474804],[-2.3303134,53.6478531],[-2.3304028,53.648818]]]}},
{"type":"Feature","properties":{"highway":"track","name":"Moor Road","category":"Track"},"geometry":{"type":"MultiLineString","coordinates":[[[-2.3304028,53.648818],[-2.3311573,53.6499701],[-2.3312758,53.6501198],[-2.3313206,53.6502395],[-2.3313849,53.6505049],[-2.3315448,53.6509704]]]}},
{"type":"Feature","properties":{"highway":"track","name":null,"category":"Track"},"geometry":{"type":"MultiLineString","coordinates":[[[-2.3242299,53.6440152],[-2.323736,53.6444405],[-2.3237045,53.644471]]]}},
{"type":"Feature","properties":{"highway":"track","name":null,"category":"Track"},"geometry":{"type":"MultiLineString","coordinates":[[[-2.3233947,53.6479647],[-2.323578,53.6479427],[-2.3237111,53.647989]]]}},
{"type":"Feature","properties":{"highway":"path","name":null,"category":"Shared path"},"geometry":{"type":"MultiLineString","coordinates":[[[-2.3313038,53.6500195],[-2.3313196,53.6499162],[-2.3314629,53.6498928],[-2.3316616,53.6498365],[-2.3318661,53.6497955],[-2.3319818,53.6497719],[-2.3320791,53.6497452],[-2.332145,53.6497238],[-2.3321936,53.6497043],[-2.3322846,53.6496625],[-2.3323223,53.6496457],[-2.3323788,53.6496253],[-2.3324352,53.6496039],[-2.3324964,53.6495732],[-2.3325733,53.6495239],[-2.3326134,53.649512]]]}},
{"type":"Feature","properties":{"highway":"path","name":null,"category":"Shared path"},"geometry":{"type":"MultiLineString","coordinates":[[[-2.3163308,53.6395482],[-2.3159956,53.6397956]]]}},
{"type":"Feature","properties":{"highway":"path","name":null,"category":"Shared path"},"geometry":{"type":"MultiLineString","coordinates":[[[-2.3167457,53.6397241],[-2.3163665,53.6400091],[-2.3163333,53.6400283]]]}},
{"type":"Feature","properties":{"highway":"path","name":null,"category":"Shared path"},"geometry":{"type":"MultiLineString","coordinates":[[[-2.3160205,53.6394156],[-2.3157011,53.6396567]]]}},
{"type":"Feature","properties":{"highway":"path","name":null,"category":"Shared path"},"geometry":{"type":"MultiLineString","coordinates":[[[-2.3172851,53.6400337],[-2.317225,53.640061],[-2.316831,53.6403479]]]}},
{"type":"Feature","properties":{"highway":"path","name":null,"category":"Shared path"},"geometry":{"type":"MultiLineString","coordinates":[[[-2.3254514,53.6385091],[-2.3253167,53.6386731],[-2.3252453,53.6387562],[-2.3252331,53.6388585],[-2.3252075,53.6389999],[-2.325039,53.6390023],[-2.3248058,53.6390327],[-2.3244338,53.6389895],[-2.3239997,53.6390031],[-2.3236169,53.6390982],[-2.3233406,53.6391526],[-2.3230589,53.6391454],[-2.3226612,53.639095],[-2.3223377,53.639115],[-2.3221339,53.6391582]]]}},
{"type":"Feature","properties":{"highway":"path","name":null,"category":"Shared path"},"geometry":{"type":"MultiLineString","coordinates":[[[-2.3252075,53.6389999],[-2.3251809,53.6391415],[-2.3251189,53.639303],[-2.3251431,53.6393317],[-2.3257106,53.6393973],[-2.3257807,53.639466],[-2.325712,53.63986],[-2.3255001,53.6400664]]]}},
{"type":"Feature","properties":{"highway":"path","name":null,"category":"Shared path"},"geometry":{"type":"MultiLineString","coordinates":[[[-2.3250261,53.6402056],[-2.3248418,53.6401344],[-2.3246367,53.6400276],[-2.3245693,53.6399645],[-2.3242405,53.6398169]]]}},
{"type":"Feature","properties":{"highway":"path","name":null,"category":"Shared path"},"geometry":{"type":"MultiLineString","coordinates":[[[-2.3242405,53.6398169],[-2.3229943,53.6393129],[-2.3225997,53.6392229],[-2.3221339,53.6391582]]]}},
{"type":"Feature","properties":{"highway":"cycle_lane_on_street","name":"Crow Lane","category":"Cycle lane on street"},"geometry":{"type":"MultiLineString","coordinates":[[[-2.3162659,53.6496034],[-2.316272,53.6495516],[-2.3162801,53.6494973],[-2.3162817,53.6494853],[-2.3162862,53.6494503],[-2.3162944,53.6493841],[-2.3163066,53.649313],[-2.3163187,53.6492178],[-2.3163289,53.6491576],[-2.3163411,53.6490973],[-2.316355,53.6490448],[-2.3163765,53.6489812],[-2.316414,53.6489017],[-2.3164543,53.6488254],[-2.3165026,53.6487396],[-2.3165723,53.6486394],[-2.3165938,53.6485869],[-2.3166313,53.648509],[-2.3166772,53.6483897],[-2.3167225,53.6482721]]]}},
{"type":"Feature","properties":{"highway":"cycle_lane_on_street","name":"Factory Street","category":"Cycle lane on street"},"geometry":{"type":"MultiLineString","coordinates":[[[-2.3167822,53.6498901],[-2.316833,53.6499443],[-2.3168615,53.6499877],[-2.3168838,53.6500359],[-2.3168981,53.6500829],[-2.3169001,53.6501407],[-2.3169042,53.6502046],[-2.3169143,53.6502769],[-2.3169286,53.6503419],[-2.3169387,53.6503949],[-2.3169489,53.650454],[-2.3169528,53.6505219],[-2.316942,53.6506728],[-2.3169385,53.6507131],[-2.3169373,53.650726],[-2.3169208,53.6508977],[-2.3169102,53.6510299],[-2.3169173,53.6510823],[-2.3169598,53.6511893]]]}},
{"type":"Feature","properties":{"highway":"cycle_lane_on_street","name":"Crow Lane","category":"Cycle lane on street"},"geometry":{"type":"MultiLineString","coordinates":[[[-2.3167822,53.6498901],[-2.3167416,53.6498564],[-2.3166887,53.6498299],[-2.3166196,53.649807],[-2.3165444,53.6497901],[-2.3164692,53.6497805],[-2.3164001,53.6497684],[-2.3163513,53.6497491],[-2.3163106,53.6497202],[-2.3162862,53.6496865],[-2.31627,53.6496443],[-2.3162659,53.6496034]]]}}
]
}
