{
"type": "FeatureCollection",
"name": "BURY__100_cycling",
"crs": { "type": "name", "properties": { "name": "urn:ogc:def:crs:OGC:1.3:CRS84" } },
"features": [
{"type":"Feature","properties":{"highway":"track","name":null,"category":"Track"},"geometry":{"type":"MultiLineString","coordinates":[[[-2.2775699,53.6225294],[-2.2774608,53.6226384],[-2.2773532,53.6226934],[-2.2763723,53.623215],[-2.2760522,53.6233772],[-2.2759203,53.6234464],[-2.2758045,53.6235251],[-2.2757326,53.6236391]]]}},
{"type":"Feature","properties":{"highway":"track","name":null,"category":"Track"},"geometry":{"type":"MultiLineString","coordinates":[[[-2.2757326,53.6236391],[-2.2756799,53.6236289],[-2.275005,53.6232303],[-2.2749754,53.6231884],[-2.2749648,53.6231546],[-2.2749803,53.6231208],[-2.2750641,53.6230186],[-2.2750962,53.622963],[-2.2751065,53.622901],[-2.2746774,53.6215062],[-2.2744112,53.6210693],[-2.2743435,53.6209705],[-2.2743138,53.6209483],[-2.2742084,53.6209287]]]}},
{"type":"Feature","properties":{"highway":"track","name":null,"category":"Track"},"geometry":{"type":"MultiLineString","coordinates":[[[-2.2755916,53.6124841],[-2.27561,53.6125584],[-2.2756045,53.6126192],[-2.2758625,53.6135225],[-2.2760226,53.6139504],[-2.2760849,53.6140463],[-2.2764627,53.614628],[-2.2767373,53.6149844],[-2.277115,53.6152135],[-2.27763,53.6155292],[-2.2777158,53.6157328],[-2.2775884,53.6159645],[-2.2795693,53.6165214],[-2.2797257,53.6165147]]]}},
{"type":"Feature","properties":{"highway":"path","name":null,"category":"Shared path"},"geometry":{"type":"MultiLineString","coordinates":[[[-2.2743148,53.6170997],[-2.2742772,53.6171268],[-2.2741056,53.6172222],[-2.2740707,53.6172541],[-2.274127,53.6173718],[-2.2742315,53.6176157],[-2.2743015,53.6177846],[-2.2743612,53.6180834],[-2.2745199,53.618572],[-2.2745448,53.6187706],[-2.2747546,53.6190272]]]}},
{"type":"Feature","properties":{"highway":"path","name":null,"category":"Shared path"},"geometry":{"type":"MultiLineString","coordinates":[[[-2.2754713,53.616653],[-2.2755047,53.6163905],[-2.2755101,53.6163208],[-2.2755499,53.6162675],[-2.2757203,53.6161772],[-2.2757534,53.616],[-2.2760522,53.6158655],[-2.276113,53.6157637],[-2.276113,53.615603],[-2.2759802,53.6155669],[-2.2757922,53.6154258],[-2.2756483,53.6153076],[-2.2754824,53.6152879],[-2.2752003,53.6153372],[-2.2749956,53.6154323],[-2.2750011,53.6155439],[-2.2749458,53.6156161],[-2.2748628,53.6156292],[-2.2745033,53.6155898],[-2.2743243,53.6155751]]]}},
{"type":"Feature","properties":{"highway":"path","name":null,"category":"Shared path"},"geometry":{"type":"MultiLineString","coordinates":[[[-2.2718003,53.6141161],[-2.2719994,53.6142572]]]}},
{"type":"Feature","properties":{"highway":"path","name":null,"category":"Shared path"},"geometry":{"type":"MultiLineString","coordinates":[[[-2.2718364,53.6169009],[-2.2718176,53.6167895],[-2.2717801,53.6166558],[-2.2717908,53.616484],[-2.2718203,53.6163615],[-2.2717854,53.616239],[-2.2717479,53.6160815],[-2.2717752,53.6160598],[-2.2720537,53.6158699],[-2.2721943,53.6157777],[-2.2727644,53.6156973],[-2.2733599,53.6155962],[-2.2739566,53.615567]]]}},
{"type":"Feature","properties":{"highway":"path","name":null,"category":"Shared path"},"geometry":{"type":"MultiLineString","coordinates":[[[-2.2728789,53.6194082],[-2.2730241,53.6196083],[-2.2730953,53.6198708],[-2.2731721,53.6201958]]]}},
{"type":"Feature","properties":{"highway":"path","name":null,"category":"Shared path"},"geometry":{"type":"MultiLineString","coordinates":[[[-2.2720369,53.6145228],[-2.2724475,53.6145821],[-2.2724669,53.6146362],[-2.2727213,53.614692],[-2.2731721,53.6147068]]]}},
{"type":"Feature","properties":{"highway":"path","name":null,"category":"Shared path"},"geometry":{"type":"MultiLineString","coordinates":[[[-2.2746526,53.619585],[-2.2746629,53.6194236],[-2.274757,53.6193219],[-2.2748736,53.6191836],[-2.2747546,53.6190272],[-2.275028,53.6189445],[-2.2754042,53.6186919],[-2.2754761,53.6184819],[-2.2753796,53.6183884],[-2.2753233,53.6183025],[-2.2753212,53.6182597],[-2.2754683,53.6179461]]]}},
{"type":"Feature","properties":{"highway":"path","name":null,"category":"Shared path"},"geometry":{"type":"MultiLineString","coordinates":[[[-2.27276,53.6206277],[-2.272666,53.6205326],[-2.2726715,53.6202537],[-2.272572,53.6197386],[-2.2725056,53.6196762],[-2.2725388,53.6194794],[-2.272406,53.6191841]]]}},
{"type":"Feature","properties":{"highway":"path","name":null,"category":"Shared path"},"geometry":{"type":"MultiLineString","coordinates":[[[-2.2762139,53.6185335],[-2.2760387,53.6187569],[-2.2759831,53.6188689],[-2.2758731,53.6190519],[-2.2757471,53.6191742],[-2.2755203,53.6192628],[-2.275334,53.6192661],[-2.2751918,53.6192253],[-2.275028,53.6192005],[-2.2748736,53.6191836]]]}},
{"type":"Feature","properties":{"highway":"path","name":null,"category":"Shared path"},"geometry":{"type":"MultiLineString","coordinates":[[[-2.2729232,53.6136173],[-2.2728264,53.6139652],[-2.272666,53.6142441],[-2.2725498,53.6143327],[-2.2723701,53.6143589],[-2.272182,53.6143852],[-2.2720409,53.6144377],[-2.2720369,53.6145228],[-2.2720354,53.6145542]]]}},
{"type":"Feature","properties":{"highway":"path","name":null,"category":"Shared path"},"geometry":{"type":"MultiLineString","coordinates":[[[-2.2719994,53.6142572],[-2.2720223,53.614339]]]}},
{"type":"Feature","properties":{"highway":"path","name":null,"category":"Shared path"},"geometry":{"type":"MultiLineString","coordinates":[[[-2.2720223,53.614339],[-2.2720409,53.6144377]]]}},
{"type":"Feature","properties":{"highway":"track","name":null,"category":"Track"},"geometry":{"type":"MultiLineString","coordinates":[[[-2.2746868,53.6077887],[-2.2743687,53.6079171],[-2.2744116,53.6080134],[-2.2744934,53.6080985],[-2.2745752,53.6081542],[-2.274649,53.6082513],[-2.2748314,53.6083475]]]}},
{"type":"Feature","properties":{"highway":"track","name":null,"category":"Track"},"geometry":{"type":"MultiLineString","coordinates":[[[-2.2742084,53.6209287],[-2.2723047,53.6210474],[-2.2722401,53.621031],[-2.2722146,53.6210023],[-2.27215,53.6205648]]]}},
{"type":"Feature","properties":{"highway":"path","name":null,"category":"Shared path"},"geometry":{"type":"MultiLineString","coordinates":[[[-2.2746526,53.619585],[-2.2747835,53.6196423]]]}},
{"type":"Feature","properties":{"highway":"path","name":null,"category":"Shared path"},"geometry":{"type":"MultiLineString","coordinates":[[[-2.2769759,53.6166497],[-2.2771861,53.6164102],[-2.2772138,53.6162625],[-2.2771428,53.6161731],[-2.2771124,53.6161235],[-2.2771391,53.6160457],[-2.2771588,53.6160003],[-2.2772096,53.6159122],[-2.2772232,53.6158141]]]}},
{"type":"Feature","properties":{"highway":"path","name":null,"category":"Shared path"},"geometry":{"type":"MultiLineString","coordinates":[[[-2.2803617,53.6066974],[-2.2802746,53.6068586],[-2.2801405,53.6072103],[-2.280103,53.6075175],[-2.280001,53.6078262],[-2.279942,53.6082384],[-2.2798428,53.608485],[-2.2796062,53.6090154]]]}},
{"type":"Feature","properties":{"highway":"path","name":null,"category":"Shared path"},"geometry":{"type":"MultiLineString","coordinates":[[[-2.2846462,53.607979],[-2.2845259,53.6079424],[-2.2843704,53.6079265],[-2.2842631,53.6078612],[-2.2840431,53.6078373],[-2.2838634,53.6078342],[-2.2836623,53.6078501],[-2.2834665,53.6078262],[-2.2831821,53.6077339],[-2.282922,53.6076464],[-2.2827959,53.6075907],[-2.282584,53.6075222],[-2.2823909,53.6074045],[-2.2819108,53.6072278],[-2.2816801,53.6071005],[-2.2815556,53.6067891]]]}},
{"type":"Feature","properties":{"highway":"path","name":null,"category":"Shared path"},"geometry":{"type":"MultiLineString","coordinates":[[[-2.2821654,53.6065522],[-2.2823373,53.6065101],[-2.2825089,53.6064815],[-2.2827315,53.6064098],[-2.282871,53.6063701],[-2.2829583,53.6063732],[-2.2831339,53.6063796],[-2.2833538,53.6064083],[-2.2835845,53.6064083],[-2.2838929,53.6064289],[-2.2841692,53.6065085],[-2.2844937,53.6065101],[-2.2848773,53.6064958],[-2.2853034,53.6066837],[-2.2853789,53.6065467],[-2.2859046,53.6061568],[-2.2863686,53.6057685],[-2.2864679,53.6056571],[-2.28661,53.6054168],[-2.2865027,53.6051956],[-2.2859287,53.6049839],[-2.2857705,53.6048996],[-2.2851563,53.6046433],[-2.2850812,53.6045749],[-2.2850248,53.6044189],[-2.2848733,53.6043187]]]}},
{"type":"Feature","properties":{"highway":"path","name":null,"category":"Shared path"},"geometry":{"type":"MultiLineString","coordinates":[[[-2.2717854,53.616239],[-2.2718337,53.6162278],[-2.272169,53.6163122],[-2.2724614,53.6163504]]]}},
{"type":"Feature","properties":{"highway":"path","name":null,"category":"Shared path"},"geometry":{"type":"MultiLineString","coordinates":[[[-2.2727644,53.6156973],[-2.2728717,53.6154816]]]}},
{"type":"Feature","properties":{"highway":"path","name":null,"category":"Shared path"},"geometry":{"type":"MultiLineString","coordinates":[[[-2.2739566,53.615567],[-2.2743243,53.6155751],[-2.2744527,53.615637],[-2.274498,53.6160046],[-2.274508,53.6163491],[-2.2744653,53.6166077]]]}},
{"type":"Feature","properties":{"highway":"path","name":null,"category":"Shared path"},"geometry":{"type":"MultiLineString","coordinates":[[[-2.2841247,53.6132797],[-2.2843718,53.6132089],[-2.284524,53.6131988],[-2.2846198,53.6132557],[-2.2847071,53.6133493],[-2.284631,53.6135398],[-2.2847284,53.6137985],[-2.2849841,53.6141518],[-2.2851588,53.6144935],[-2.2854307,53.6147451],[-2.2856023,53.6150984],[-2.2857544,53.6152846],[-2.2862981,53.6155227],[-2.2868581,53.6156398],[-2.287148,53.6156973]]]}},
{"type":"Feature","properties":{"highway":"track","name":null,"category":"Track"},"geometry":{"type":"MultiLineString","coordinates":[[[-2.286453,53.6163639],[-2.2867452,53.6160892],[-2.287148,53.6156973]]]}},
{"type":"Feature","properties":{"highway":"track","name":null,"category":"Track"},"geometry":{"type":"MultiLineString","coordinates":[[[-2.2854498,53.6162515],[-2.286316,53.6163744],[-2.286453,53.6163639]]]}},
{"type":"Feature","properties":{"highway":"path","name":null,"category":"Shared path"},"geometry":{"type":"MultiLineString","coordinates":[[[-2.286453,53.6163639],[-2.2864388,53.6164222],[-2.2864754,53.616474],[-2.286862,53.6167161]]]}},
{"type":"Feature","properties":{"highway":"track","name":null,"category":"Track"},"geometry":{"type":"MultiLineString","coordinates":[[[-2.284477,53.6095588],[-2.2845793,53.609659]]]}},
{"type":"Feature","properties":{"highway":"path","name":null,"category":"Shared path"},"geometry":{"type":"MultiLineString","coordinates":[[[-2.2845793,53.609659],[-2.2846422,53.6096969],[-2.2846856,53.6097335],[-2.2847239,53.6097525],[-2.2849088,53.6098156],[-2.2849445,53.6098323],[-2.2850121,53.6098739],[-2.2850478,53.6099061],[-2.2850624,53.6099306],[-2.2850675,53.6099768],[-2.2850516,53.610099],[-2.2850465,53.6102102],[-2.2850561,53.6102673],[-2.2851154,53.6103551],[-2.2852002,53.6105586],[-2.2852148,53.6106467],[-2.2852422,53.6107765],[-2.2852582,53.6108071],[-2.2852754,53.6108329],[-2.2853098,53.610854],[-2.2853417,53.6108684],[-2.2853908,53.6108775],[-2.2858454,53.6109263],[-2.2859105,53.6109407],[-2.2859832,53.6109611],[-2.2860335,53.6109785],[-2.2860935,53.6109849],[-2.2862491,53.6109781],[-2.2863179,53.610963],[-2.2863683,53.6109479],[-2.2863964,53.6109199],[-2.2865379,53.6107288],[-2.2865028,53.6106524]]]}},
{"type":"Feature","properties":{"highway":"path","name":null,"category":"Shared path"},"geometry":{"type":"MultiLineString","coordinates":[[[-2.2811517,53.6169406],[-2.2812027,53.6169979],[-2.2812778,53.6170417],[-2.2813945,53.617087]]]}},
{"type":"Feature","properties":{"highway":"path","name":null,"category":"Shared path"},"geometry":{"type":"MultiLineString","coordinates":[[[-2.2821455,53.6167585],[-2.282006,53.6167231],[-2.2817089,53.6166725],[-2.2815393,53.6166292],[-2.2814427,53.6165986],[-2.2813522,53.616595],[-2.2810277,53.6165954],[-2.2809841,53.6166184],[-2.2810766,53.6168603],[-2.2811517,53.6169406],[-2.2813314,53.6169327]]]}},
{"type":"Feature","properties":{"highway":"path","name":null,"category":"Shared path"},"geometry":{"type":"MultiLineString","coordinates":[[[-2.2858858,53.6167513],[-2.2858201,53.6167219]]]}},
{"type":"Feature","properties":{"highway":"path","name":null,"category":"Shared path"},"geometry":{"type":"MultiLineString","coordinates":[[[-2.2863016,53.6169589],[-2.2861835,53.6168929],[-2.2860548,53.6168372],[-2.2858791,53.6167855],[-2.2858858,53.6167513],[-2.2859435,53.6166702]]]}},
{"type":"Feature","properties":{"highway":"path","name":null,"category":"Shared path"},"geometry":{"type":"MultiLineString","coordinates":[[[-2.2859555,53.6174673],[-2.2860937,53.6173877],[-2.2861862,53.6173026],[-2.2862975,53.6171562],[-2.286323,53.6170846],[-2.2863176,53.6169979],[-2.2863016,53.6169589],[-2.286602,53.6171562],[-2.2866167,53.6171713],[-2.2866154,53.6172047],[-2.2866087,53.6172214],[-2.2865644,53.617266],[-2.2865027,53.6173002],[-2.2864236,53.6173257],[-2.2861366,53.6173869],[-2.2860937,53.6173877]]]}},
{"type":"Feature","properties":{"highway":"path","name":null,"category":"Shared path"},"geometry":{"type":"MultiLineString","coordinates":[[[-2.2831057,53.6193884],[-2.2831902,53.6193208],[-2.2833793,53.6192118]]]}},
{"type":"Feature","properties":{"highway":"path","name":null,"category":"Shared path"},"geometry":{"type":"MultiLineString","coordinates":[[[-2.2806501,53.6137696],[-2.2809532,53.613873],[-2.2810015,53.6139032]]]}},
{"type":"Feature","properties":{"highway":"path","name":null,"category":"Shared path"},"geometry":{"type":"MultiLineString","coordinates":[[[-2.2831895,53.612322],[-2.2829998,53.6120909],[-2.2829501,53.6120654],[-2.282812,53.6120392],[-2.2826417,53.6120034],[-2.2826216,53.6119739],[-2.2826028,53.6117814],[-2.2825894,53.6117504],[-2.2825451,53.6116931],[-2.2824794,53.6115427],[-2.2824298,53.6114894],[-2.2823815,53.6114759],[-2.2823292,53.6114791],[-2.2822984,53.6114981],[-2.28223,53.611553],[-2.2821986,53.6115676],[-2.2821562,53.6115634],[-2.2819778,53.6114576]]]}},
{"type":"Feature","properties":{"highway":"path","name":null,"category":"Shared path"},"geometry":{"type":"MultiLineString","coordinates":[[[-2.2839358,53.6125651],[-2.283791,53.6126979],[-2.283678,53.6127246]]]}},
{"type":"Feature","properties":{"highway":"path","name":null,"category":"Shared path"},"geometry":{"type":"MultiLineString","coordinates":[[[-2.2835617,53.6121147],[-2.2837347,53.6123105],[-2.2838353,53.6124497],[-2.2839358,53.6125651],[-2.2840793,53.6124457]]]}},
{"type":"Feature","properties":{"highway":"path","name":null,"category":"Shared path"},"geometry":{"type":"MultiLineString","coordinates":[[[-2.2840378,53.6133877],[-2.2835027,53.6129143],[-2.2833149,53.6127703],[-2.2832707,53.6127743],[-2.2831607,53.6128069]]]}}
]
}
