{
"type": "FeatureCollection",
"name": "TAMES_63_cycling",
"crs": { "type": "name", "properties": { "name": "urn:ogc:def:crs:OGC:1.3:CRS84" } },
"features": [
{"type":"Feature","properties":{"highway":"track","name":null,"category":"Track"},"geometry":{"type":"MultiLineString","coordinates":[[[-2.050339,53.4682783],[-2.0504631,53.4684561],[-2.0505275,53.4687307],[-2.0504739,53.4689542],[-2.0502915,53.4692288],[-2.048532,53.4708701],[-2.0474736,53.4719382],[-2.0474207,53.4719931],[-2.0470374,53.4723909],[-2.046684,53.4730376],[-2.0465167,53.4734481],[-2.0464194,53.4741763],[-2.0464524,53.4747026],[-2.0464588,53.4749695],[-2.046628,53.4752354],[-2.0470033,53.4755416],[-2.0473917,53.4756402],[-2.0479487,53.4757815],[-2.0486994,53.4759718],[-2.0496309,53.4761952],[-2.049958,53.4762555],[-2.0507987,53.4764103],[-2.0513816,53.4768169]]]}},
{"type":"Feature","properties":{"highway":"bridleway","name":null,"category":"Bridleway"},"geometry":{"type":"MultiLineString","coordinates":[[[-2.0538282,53.4693885],[-2.053864,53.4698757],[-2.0538615,53.4700973],[-2.0538441,53.4701989],[-2.0537793,53.4702863],[-2.0535039,53.4705335],[-2.0533428,53.4707174],[-2.052884,53.4709988],[-2.0526199,53.4712884],[-2.0527033,53.4714787],[-2.0528979,53.4716939],[-2.0526894,53.4719007],[-2.0525774,53.471972],[-2.0522033,53.47221],[-2.0518831,53.4725958],[-2.051772,53.4729545],[-2.0516189,53.4738288],[-2.0515494,53.4743087],[-2.0513687,53.4746397],[-2.0512992,53.474921],[-2.0512992,53.4751609],[-2.0514996,53.4752078]]]}},
{"type":"Feature","properties":{"highway":"track","name":null,"category":"Track"},"geometry":{"type":"MultiLineString","coordinates":[[[-2.0465181,53.4804616],[-2.0470154,53.4808791],[-2.047543,53.481322]]]}},
{"type":"Feature","properties":{"highway":"track","name":null,"category":"Track"},"geometry":{"type":"MultiLineString","coordinates":[[[-2.0402045,53.4740716],[-2.0405371,53.4747485],[-2.0409555,53.4750678]]]}},
{"type":"Feature","properties":{"highway":"path","name":null,"category":"Shared path"},"geometry":{"type":"MultiLineString","coordinates":[[[-2.0491482,53.485918],[-2.0496434,53.4856805],[-2.0496697,53.4856507],[-2.0496612,53.4856284]]]}},
{"type":"Feature","properties":{"highway":"path","name":null,"category":"Shared path"},"geometry":{"type":"MultiLineString","coordinates":[[[-2.0462576,53.4762946],[-2.0461003,53.4761719],[-2.0460573,53.4760442],[-2.0458428,53.4758781],[-2.0458857,53.4757951],[-2.0460144,53.4755333],[-2.0459608,53.4750416],[-2.0459071,53.4746585],[-2.0457999,53.4746138],[-2.0458213,53.4744733],[-2.0457462,53.4743775],[-2.0460037,53.4740902],[-2.0458964,53.4739816],[-2.0458911,53.4732968]]]}},
{"type":"Feature","properties":{"highway":"cycleway","name":"Yellow Brick Road","category":"Dedicated cycleway"},"geometry":{"type":"MultiLineString","coordinates":[[[-2.0484501,53.485689],[-2.0478288,53.4858584],[-2.0474664,53.4860009],[-2.047036,53.486221],[-2.0469546,53.4863026],[-2.0467672,53.4864907],[-2.0463982,53.4867583],[-2.0460784,53.4869849],[-2.0456898,53.4873614],[-2.0455369,53.4874559],[-2.044997,53.4879025],[-2.0449729,53.4879224],[-2.0446191,53.4882803],[-2.0437513,53.4891542],[-2.0436245,53.4892755],[-2.0433971,53.4894928],[-2.0429248,53.4899484],[-2.0428416,53.4900287],[-2.0422299,53.4906294],[-2.0418735,53.4911312],[-2.0414027,53.4916152],[-2.0412882,53.491787],[-2.0412339,53.4918709],[-2.0411839,53.4919453],[-2.0410929,53.4920707],[-2.0410013,53.4921728],[-2.0409253,53.4922729],[-2.0408527,53.492387],[-2.0408258,53.4924261],[-2.0407776,53.4924947],[-2.0407051,53.492592],[-2.0406596,53.4926573],[-2.040642,53.4927477],[-2.0406063,53.4928266],[-2.0405153,53.4929352],[-2.0404149,53.4930383],[-2.0403001,53.4932032],[-2.0401848,53.4933899],[-2.0400182,53.4936342],[-2.0396593,53.4941397],[-2.039264,53.4947306],[-2.0390639,53.494922]]]}},
{"type":"Feature","properties":{"highway":"path","name":null,"category":"Shared path"},"geometry":{"type":"MultiLineString","coordinates":[[[-2.0496612,53.4856284],[-2.0495287,53.4855672]]]}},
{"type":"Feature","properties":{"highway":"cycleway","name":null,"category":"Dedicated cycleway"},"geometry":{"type":"MultiLineString","coordinates":[[[-2.0488474,53.4845208],[-2.0488116,53.48458],[-2.0487763,53.4846068],[-2.048573,53.4847417],[-2.0482365,53.4850267],[-2.0481847,53.4851614],[-2.0482818,53.4854079],[-2.0484501,53.485689],[-2.0487752,53.4856009],[-2.0491031,53.4855319],[-2.0492493,53.4855209],[-2.0494081,53.4855136],[-2.0494931,53.4855109],[-2.0495287,53.4855672]]]}},
{"type":"Feature","properties":{"highway":"track","name":null,"category":"Track"},"geometry":{"type":"MultiLineString","coordinates":[[[-2.0400264,53.4806788],[-2.0395648,53.4806671],[-2.0390558,53.4805837],[-2.0387523,53.4805809],[-2.0384114,53.4805531],[-2.0379724,53.480492],[-2.0376642,53.4804281],[-2.0371271,53.4802252],[-2.0362772,53.480064],[-2.0349275,53.4798195],[-2.034129,53.4798056],[-2.0316632,53.4797639],[-2.0316399,53.4800918],[-2.0315278,53.4801863],[-2.0313924,53.4802308]]]}},
{"type":"Feature","properties":{"highway":"path","name":null,"category":"Shared path"},"geometry":{"type":"MultiLineString","coordinates":[[[-2.0411456,53.4815292],[-2.0412872,53.4816689],[-2.0414351,53.4817239],[-2.0414351,53.4818413],[-2.0414844,53.481966],[-2.0415213,53.482109],[-2.0414905,53.4822116],[-2.0415033,53.4823251]]]}},
{"type":"Feature","properties":{"highway":"path","name":null,"category":"Shared path"},"geometry":{"type":"MultiLineString","coordinates":[[[-2.0385579,53.4846742],[-2.0382459,53.4846999],[-2.0378703,53.4845731],[-2.0375658,53.4845852],[-2.037373,53.4845067],[-2.0370989,53.4844885]]]}},
{"type":"Feature","properties":{"highway":"track","name":null,"category":"Track"},"geometry":{"type":"MultiLineString","coordinates":[[[-2.0397512,53.4771391],[-2.039695,53.4772459],[-2.0394003,53.4774359],[-2.0393407,53.4775038],[-2.03933,53.4775421],[-2.0391396,53.4776363],[-2.0389693,53.477677],[-2.0388311,53.4776873],[-2.0387118,53.4776754],[-2.0386185,53.4776817]]]}},
{"type":"Feature","properties":{"highway":"track","name":null,"category":"Track"},"geometry":{"type":"MultiLineString","coordinates":[[[-2.0400004,53.4761826],[-2.0400808,53.4762814],[-2.0400388,53.476394],[-2.0400201,53.4765218]]]}},
{"type":"Feature","properties":{"highway":"path","name":null,"category":"Shared path"},"geometry":{"type":"MultiLineString","coordinates":[[[-2.0394663,53.4830653],[-2.0396246,53.4830925],[-2.039807,53.4830382],[-2.0399559,53.4829648],[-2.0400913,53.4828898],[-2.0401305,53.4828724],[-2.040196,53.4828435],[-2.0403864,53.4827972],[-2.0404412,53.4827841],[-2.0405083,53.4827681]]]}},
{"type":"Feature","properties":{"highway":"path","name":null,"category":"Shared path"},"geometry":{"type":"MultiLineString","coordinates":[[[-2.0401305,53.4828724],[-2.0401477,53.4828826],[-2.040318,53.4828618],[-2.0403542,53.482865],[-2.0403609,53.482877],[-2.0403019,53.482889],[-2.0402536,53.4829049],[-2.0402348,53.4829416],[-2.0399157,53.4830438]]]}},
{"type":"Feature","properties":{"highway":"path","name":null,"category":"Shared path"},"geometry":{"type":"MultiLineString","coordinates":[[[-2.0402348,53.4829416],[-2.0403569,53.4829089],[-2.0404575,53.4829049],[-2.0411937,53.4829528],[-2.0412769,53.4829464],[-2.0413176,53.4829115]]]}},
{"type":"Feature","properties":{"highway":"path","name":null,"category":"Shared path"},"geometry":{"type":"MultiLineString","coordinates":[[[-2.0393393,53.4832792],[-2.0394814,53.4833087],[-2.0395501,53.4833009],[-2.0396285,53.4832607],[-2.0397538,53.4831168],[-2.0398333,53.4830773],[-2.0399157,53.4830438]]]}},
{"type":"Feature","properties":{"highway":"path","name":null,"category":"Shared path"},"geometry":{"type":"MultiLineString","coordinates":[[[-2.040434,53.4843135],[-2.0407566,53.4839942],[-2.0413169,53.4835183],[-2.0413152,53.4834685]]]}},
{"type":"Feature","properties":{"highway":"path","name":null,"category":"Shared path"},"geometry":{"type":"MultiLineString","coordinates":[[[-2.0456144,53.4853087],[-2.0449633,53.4850202],[-2.0448515,53.4850117],[-2.0446767,53.4850311],[-2.0445842,53.4850258]]]}},
{"type":"Feature","properties":{"highway":"path","name":null,"category":"Shared path"},"geometry":{"type":"MultiLineString","coordinates":[[[-2.0486895,53.4828856],[-2.0484848,53.4827757],[-2.048303,53.4826923],[-2.0481258,53.4826456],[-2.0480285,53.4826163],[-2.0479579,53.4825951],[-2.0477268,53.4826034],[-2.0476549,53.4826265]]]}},
{"type":"Feature","properties":{"highway":"path","name":null,"category":"Shared path"},"geometry":{"type":"MultiLineString","coordinates":[[[-2.0486895,53.4828856],[-2.048685,53.4827739],[-2.0487158,53.4825796],[-2.0487528,53.4825649],[-2.0489223,53.4825539],[-2.0489774,53.4825331]]]}},
{"type":"Feature","properties":{"highway":"path","name":null,"category":"Shared path"},"geometry":{"type":"MultiLineString","coordinates":[[[-2.0487158,53.4825796],[-2.0486635,53.482619],[-2.0485926,53.4826547],[-2.0484925,53.4826841],[-2.0483954,53.4826941],[-2.048303,53.4826923]]]}},
{"type":"Feature","properties":{"highway":"path","name":null,"category":"Shared path"},"geometry":{"type":"MultiLineString","coordinates":[[[-2.047794,53.4840648],[-2.0476854,53.4840489],[-2.047234,53.4839473],[-2.0470515,53.4839436]]]}},
{"type":"Feature","properties":{"highway":"path","name":null,"category":"Shared path"},"geometry":{"type":"MultiLineString","coordinates":[[[-2.0461989,53.4828748],[-2.0460114,53.4829778],[-2.0458445,53.4830308],[-2.0457022,53.4830861],[-2.0456226,53.4831595],[-2.0455833,53.4832076]]]}},
{"type":"Feature","properties":{"highway":"path","name":null,"category":"Shared path"},"geometry":{"type":"MultiLineString","coordinates":[[[-2.0458445,53.4830308],[-2.045689,53.4829247],[-2.0455998,53.4829202],[-2.0452622,53.4829563],[-2.0452168,53.4829732]]]}},
{"type":"Feature","properties":{"highway":"path","name":null,"category":"Shared path"},"geometry":{"type":"MultiLineString","coordinates":[[[-2.0452168,53.4829732],[-2.0450858,53.482962],[-2.0449227,53.4829213],[-2.0448464,53.4828803]]]}},
{"type":"Feature","properties":{"highway":"path","name":null,"category":"Shared path"},"geometry":{"type":"MultiLineString","coordinates":[[[-2.0505841,53.4836551],[-2.0507538,53.4835777]]]}},
{"type":"Feature","properties":{"highway":"path","name":null,"category":"Shared path"},"geometry":{"type":"MultiLineString","coordinates":[[[-2.0493246,53.485634],[-2.0494535,53.4855569],[-2.0494931,53.4855109]]]}},
{"type":"Feature","properties":{"highway":"path","name":null,"category":"Shared path"},"geometry":{"type":"MultiLineString","coordinates":[[[-2.044997,53.4879025],[-2.0448876,53.4877954],[-2.0447054,53.4876943],[-2.0445001,53.4876037],[-2.0443703,53.4875466]]]}},
{"type":"Feature","properties":{"highway":"path","name":null,"category":"Shared path"},"geometry":{"type":"MultiLineString","coordinates":[[[-2.0433571,53.4840541],[-2.0433055,53.4841367],[-2.0427359,53.484569],[-2.0427326,53.4846053],[-2.0439393,53.4850891]]]}},
{"type":"Feature","properties":{"highway":"path","name":null,"category":"Shared path"},"geometry":{"type":"MultiLineString","coordinates":[[[-2.0488943,53.4783731],[-2.0487732,53.4783916],[-2.0486425,53.4784545],[-2.0484812,53.4784785],[-2.0483794,53.4785528],[-2.0482833,53.4785894],[-2.0482488,53.478626],[-2.0481854,53.4785883],[-2.0481527,53.478562],[-2.0479472,53.478562]]]}},
{"type":"Feature","properties":{"highway":"path","name":null,"category":"Shared path"},"geometry":{"type":"MultiLineString","coordinates":[[[-2.0474376,53.4786523],[-2.0474132,53.4786534],[-2.0473613,53.4786191],[-2.0473383,53.4786214],[-2.0472922,53.4785905],[-2.0472461,53.4785471],[-2.0470136,53.4784705],[-2.0469964,53.4784328],[-2.0469299,53.4784449],[-2.0469214,53.4784465],[-2.0468312,53.4784339],[-2.0467774,53.4784054],[-2.0466813,53.4783128],[-2.0466487,53.4781916],[-2.0466007,53.4781459],[-2.0464528,53.4780635],[-2.0462645,53.4780075],[-2.0462645,53.4779938],[-2.046205,53.4779572],[-2.0461569,53.4779458],[-2.0460532,53.4779024],[-2.0460378,53.4778772],[-2.045986,53.4778418],[-2.0458823,53.4777297],[-2.0458304,53.4776863],[-2.0457977,53.477668],[-2.0457593,53.4776612],[-2.0457247,53.477636],[-2.045742,53.4776166],[-2.0457075,53.4775583],[-2.0456863,53.4775114],[-2.0457478,53.4774508],[-2.0457459,53.4774039],[-2.0457343,53.4773834],[-2.0457036,53.4773776],[-2.045671,53.4773331],[-2.0456249,53.4773319],[-2.0455864,53.477277],[-2.0455999,53.4772279],[-2.0455307,53.4771501],[-2.0456056,53.4771524]]]}},
{"type":"Feature","properties":{"highway":"path","name":null,"category":"Shared path"},"geometry":{"type":"MultiLineString","coordinates":[[[-2.0457036,53.477093],[-2.0457785,53.4771204],[-2.0457901,53.477149],[-2.0459264,53.4771753],[-2.046009,53.4772267],[-2.0461128,53.4772199],[-2.0461646,53.4772382],[-2.0462511,53.4772588],[-2.0463682,53.4773765],[-2.0464163,53.4774245],[-2.0464681,53.4774359],[-2.0464681,53.4774565],[-2.046568,53.4775057],[-2.0466352,53.4775331],[-2.0466621,53.4775651],[-2.0467313,53.4775823],[-2.0468369,53.4776086],[-2.0468523,53.4776189],[-2.0468753,53.4776326],[-2.04715,53.4779344],[-2.0472096,53.4779755],[-2.0473498,53.4780281],[-2.0474055,53.4780876],[-2.0474228,53.4780921],[-2.0474247,53.4781127],[-2.0474554,53.4781173],[-2.0475208,53.478115],[-2.0477148,53.4781676],[-2.0477839,53.4782247],[-2.047782,53.478251],[-2.0478319,53.478323],[-2.0478204,53.4783951],[-2.0478511,53.4784385],[-2.0478166,53.4785574],[-2.047868,53.4785933]]]}},
{"type":"Feature","properties":{"highway":"path","name":null,"category":"Shared path"},"geometry":{"type":"MultiLineString","coordinates":[[[-2.0456838,53.477105],[-2.0457036,53.477093]]]}},
{"type":"Feature","properties":{"highway":"path","name":null,"category":"Shared path"},"geometry":{"type":"MultiLineString","coordinates":[[[-2.0456056,53.4771524],[-2.0456838,53.477105]]]}},
{"type":"Feature","properties":{"highway":"path","name":null,"category":"Shared path"},"geometry":{"type":"MultiLineString","coordinates":[[[-2.0478146,53.478762],[-2.0477724,53.478762],[-2.0477263,53.4787574],[-2.0476744,53.4787174],[-2.0475937,53.478722],[-2.0475784,53.4786946],[-2.0476456,53.4786728],[-2.0475572,53.4786466]]]}},
{"type":"Feature","properties":{"highway":"path","name":null,"category":"Shared path"},"geometry":{"type":"MultiLineString","coordinates":[[[-2.0475572,53.4786466],[-2.0474376,53.4786523]]]}},
{"type":"Feature","properties":{"highway":"path","name":null,"category":"Shared path"},"geometry":{"type":"MultiLineString","coordinates":[[[-2.0455307,53.4771501],[-2.0454873,53.4770026],[-2.0454748,53.4769021],[-2.0453695,53.4767872],[-2.045359,53.4767454],[-2.045359,53.4766953],[-2.0452537,53.4766242],[-2.0452221,53.4766284],[-2.045194,53.4767057],[-2.0450957,53.4766556],[-2.045045,53.4766557]]]}},
{"type":"Feature","properties":{"highway":"path","name":null,"category":"Shared path"},"geometry":{"type":"MultiLineString","coordinates":[[[-2.04788,53.4785791],[-2.047868,53.4785933],[-2.0478607,53.478602],[-2.0478511,53.4786523],[-2.0478146,53.478762],[-2.0478204,53.4788237],[-2.0477801,53.4788889]]]}},
{"type":"Feature","properties":{"highway":"path","name":null,"category":"Shared path"},"geometry":{"type":"MultiLineString","coordinates":[[[-2.0466821,53.4861925],[-2.0469546,53.4863026]]]}},
{"type":"Feature","properties":{"highway":"path","name":null,"category":"Shared path"},"geometry":{"type":"MultiLineString","coordinates":[[[-2.0432355,53.4760999],[-2.0433934,53.4760895],[-2.0437971,53.4760122],[-2.0440673,53.4760352],[-2.0444218,53.4760393],[-2.0446991,53.4760665],[-2.0450045,53.4764154],[-2.0450571,53.4765052],[-2.0450571,53.4765887],[-2.045045,53.4766557],[-2.0450326,53.4767245],[-2.0449975,53.4769438],[-2.0452019,53.4771222]]]}}
]
}
