{
"type": "FeatureCollection",
"name": "d91cf06286eb_foliage",
"crs": { "type": "name", "properties": { "name": "urn:ogc:def:crs:OGC:1.3:CRS84" } },
"features": [
{ "type": "Feature", "properties": { "max_height": 2.4055023193359375, "mean_height": 0.31881564855575562, "std_height": 0.51628619432449341, "count_pixels": 41, "percent_cover": 1.3804713804713804, "percent_above_0.1m": 41.463414634146339, "low_level_<0.5": 17.073170731707318, "mid_level_0.5-2": 17.073170731707318, "tall_2+": 2.4390243902439024 }, "geometry": { "type": "Point", "coordinates": [ -2.138802497076528, 53.501224873418487 ] } },
{ "type": "Feature", "properties": { "max_height": 2.839752197265625, "mean_height": 0.27796861529350281, "std_height": 0.66328555345535278, "count_pixels": 41, "percent_cover": 1.3804713804713804, "percent_above_0.1m": 24.390243902439025, "low_level_<0.5": 4.8780487804878048, "mid_level_0.5-2": 7.3170731707317067, "tall_2+": 7.3170731707317067 }, "geometry": { "type": "Point", "coordinates": [ -2.138593606957819, 53.501225117248687 ] } },
{ "type": "Feature", "properties": { "max_height": 2.8102569580078125, "mean_height": 0.3573296070098877, "std_height": 0.78532320261001587, "count_pixels": 43, "percent_cover": 1.4478114478114479, "percent_above_0.1m": 25.581395348837212, "low_level_<0.5": 9.3023255813953494, "mid_level_0.5-2": 4.6511627906976747, "tall_2+": 11.627906976744185 }, "geometry": { "type": "Point", "coordinates": [ -2.138907293987262, 53.501332611775418 ] } },
{ "type": "Feature", "properties": { "max_height": 2.7248764038085938, "mean_height": 0.13148392736911774, "std_height": 0.46929293870925903, "count_pixels": 43, "percent_cover": 1.4478114478114479, "percent_above_0.1m": 11.627906976744185, "low_level_<0.5": 2.3255813953488373, "mid_level_0.5-2": 6.9767441860465116, "tall_2+": 2.3255813953488373 }, "geometry": { "type": "Point", "coordinates": [ -2.138698403337952, 53.501332855788775 ] } },
{ "type": "Feature", "properties": { "max_height": 6.8150100708007812, "mean_height": 1.0940173864364624, "std_height": 1.9495376348495483, "count_pixels": 42, "percent_cover": 1.4141414141414141, "percent_above_0.1m": 33.333333333333329, "low_level_<0.5": 0.0, "mid_level_0.5-2": 9.5238095238095237, "tall_2+": 23.809523809523807 }, "geometry": { "type": "Point", "coordinates": [ -2.138489512685614, 53.501333099437083 ] } },
{ "type": "Feature", "properties": { "max_height": 0.44525146484375, "mean_height": 0.035202912986278534, "std_height": 0.092679537832736969, "count_pixels": 43, "percent_cover": 1.4478114478114479, "percent_above_0.1m": 9.3023255813953494, "low_level_<0.5": 6.9767441860465116, "mid_level_0.5-2": 0.0, "tall_2+": 0.0 }, "geometry": { "type": "Point", "coordinates": [ -2.138280622030256, 53.501333342720322 ] } },
{ "type": "Feature", "properties": { "max_height": 1.292755126953125, "mean_height": 0.16593803465366364, "std_height": 0.27614957094192505, "count_pixels": 41, "percent_cover": 1.3804713804713804, "percent_above_0.1m": 31.707317073170731, "low_level_<0.5": 12.195121951219512, "mid_level_0.5-2": 12.195121951219512, "tall_2+": 0.0 }, "geometry": { "type": "Point", "coordinates": [ -2.139012091431619, 53.501440350038465 ] } },
{ "type": "Feature", "properties": { "max_height": 0.0019989013671875, "mean_height": 5.9918660554103553e-05, "std_height": 0.00043545966036617756, "count_pixels": 41, "percent_cover": 1.3804713804713804, "percent_above_0.1m": 0.0, "low_level_<0.5": 0.0, "mid_level_0.5-2": 0.0, "tall_2+": 0.0 }, "geometry": { "type": "Point", "coordinates": [ -2.138803200251702, 53.501440594235021 ] } },
{ "type": "Feature", "properties": { "max_height": 0.001007080078125, "mean_height": 0.00010532286250963807, "std_height": 0.0003742302069440484, "count_pixels": 41, "percent_cover": 1.3804713804713804, "percent_above_0.1m": 0.0, "low_level_<0.5": 0.0, "mid_level_0.5-2": 0.0, "tall_2+": 0.0 }, "geometry": { "type": "Point", "coordinates": [ -2.13859430906876, 53.501440838066486 ] } },
{ "type": "Feature", "properties": { "max_height": 0.00125885009765625, "mean_height": 6.1447557527571917e-05, "std_height": 0.00060579803539440036, "count_pixels": 37, "percent_cover": 1.2457912457912457, "percent_above_0.1m": 0.0, "low_level_<0.5": 0.0, "mid_level_0.5-2": 0.0, "tall_2+": 0.0 }, "geometry": { "type": "Point", "coordinates": [ -2.138385417882799, 53.501441081532882 ] } },
{ "type": "Feature", "properties": { "max_height": 4.8560028076171875, "mean_height": 0.63157224655151367, "std_height": 1.1950417757034302, "count_pixels": 41, "percent_cover": 1.3804713804713804, "percent_above_0.1m": 34.146341463414636, "low_level_<0.5": 0.0, "mid_level_0.5-2": 12.195121951219512, "tall_2+": 17.073170731707318 }, "geometry": { "type": "Point", "coordinates": [ -2.13817652669381, 53.501441324634222 ] } },
{ "type": "Feature", "properties": { "max_height": 6.5587615966796875, "mean_height": 2.3652257919311523, "std_height": 2.1211488246917725, "count_pixels": 42, "percent_cover": 1.4141414141414141, "percent_above_0.1m": 83.333333333333343, "low_level_<0.5": 9.5238095238095237, "mid_level_0.5-2": 19.047619047619047, "tall_2+": 50.0 }, "geometry": { "type": "Point", "coordinates": [ -2.139116889409601, 53.501548088207677 ] } },
{ "type": "Feature", "properties": { "max_height": 6.8547592163085938, "mean_height": 0.76395910978317261, "std_height": 1.7680809497833252, "count_pixels": 43, "percent_cover": 1.4478114478114479, "percent_above_0.1m": 30.232558139534881, "low_level_<0.5": 6.9767441860465116, "mid_level_0.5-2": 9.3023255813953494, "tall_2+": 11.627906976744185 }, "geometry": { "type": "Point", "coordinates": [ -2.138907997699081, 53.50154833258739 ] } },
{ "type": "Feature", "properties": { "max_height": 0.8560028076171875, "mean_height": 0.023551763966679573, "std_height": 0.13067525625228882, "count_pixels": 43, "percent_cover": 1.4478114478114479, "percent_above_0.1m": 4.6511627906976747, "low_level_<0.5": 2.3255813953488373, "mid_level_0.5-2": 2.3255813953488373, "tall_2+": 0.0 }, "geometry": { "type": "Point", "coordinates": [ -2.138699105985528, 53.501548576602033 ] } },
{ "type": "Feature", "properties": { "max_height": 1.0195083618164062, "mean_height": 0.057464055716991425, "std_height": 0.1962113082408905, "count_pixels": 42, "percent_cover": 1.4141414141414141, "percent_above_0.1m": 9.5238095238095237, "low_level_<0.5": 4.7619047619047619, "mid_level_0.5-2": 4.7619047619047619, "tall_2+": 0.0 }, "geometry": { "type": "Point", "coordinates": [ -2.138490214268953, 53.501548820251621 ] } },
{ "type": "Feature", "properties": { "max_height": 1.037750244140625, "mean_height": 0.04227287694811821, "std_height": 0.16418348252773285, "count_pixels": 43, "percent_cover": 1.4478114478114479, "percent_above_0.1m": 11.627906976744185, "low_level_<0.5": 9.3023255813953494, "mid_level_0.5-2": 2.3255813953488373, "tall_2+": 0.0 }, "geometry": { "type": "Point", "coordinates": [ -2.138281322549358, 53.50154906353611 ] } },
{ "type": "Feature", "properties": { "max_height": 1.4658584594726562, "mean_height": 0.19384215772151947, "std_height": 0.3566378653049469, "count_pixels": 43, "percent_cover": 1.4478114478114479, "percent_above_0.1m": 32.558139534883722, "low_level_<0.5": 16.279069767441861, "mid_level_0.5-2": 13.953488372093023, "tall_2+": 0.0 }, "geometry": { "type": "Point", "coordinates": [ -2.138072430826752, 53.501549306455544 ] } },
{ "type": "Feature", "properties": { "max_height": 7.6422576904296875, "mean_height": 3.4777979850769043, "std_height": 3.0195536613464355, "count_pixels": 41, "percent_cover": 1.3804713804713804, "percent_above_0.1m": 70.731707317073173, "low_level_<0.5": 7.3170731707317067, "mid_level_0.5-2": 7.3170731707317067, "tall_2+": 56.09756097560976 }, "geometry": { "type": "Point", "coordinates": [ -2.139012795680082, 53.501656070845918 ] } },
{ "type": "Feature", "properties": { "max_height": 8.3909988403320312, "mean_height": 4.3600120544433594, "std_height": 2.4909205436706543, "count_pixels": 41, "percent_cover": 1.3804713804713804, "percent_above_0.1m": 92.682926829268297, "low_level_<0.5": 2.4390243902439024, "mid_level_0.5-2": 12.195121951219512, "tall_2+": 78.048780487804876 }, "geometry": { "type": "Point", "coordinates": [ -2.138803903435925, 53.501656315043739 ] } },
{ "type": "Feature", "properties": { "max_height": 7.6970062255859375, "mean_height": 3.1567854881286621, "std_height": 2.9200220108032227, "count_pixels": 41, "percent_cover": 1.3804713804713804, "percent_above_0.1m": 63.414634146341463, "low_level_<0.5": 2.4390243902439024, "mid_level_0.5-2": 7.3170731707317067, "tall_2+": 53.658536585365859 }, "geometry": { "type": "Point", "coordinates": [ -2.138595011188734, 53.501656558876483 ] } },
{ "type": "Feature", "properties": { "max_height": 4.01824951171875, "mean_height": 0.38542464375495911, "std_height": 0.90715241432189941, "count_pixels": 37, "percent_cover": 1.2457912457912457, "percent_above_0.1m": 29.72972972972973, "low_level_<0.5": 10.810810810810811, "mid_level_0.5-2": 13.513513513513514, "tall_2+": 5.4054054054054053 }, "geometry": { "type": "Point", "coordinates": [ -2.138386118938527, 53.501656802344151 ] } },
{ "type": "Feature", "properties": { "max_height": 8.183258056640625, "mean_height": 2.8941736221313477, "std_height": 2.8512816429138184, "count_pixels": 43, "percent_cover": 1.4478114478114479, "percent_above_0.1m": 65.116279069767444, "low_level_<0.5": 2.3255813953488373, "mid_level_0.5-2": 11.627906976744185, "tall_2+": 51.162790697674424 }, "geometry": { "type": "Point", "coordinates": [ -2.138699808642146, 53.501764297407497 ] } },
{ "type": "Feature", "properties": { "max_height": 8.8645095825195312, "mean_height": 5.6482796669006348, "std_height": 1.6794435977935791, "count_pixels": 42, "percent_cover": 1.4141414141414141, "percent_above_0.1m": 100.0, "low_level_<0.5": 0.0, "mid_level_0.5-2": 2.3809523809523809, "tall_2+": 97.61904761904762 }, "geometry": { "type": "Point", "coordinates": [ -2.138490915861321, 53.501764541058328 ] } }
]
}
