{
"type": "FeatureCollection",
"name": "40c104ed1dc2_foliage",
"crs": { "type": "name", "properties": { "name": "urn:ogc:def:crs:OGC:1.3:CRS84" } },
"features": [
{ "type": "Feature", "properties": { "max_height": 2.0910015106201172, "mean_height": 0.4394473135471344, "std_height": 0.52649605274200439, "count_pixels": 42, "percent_cover": 0.32051282051282048, "percent_above_0.1m": 57.142857142857139, "low_level_<0.5": 16.666666666666664, "mid_level_0.5-2": 35.714285714285715, "tall_2+": 2.3809523809523809 }, "geometry": { "type": "Point", "coordinates": [ -2.418522299532696, 53.450155281940269 ] } },
{ "type": "Feature", "properties": { "max_height": 5.2080020904541016, "mean_height": 1.1514885425567627, "std_height": 1.3164857625961304, "count_pixels": 40, "percent_cover": 0.30525030525030528, "percent_above_0.1m": 70.0, "low_level_<0.5": 12.5, "mid_level_0.5-2": 30.0, "tall_2+": 22.5 }, "geometry": { "type": "Point", "coordinates": [ -2.418313660725557, 53.450156012459459 ] } },
{ "type": "Feature", "properties": { "max_height": 3.8380012512207031, "mean_height": 0.30319413542747498, "std_height": 0.77058213949203491, "count_pixels": 44, "percent_cover": 0.3357753357753358, "percent_above_0.1m": 25.0, "low_level_<0.5": 6.8181818181818175, "mid_level_0.5-2": 9.0909090909090917, "tall_2+": 4.5454545454545459 }, "geometry": { "type": "Point", "coordinates": [ -2.420714072133393, 53.450255447253149 ] } },
{ "type": "Feature", "properties": { "max_height": 4.4810009002685547, "mean_height": 0.53532230854034424, "std_height": 1.1809242963790894, "count_pixels": 42, "percent_cover": 0.32051282051282048, "percent_above_0.1m": 40.476190476190474, "low_level_<0.5": 16.666666666666664, "mid_level_0.5-2": 4.7619047619047619, "tall_2+": 11.904761904761903 }, "geometry": { "type": "Point", "coordinates": [ -2.420505432909674, 53.450256181619679 ] } },
{ "type": "Feature", "properties": { "max_height": 6.2327499389648438, "mean_height": 1.436834454536438, "std_height": 2.0683999061584473, "count_pixels": 42, "percent_cover": 0.32051282051282048, "percent_above_0.1m": 54.761904761904766, "low_level_<0.5": 9.5238095238095237, "mid_level_0.5-2": 11.904761904761903, "tall_2+": 28.571428571428569 }, "geometry": { "type": "Point", "coordinates": [ -2.418836318799404, 53.450262043444042 ] } },
{ "type": "Feature", "properties": { "max_height": 0.75700187683105469, "mean_height": 0.080179490149021149, "std_height": 0.18181172013282776, "count_pixels": 42, "percent_cover": 0.32051282051282048, "percent_above_0.1m": 19.047619047619047, "low_level_<0.5": 14.285714285714285, "mid_level_0.5-2": 4.7619047619047619, "tall_2+": 0.0 }, "geometry": { "type": "Point", "coordinates": [ -2.418627679495624, 53.450262774533606 ] } },
{ "type": "Feature", "properties": { "max_height": 2.9370002746582031, "mean_height": 0.13094134628772736, "std_height": 0.49411135911941528, "count_pixels": 42, "percent_cover": 0.32051282051282048, "percent_above_0.1m": 11.904761904761903, "low_level_<0.5": 4.7619047619047619, "mid_level_0.5-2": 4.7619047619047619, "tall_2+": 2.3809523809523809 }, "geometry": { "type": "Point", "coordinates": [ -2.418419040182966, 53.450263505259038 ] } },
{ "type": "Feature", "properties": { "max_height": 2.397003173828125, "mean_height": 0.66256910562515259, "std_height": 0.7901843786239624, "count_pixels": 44, "percent_cover": 0.3357753357753358, "percent_above_0.1m": 52.272727272727273, "low_level_<0.5": 9.0909090909090917, "mid_level_0.5-2": 34.090909090909086, "tall_2+": 9.0909090909090917 }, "geometry": { "type": "Point", "coordinates": [ -2.418210400861441, 53.450264235620367 ] } },
{ "type": "Feature", "properties": { "max_height": 0.98075103759765625, "mean_height": 0.071278728544712067, "std_height": 0.21994605660438538, "count_pixels": 36, "percent_cover": 0.27472527472527475, "percent_above_0.1m": 13.888888888888889, "low_level_<0.5": 5.5555555555555554, "mid_level_0.5-2": 5.5555555555555554, "tall_2+": 0.0 }, "geometry": { "type": "Point", "coordinates": [ -2.42081945775508, 53.450362938696358 ] } },
{ "type": "Feature", "properties": { "max_height": 4.6292514801025391, "mean_height": 0.59603214263916016, "std_height": 1.2888511419296265, "count_pixels": 40, "percent_cover": 0.30525030525030528, "percent_above_0.1m": 22.5, "low_level_<0.5": 0.0, "mid_level_0.5-2": 7.5, "tall_2+": 12.5 }, "geometry": { "type": "Point", "coordinates": [ -2.420610818026045, 53.45036367327809 ] } },
{ "type": "Feature", "properties": { "max_height": 2.3990020751953125, "mean_height": 0.4986913800239563, "std_height": 0.7056547999382019, "count_pixels": 42, "percent_cover": 0.32051282051282048, "percent_above_0.1m": 47.619047619047613, "low_level_<0.5": 9.5238095238095237, "mid_level_0.5-2": 30.952380952380953, "tall_2+": 4.7619047619047619 }, "geometry": { "type": "Point", "coordinates": [ -2.420402178288095, 53.45036440749584 ] } },
{ "type": "Feature", "properties": { "max_height": 4.1855030059814453, "mean_height": 1.1324837207794189, "std_height": 1.2905408143997192, "count_pixels": 44, "percent_cover": 0.3357753357753358, "percent_above_0.1m": 59.090909090909093, "low_level_<0.5": 9.0909090909090917, "mid_level_0.5-2": 18.181818181818183, "tall_2+": 31.818181818181817 }, "geometry": { "type": "Point", "coordinates": [ -2.41915033967343, 53.450368805159115 ] } },
{ "type": "Feature", "properties": { "max_height": 7.6372509002685547, "mean_height": 0.61129248142242432, "std_height": 1.4964561462402344, "count_pixels": 42, "percent_cover": 0.32051282051282048, "percent_above_0.1m": 33.333333333333329, "low_level_<0.5": 7.1428571428571423, "mid_level_0.5-2": 11.904761904761903, "tall_2+": 9.5238095238095237 }, "geometry": { "type": "Point", "coordinates": [ -2.418941699873197, 53.450369536829115 ] } },
{ "type": "Feature", "properties": { "max_height": 0.01300048828125, "mean_height": -0.0011183874448761344, "std_height": 0.0055085280910134315, "count_pixels": 42, "percent_cover": 0.32051282051282048, "percent_above_0.1m": 0.0, "low_level_<0.5": 0.0, "mid_level_0.5-2": 0.0, "tall_2+": 0.0 }, "geometry": { "type": "Point", "coordinates": [ -2.41873306006409, 53.450370268135146 ] } },
{ "type": "Feature", "properties": { "max_height": 0.010000228881835938, "mean_height": -0.00030853634234517813, "std_height": 0.0037507049273699522, "count_pixels": 42, "percent_cover": 0.32051282051282048, "percent_above_0.1m": 0.0, "low_level_<0.5": 0.0, "mid_level_0.5-2": 0.0, "tall_2+": 0.0 }, "geometry": { "type": "Point", "coordinates": [ -2.418524420246102, 53.450370999077194 ] } },
{ "type": "Feature", "properties": { "max_height": 1.8907508850097656, "mean_height": 0.39293822646141052, "std_height": 0.51675951480865479, "count_pixels": 40, "percent_cover": 0.30525030525030528, "percent_above_0.1m": 45.0, "low_level_<0.5": 5.0, "mid_level_0.5-2": 40.0, "tall_2+": 0.0 }, "geometry": { "type": "Point", "coordinates": [ -2.418315780419249, 53.450371729655274 ] } },
{ "type": "Feature", "properties": { "max_height": 0.047750473022460938, "mean_height": 0.0026484837289899588, "std_height": 0.012441902421414852, "count_pixels": 44, "percent_cover": 0.3357753357753358, "percent_above_0.1m": 0.0, "low_level_<0.5": 0.0, "mid_level_0.5-2": 0.0, "tall_2+": 0.0 }, "geometry": { "type": "Point", "coordinates": [ -2.420924843924403, 53.45047043066041 ] } },
{ "type": "Feature", "properties": { "max_height": 0.03424835205078125, "mean_height": 0.001836039824411273, "std_height": 0.013344176113605499, "count_pixels": 44, "percent_cover": 0.3357753357753358, "percent_above_0.1m": 0.0, "low_level_<0.5": 0.0, "mid_level_0.5-2": 0.0, "tall_2+": 0.0 }, "geometry": { "type": "Point", "coordinates": [ -2.420716203689587, 53.450471165456648 ] } },
{ "type": "Feature", "properties": { "max_height": 0.032501220703125, "mean_height": 0.0025485355872660875, "std_height": 0.0090560615062713623, "count_pixels": 42, "percent_cover": 0.32051282051282048, "percent_above_0.1m": 0.0, "low_level_<0.5": 0.0, "mid_level_0.5-2": 0.0, "tall_2+": 0.0 }, "geometry": { "type": "Point", "coordinates": [ -2.420507563445847, 53.45047189988891 ] } },
{ "type": "Feature", "properties": { "max_height": 2.2539997100830078, "mean_height": 0.37867361307144165, "std_height": 0.68363791704177856, "count_pixels": 42, "percent_cover": 0.32051282051282048, "percent_above_0.1m": 30.952380952380953, "low_level_<0.5": 0.0, "mid_level_0.5-2": 19.047619047619047, "tall_2+": 7.1428571428571423 }, "geometry": { "type": "Point", "coordinates": [ -2.420298923193205, 53.450472633957219 ] } },
{ "type": "Feature", "properties": { "max_height": 3.0475025177001953, "mean_height": 0.38175100088119507, "std_height": 0.65648567676544189, "count_pixels": 40, "percent_cover": 0.30525030525030528, "percent_above_0.1m": 45.0, "low_level_<0.5": 7.5, "mid_level_0.5-2": 25.0, "tall_2+": 5.0 }, "geometry": { "type": "Point", "coordinates": [ -2.419255721796435, 53.450476298839263 ] } },
{ "type": "Feature", "properties": { "max_height": 0.03275299072265625, "mean_height": 0.00069460866507142782, "std_height": 0.010083234868943691, "count_pixels": 40, "percent_cover": 0.30525030525030528, "percent_above_0.1m": 0.0, "low_level_<0.5": 0.0, "mid_level_0.5-2": 0.0, "tall_2+": 0.0 }, "geometry": { "type": "Point", "coordinates": [ -2.419047081490405, 53.450477030723746 ] } },
{ "type": "Feature", "properties": { "max_height": 0.020250320434570312, "mean_height": -0.00074890680843964219, "std_height": 0.0088935000821948051, "count_pixels": 42, "percent_cover": 0.32051282051282048, "percent_above_0.1m": 0.0, "low_level_<0.5": 0.0, "mid_level_0.5-2": 0.0, "tall_2+": 0.0 }, "geometry": { "type": "Point", "coordinates": [ -2.418838441175497, 53.450477762244276 ] } },
{ "type": "Feature", "properties": { "max_height": 0.00875091552734375, "mean_height": -0.0027611141558736563, "std_height": 0.0054407473653554916, "count_pixels": 42, "percent_cover": 0.32051282051282048, "percent_above_0.1m": 0.0, "low_level_<0.5": 0.0, "mid_level_0.5-2": 0.0, "tall_2+": 0.0 }, "geometry": { "type": "Point", "coordinates": [ -2.418629800851706, 53.450478493400844 ] } },
{ "type": "Feature", "properties": { "max_height": 0.017499923706054688, "mean_height": -0.00064200448105111718, "std_height": 0.0056753801181912422, "count_pixels": 42, "percent_cover": 0.32051282051282048, "percent_above_0.1m": 0.0, "low_level_<0.5": 0.0, "mid_level_0.5-2": 0.0, "tall_2+": 0.0 }, "geometry": { "type": "Point", "coordinates": [ -2.418421160519047, 53.45047922419343 ] } },
{ "type": "Feature", "properties": { "max_height": 2.9870014190673828, "mean_height": 0.6979098916053772, "std_height": 0.75776082277297974, "count_pixels": 44, "percent_cover": 0.3357753357753358, "percent_above_0.1m": 68.181818181818173, "low_level_<0.5": 18.181818181818183, "mid_level_0.5-2": 36.363636363636367, "tall_2+": 11.363636363636363 }, "geometry": { "type": "Point", "coordinates": [ -2.418212520177514, 53.450479954622054 ] } },
{ "type": "Feature", "properties": { "max_height": 3.2375011444091797, "mean_height": 0.74605667591094971, "std_height": 1.0710872411727905, "count_pixels": 36, "percent_cover": 0.27472527472527475, "percent_above_0.1m": 50.0, "low_level_<0.5": 16.666666666666664, "mid_level_0.5-2": 11.111111111111111, "tall_2+": 19.444444444444446 }, "geometry": { "type": "Point", "coordinates": [ -2.420821589867812, 53.450578657509404 ] } },
{ "type": "Feature", "properties": { "max_height": 0.0085010528564453125, "mean_height": -0.0019553662277758121, "std_height": 0.0048546921461820602, "count_pixels": 40, "percent_cover": 0.30525030525030528, "percent_above_0.1m": 0.0, "low_level_<0.5": 0.0, "mid_level_0.5-2": 0.0, "tall_2+": 0.0 }, "geometry": { "type": "Point", "coordinates": [ -2.420612949118297, 53.450579392156193 ] } },
{ "type": "Feature", "properties": { "max_height": 0.01525115966796875, "mean_height": -0.00070708140265196562, "std_height": 0.0046057375147938728, "count_pixels": 42, "percent_cover": 0.32051282051282048, "percent_above_0.1m": 0.0, "low_level_<0.5": 0.0, "mid_level_0.5-2": 0.0, "tall_2+": 0.0 }, "geometry": { "type": "Point", "coordinates": [ -2.420404308359857, 53.450580126439014 ] } },
{ "type": "Feature", "properties": { "max_height": 2.3660011291503906, "mean_height": 0.4348284900188446, "std_height": 0.76964294910430908, "count_pixels": 42, "percent_cover": 0.32051282051282048, "percent_above_0.1m": 30.952380952380953, "low_level_<0.5": 4.7619047619047619, "mid_level_0.5-2": 16.666666666666664, "tall_2+": 9.5238095238095237 }, "geometry": { "type": "Point", "coordinates": [ -2.420195667592516, 53.450580860357888 ] } },
{ "type": "Feature", "properties": { "max_height": 4.8120021820068359, "mean_height": 1.5888816118240356, "std_height": 1.458176851272583, "count_pixels": 44, "percent_cover": 0.3357753357753358, "percent_above_0.1m": 72.727272727272734, "low_level_<0.5": 11.363636363636363, "mid_level_0.5-2": 18.181818181818183, "tall_2+": 43.18181818181818 }, "geometry": { "type": "Point", "coordinates": [ -2.419569745237059, 53.450583059930636 ] } },
{ "type": "Feature", "properties": { "max_height": 2.4422512054443359, "mean_height": 0.42574518918991089, "std_height": 0.7010684609413147, "count_pixels": 44, "percent_cover": 0.3357753357753358, "percent_above_0.1m": 43.18181818181818, "low_level_<0.5": 6.8181818181818175, "mid_level_0.5-2": 22.727272727272727, "tall_2+": 4.5454545454545459 }, "geometry": { "type": "Point", "coordinates": [ -2.419361104434116, 53.450583792393608 ] } },
{ "type": "Feature", "properties": { "max_height": 0.019750595092773438, "mean_height": 0.00096113031031563878, "std_height": 0.0052514681592583656, "count_pixels": 44, "percent_cover": 0.3357753357753358, "percent_above_0.1m": 0.0, "low_level_<0.5": 0.0, "mid_level_0.5-2": 0.0, "tall_2+": 0.0 }, "geometry": { "type": "Point", "coordinates": [ -2.419152463622289, 53.450584524492605 ] } },
{ "type": "Feature", "properties": { "max_height": 0.012250900268554688, "mean_height": -0.00042170571396127343, "std_height": 0.0036109611392021179, "count_pixels": 42, "percent_cover": 0.32051282051282048, "percent_above_0.1m": 0.0, "low_level_<0.5": 0.0, "mid_level_0.5-2": 0.0, "tall_2+": 0.0 }, "geometry": { "type": "Point", "coordinates": [ -2.418943822801572, 53.450585256227654 ] } },
{ "type": "Feature", "properties": { "max_height": 0.009250640869140625, "mean_height": -8.2606362411752343e-05, "std_height": 0.0030692641157656908, "count_pixels": 42, "percent_cover": 0.32051282051282048, "percent_above_0.1m": 0.0, "low_level_<0.5": 0.0, "mid_level_0.5-2": 0.0, "tall_2+": 0.0 }, "geometry": { "type": "Point", "coordinates": [ -2.418735181971979, 53.450585987598714 ] } },
{ "type": "Feature", "properties": { "max_height": 0.38750076293945312, "mean_height": 0.0087152663618326187, "std_height": 0.059192303568124771, "count_pixels": 42, "percent_cover": 0.32051282051282048, "percent_above_0.1m": 2.3809523809523809, "low_level_<0.5": 2.3809523809523809, "mid_level_0.5-2": 0.0, "tall_2+": 0.0 }, "geometry": { "type": "Point", "coordinates": [ -2.418526541133508, 53.450586718605813 ] } },
{ "type": "Feature", "properties": { "max_height": 5.1400012969970703, "mean_height": 0.70344483852386475, "std_height": 1.261648416519165, "count_pixels": 40, "percent_cover": 0.30525030525030528, "percent_above_0.1m": 42.5, "low_level_<0.5": 15.0, "mid_level_0.5-2": 15.0, "tall_2+": 12.5 }, "geometry": { "type": "Point", "coordinates": [ -2.418317900286164, 53.450587449248935 ] } },
{ "type": "Feature", "properties": { "max_height": 2.0037498474121094, "mean_height": 0.46885883808135986, "std_height": 0.59346473217010498, "count_pixels": 44, "percent_cover": 0.3357753357753358, "percent_above_0.1m": 56.81818181818182, "low_level_<0.5": 18.181818181818183, "mid_level_0.5-2": 34.090909090909086, "tall_2+": 4.5454545454545459 }, "geometry": { "type": "Point", "coordinates": [ -2.420718335305433, 53.450686884297681 ] } },
{ "type": "Feature", "properties": { "max_height": 0.006999969482421875, "mean_height": -0.00073133193654939532, "std_height": 0.0028100244235247374, "count_pixels": 42, "percent_cover": 0.32051282051282048, "percent_above_0.1m": 0.0, "low_level_<0.5": 0.0, "mid_level_0.5-2": 0.0, "tall_2+": 0.0 }, "geometry": { "type": "Point", "coordinates": [ -2.420509694041208, 53.450687618795008 ] } },
{ "type": "Feature", "properties": { "max_height": 0.002002716064453125, "mean_height": -8.2197642768733203e-05, "std_height": 0.00081948074512183666, "count_pixels": 42, "percent_cover": 0.32051282051282048, "percent_above_0.1m": 0.0, "low_level_<0.5": 0.0, "mid_level_0.5-2": 0.0, "tall_2+": 0.0 }, "geometry": { "type": "Point", "coordinates": [ -2.42030105276807, 53.450688352928395 ] } },
{ "type": "Feature", "properties": { "max_height": 2.246002197265625, "mean_height": 0.48337587714195251, "std_height": 0.76268672943115234, "count_pixels": 42, "percent_cover": 0.32051282051282048, "percent_above_0.1m": 33.333333333333329, "low_level_<0.5": 2.3809523809523809, "mid_level_0.5-2": 26.190476190476193, "tall_2+": 4.7619047619047619 }, "geometry": { "type": "Point", "coordinates": [ -2.420092411486022, 53.4506890866978 ] } },
{ "type": "Feature", "properties": { "max_height": 7.7935028076171875, "mean_height": 3.9207568168640137, "std_height": 2.7748117446899414, "count_pixels": 42, "percent_cover": 0.32051282051282048, "percent_above_0.1m": 83.333333333333343, "low_level_<0.5": 7.1428571428571423, "mid_level_0.5-2": 9.5238095238095237, "tall_2+": 66.666666666666657 }, "geometry": { "type": "Point", "coordinates": [ -2.419883770195074, 53.450689820103221 ] } },
{ "type": "Feature", "properties": { "max_height": 5.8420009613037109, "mean_height": 1.1358382701873779, "std_height": 1.5910656452178955, "count_pixels": 40, "percent_cover": 0.30525030525030528, "percent_above_0.1m": 60.0, "low_level_<0.5": 17.5, "mid_level_0.5-2": 12.5, "tall_2+": 27.5 }, "geometry": { "type": "Point", "coordinates": [ -2.419675128895227, 53.450690553144675 ] } },
{ "type": "Feature", "properties": { "max_height": 1.8402500152587891, "mean_height": 0.16395919024944305, "std_height": 0.35337018966674805, "count_pixels": 36, "percent_cover": 0.27472527472527475, "percent_above_0.1m": 36.111111111111107, "low_level_<0.5": 25.0, "mid_level_0.5-2": 8.3333333333333321, "tall_2+": 0.0 }, "geometry": { "type": "Point", "coordinates": [ -2.419466487586484, 53.45069128582216 ] } },
{ "type": "Feature", "properties": { "max_height": 0.0012531280517578125, "mean_height": -0.00010519028000999242, "std_height": 0.00079063634620979428, "count_pixels": 40, "percent_cover": 0.30525030525030528, "percent_above_0.1m": 0.0, "low_level_<0.5": 0.0, "mid_level_0.5-2": 0.0, "tall_2+": 0.0 }, "geometry": { "type": "Point", "coordinates": [ -2.419257846268848, 53.450692018135683 ] } },
{ "type": "Feature", "properties": { "max_height": 0.001251220703125, "mean_height": -9.2697140644304454e-05, "std_height": 0.0010426028165966272, "count_pixels": 40, "percent_cover": 0.30525030525030528, "percent_above_0.1m": 0.0, "low_level_<0.5": 0.0, "mid_level_0.5-2": 0.0, "tall_2+": 0.0 }, "geometry": { "type": "Point", "coordinates": [ -2.419049204942326, 53.450692750085238 ] } },
{ "type": "Feature", "properties": { "max_height": 0.0015010833740234375, "mean_height": -0.00014777410251554102, "std_height": 0.0013238159008324146, "count_pixels": 42, "percent_cover": 0.32051282051282048, "percent_above_0.1m": 0.0, "low_level_<0.5": 0.0, "mid_level_0.5-2": 0.0, "tall_2+": 0.0 }, "geometry": { "type": "Point", "coordinates": [ -2.418840563606924, 53.450693481670811 ] } },
{ "type": "Feature", "properties": { "max_height": 3.0205001831054688, "mean_height": 0.76782244443893433, "std_height": 0.96174979209899902, "count_pixels": 42, "percent_cover": 0.32051282051282048, "percent_above_0.1m": 54.761904761904766, "low_level_<0.5": 9.5238095238095237, "mid_level_0.5-2": 28.571428571428569, "tall_2+": 16.666666666666664 }, "geometry": { "type": "Point", "coordinates": [ -2.418631922262643, 53.450694212892408 ] } },
{ "type": "Feature", "properties": { "max_height": 2.7952518463134766, "mean_height": 0.53875112533569336, "std_height": 0.79524397850036621, "count_pixels": 42, "percent_cover": 0.32051282051282048, "percent_above_0.1m": 45.238095238095241, "low_level_<0.5": 9.5238095238095237, "mid_level_0.5-2": 26.190476190476193, "tall_2+": 7.1428571428571423 }, "geometry": { "type": "Point", "coordinates": [ -2.418423280909492, 53.45069494375003 ] } },
{ "type": "Feature", "properties": { "max_height": 3.6312503814697266, "mean_height": 1.0734822750091553, "std_height": 1.0429069995880127, "count_pixels": 40, "percent_cover": 0.30525030525030528, "percent_above_0.1m": 82.5, "low_level_<0.5": 17.5, "mid_level_0.5-2": 32.5, "tall_2+": 25.0 }, "geometry": { "type": "Point", "coordinates": [ -2.420615080237251, 53.450795111025236 ] } },
{ "type": "Feature", "properties": { "max_height": 2.7647514343261719, "mean_height": 0.32583433389663696, "std_height": 0.59062403440475464, "count_pixels": 42, "percent_cover": 0.32051282051282048, "percent_above_0.1m": 35.714285714285715, "low_level_<0.5": 2.3809523809523809, "mid_level_0.5-2": 23.809523809523807, "tall_2+": 2.3809523809523809 }, "geometry": { "type": "Point", "coordinates": [ -2.420406438458321, 53.450795845373122 ] } },
{ "type": "Feature", "properties": { "max_height": 0.001251220703125, "mean_height": 3.0744642572244629e-05, "std_height": 0.0006155290175229311, "count_pixels": 42, "percent_cover": 0.32051282051282048, "percent_above_0.1m": 0.0, "low_level_<0.5": 0.0, "mid_level_0.5-2": 0.0, "tall_2+": 0.0 }, "geometry": { "type": "Point", "coordinates": [ -2.420197796670474, 53.450796579357039 ] } },
{ "type": "Feature", "properties": { "max_height": 0.85650062561035156, "mean_height": 0.04951876774430275, "std_height": 0.15248273313045502, "count_pixels": 42, "percent_cover": 0.32051282051282048, "percent_above_0.1m": 11.904761904761903, "low_level_<0.5": 9.5238095238095237, "mid_level_0.5-2": 2.3809523809523809, "tall_2+": 0.0 }, "geometry": { "type": "Point", "coordinates": [ -2.419989154873728, 53.450797312976988 ] } },
{ "type": "Feature", "properties": { "max_height": 1.7410011291503906, "mean_height": 0.20977474749088287, "std_height": 0.40324708819389343, "count_pixels": 42, "percent_cover": 0.32051282051282048, "percent_above_0.1m": 35.714285714285715, "low_level_<0.5": 26.190476190476193, "mid_level_0.5-2": 9.5238095238095237, "tall_2+": 0.0 }, "geometry": { "type": "Point", "coordinates": [ -2.419780513068079, 53.450798046232954 ] } },
{ "type": "Feature", "properties": { "max_height": 0.36600112915039062, "mean_height": 0.036847416311502457, "std_height": 0.088513359427452087, "count_pixels": 44, "percent_cover": 0.3357753357753358, "percent_above_0.1m": 9.0909090909090917, "low_level_<0.5": 9.0909090909090917, "mid_level_0.5-2": 0.0, "tall_2+": 0.0 }, "geometry": { "type": "Point", "coordinates": [ -2.41957187125353, 53.450798779124952 ] } },
{ "type": "Feature", "properties": { "max_height": 0.0012493133544921875, "mean_height": -0.00018679011554922909, "std_height": 0.00085303228115662932, "count_pixels": 44, "percent_cover": 0.3357753357753358, "percent_above_0.1m": 0.0, "low_level_<0.5": 0.0, "mid_level_0.5-2": 0.0, "tall_2+": 0.0 }, "geometry": { "type": "Point", "coordinates": [ -2.419363229430091, 53.450799511652974 ] } },
{ "type": "Feature", "properties": { "max_height": 0.00225067138671875, "mean_height": 0.00013702566502615809, "std_height": 0.00058015272952616215, "count_pixels": 44, "percent_cover": 0.3357753357753358, "percent_above_0.1m": 0.0, "low_level_<0.5": 0.0, "mid_level_0.5-2": 0.0, "tall_2+": 0.0 }, "geometry": { "type": "Point", "coordinates": [ -2.419154587597759, 53.450800243817049 ] } },
{ "type": "Feature", "properties": { "max_height": 0.0030002593994140625, "mean_height": -3.4650165616767481e-05, "std_height": 0.0010544019751250744, "count_pixels": 42, "percent_cover": 0.32051282051282048, "percent_above_0.1m": 0.0, "low_level_<0.5": 0.0, "mid_level_0.5-2": 0.0, "tall_2+": 0.0 }, "geometry": { "type": "Point", "coordinates": [ -2.418945945756549, 53.450800975617121 ] } },
{ "type": "Feature", "properties": { "max_height": 4.5957508087158203, "mean_height": 1.1892569065093994, "std_height": 1.292261004447937, "count_pixels": 42, "percent_cover": 0.32051282051282048, "percent_above_0.1m": 66.666666666666657, "low_level_<0.5": 9.5238095238095237, "mid_level_0.5-2": 26.190476190476193, "tall_2+": 28.571428571428569 }, "geometry": { "type": "Point", "coordinates": [ -2.418737303906453, 53.45080170705323 ] } },
{ "type": "Feature", "properties": { "max_height": 4.1222515106201172, "mean_height": 1.5742926597595215, "std_height": 0.96320474147796631, "count_pixels": 42, "percent_cover": 0.32051282051282048, "percent_above_0.1m": 90.476190476190482, "low_level_<0.5": 9.5238095238095237, "mid_level_0.5-2": 40.476190476190474, "tall_2+": 38.095238095238095 }, "geometry": { "type": "Point", "coordinates": [ -2.420303182369625, 53.450904071890491 ] } },
{ "type": "Feature", "properties": { "max_height": 4.2262496948242188, "mean_height": 0.33201262354850769, "std_height": 0.82146346569061279, "count_pixels": 42, "percent_cover": 0.32051282051282048, "percent_above_0.1m": 23.809523809523807, "low_level_<0.5": 2.3809523809523809, "mid_level_0.5-2": 16.666666666666664, "tall_2+": 4.7619047619047619 }, "geometry": { "type": "Point", "coordinates": [ -2.420094540067075, 53.450904805724953 ] } },
{ "type": "Feature", "properties": { "max_height": 0.4589996337890625, "mean_height": 0.011119751259684563, "std_height": 0.069987542927265167, "count_pixels": 42, "percent_cover": 0.32051282051282048, "percent_above_0.1m": 2.3809523809523809, "low_level_<0.5": 2.3809523809523809, "mid_level_0.5-2": 0.0, "tall_2+": 0.0 }, "geometry": { "type": "Point", "coordinates": [ -2.419885897755624, 53.450905539195439 ] } },
{ "type": "Feature", "properties": { "max_height": 0.020502090454101562, "mean_height": 0.0014448643196374178, "std_height": 0.0048516551032662392, "count_pixels": 40, "percent_cover": 0.30525030525030528, "percent_above_0.1m": 0.0, "low_level_<0.5": 0.0, "mid_level_0.5-2": 0.0, "tall_2+": 0.0 }, "geometry": { "type": "Point", "coordinates": [ -2.419677255435268, 53.450906272301957 ] } },
{ "type": "Feature", "properties": { "max_height": 0.04425048828125, "mean_height": 0.0023479992523789406, "std_height": 0.0088492082431912422, "count_pixels": 36, "percent_cover": 0.27472527472527475, "percent_above_0.1m": 0.0, "low_level_<0.5": 0.0, "mid_level_0.5-2": 0.0, "tall_2+": 0.0 }, "geometry": { "type": "Point", "coordinates": [ -2.41946861310602, 53.450907005044499 ] } },
{ "type": "Feature", "properties": { "max_height": 0.000751495361328125, "mean_height": 8.1062319168268004e-07, "std_height": 0.0003750812029466033, "count_pixels": 40, "percent_cover": 0.30525030525030528, "percent_above_0.1m": 0.0, "low_level_<0.5": 0.0, "mid_level_0.5-2": 0.0, "tall_2+": 0.0 }, "geometry": { "type": "Point", "coordinates": [ -2.419259970767883, 53.450907737423051 ] } },
{ "type": "Feature", "properties": { "max_height": 0.00350189208984375, "mean_height": 8.8453292846679688e-05, "std_height": 0.00085235497681424022, "count_pixels": 40, "percent_cover": 0.30525030525030528, "percent_above_0.1m": 0.0, "low_level_<0.5": 0.0, "mid_level_0.5-2": 0.0, "tall_2+": 0.0 }, "geometry": { "type": "Point", "coordinates": [ -2.419051328420857, 53.450908469437636 ] } },
{ "type": "Feature", "properties": { "max_height": 5.4990005493164062, "mean_height": 0.71647101640701294, "std_height": 1.491916298866272, "count_pixels": 42, "percent_cover": 0.32051282051282048, "percent_above_0.1m": 35.714285714285715, "low_level_<0.5": 7.1428571428571423, "mid_level_0.5-2": 16.666666666666664, "tall_2+": 11.904761904761903 }, "geometry": { "type": "Point", "coordinates": [ -2.418842686064945, 53.450909201088265 ] } },
{ "type": "Feature", "properties": { "max_height": 3.2635021209716797, "mean_height": 0.56320923566818237, "std_height": 0.83231407403945923, "count_pixels": 42, "percent_cover": 0.32051282051282048, "percent_above_0.1m": 59.523809523809526, "low_level_<0.5": 23.809523809523807, "mid_level_0.5-2": 26.190476190476193, "tall_2+": 7.1428571428571423 }, "geometry": { "type": "Point", "coordinates": [ -2.41999128295786, 53.451013032032137 ] } },
{ "type": "Feature", "properties": { "max_height": 0.76325035095214844, "mean_height": 0.041494868695735931, "std_height": 0.1439497172832489, "count_pixels": 42, "percent_cover": 0.32051282051282048, "percent_above_0.1m": 9.5238095238095237, "low_level_<0.5": 0.0, "mid_level_0.5-2": 4.7619047619047619, "tall_2+": 0.0 }, "geometry": { "type": "Point", "coordinates": [ -2.419782640131702, 53.451013765353153 ] } },
{ "type": "Feature", "properties": { "max_height": 0.0010013580322265625, "mean_height": 8.0455436545889825e-05, "std_height": 0.00039449898758903146, "count_pixels": 44, "percent_cover": 0.3357753357753358, "percent_above_0.1m": 0.0, "low_level_<0.5": 0.0, "mid_level_0.5-2": 0.0, "tall_2+": 0.0 }, "geometry": { "type": "Point", "coordinates": [ -2.419573997296643, 53.451014498310215 ] } },
{ "type": "Feature", "properties": { "max_height": 0.0010013580322265625, "mean_height": -0.00015280464140232652, "std_height": 0.00058440089924260974, "count_pixels": 44, "percent_cover": 0.3357753357753358, "percent_above_0.1m": 0.0, "low_level_<0.5": 0.0, "mid_level_0.5-2": 0.0, "tall_2+": 0.0 }, "geometry": { "type": "Point", "coordinates": [ -2.419365354452689, 53.45101523090328 ] } },
{ "type": "Feature", "properties": { "max_height": 0.003002166748046875, "mean_height": 0.00017703663615975529, "std_height": 0.00063639390282332897, "count_pixels": 44, "percent_cover": 0.3357753357753358, "percent_above_0.1m": 0.0, "low_level_<0.5": 0.0, "mid_level_0.5-2": 0.0, "tall_2+": 0.0 }, "geometry": { "type": "Point", "coordinates": [ -2.419156711599848, 53.451015963132384 ] } },
{ "type": "Feature", "properties": { "max_height": 3.1252498626708984, "mean_height": 0.30875673890113831, "std_height": 0.79551953077316284, "count_pixels": 42, "percent_cover": 0.32051282051282048, "percent_above_0.1m": 16.666666666666664, "low_level_<0.5": 0.0, "mid_level_0.5-2": 9.5238095238095237, "tall_2+": 7.1428571428571423 }, "geometry": { "type": "Point", "coordinates": [ -2.418948068738128, 53.451016694997513 ] } },
{ "type": "Feature", "properties": { "max_height": 4.6520004272460938, "mean_height": 1.9013639688491821, "std_height": 0.98162269592285156, "count_pixels": 42, "percent_cover": 0.32051282051282048, "percent_above_0.1m": 100.0, "low_level_<0.5": 2.3809523809523809, "mid_level_0.5-2": 50.0, "tall_2+": 45.238095238095241 }, "geometry": { "type": "Point", "coordinates": [ -2.418739425867519, 53.451017426498659 ] } },
{ "type": "Feature", "properties": { "max_height": 2.290252685546875, "mean_height": 0.54273307323455811, "std_height": 0.75053143501281738, "count_pixels": 42, "percent_cover": 0.32051282051282048, "percent_above_0.1m": 47.619047619047613, "low_level_<0.5": 11.904761904761903, "mid_level_0.5-2": 26.190476190476193, "tall_2+": 9.5238095238095237 }, "geometry": { "type": "Point", "coordinates": [ -2.419888025342833, 53.451121258278576 ] } },
{ "type": "Feature", "properties": { "max_height": 4.1789989471435547, "mean_height": 0.64738184213638306, "std_height": 1.2212083339691162, "count_pixels": 40, "percent_cover": 0.30525030525030528, "percent_above_0.1m": 27.5, "low_level_<0.5": 0.0, "mid_level_0.5-2": 10.0, "tall_2+": 17.5 }, "geometry": { "type": "Point", "coordinates": [ -2.41967938200196, 53.451121991450158 ] } },
{ "type": "Feature", "properties": { "max_height": 0.000751495361328125, "mean_height": -0.00017266803479287773, "std_height": 0.00065809383522719145, "count_pixels": 36, "percent_cover": 0.27472527472527475, "percent_above_0.1m": 0.0, "low_level_<0.5": 0.0, "mid_level_0.5-2": 0.0, "tall_2+": 0.0 }, "geometry": { "type": "Point", "coordinates": [ -2.419470738652193, 53.451122724257736 ] } },
{ "type": "Feature", "properties": { "max_height": 0.001750946044921875, "mean_height": 9.4699862529523671e-05, "std_height": 0.00049908657092601061, "count_pixels": 40, "percent_cover": 0.30525030525030528, "percent_above_0.1m": 0.0, "low_level_<0.5": 0.0, "mid_level_0.5-2": 0.0, "tall_2+": 0.0 }, "geometry": { "type": "Point", "coordinates": [ -2.419262095293536, 53.451123456701346 ] } },
{ "type": "Feature", "properties": { "max_height": 0.000751495361328125, "mean_height": -7.4052812124136835e-05, "std_height": 0.00035446800757199526, "count_pixels": 40, "percent_cover": 0.30525030525030528, "percent_above_0.1m": 0.0, "low_level_<0.5": 0.0, "mid_level_0.5-2": 0.0, "tall_2+": 0.0 }, "geometry": { "type": "Point", "coordinates": [ -2.419053451925993, 53.451124188780973 ] } },
{ "type": "Feature", "properties": { "max_height": 2.1715011596679688, "mean_height": 0.30695942044258118, "std_height": 0.48386654257774353, "count_pixels": 42, "percent_cover": 0.32051282051282048, "percent_above_0.1m": 45.238095238095241, "low_level_<0.5": 16.666666666666664, "mid_level_0.5-2": 21.428571428571427, "tall_2+": 2.3809523809523809 }, "geometry": { "type": "Point", "coordinates": [ -2.418844808549567, 53.451124920496625 ] } },
{ "type": "Feature", "properties": { "max_height": 3.339752197265625, "mean_height": 0.50535821914672852, "std_height": 0.79502767324447632, "count_pixels": 42, "percent_cover": 0.32051282051282048, "percent_above_0.1m": 47.619047619047613, "low_level_<0.5": 14.285714285714285, "mid_level_0.5-2": 23.809523809523807, "tall_2+": 9.5238095238095237 }, "geometry": { "type": "Point", "coordinates": [ -2.419784767221978, 53.451229484464292 ] } },
{ "type": "Feature", "properties": { "max_height": 0.24575042724609375, "mean_height": 0.011745193041861057, "std_height": 0.044084850698709488, "count_pixels": 44, "percent_cover": 0.3357753357753358, "percent_above_0.1m": 4.5454545454545459, "low_level_<0.5": 2.2727272727272729, "mid_level_0.5-2": 0.0, "tall_2+": 0.0 }, "geometry": { "type": "Point", "coordinates": [ -2.419576123366396, 53.451230217486383 ] } },
{ "type": "Feature", "properties": { "max_height": 0.13525199890136719, "mean_height": 0.0028984763193875551, "std_height": 0.020200405269861221, "count_pixels": 44, "percent_cover": 0.3357753357753358, "percent_above_0.1m": 2.2727272727272729, "low_level_<0.5": 0.0, "mid_level_0.5-2": 0.0, "tall_2+": 0.0 }, "geometry": { "type": "Point", "coordinates": [ -2.419367479501919, 53.45123095014452 ] } },
{ "type": "Feature", "properties": { "max_height": 0.00099945068359375, "mean_height": -3.9143997128121555e-05, "std_height": 0.00059111131122335792, "count_pixels": 44, "percent_cover": 0.3357753357753358, "percent_above_0.1m": 0.0, "low_level_<0.5": 0.0, "mid_level_0.5-2": 0.0, "tall_2+": 0.0 }, "geometry": { "type": "Point", "coordinates": [ -2.419158835628552, 53.45123168243866 ] } },
{ "type": "Feature", "properties": { "max_height": 3.552001953125, "mean_height": 0.1435307115316391, "std_height": 0.55805176496505737, "count_pixels": 42, "percent_cover": 0.32051282051282048, "percent_above_0.1m": 19.047619047619047, "low_level_<0.5": 9.5238095238095237, "mid_level_0.5-2": 4.7619047619047619, "tall_2+": 2.3809523809523809 }, "geometry": { "type": "Point", "coordinates": [ -2.418950191746305, 53.451232414368832 ] } },
{ "type": "Feature", "properties": { "max_height": 9.1312522888183594, "mean_height": 1.7516617774963379, "std_height": 2.1714351177215576, "count_pixels": 42, "percent_cover": 0.32051282051282048, "percent_above_0.1m": 64.285714285714292, "low_level_<0.5": 4.7619047619047619, "mid_level_0.5-2": 28.571428571428569, "tall_2+": 30.952380952380953 }, "geometry": { "type": "Point", "coordinates": [ -2.418741547855176, 53.451233145935014 ] } },
{ "type": "Feature", "properties": { "max_height": 2.7065010070800781, "mean_height": 0.64095908403396606, "std_height": 0.76972794532775879, "count_pixels": 42, "percent_cover": 0.32051282051282048, "percent_above_0.1m": 61.904761904761905, "low_level_<0.5": 11.904761904761903, "mid_level_0.5-2": 38.095238095238095, "tall_2+": 7.1428571428571423 }, "geometry": { "type": "Point", "coordinates": [ -2.419890152956705, 53.451336977352646 ] } },
{ "type": "Feature", "properties": { "max_height": 4.2285022735595703, "mean_height": 1.6656135320663452, "std_height": 1.2401158809661865, "count_pixels": 40, "percent_cover": 0.30525030525030528, "percent_above_0.1m": 85.0, "low_level_<0.5": 12.5, "mid_level_0.5-2": 30.0, "tall_2+": 42.5 }, "geometry": { "type": "Point", "coordinates": [ -2.419681508595302, 53.451337710589264 ] } },
{ "type": "Feature", "properties": { "max_height": 4.9737510681152344, "mean_height": 1.1720565557479858, "std_height": 1.2850805521011353, "count_pixels": 36, "percent_cover": 0.27472527472527475, "percent_above_0.1m": 72.222222222222214, "low_level_<0.5": 16.666666666666664, "mid_level_0.5-2": 27.777777777777779, "tall_2+": 27.777777777777779 }, "geometry": { "type": "Point", "coordinates": [ -2.419472864225002, 53.451338443461907 ] } },
{ "type": "Feature", "properties": { "max_height": 7.1772499084472656, "mean_height": 1.1749194860458374, "std_height": 1.9981650114059448, "count_pixels": 40, "percent_cover": 0.30525030525030528, "percent_above_0.1m": 52.5, "low_level_<0.5": 7.5, "mid_level_0.5-2": 20.0, "tall_2+": 20.0 }, "geometry": { "type": "Point", "coordinates": [ -2.419264219845815, 53.45133917597056 ] } },
{ "type": "Feature", "properties": { "max_height": 6.41925048828125, "mean_height": 1.5351383686065674, "std_height": 2.0511291027069092, "count_pixels": 40, "percent_cover": 0.30525030525030528, "percent_above_0.1m": 75.0, "low_level_<0.5": 20.0, "mid_level_0.5-2": 25.0, "tall_2+": 27.5 }, "geometry": { "type": "Point", "coordinates": [ -2.419055575457738, 53.451339908115237 ] } },
{ "type": "Feature", "properties": { "max_height": 4.26300048828125, "mean_height": 0.9251023530960083, "std_height": 0.940898597240448, "count_pixels": 42, "percent_cover": 0.32051282051282048, "percent_above_0.1m": 83.333333333333343, "low_level_<0.5": 23.809523809523807, "mid_level_0.5-2": 40.476190476190474, "tall_2+": 16.666666666666664 }, "geometry": { "type": "Point", "coordinates": [ -2.418846931060783, 53.451340639895953 ] } },
{ "type": "Feature", "properties": { "max_height": 4.1120014190673828, "mean_height": 0.74305462837219238, "std_height": 1.0193889141082764, "count_pixels": 42, "percent_cover": 0.32051282051282048, "percent_above_0.1m": 64.285714285714292, "low_level_<0.5": 23.809523809523807, "mid_level_0.5-2": 21.428571428571427, "tall_2+": 14.285714285714285 }, "geometry": { "type": "Point", "coordinates": [ -2.420204184064457, 53.451443736300085 ] } },
{ "type": "Feature", "properties": { "max_height": 3.8412513732910156, "mean_height": 1.5214178562164307, "std_height": 1.2632615566253662, "count_pixels": 42, "percent_cover": 0.32051282051282048, "percent_above_0.1m": 85.714285714285708, "low_level_<0.5": 9.5238095238095237, "mid_level_0.5-2": 47.619047619047613, "tall_2+": 28.571428571428569 }, "geometry": { "type": "Point", "coordinates": [ -2.419995539206135, 53.451444470115206 ] } },
{ "type": "Feature", "properties": { "max_height": 4.1622505187988281, "mean_height": 1.852786660194397, "std_height": 1.4020967483520508, "count_pixels": 42, "percent_cover": 0.32051282051282048, "percent_above_0.1m": 80.952380952380949, "low_level_<0.5": 4.7619047619047619, "mid_level_0.5-2": 23.809523809523807, "tall_2+": 50.0 }, "geometry": { "type": "Point", "coordinates": [ -2.419786894338912, 53.45144520356633 ] } },
{ "type": "Feature", "properties": { "max_height": 11.088752746582031, "mean_height": 5.2875785827636719, "std_height": 4.2114887237548828, "count_pixels": 42, "percent_cover": 0.32051282051282048, "percent_above_0.1m": 85.714285714285708, "low_level_<0.5": 7.1428571428571423, "mid_level_0.5-2": 11.904761904761903, "tall_2+": 64.285714285714292 }, "geometry": { "type": "Point", "coordinates": [ -2.420309571334426, 53.451551228722337 ] } },
{ "type": "Feature", "properties": { "max_height": 5.8710002899169922, "mean_height": 1.2321078777313232, "std_height": 1.8043164014816284, "count_pixels": 42, "percent_cover": 0.32051282051282048, "percent_above_0.1m": 38.095238095238095, "low_level_<0.5": 2.3809523809523809, "mid_level_0.5-2": 7.1428571428571423, "tall_2+": 28.571428571428569 }, "geometry": { "type": "Point", "coordinates": [ -2.420100925970281, 53.451551962751971 ] } },
{ "type": "Feature", "properties": { "max_height": 9.7192516326904297, "mean_height": 3.2119176387786865, "std_height": 3.3531806468963623, "count_pixels": 42, "percent_cover": 0.32051282051282048, "percent_above_0.1m": 78.571428571428569, "low_level_<0.5": 11.904761904761903, "mid_level_0.5-2": 19.047619047619047, "tall_2+": 45.238095238095241 }, "geometry": { "type": "Point", "coordinates": [ -2.420414959119111, 53.451658721018788 ] } },
{ "type": "Feature", "properties": { "max_height": 0.009250640869140625, "mean_height": 0.00034023466287180781, "std_height": 0.0018428121693432331, "count_pixels": 42, "percent_cover": 0.32051282051282048, "percent_above_0.1m": 0.0, "low_level_<0.5": 0.0, "mid_level_0.5-2": 0.0, "tall_2+": 0.0 }, "geometry": { "type": "Point", "coordinates": [ -2.42020631324915, 53.451659455262941 ] } },
{ "type": "Feature", "properties": { "max_height": 4.7407512664794922, "mean_height": 1.1609829664230347, "std_height": 1.3619393110275269, "count_pixels": 42, "percent_cover": 0.32051282051282048, "percent_above_0.1m": 57.142857142857139, "low_level_<0.5": 4.7619047619047619, "mid_level_0.5-2": 26.190476190476193, "tall_2+": 26.190476190476193 }, "geometry": { "type": "Point", "coordinates": [ -2.419997667370276, 53.451660189143126 ] } },
{ "type": "Feature", "properties": { "max_height": 7.4100017547607422, "mean_height": 3.4168758392333984, "std_height": 2.7479143142700195, "count_pixels": 42, "percent_cover": 0.32051282051282048, "percent_above_0.1m": 90.476190476190482, "low_level_<0.5": 14.285714285714285, "mid_level_0.5-2": 16.666666666666664, "tall_2+": 57.142857142857139 }, "geometry": { "type": "Point", "coordinates": [ -2.420311701042737, 53.451766947648125 ] } },
{ "type": "Feature", "properties": { "max_height": 7.3812522888183594, "mean_height": 1.2427091598510742, "std_height": 1.8878096342086792, "count_pixels": 42, "percent_cover": 0.32051282051282048, "percent_above_0.1m": 57.142857142857139, "low_level_<0.5": 11.904761904761903, "mid_level_0.5-2": 28.571428571428569, "tall_2+": 16.666666666666664 }, "geometry": { "type": "Point", "coordinates": [ -2.42010305465804, 53.451767681742815 ] } },
{ "type": "Feature", "properties": { "max_height": 5.4270000457763672, "mean_height": 1.60723876953125, "std_height": 1.5923488140106201, "count_pixels": 42, "percent_cover": 0.32051282051282048, "percent_above_0.1m": 69.047619047619051, "low_level_<0.5": 4.7619047619047619, "mid_level_0.5-2": 14.285714285714285, "tall_2+": 45.238095238095241 }, "geometry": { "type": "Point", "coordinates": [ -2.419894408264432, 53.451768415473552 ] } },
{ "type": "Feature", "properties": { "max_height": 0.60125160217285156, "mean_height": 0.072971165180206299, "std_height": 0.13996712863445282, "count_pixels": 42, "percent_cover": 0.32051282051282048, "percent_above_0.1m": 21.428571428571427, "low_level_<0.5": 16.666666666666664, "mid_level_0.5-2": 2.3809523809523809, "tall_2+": 0.0 }, "geometry": { "type": "Point", "coordinates": [ -2.420208442460524, 53.451875174216745 ] } }
]
}
