{
"type": "FeatureCollection",
"name": "74d67d4ab32b_visibility",
"crs": { "type": "name", "properties": { "name": "urn:ogc:def:crs:OGC:1.3:CRS84" } },
"features": [
{ "type": "Feature", "properties": { "visible_points": 0, "total_points": 73, "visibility_pct": 0.0 }, "geometry": { "type": "Point", "coordinates": [ -2.376745004100102, 53.5104586141534 ] } },
{ "type": "Feature", "properties": { "visible_points": 0, "total_points": 72, "visibility_pct": 0.0 }, "geometry": { "type": "Point", "coordinates": [ -2.376536070273192, 53.510459272442674 ] } },
{ "type": "Feature", "properties": { "visible_points": 0, "total_points": 69, "visibility_pct": 0.0 }, "geometry": { "type": "Point", "coordinates": [ -2.376327136438185, 53.510459930366963 ] } },
{ "type": "Feature", "properties": { "visible_points": 0, "total_points": 63, "visibility_pct": 0.0 }, "geometry": { "type": "Point", "coordinates": [ -2.37611820259508, 53.510460587926282 ] } },
{ "type": "Feature", "properties": { "visible_points": 0, "total_points": 81, "visibility_pct": 0.0 }, "geometry": { "type": "Point", "coordinates": [ -2.377059361629097, 53.510565483075801 ] } },
{ "type": "Feature", "properties": { "visible_points": 0, "total_points": 84, "visibility_pct": 0.0 }, "geometry": { "type": "Point", "coordinates": [ -2.376850427294325, 53.510566141930283 ] } },
{ "type": "Feature", "properties": { "visible_points": 19, "total_points": 84, "visibility_pct": 22.61904761904762 }, "geometry": { "type": "Point", "coordinates": [ -2.376641492951439, 53.510566800419774 ] } },
{ "type": "Feature", "properties": { "visible_points": 0, "total_points": 81, "visibility_pct": 0.0 }, "geometry": { "type": "Point", "coordinates": [ -2.37643255860046, 53.510567458544315 ] } },
{ "type": "Feature", "properties": { "visible_points": 12, "total_points": 75, "visibility_pct": 16.0 }, "geometry": { "type": "Point", "coordinates": [ -2.376223624241373, 53.51056811630388 ] } },
{ "type": "Feature", "properties": { "visible_points": 0, "total_points": 67, "visibility_pct": 0.0 }, "geometry": { "type": "Point", "coordinates": [ -2.376014689874194, 53.510568773698452 ] } },
{ "type": "Feature", "properties": { "visible_points": 1, "total_points": 85, "visibility_pct": 1.1764705882352942 }, "geometry": { "type": "Point", "coordinates": [ -2.377373720706007, 53.510672351121578 ] } },
{ "type": "Feature", "properties": { "visible_points": 0, "total_points": 89, "visibility_pct": 0.0 }, "geometry": { "type": "Point", "coordinates": [ -2.377164785863371, 53.510673010541296 ] } },
{ "type": "Feature", "properties": { "visible_points": 21, "total_points": 93, "visibility_pct": 22.58064516129032 }, "geometry": { "type": "Point", "coordinates": [ -2.376955851012621, 53.510673669596038 ] } },
{ "type": "Feature", "properties": { "visible_points": 29, "total_points": 96, "visibility_pct": 30.208333333333332 }, "geometry": { "type": "Point", "coordinates": [ -2.376746916153762, 53.510674328285795 ] } },
{ "type": "Feature", "properties": { "visible_points": 35, "total_points": 94, "visibility_pct": 37.234042553191486 }, "geometry": { "type": "Point", "coordinates": [ -2.376537981286795, 53.510674986610582 ] } },
{ "type": "Feature", "properties": { "visible_points": 27, "total_points": 87, "visibility_pct": 31.03448275862069 }, "geometry": { "type": "Point", "coordinates": [ -2.376329046411733, 53.51067564457037 ] } },
{ "type": "Feature", "properties": { "visible_points": 24, "total_points": 78, "visibility_pct": 30.76923076923077 }, "geometry": { "type": "Point", "coordinates": [ -2.376120111528571, 53.51067630216518 ] } },
{ "type": "Feature", "properties": { "visible_points": 0, "total_points": 68, "visibility_pct": 0.0 }, "geometry": { "type": "Point", "coordinates": [ -2.375911176637316, 53.51067695939502 ] } },
{ "type": "Feature", "properties": { "visible_points": 4, "total_points": 58, "visibility_pct": 6.8965517241379306 }, "geometry": { "type": "Point", "coordinates": [ -2.375702241737977, 53.510677616259876 ] } },
{ "type": "Feature", "properties": { "visible_points": 0, "total_points": 84, "visibility_pct": 0.0 }, "geometry": { "type": "Point", "coordinates": [ -2.377897016673189, 53.510778557940831 ] } },
{ "type": "Feature", "properties": { "visible_points": 0, "total_points": 88, "visibility_pct": 0.0 }, "geometry": { "type": "Point", "coordinates": [ -2.377688081330826, 53.510779218290764 ] } },
{ "type": "Feature", "properties": { "visible_points": 0, "total_points": 92, "visibility_pct": 0.0 }, "geometry": { "type": "Point", "coordinates": [ -2.377479145980334, 53.510779878275734 ] } },
{ "type": "Feature", "properties": { "visible_points": 0, "total_points": 97, "visibility_pct": 0.0 }, "geometry": { "type": "Point", "coordinates": [ -2.377270210621725, 53.510780537895705 ] } },
{ "type": "Feature", "properties": { "visible_points": 0, "total_points": 101, "visibility_pct": 0.0 }, "geometry": { "type": "Point", "coordinates": [ -2.377061275254997, 53.510781197150685 ] } },
{ "type": "Feature", "properties": { "visible_points": 36, "total_points": 105, "visibility_pct": 34.285714285714285 }, "geometry": { "type": "Point", "coordinates": [ -2.376852339880159, 53.510781856040701 ] } },
{ "type": "Feature", "properties": { "visible_points": 38, "total_points": 107, "visibility_pct": 35.514018691588781 }, "geometry": { "type": "Point", "coordinates": [ -2.376643404497216, 53.510782514565726 ] } },
{ "type": "Feature", "properties": { "visible_points": 37, "total_points": 99, "visibility_pct": 37.373737373737377 }, "geometry": { "type": "Point", "coordinates": [ -2.376434469106163, 53.510783172725773 ] } },
{ "type": "Feature", "properties": { "visible_points": 35, "total_points": 90, "visibility_pct": 38.888888888888893 }, "geometry": { "type": "Point", "coordinates": [ -2.376225533707014, 53.51078383052085 ] } },
{ "type": "Feature", "properties": { "visible_points": 23, "total_points": 79, "visibility_pct": 29.11392405063291 }, "geometry": { "type": "Point", "coordinates": [ -2.376016598299772, 53.510784487950907 ] } },
{ "type": "Feature", "properties": { "visible_points": 2, "total_points": 68, "visibility_pct": 2.9411764705882351 }, "geometry": { "type": "Point", "coordinates": [ -2.375807662884443, 53.510785145016015 ] } },
{ "type": "Feature", "properties": { "visible_points": 0, "total_points": 83, "visibility_pct": 0.0 }, "geometry": { "type": "Point", "coordinates": [ -2.378420315195829, 53.510884762388045 ] } },
{ "type": "Feature", "properties": { "visible_points": 0, "total_points": 87, "visibility_pct": 0.0 }, "geometry": { "type": "Point", "coordinates": [ -2.378211379353758, 53.510885423668199 ] } },
{ "type": "Feature", "properties": { "visible_points": 1, "total_points": 91, "visibility_pct": 1.098901098901099 }, "geometry": { "type": "Point", "coordinates": [ -2.378002443503554, 53.510886084583376 ] } },
{ "type": "Feature", "properties": { "visible_points": 9, "total_points": 96, "visibility_pct": 9.375 }, "geometry": { "type": "Point", "coordinates": [ -2.377793507645213, 53.510886745133561 ] } },
{ "type": "Feature", "properties": { "visible_points": 0, "total_points": 100, "visibility_pct": 0.0 }, "geometry": { "type": "Point", "coordinates": [ -2.37758457177875, 53.510887405318769 ] } },
{ "type": "Feature", "properties": { "visible_points": 3, "total_points": 104, "visibility_pct": 2.8846153846153846 }, "geometry": { "type": "Point", "coordinates": [ -2.377375635904163, 53.510888065138985 ] } },
{ "type": "Feature", "properties": { "visible_points": 28, "total_points": 107, "visibility_pct": 26.168224299065418 }, "geometry": { "type": "Point", "coordinates": [ -2.377166700021456, 53.510888724594231 ] } },
{ "type": "Feature", "properties": { "visible_points": 37, "total_points": 111, "visibility_pct": 33.333333333333329 }, "geometry": { "type": "Point", "coordinates": [ -2.376957764130636, 53.510889383684493 ] } },
{ "type": "Feature", "properties": { "visible_points": 40, "total_points": 114, "visibility_pct": 35.087719298245609 }, "geometry": { "type": "Point", "coordinates": [ -2.376748828231708, 53.510890042409777 ] } },
{ "type": "Feature", "properties": { "visible_points": 43, "total_points": 112, "visibility_pct": 38.392857142857146 }, "geometry": { "type": "Point", "coordinates": [ -2.376539892324669, 53.510890700770062 ] } },
{ "type": "Feature", "properties": { "visible_points": 41, "total_points": 102, "visibility_pct": 40.196078431372548 }, "geometry": { "type": "Point", "coordinates": [ -2.376330956409537, 53.510891358765377 ] } },
{ "type": "Feature", "properties": { "visible_points": 37, "total_points": 90, "visibility_pct": 41.111111111111107 }, "geometry": { "type": "Point", "coordinates": [ -2.376122020486302, 53.510892016395708 ] } },
{ "type": "Feature", "properties": { "visible_points": 12, "total_points": 77, "visibility_pct": 15.584415584415584 }, "geometry": { "type": "Point", "coordinates": [ -2.375913084554978, 53.510892673661054 ] } },
{ "type": "Feature", "properties": { "visible_points": 2, "total_points": 83, "visibility_pct": 2.4096385542168677 }, "geometry": { "type": "Point", "coordinates": [ -2.378943616273869, 53.510990964463161 ] } },
{ "type": "Feature", "properties": { "visible_points": 0, "total_points": 87, "visibility_pct": 0.0 }, "geometry": { "type": "Point", "coordinates": [ -2.378734679932124, 53.510991626673537 ] } },
{ "type": "Feature", "properties": { "visible_points": 0, "total_points": 91, "visibility_pct": 0.0 }, "geometry": { "type": "Point", "coordinates": [ -2.378525743582226, 53.510992288518935 ] } },
{ "type": "Feature", "properties": { "visible_points": 0, "total_points": 95, "visibility_pct": 0.0 }, "geometry": { "type": "Point", "coordinates": [ -2.37831680722419, 53.510992949999348 ] } },
{ "type": "Feature", "properties": { "visible_points": 11, "total_points": 99, "visibility_pct": 11.111111111111111 }, "geometry": { "type": "Point", "coordinates": [ -2.378107870858014, 53.510993611114792 ] } },
{ "type": "Feature", "properties": { "visible_points": 12, "total_points": 103, "visibility_pct": 11.650485436893204 }, "geometry": { "type": "Point", "coordinates": [ -2.3778989344837, 53.510994271865222 ] } },
{ "type": "Feature", "properties": { "visible_points": 11, "total_points": 106, "visibility_pct": 10.377358490566039 }, "geometry": { "type": "Point", "coordinates": [ -2.377689998101259, 53.510994932250689 ] } },
{ "type": "Feature", "properties": { "visible_points": 0, "total_points": 110, "visibility_pct": 0.0 }, "geometry": { "type": "Point", "coordinates": [ -2.37748106171069, 53.510995592271172 ] } },
{ "type": "Feature", "properties": { "visible_points": 38, "total_points": 113, "visibility_pct": 33.628318584070797 }, "geometry": { "type": "Point", "coordinates": [ -2.377272125312007, 53.510996251926677 ] } },
{ "type": "Feature", "properties": { "visible_points": 47, "total_points": 116, "visibility_pct": 40.517241379310342 }, "geometry": { "type": "Point", "coordinates": [ -2.377063188905204, 53.510996911217177 ] } },
{ "type": "Feature", "properties": { "visible_points": 49, "total_points": 118, "visibility_pct": 41.525423728813557 }, "geometry": { "type": "Point", "coordinates": [ -2.376854252490282, 53.510997570142699 ] } },
{ "type": "Feature", "properties": { "visible_points": 46, "total_points": 117, "visibility_pct": 39.316239316239319 }, "geometry": { "type": "Point", "coordinates": [ -2.376645316067264, 53.510998228703244 ] } },
{ "type": "Feature", "properties": { "visible_points": 44, "total_points": 109, "visibility_pct": 40.366972477064223 }, "geometry": { "type": "Point", "coordinates": [ -2.376436379636133, 53.510998886898818 ] } },
{ "type": "Feature", "properties": { "visible_points": 43, "total_points": 97, "visibility_pct": 44.329896907216494 }, "geometry": { "type": "Point", "coordinates": [ -2.376227443196909, 53.510999544729387 ] } },
{ "type": "Feature", "properties": { "visible_points": 16, "total_points": 84, "visibility_pct": 19.047619047619047 }, "geometry": { "type": "Point", "coordinates": [ -2.376018506749589, 53.511000202194978 ] } },
{ "type": "Feature", "properties": { "visible_points": 1, "total_points": 83, "visibility_pct": 1.2048192771084338 }, "geometry": { "type": "Point", "coordinates": [ -2.379466919907275, 53.511097164166181 ] } },
{ "type": "Feature", "properties": { "visible_points": 3, "total_points": 87, "visibility_pct": 3.4482758620689653 }, "geometry": { "type": "Point", "coordinates": [ -2.379257983065876, 53.511097827306784 ] } },
{ "type": "Feature", "properties": { "visible_points": 0, "total_points": 91, "visibility_pct": 0.0 }, "geometry": { "type": "Point", "coordinates": [ -2.379049046216315, 53.511098490082404 ] } },
{ "type": "Feature", "properties": { "visible_points": 19, "total_points": 94, "visibility_pct": 20.212765957446805 }, "geometry": { "type": "Point", "coordinates": [ -2.378840109358599, 53.511099152493053 ] } },
{ "type": "Feature", "properties": { "visible_points": 18, "total_points": 98, "visibility_pct": 18.367346938775512 }, "geometry": { "type": "Point", "coordinates": [ -2.378631172492735, 53.511099814538717 ] } },
{ "type": "Feature", "properties": { "visible_points": 15, "total_points": 102, "visibility_pct": 14.705882352941178 }, "geometry": { "type": "Point", "coordinates": [ -2.378422235618722, 53.51110047621939 ] } },
{ "type": "Feature", "properties": { "visible_points": 14, "total_points": 105, "visibility_pct": 13.333333333333334 }, "geometry": { "type": "Point", "coordinates": [ -2.378213298736573, 53.511101137535078 ] } },
{ "type": "Feature", "properties": { "visible_points": 12, "total_points": 108, "visibility_pct": 11.111111111111111 }, "geometry": { "type": "Point", "coordinates": [ -2.378004361846284, 53.51110179848579 ] } },
{ "type": "Feature", "properties": { "visible_points": 11, "total_points": 112, "visibility_pct": 9.8214285714285712 }, "geometry": { "type": "Point", "coordinates": [ -2.377795424947864, 53.511102459071516 ] } },
{ "type": "Feature", "properties": { "visible_points": 0, "total_points": 115, "visibility_pct": 0.0 }, "geometry": { "type": "Point", "coordinates": [ -2.377586488041316, 53.511103119292251 ] } },
{ "type": "Feature", "properties": { "visible_points": 0, "total_points": 117, "visibility_pct": 0.0 }, "geometry": { "type": "Point", "coordinates": [ -2.377377551126644, 53.511103779147994 ] } },
{ "type": "Feature", "properties": { "visible_points": 43, "total_points": 119, "visibility_pct": 36.134453781512605 }, "geometry": { "type": "Point", "coordinates": [ -2.377168614203854, 53.511104438638768 ] } },
{ "type": "Feature", "properties": { "visible_points": 52, "total_points": 120, "visibility_pct": 43.333333333333336 }, "geometry": { "type": "Point", "coordinates": [ -2.37695967727295, 53.511105097764542 ] } },
{ "type": "Feature", "properties": { "visible_points": 52, "total_points": 118, "visibility_pct": 44.067796610169488 }, "geometry": { "type": "Point", "coordinates": [ -2.376750740333935, 53.511105756525339 ] } },
{ "type": "Feature", "properties": { "visible_points": 50, "total_points": 111, "visibility_pct": 45.045045045045043 }, "geometry": { "type": "Point", "coordinates": [ -2.376541803386817, 53.511106414921144 ] } },
{ "type": "Feature", "properties": { "visible_points": 45, "total_points": 101, "visibility_pct": 44.554455445544555 }, "geometry": { "type": "Point", "coordinates": [ -2.376332866431596, 53.511107072951965 ] } },
{ "type": "Feature", "properties": { "visible_points": 42, "total_points": 89, "visibility_pct": 47.191011235955052 }, "geometry": { "type": "Point", "coordinates": [ -2.376123929468278, 53.511107730617809 ] } },
{ "type": "Feature", "properties": { "visible_points": 27, "total_points": 76, "visibility_pct": 35.526315789473685 }, "geometry": { "type": "Point", "coordinates": [ -2.375914992496868, 53.511108387918661 ] } },
{ "type": "Feature", "properties": { "visible_points": 2, "total_points": 73, "visibility_pct": 2.7397260273972601 }, "geometry": { "type": "Point", "coordinates": [ -2.380408100753528, 53.511202032260393 ] } },
{ "type": "Feature", "properties": { "visible_points": 9, "total_points": 83, "visibility_pct": 10.843373493975903 }, "geometry": { "type": "Point", "coordinates": [ -2.379990226095999, 53.511203361497046 ] } },
{ "type": "Feature", "properties": { "visible_points": 3, "total_points": 88, "visibility_pct": 3.4090909090909087 }, "geometry": { "type": "Point", "coordinates": [ -2.379781288754966, 53.511204025567892 ] } },
{ "type": "Feature", "properties": { "visible_points": 1, "total_points": 92, "visibility_pct": 1.0869565217391304 }, "geometry": { "type": "Point", "coordinates": [ -2.37957235140577, 53.511204689273747 ] } },
{ "type": "Feature", "properties": { "visible_points": 0, "total_points": 95, "visibility_pct": 0.0 }, "geometry": { "type": "Point", "coordinates": [ -2.379363414048404, 53.511205352614638 ] } },
{ "type": "Feature", "properties": { "visible_points": 5, "total_points": 97, "visibility_pct": 5.1546391752577314 }, "geometry": { "type": "Point", "coordinates": [ -2.379154476682874, 53.511206015590531 ] } },
{ "type": "Feature", "properties": { "visible_points": 23, "total_points": 100, "visibility_pct": 23.0 }, "geometry": { "type": "Point", "coordinates": [ -2.378945539309187, 53.51120667820144 ] } },
{ "type": "Feature", "properties": { "visible_points": 22, "total_points": 102, "visibility_pct": 21.568627450980394 }, "geometry": { "type": "Point", "coordinates": [ -2.378736601927353, 53.511207340447378 ] } },
{ "type": "Feature", "properties": { "visible_points": 15, "total_points": 104, "visibility_pct": 14.423076923076922 }, "geometry": { "type": "Point", "coordinates": [ -2.378527664537368, 53.511208002328317 ] } },
{ "type": "Feature", "properties": { "visible_points": 14, "total_points": 107, "visibility_pct": 13.084112149532709 }, "geometry": { "type": "Point", "coordinates": [ -2.378318727139238, 53.511208663844265 ] } },
{ "type": "Feature", "properties": { "visible_points": 13, "total_points": 111, "visibility_pct": 11.711711711711711 }, "geometry": { "type": "Point", "coordinates": [ -2.378109789732973, 53.511209324995228 ] } },
{ "type": "Feature", "properties": { "visible_points": 0, "total_points": 114, "visibility_pct": 0.0 }, "geometry": { "type": "Point", "coordinates": [ -2.377900852318572, 53.511209985781207 ] } },
{ "type": "Feature", "properties": { "visible_points": 0, "total_points": 117, "visibility_pct": 0.0 }, "geometry": { "type": "Point", "coordinates": [ -2.377691914896038, 53.511210646202208 ] } },
{ "type": "Feature", "properties": { "visible_points": 0, "total_points": 120, "visibility_pct": 0.0 }, "geometry": { "type": "Point", "coordinates": [ -2.377482977465381, 53.511211306258204 ] } },
{ "type": "Feature", "properties": { "visible_points": 38, "total_points": 120, "visibility_pct": 31.666666666666664 }, "geometry": { "type": "Point", "coordinates": [ -2.377274040026605, 53.511211965949236 ] } },
{ "type": "Feature", "properties": { "visible_points": 46, "total_points": 120, "visibility_pct": 38.333333333333336 }, "geometry": { "type": "Point", "coordinates": [ -2.377065102579706, 53.51121262527527 ] } },
{ "type": "Feature", "properties": { "visible_points": 50, "total_points": 119, "visibility_pct": 42.016806722689076 }, "geometry": { "type": "Point", "coordinates": [ -2.376856165124701, 53.51121328423632 ] } },
{ "type": "Feature", "properties": { "visible_points": 46, "total_points": 112, "visibility_pct": 41.071428571428569 }, "geometry": { "type": "Point", "coordinates": [ -2.376647227661586, 53.51121394283237 ] } },
{ "type": "Feature", "properties": { "visible_points": 46, "total_points": 103, "visibility_pct": 44.660194174757287 }, "geometry": { "type": "Point", "coordinates": [ -2.376438290190369, 53.511214601063458 ] } },
{ "type": "Feature", "properties": { "visible_points": 44, "total_points": 92, "visibility_pct": 47.826086956521742 }, "geometry": { "type": "Point", "coordinates": [ -2.37622935271105, 53.511215258929532 ] } },
{ "type": "Feature", "properties": { "visible_points": 29, "total_points": 80, "visibility_pct": 36.25 }, "geometry": { "type": "Point", "coordinates": [ -2.376020415223642, 53.511215916430643 ] } },
{ "type": "Feature", "properties": { "visible_points": 0, "total_points": 80, "visibility_pct": 0.0 }, "geometry": { "type": "Point", "coordinates": [ -2.380513534839989, 53.511309556455757 ] } },
{ "type": "Feature", "properties": { "visible_points": 0, "total_points": 86, "visibility_pct": 0.0 }, "geometry": { "type": "Point", "coordinates": [ -2.380304596999356, 53.511310221456853 ] } },
{ "type": "Feature", "properties": { "visible_points": 7, "total_points": 91, "visibility_pct": 7.6923076923076925 }, "geometry": { "type": "Point", "coordinates": [ -2.380095659150541, 53.511310886092964 ] } },
{ "type": "Feature", "properties": { "visible_points": 0, "total_points": 95, "visibility_pct": 0.0 }, "geometry": { "type": "Point", "coordinates": [ -2.379886721293548, 53.511311550364084 ] } },
{ "type": "Feature", "properties": { "visible_points": 0, "total_points": 100, "visibility_pct": 0.0 }, "geometry": { "type": "Point", "coordinates": [ -2.379677783428382, 53.51131221427022 ] } },
{ "type": "Feature", "properties": { "visible_points": 9, "total_points": 101, "visibility_pct": 8.9108910891089099 }, "geometry": { "type": "Point", "coordinates": [ -2.379468845555049, 53.511312877811363 ] } },
{ "type": "Feature", "properties": { "visible_points": 8, "total_points": 101, "visibility_pct": 7.9207920792079207 }, "geometry": { "type": "Point", "coordinates": [ -2.379259907673551, 53.511313540987544 ] } },
{ "type": "Feature", "properties": { "visible_points": 24, "total_points": 102, "visibility_pct": 23.52941176470588 }, "geometry": { "type": "Point", "coordinates": [ -2.379050969783896, 53.511314203798712 ] } },
{ "type": "Feature", "properties": { "visible_points": 14, "total_points": 103, "visibility_pct": 13.592233009708737 }, "geometry": { "type": "Point", "coordinates": [ -2.378842031886084, 53.511314866244916 ] } },
{ "type": "Feature", "properties": { "visible_points": 5, "total_points": 105, "visibility_pct": 4.7619047619047619 }, "geometry": { "type": "Point", "coordinates": [ -2.378633093980123, 53.511315528326122 ] } },
{ "type": "Feature", "properties": { "visible_points": 0, "total_points": 107, "visibility_pct": 0.0 }, "geometry": { "type": "Point", "coordinates": [ -2.378424156066018, 53.511316190042336 ] } },
{ "type": "Feature", "properties": { "visible_points": 0, "total_points": 110, "visibility_pct": 0.0 }, "geometry": { "type": "Point", "coordinates": [ -2.378215218143767, 53.511316851393566 ] } },
{ "type": "Feature", "properties": { "visible_points": 0, "total_points": 112, "visibility_pct": 0.0 }, "geometry": { "type": "Point", "coordinates": [ -2.378006280213381, 53.511317512379804 ] } },
{ "type": "Feature", "properties": { "visible_points": 1, "total_points": 114, "visibility_pct": 0.8771929824561403 }, "geometry": { "type": "Point", "coordinates": [ -2.377797342274866, 53.511318173001058 ] } },
{ "type": "Feature", "properties": { "visible_points": 1, "total_points": 116, "visibility_pct": 0.86206896551724133 }, "geometry": { "type": "Point", "coordinates": [ -2.37758840432822, 53.511318833257313 ] } },
{ "type": "Feature", "properties": { "visible_points": 26, "total_points": 119, "visibility_pct": 21.84873949579832 }, "geometry": { "type": "Point", "coordinates": [ -2.377379466373454, 53.511319493148612 ] } },
{ "type": "Feature", "properties": { "visible_points": 39, "total_points": 120, "visibility_pct": 32.5 }, "geometry": { "type": "Point", "coordinates": [ -2.377170528410562, 53.511320152674891 ] } },
{ "type": "Feature", "properties": { "visible_points": 43, "total_points": 120, "visibility_pct": 35.833333333333336 }, "geometry": { "type": "Point", "coordinates": [ -2.376961590439562, 53.511320811836185 ] } },
{ "type": "Feature", "properties": { "visible_points": 44, "total_points": 113, "visibility_pct": 38.938053097345133 }, "geometry": { "type": "Point", "coordinates": [ -2.376752652460448, 53.511321470632502 ] } },
{ "type": "Feature", "properties": { "visible_points": 44, "total_points": 105, "visibility_pct": 41.904761904761905 }, "geometry": { "type": "Point", "coordinates": [ -2.376543714473232, 53.511322129063835 ] } },
{ "type": "Feature", "properties": { "visible_points": 43, "total_points": 95, "visibility_pct": 45.263157894736842 }, "geometry": { "type": "Point", "coordinates": [ -2.376334776477911, 53.511322787130155 ] } },
{ "type": "Feature", "properties": { "visible_points": 25, "total_points": 83, "visibility_pct": 30.120481927710845 }, "geometry": { "type": "Point", "coordinates": [ -2.376125838474497, 53.511323444831511 ] } },
{ "type": "Feature", "properties": { "visible_points": 0, "total_points": 73, "visibility_pct": 0.0 }, "geometry": { "type": "Point", "coordinates": [ -2.380827907798996, 53.511416414973624 ] } },
{ "type": "Feature", "properties": { "visible_points": 0, "total_points": 84, "visibility_pct": 0.0 }, "geometry": { "type": "Point", "coordinates": [ -2.380618969450587, 53.511417080539985 ] } },
{ "type": "Feature", "properties": { "visible_points": 0, "total_points": 93, "visibility_pct": 0.0 }, "geometry": { "type": "Point", "coordinates": [ -2.380410031093997, 53.511417745741362 ] } },
{ "type": "Feature", "properties": { "visible_points": 0, "total_points": 98, "visibility_pct": 0.0 }, "geometry": { "type": "Point", "coordinates": [ -2.380201092729214, 53.511418410577754 ] } },
{ "type": "Feature", "properties": { "visible_points": 2, "total_points": 103, "visibility_pct": 1.9417475728155338 }, "geometry": { "type": "Point", "coordinates": [ -2.379992154356258, 53.511419075049147 ] } },
{ "type": "Feature", "properties": { "visible_points": 16, "total_points": 106, "visibility_pct": 15.09433962264151 }, "geometry": { "type": "Point", "coordinates": [ -2.379783215975126, 53.511419739155542 ] } },
{ "type": "Feature", "properties": { "visible_points": 16, "total_points": 105, "visibility_pct": 15.238095238095239 }, "geometry": { "type": "Point", "coordinates": [ -2.379574277585823, 53.511420402896974 ] } },
{ "type": "Feature", "properties": { "visible_points": 20, "total_points": 104, "visibility_pct": 19.230769230769234 }, "geometry": { "type": "Point", "coordinates": [ -2.379365339188353, 53.511421066273421 ] } },
{ "type": "Feature", "properties": { "visible_points": 20, "total_points": 104, "visibility_pct": 19.230769230769234 }, "geometry": { "type": "Point", "coordinates": [ -2.379156400782725, 53.511421729284855 ] } },
{ "type": "Feature", "properties": { "visible_points": 0, "total_points": 103, "visibility_pct": 0.0 }, "geometry": { "type": "Point", "coordinates": [ -2.378947462368935, 53.511422391931312 ] } },
{ "type": "Feature", "properties": { "visible_points": 0, "total_points": 103, "visibility_pct": 0.0 }, "geometry": { "type": "Point", "coordinates": [ -2.378738523946994, 53.511423054212784 ] } },
{ "type": "Feature", "properties": { "visible_points": 0, "total_points": 104, "visibility_pct": 0.0 }, "geometry": { "type": "Point", "coordinates": [ -2.37852958551691, 53.511423716129279 ] } },
{ "type": "Feature", "properties": { "visible_points": 0, "total_points": 104, "visibility_pct": 0.0 }, "geometry": { "type": "Point", "coordinates": [ -2.378320647078675, 53.511424377680754 ] } },
{ "type": "Feature", "properties": { "visible_points": 0, "total_points": 105, "visibility_pct": 0.0 }, "geometry": { "type": "Point", "coordinates": [ -2.378111708632306, 53.51142503886728 ] } },
{ "type": "Feature", "properties": { "visible_points": 1, "total_points": 107, "visibility_pct": 0.93457943925233633 }, "geometry": { "type": "Point", "coordinates": [ -2.377902770177799, 53.511425699688793 ] } },
{ "type": "Feature", "properties": { "visible_points": 0, "total_points": 110, "visibility_pct": 0.0 }, "geometry": { "type": "Point", "coordinates": [ -2.377693831715164, 53.511426360145308 ] } },
{ "type": "Feature", "properties": { "visible_points": 0, "total_points": 113, "visibility_pct": 0.0 }, "geometry": { "type": "Point", "coordinates": [ -2.377484893244404, 53.511427020236852 ] } },
{ "type": "Feature", "properties": { "visible_points": 0, "total_points": 117, "visibility_pct": 0.0 }, "geometry": { "type": "Point", "coordinates": [ -2.37727595476552, 53.51142767996339 ] } },
{ "type": "Feature", "properties": { "visible_points": 38, "total_points": 120, "visibility_pct": 31.666666666666664 }, "geometry": { "type": "Point", "coordinates": [ -2.377067016278521, 53.511428339324958 ] } },
{ "type": "Feature", "properties": { "visible_points": 39, "total_points": 115, "visibility_pct": 33.913043478260867 }, "geometry": { "type": "Point", "coordinates": [ -2.37685807778341, 53.51142899832152 ] } },
{ "type": "Feature", "properties": { "visible_points": 39, "total_points": 107, "visibility_pct": 36.44859813084112 }, "geometry": { "type": "Point", "coordinates": [ -2.376649139280192, 53.511429656953105 ] } },
{ "type": "Feature", "properties": { "visible_points": 39, "total_points": 97, "visibility_pct": 40.206185567010309 }, "geometry": { "type": "Point", "coordinates": [ -2.376440200768867, 53.511430315219684 ] } },
{ "type": "Feature", "properties": { "visible_points": 16, "total_points": 86, "visibility_pct": 18.604651162790699 }, "geometry": { "type": "Point", "coordinates": [ -2.376231262249447, 53.511430973121286 ] } },
{ "type": "Feature", "properties": { "visible_points": 0, "total_points": 61, "visibility_pct": 0.0 }, "geometry": { "type": "Point", "coordinates": [ -2.381142282305867, 53.511523272614824 ] } },
{ "type": "Feature", "properties": { "visible_points": 0, "total_points": 72, "visibility_pct": 0.0 }, "geometry": { "type": "Point", "coordinates": [ -2.380933343449691, 53.51152393874645 ] } },
{ "type": "Feature", "properties": { "visible_points": 0, "total_points": 84, "visibility_pct": 0.0 }, "geometry": { "type": "Point", "coordinates": [ -2.380724404585327, 53.511524604513085 ] } },
{ "type": "Feature", "properties": { "visible_points": 0, "total_points": 96, "visibility_pct": 0.0 }, "geometry": { "type": "Point", "coordinates": [ -2.380515465712773, 53.511525269914742 ] } },
{ "type": "Feature", "properties": { "visible_points": 0, "total_points": 105, "visibility_pct": 0.0 }, "geometry": { "type": "Point", "coordinates": [ -2.380306526832024, 53.511525934951408 ] } },
{ "type": "Feature", "properties": { "visible_points": 1, "total_points": 109, "visibility_pct": 0.91743119266055051 }, "geometry": { "type": "Point", "coordinates": [ -2.380097587943104, 53.511526599623075 ] } },
{ "type": "Feature", "properties": { "visible_points": 16, "total_points": 110, "visibility_pct": 14.545454545454545 }, "geometry": { "type": "Point", "coordinates": [ -2.379888649045998, 53.511527263929757 ] } },
{ "type": "Feature", "properties": { "visible_points": 17, "total_points": 108, "visibility_pct": 15.74074074074074 }, "geometry": { "type": "Point", "coordinates": [ -2.379679710140727, 53.511527927871448 ] } },
{ "type": "Feature", "properties": { "visible_points": 19, "total_points": 105, "visibility_pct": 18.095238095238095 }, "geometry": { "type": "Point", "coordinates": [ -2.379470771227283, 53.511528591448162 ] } },
{ "type": "Feature", "properties": { "visible_points": 17, "total_points": 103, "visibility_pct": 16.50485436893204 }, "geometry": { "type": "Point", "coordinates": [ -2.379261832305677, 53.511529254659884 ] } },
{ "type": "Feature", "properties": { "visible_points": 13, "total_points": 100, "visibility_pct": 13.0 }, "geometry": { "type": "Point", "coordinates": [ -2.37905289337591, 53.511529917506607 ] } },
{ "type": "Feature", "properties": { "visible_points": 0, "total_points": 98, "visibility_pct": 0.0 }, "geometry": { "type": "Point", "coordinates": [ -2.378843954437988, 53.511530579988332 ] } },
{ "type": "Feature", "properties": { "visible_points": 0, "total_points": 97, "visibility_pct": 0.0 }, "geometry": { "type": "Point", "coordinates": [ -2.378635015491919, 53.511531242105086 ] } },
{ "type": "Feature", "properties": { "visible_points": 0, "total_points": 97, "visibility_pct": 0.0 }, "geometry": { "type": "Point", "coordinates": [ -2.378217137575344, 53.511532565243613 ] } },
{ "type": "Feature", "properties": { "visible_points": 0, "total_points": 99, "visibility_pct": 0.0 }, "geometry": { "type": "Point", "coordinates": [ -2.378008198604844, 53.511533226265406 ] } },
{ "type": "Feature", "properties": { "visible_points": 2, "total_points": 102, "visibility_pct": 1.9607843137254901 }, "geometry": { "type": "Point", "coordinates": [ -2.377799259626219, 53.511533886922187 ] } },
{ "type": "Feature", "properties": { "visible_points": 0, "total_points": 106, "visibility_pct": 0.0 }, "geometry": { "type": "Point", "coordinates": [ -2.377590320639464, 53.511534547213998 ] } },
{ "type": "Feature", "properties": { "visible_points": 0, "total_points": 110, "visibility_pct": 0.0 }, "geometry": { "type": "Point", "coordinates": [ -2.377381381644581, 53.511535207140803 ] } },
{ "type": "Feature", "properties": { "visible_points": 29, "total_points": 115, "visibility_pct": 25.217391304347824 }, "geometry": { "type": "Point", "coordinates": [ -2.377172442641584, 53.511535866702602 ] } },
{ "type": "Feature", "properties": { "visible_points": 33, "total_points": 116, "visibility_pct": 28.448275862068968 }, "geometry": { "type": "Point", "coordinates": [ -2.376963503630474, 53.51153652589943 ] } },
{ "type": "Feature", "properties": { "visible_points": 34, "total_points": 109, "visibility_pct": 31.192660550458719 }, "geometry": { "type": "Point", "coordinates": [ -2.376754564611247, 53.511537184731253 ] } },
{ "type": "Feature", "properties": { "visible_points": 35, "total_points": 99, "visibility_pct": 35.353535353535356 }, "geometry": { "type": "Point", "coordinates": [ -2.376545625583917, 53.511537843198106 ] } },
{ "type": "Feature", "properties": { "visible_points": 0, "total_points": 88, "visibility_pct": 0.0 }, "geometry": { "type": "Point", "coordinates": [ -2.376336686548491, 53.511538501299952 ] } },
{ "type": "Feature", "properties": { "visible_points": 0, "total_points": 58, "visibility_pct": 0.0 }, "geometry": { "type": "Point", "coordinates": [ -2.381247718996672, 53.511630796076226 ] } },
{ "type": "Feature", "properties": { "visible_points": 0, "total_points": 70, "visibility_pct": 0.0 }, "geometry": { "type": "Point", "coordinates": [ -2.381038779624541, 53.511631462408133 ] } },
{ "type": "Feature", "properties": { "visible_points": 0, "total_points": 82, "visibility_pct": 0.0 }, "geometry": { "type": "Point", "coordinates": [ -2.380829840244213, 53.511632128375055 ] } },
{ "type": "Feature", "properties": { "visible_points": 0, "total_points": 94, "visibility_pct": 0.0 }, "geometry": { "type": "Point", "coordinates": [ -2.380620900855688, 53.511632793976986 ] } },
{ "type": "Feature", "properties": { "visible_points": 1, "total_points": 107, "visibility_pct": 0.93457943925233633 }, "geometry": { "type": "Point", "coordinates": [ -2.380411961458983, 53.511633459213925 ] } },
{ "type": "Feature", "properties": { "visible_points": 2, "total_points": 113, "visibility_pct": 1.7699115044247788 }, "geometry": { "type": "Point", "coordinates": [ -2.380203022054086, 53.511634124085873 ] } },
{ "type": "Feature", "properties": { "visible_points": 13, "total_points": 112, "visibility_pct": 11.607142857142858 }, "geometry": { "type": "Point", "coordinates": [ -2.379994082641013, 53.51163478859285 ] } },
{ "type": "Feature", "properties": { "visible_points": 17, "total_points": 108, "visibility_pct": 15.74074074074074 }, "geometry": { "type": "Point", "coordinates": [ -2.379785143219763, 53.511635452734808 ] } },
{ "type": "Feature", "properties": { "visible_points": 17, "total_points": 103, "visibility_pct": 16.50485436893204 }, "geometry": { "type": "Point", "coordinates": [ -2.379576203790344, 53.511636116511788 ] } },
{ "type": "Feature", "properties": { "visible_points": 17, "total_points": 98, "visibility_pct": 17.346938775510203 }, "geometry": { "type": "Point", "coordinates": [ -2.379367264352761, 53.511636779923784 ] } },
{ "type": "Feature", "properties": { "visible_points": 0, "total_points": 94, "visibility_pct": 0.0 }, "geometry": { "type": "Point", "coordinates": [ -2.379158324907012, 53.511637442970788 ] } },
{ "type": "Feature", "properties": { "visible_points": 1, "total_points": 91, "visibility_pct": 1.098901098901099 }, "geometry": { "type": "Point", "coordinates": [ -2.378949385453109, 53.511638105652779 ] } },
{ "type": "Feature", "properties": { "visible_points": 1, "total_points": 93, "visibility_pct": 1.0752688172043012 }, "geometry": { "type": "Point", "coordinates": [ -2.377904688061388, 53.511641413587959 ] } },
{ "type": "Feature", "properties": { "visible_points": 1, "total_points": 97, "visibility_pct": 1.0309278350515463 }, "geometry": { "type": "Point", "coordinates": [ -2.377695748558639, 53.511642074080001 ] } },
{ "type": "Feature", "properties": { "visible_points": 1, "total_points": 102, "visibility_pct": 0.98039215686274506 }, "geometry": { "type": "Point", "coordinates": [ -2.377486809047755, 53.511642734207079 ] } },
{ "type": "Feature", "properties": { "visible_points": 7, "total_points": 107, "visibility_pct": 6.5420560747663545 }, "geometry": { "type": "Point", "coordinates": [ -2.377277869528756, 53.511643393969145 ] } },
{ "type": "Feature", "properties": { "visible_points": 27, "total_points": 111, "visibility_pct": 24.324324324324326 }, "geometry": { "type": "Point", "coordinates": [ -2.377068930001641, 53.51164405336624 ] } },
{ "type": "Feature", "properties": { "visible_points": 31, "total_points": 109, "visibility_pct": 28.440366972477065 }, "geometry": { "type": "Point", "coordinates": [ -2.376859990466412, 53.511644712398315 ] } },
{ "type": "Feature", "properties": { "visible_points": 32, "total_points": 101, "visibility_pct": 31.683168316831683 }, "geometry": { "type": "Point", "coordinates": [ -2.376651050923072, 53.51164537106542 ] } },
{ "type": "Feature", "properties": { "visible_points": 0, "total_points": 90, "visibility_pct": 0.0 }, "geometry": { "type": "Point", "coordinates": [ -2.376442111371633, 53.511646029367512 ] } },
{ "type": "Feature", "properties": { "visible_points": 0, "total_points": 78, "visibility_pct": 0.0 }, "geometry": { "type": "Point", "coordinates": [ -2.376233171812091, 53.511646687304626 ] } },
{ "type": "Feature", "properties": { "visible_points": 0, "total_points": 77, "visibility_pct": 0.0 }, "geometry": { "type": "Point", "coordinates": [ -2.380935276427247, 53.51173965212589 ] } },
{ "type": "Feature", "properties": { "visible_points": 0, "total_points": 90, "visibility_pct": 0.0 }, "geometry": { "type": "Point", "coordinates": [ -2.380726336522757, 53.51174031792808 ] } },
{ "type": "Feature", "properties": { "visible_points": 2, "total_points": 102, "visibility_pct": 1.9607843137254901 }, "geometry": { "type": "Point", "coordinates": [ -2.380517396610077, 53.511740983365314 ] } },
{ "type": "Feature", "properties": { "visible_points": 0, "total_points": 109, "visibility_pct": 0.0 }, "geometry": { "type": "Point", "coordinates": [ -2.380308456689215, 53.511741648437535 ] } },
{ "type": "Feature", "properties": { "visible_points": 0, "total_points": 111, "visibility_pct": 0.0 }, "geometry": { "type": "Point", "coordinates": [ -2.380099516760166, 53.511742313144779 ] } },
{ "type": "Feature", "properties": { "visible_points": 13, "total_points": 105, "visibility_pct": 12.380952380952381 }, "geometry": { "type": "Point", "coordinates": [ -2.379890576822939, 53.511742977487025 ] } },
{ "type": "Feature", "properties": { "visible_points": 16, "total_points": 99, "visibility_pct": 16.161616161616163 }, "geometry": { "type": "Point", "coordinates": [ -2.379681636877544, 53.511743641464292 ] } },
{ "type": "Feature", "properties": { "visible_points": 0, "total_points": 92, "visibility_pct": 0.0 }, "geometry": { "type": "Point", "coordinates": [ -2.379472696923979, 53.511744305076547 ] } },
{ "type": "Feature", "properties": { "visible_points": 0, "total_points": 87, "visibility_pct": 0.0 }, "geometry": { "type": "Point", "coordinates": [ -2.379263756962247, 53.511744968323818 ] } },
{ "type": "Feature", "properties": { "visible_points": 0, "total_points": 92, "visibility_pct": 0.0 }, "geometry": { "type": "Point", "coordinates": [ -2.377592236975044, 53.511750261162248 ] } },
{ "type": "Feature", "properties": { "visible_points": 0, "total_points": 98, "visibility_pct": 0.0 }, "geometry": { "type": "Point", "coordinates": [ -2.377383296940042, 53.511750921124573 ] } },
{ "type": "Feature", "properties": { "visible_points": 0, "total_points": 104, "visibility_pct": 0.0 }, "geometry": { "type": "Point", "coordinates": [ -2.377174356896916, 53.511751580721914 ] } },
{ "type": "Feature", "properties": { "visible_points": 25, "total_points": 103, "visibility_pct": 24.271844660194176 }, "geometry": { "type": "Point", "coordinates": [ -2.37696541684568, 53.511752239954269 ] } },
{ "type": "Feature", "properties": { "visible_points": 29, "total_points": 100, "visibility_pct": 28.999999999999996 }, "geometry": { "type": "Point", "coordinates": [ -2.376756476786333, 53.511752898821619 ] } },
{ "type": "Feature", "properties": { "visible_points": 19, "total_points": 92, "visibility_pct": 20.652173913043477 }, "geometry": { "type": "Point", "coordinates": [ -2.376547536718878, 53.511753557323971 ] } },
{ "type": "Feature", "properties": { "visible_points": 0, "total_points": 80, "visibility_pct": 0.0 }, "geometry": { "type": "Point", "coordinates": [ -2.376338596643323, 53.51175421546133 ] } },
{ "type": "Feature", "properties": { "visible_points": 0, "total_points": 81, "visibility_pct": 0.0 }, "geometry": { "type": "Point", "coordinates": [ -2.380831772713977, 53.511847841768059 ] } },
{ "type": "Feature", "properties": { "visible_points": 1, "total_points": 91, "visibility_pct": 1.098901098901099 }, "geometry": { "type": "Point", "coordinates": [ -2.380622832285329, 53.51184850740556 ] } },
{ "type": "Feature", "properties": { "visible_points": 0, "total_points": 98, "visibility_pct": 0.0 }, "geometry": { "type": "Point", "coordinates": [ -2.380413891848486, 53.511849172678083 ] } },
{ "type": "Feature", "properties": { "visible_points": 0, "total_points": 99, "visibility_pct": 0.0 }, "geometry": { "type": "Point", "coordinates": [ -2.380204951403466, 53.511849837585601 ] } },
{ "type": "Feature", "properties": { "visible_points": 0, "total_points": 99, "visibility_pct": 0.0 }, "geometry": { "type": "Point", "coordinates": [ -2.379996010950263, 53.511850502128119 ] } },
{ "type": "Feature", "properties": { "visible_points": 4, "total_points": 94, "visibility_pct": 4.2553191489361701 }, "geometry": { "type": "Point", "coordinates": [ -2.379787070488884, 53.511851166305647 ] } },
{ "type": "Feature", "properties": { "visible_points": 0, "total_points": 87, "visibility_pct": 0.0 }, "geometry": { "type": "Point", "coordinates": [ -2.379578130019334, 53.511851830118182 ] } },
{ "type": "Feature", "properties": { "visible_points": 1, "total_points": 81, "visibility_pct": 1.2345679012345678 }, "geometry": { "type": "Point", "coordinates": [ -2.379369189541624, 53.511852493565733 ] } },
{ "type": "Feature", "properties": { "visible_points": 0, "total_points": 88, "visibility_pct": 0.0 }, "geometry": { "type": "Point", "coordinates": [ -2.377488724875441, 53.511858448168894 ] } },
{ "type": "Feature", "properties": { "visible_points": 0, "total_points": 95, "visibility_pct": 0.0 }, "geometry": { "type": "Point", "coordinates": [ -2.377279784316312, 53.511859107966494 ] } },
{ "type": "Feature", "properties": { "visible_points": 0, "total_points": 96, "visibility_pct": 0.0 }, "geometry": { "type": "Point", "coordinates": [ -2.377070843749065, 53.511859767399109 ] } },
{ "type": "Feature", "properties": { "visible_points": 23, "total_points": 94, "visibility_pct": 24.468085106382979 }, "geometry": { "type": "Point", "coordinates": [ -2.376861903173705, 53.511860426466718 ] } },
{ "type": "Feature", "properties": { "visible_points": 17, "total_points": 90, "visibility_pct": 18.888888888888889 }, "geometry": { "type": "Point", "coordinates": [ -2.376652962590232, 53.511861085169329 ] } },
{ "type": "Feature", "properties": { "visible_points": 10, "total_points": 82, "visibility_pct": 12.195121951219512 }, "geometry": { "type": "Point", "coordinates": [ -2.376444021998663, 53.511861743506941 ] } },
{ "type": "Feature", "properties": { "visible_points": 2, "total_points": 80, "visibility_pct": 2.5 }, "geometry": { "type": "Point", "coordinates": [ -2.380728268484731, 53.511956031334662 ] } },
{ "type": "Feature", "properties": { "visible_points": 0, "total_points": 85, "visibility_pct": 0.0 }, "geometry": { "type": "Point", "coordinates": [ -2.380519327531915, 53.511956696807459 ] } },
{ "type": "Feature", "properties": { "visible_points": 0, "total_points": 87, "visibility_pct": 0.0 }, "geometry": { "type": "Point", "coordinates": [ -2.380310386570915, 53.511957361915265 ] } },
{ "type": "Feature", "properties": { "visible_points": 0, "total_points": 88, "visibility_pct": 0.0 }, "geometry": { "type": "Point", "coordinates": [ -2.380101445601731, 53.511958026658078 ] } },
{ "type": "Feature", "properties": { "visible_points": 0, "total_points": 86, "visibility_pct": 0.0 }, "geometry": { "type": "Point", "coordinates": [ -2.379892504624371, 53.511958691035879 ] } },
{ "type": "Feature", "properties": { "visible_points": 0, "total_points": 81, "visibility_pct": 0.0 }, "geometry": { "type": "Point", "coordinates": [ -2.379683563638834, 53.511959355048695 ] } },
{ "type": "Feature", "properties": { "visible_points": 0, "total_points": 83, "visibility_pct": 0.0 }, "geometry": { "type": "Point", "coordinates": [ -2.377385212259826, 53.511966635099959 ] } },
{ "type": "Feature", "properties": { "visible_points": 0, "total_points": 85, "visibility_pct": 0.0 }, "geometry": { "type": "Point", "coordinates": [ -2.377176271176563, 53.51196729473282 ] } },
{ "type": "Feature", "properties": { "visible_points": 0, "total_points": 84, "visibility_pct": 0.0 }, "geometry": { "type": "Point", "coordinates": [ -2.376967330085187, 53.511967954000696 ] } },
{ "type": "Feature", "properties": { "visible_points": 0, "total_points": 82, "visibility_pct": 0.0 }, "geometry": { "type": "Point", "coordinates": [ -2.376758388985703, 53.511968612903559 ] } },
{ "type": "Feature", "properties": { "visible_points": 2, "total_points": 77, "visibility_pct": 2.5974025974025974 }, "geometry": { "type": "Point", "coordinates": [ -2.37654944787811, 53.511969271441437 ] } },
{ "type": "Feature", "properties": { "visible_points": 1, "total_points": 72, "visibility_pct": 1.3888888888888888 }, "geometry": { "type": "Point", "coordinates": [ -2.380624763739502, 53.512064220825728 ] } },
{ "type": "Feature", "properties": { "visible_points": 0, "total_points": 75, "visibility_pct": 0.0 }, "geometry": { "type": "Point", "coordinates": [ -2.38041582226252, 53.512064886133807 ] } },
{ "type": "Feature", "properties": { "visible_points": 0, "total_points": 76, "visibility_pct": 0.0 }, "geometry": { "type": "Point", "coordinates": [ -2.380206880777353, 53.512065551076901 ] } },
{ "type": "Feature", "properties": { "visible_points": 0, "total_points": 76, "visibility_pct": 0.0 }, "geometry": { "type": "Point", "coordinates": [ -2.379997939284007, 53.512066215654983 ] } },
{ "type": "Feature", "properties": { "visible_points": 0, "total_points": 74, "visibility_pct": 0.0 }, "geometry": { "type": "Point", "coordinates": [ -2.377281699128187, 53.51207482195543 ] } },
{ "type": "Feature", "properties": { "visible_points": 0, "total_points": 74, "visibility_pct": 0.0 }, "geometry": { "type": "Point", "coordinates": [ -2.377072757520795, 53.512075481423565 ] } },
{ "type": "Feature", "properties": { "visible_points": 1, "total_points": 73, "visibility_pct": 1.3698630136986301 }, "geometry": { "type": "Point", "coordinates": [ -2.376863815905287, 53.512076140526695 ] } },
{ "type": "Feature", "properties": { "visible_points": 3, "total_points": 70, "visibility_pct": 4.2857142857142856 }, "geometry": { "type": "Point", "coordinates": [ -2.376654874281674, 53.512076799264825 ] } },
{ "type": "Feature", "properties": { "visible_points": 0, "total_points": 63, "visibility_pct": 0.0 }, "geometry": { "type": "Point", "coordinates": [ -2.380521258478284, 53.512172410241213 ] } },
{ "type": "Feature", "properties": { "visible_points": 0, "total_points": 65, "visibility_pct": 0.0 }, "geometry": { "type": "Point", "coordinates": [ -2.380312316477132, 53.512173075384595 ] } },
{ "type": "Feature", "properties": { "visible_points": 0, "total_points": 65, "visibility_pct": 0.0 }, "geometry": { "type": "Point", "coordinates": [ -2.3801033744678, 53.512173740162957 ] } },
{ "type": "Feature", "properties": { "visible_points": 0, "total_points": 64, "visibility_pct": 0.0 }, "geometry": { "type": "Point", "coordinates": [ -2.377178185480525, 53.512183008735335 ] } },
{ "type": "Feature", "properties": { "visible_points": 0, "total_points": 64, "visibility_pct": 0.0 }, "geometry": { "type": "Point", "coordinates": [ -2.376969243348996, 53.512183668038716 ] } },
{ "type": "Feature", "properties": { "visible_points": 0, "total_points": 62, "visibility_pct": 0.0 }, "geometry": { "type": "Point", "coordinates": [ -2.376760301209359, 53.512184326977113 ] } },
{ "type": "Feature", "properties": { "visible_points": 0, "total_points": 58, "visibility_pct": 0.0 }, "geometry": { "type": "Point", "coordinates": [ -2.376551359061614, 53.512184985550491 ] } },
{ "type": "Feature", "properties": { "visible_points": 0, "total_points": 55, "visibility_pct": 0.0 }, "geometry": { "type": "Point", "coordinates": [ -2.377074671316833, 53.512291195439616 ] } },
{ "type": "Feature", "properties": { "visible_points": 0, "total_points": 54, "visibility_pct": 0.0 }, "geometry": { "type": "Point", "coordinates": [ -2.376865728661167, 53.512291854578265 ] } },
{ "type": "Feature", "properties": { "visible_points": 1, "total_points": 51, "visibility_pct": 1.9607843137254901 }, "geometry": { "type": "Point", "coordinates": [ -2.376656785997395, 53.512292513351923 ] } },
{ "type": "Feature", "properties": { "visible_points": 2, "total_points": 44, "visibility_pct": 4.5454545454545459 }, "geometry": { "type": "Point", "coordinates": [ -2.376762213457297, 53.512400041042234 ] } }
]
}
