{
"type": "FeatureCollection",
"name": "cb5f7deb0afc_foliage",
"crs": { "type": "name", "properties": { "name": "urn:ogc:def:crs:OGC:1.3:CRS84" } },
"features": [
{ "type": "Feature", "properties": { "max_height": 6.8343658447265625, "mean_height": 1.9726784229278564, "std_height": 2.4092931747436523, "count_pixels": 43, "percent_cover": 0.7678571428571429, "percent_above_0.1m": 62.790697674418603, "low_level_<0.5": 6.9767441860465116, "mid_level_0.5-2": 18.604651162790699, "tall_2+": 34.883720930232556 }, "geometry": { "type": "Point", "coordinates": [ -2.256743680172793, 53.498435982820787 ] } },
{ "type": "Feature", "properties": { "max_height": 8.9309234619140625, "mean_height": 2.534273624420166, "std_height": 2.4546139240264893, "count_pixels": 42, "percent_cover": 0.75, "percent_above_0.1m": 73.80952380952381, "low_level_<0.5": 4.7619047619047619, "mid_level_0.5-2": 11.904761904761903, "tall_2+": 52.380952380952387 }, "geometry": { "type": "Point", "coordinates": [ -2.256534797850974, 53.498436427765675 ] } },
{ "type": "Feature", "properties": { "max_height": 3.5213565826416016, "mean_height": 0.58591699600219727, "std_height": 0.72904354333877563, "count_pixels": 43, "percent_cover": 0.7678571428571429, "percent_above_0.1m": 72.093023255813947, "low_level_<0.5": 25.581395348837212, "mid_level_0.5-2": 37.209302325581397, "tall_2+": 4.6511627906976747 }, "geometry": { "type": "Point", "coordinates": [ -2.258310953541551, 53.498540493827754 ] } },
{ "type": "Feature", "properties": { "max_height": 14.170425415039062, "mean_height": 3.2253000736236572, "std_height": 3.7831892967224121, "count_pixels": 41, "percent_cover": 0.73214285714285721, "percent_above_0.1m": 75.609756097560975, "low_level_<0.5": 12.195121951219512, "mid_level_0.5-2": 14.634146341463413, "tall_2+": 43.902439024390247 }, "geometry": { "type": "Point", "coordinates": [ -2.256639891062239, 53.498544065212627 ] } },
{ "type": "Feature", "properties": { "max_height": 10.714504241943359, "mean_height": 2.5860507488250732, "std_height": 2.6261568069458008, "count_pixels": 41, "percent_cover": 0.73214285714285721, "percent_above_0.1m": 95.121951219512198, "low_level_<0.5": 14.634146341463413, "mid_level_0.5-2": 43.902439024390247, "tall_2+": 34.146341463414636 }, "geometry": { "type": "Point", "coordinates": [ -2.258207168024664, 53.498648577454944 ] } },
{ "type": "Feature", "properties": { "max_height": 6.9905014038085938, "mean_height": 1.82466721534729, "std_height": 2.0520279407501221, "count_pixels": 42, "percent_cover": 0.75, "percent_above_0.1m": 83.333333333333343, "low_level_<0.5": 11.904761904761903, "mid_level_0.5-2": 35.714285714285715, "tall_2+": 33.333333333333329 }, "geometry": { "type": "Point", "coordinates": [ -2.257998284721229, 53.498649024991387 ] } },
{ "type": "Feature", "properties": { "max_height": 13.752252578735352, "mean_height": 4.8907504081726074, "std_height": 4.5423078536987305, "count_pixels": 42, "percent_cover": 0.75, "percent_above_0.1m": 90.476190476190482, "low_level_<0.5": 14.285714285714285, "mid_level_0.5-2": 14.285714285714285, "tall_2+": 59.523809523809526 }, "geometry": { "type": "Point", "coordinates": [ -2.257789401412339, 53.49864947216296 ] } },
{ "type": "Feature", "properties": { "max_height": 15.700572967529297, "mean_height": 5.4141173362731934, "std_height": 3.517122745513916, "count_pixels": 43, "percent_cover": 0.7678571428571429, "percent_above_0.1m": 95.348837209302332, "low_level_<0.5": 6.9767441860465116, "mid_level_0.5-2": 4.6511627906976747, "tall_2+": 83.720930232558146 }, "geometry": { "type": "Point", "coordinates": [ -2.257580518097984, 53.49864991896964 ] } },
{ "type": "Feature", "properties": { "max_height": 16.269203186035156, "mean_height": 5.1924376487731934, "std_height": 5.2550997734069824, "count_pixels": 43, "percent_cover": 0.7678571428571429, "percent_above_0.1m": 88.372093023255815, "low_level_<0.5": 4.6511627906976747, "mid_level_0.5-2": 27.906976744186046, "tall_2+": 55.813953488372093 }, "geometry": { "type": "Point", "coordinates": [ -2.257371634778178, 53.498650365411457 ] } },
{ "type": "Feature", "properties": { "max_height": 8.8997135162353516, "mean_height": 3.4360816478729248, "std_height": 3.0120773315429688, "count_pixels": 40, "percent_cover": 0.7142857142857143, "percent_above_0.1m": 85.0, "low_level_<0.5": 7.5, "mid_level_0.5-2": 22.5, "tall_2+": 52.5 }, "geometry": { "type": "Point", "coordinates": [ -2.257162751452924, 53.498650811488368 ] } },
{ "type": "Feature", "properties": { "max_height": 12.107429504394531, "mean_height": 2.4462211132049561, "std_height": 2.9255745410919189, "count_pixels": 43, "percent_cover": 0.7678571428571429, "percent_above_0.1m": 62.790697674418603, "low_level_<0.5": 4.6511627906976747, "mid_level_0.5-2": 13.953488372093023, "tall_2+": 44.186046511627907 }, "geometry": { "type": "Point", "coordinates": [ -2.256953868122224, 53.498651257200407 ] } },
{ "type": "Feature", "properties": { "max_height": 10.402368545532227, "mean_height": 3.5853941440582275, "std_height": 3.7165017127990723, "count_pixels": 43, "percent_cover": 0.7678571428571429, "percent_above_0.1m": 65.116279069767444, "low_level_<0.5": 2.3255813953488373, "mid_level_0.5-2": 16.279069767441861, "tall_2+": 46.511627906976742 }, "geometry": { "type": "Point", "coordinates": [ -2.256744984786085, 53.498651702547576 ] } },
{ "type": "Feature", "properties": { "max_height": 14.008504867553711, "mean_height": 5.9964261054992676, "std_height": 3.7009937763214111, "count_pixels": 43, "percent_cover": 0.7678571428571429, "percent_above_0.1m": 95.348837209302332, "low_level_<0.5": 0.0, "mid_level_0.5-2": 16.279069767441861, "tall_2+": 79.069767441860463 }, "geometry": { "type": "Point", "coordinates": [ -2.258312265811199, 53.498756213269978 ] } },
{ "type": "Feature", "properties": { "max_height": 14.015750885009766, "mean_height": 6.0563406944274902, "std_height": 3.804157018661499, "count_pixels": 42, "percent_cover": 0.75, "percent_above_0.1m": 100.0, "low_level_<0.5": 0.0, "mid_level_0.5-2": 11.904761904761903, "tall_2+": 88.095238095238088 }, "geometry": { "type": "Point", "coordinates": [ -2.258103382000616, 53.498756661007562 ] } },
{ "type": "Feature", "properties": { "max_height": 13.673254013061523, "mean_height": 7.0130319595336914, "std_height": 3.6630101203918457, "count_pixels": 42, "percent_cover": 0.75, "percent_above_0.1m": 100.0, "low_level_<0.5": 4.7619047619047619, "mid_level_0.5-2": 11.904761904761903, "tall_2+": 83.333333333333343 }, "geometry": { "type": "Point", "coordinates": [ -2.257894498184571, 53.498757108380275 ] } },
{ "type": "Feature", "properties": { "max_height": 12.758499145507812, "mean_height": 6.0238924026489258, "std_height": 3.8155438899993896, "count_pixels": 41, "percent_cover": 0.73214285714285721, "percent_above_0.1m": 90.243902439024396, "low_level_<0.5": 2.4390243902439024, "mid_level_0.5-2": 7.3170731707317067, "tall_2+": 80.487804878048792 }, "geometry": { "type": "Point", "coordinates": [ -2.257685614363066, 53.498757555388082 ] } },
{ "type": "Feature", "properties": { "max_height": 16.513751983642578, "mean_height": 7.4398117065429688, "std_height": 4.9573969841003418, "count_pixels": 41, "percent_cover": 0.73214285714285721, "percent_above_0.1m": 87.804878048780495, "low_level_<0.5": 2.4390243902439024, "mid_level_0.5-2": 4.8780487804878048, "tall_2+": 80.487804878048792 }, "geometry": { "type": "Point", "coordinates": [ -2.257476730536099, 53.498758002031025 ] } },
{ "type": "Feature", "properties": { "max_height": 9.7982521057128906, "mean_height": 2.452695369720459, "std_height": 2.6491475105285645, "count_pixels": 40, "percent_cover": 0.7142857142857143, "percent_above_0.1m": 77.5, "low_level_<0.5": 2.5, "mid_level_0.5-2": 35.0, "tall_2+": 40.0 }, "geometry": { "type": "Point", "coordinates": [ -2.257267846703687, 53.49875844830909 ] } },
{ "type": "Feature", "properties": { "max_height": 6.326751708984375, "mean_height": 0.58745133876800537, "std_height": 1.4566036462783813, "count_pixels": 40, "percent_cover": 0.7142857142857143, "percent_above_0.1m": 20.0, "low_level_<0.5": 0.0, "mid_level_0.5-2": 10.0, "tall_2+": 10.0 }, "geometry": { "type": "Point", "coordinates": [ -2.257058962865828, 53.498758894222263 ] } },
{ "type": "Feature", "properties": { "max_height": 13.419754028320312, "mean_height": 1.970325231552124, "std_height": 3.4348955154418945, "count_pixels": 41, "percent_cover": 0.73214285714285721, "percent_above_0.1m": 39.024390243902438, "low_level_<0.5": 0.0, "mid_level_0.5-2": 12.195121951219512, "tall_2+": 24.390243902439025 }, "geometry": { "type": "Point", "coordinates": [ -2.256850079022521, 53.498759339770558 ] } },
{ "type": "Feature", "properties": { "max_height": 11.789752960205078, "mean_height": 5.7504897117614746, "std_height": 3.5920014381408691, "count_pixels": 41, "percent_cover": 0.73214285714285721, "percent_above_0.1m": 92.682926829268297, "low_level_<0.5": 4.8780487804878048, "mid_level_0.5-2": 12.195121951219512, "tall_2+": 75.609756097560975 }, "geometry": { "type": "Point", "coordinates": [ -2.258417364110343, 53.498863848973009 ] } },
{ "type": "Feature", "properties": { "max_height": 16.418752670288086, "mean_height": 9.066868782043457, "std_height": 4.224977970123291, "count_pixels": 41, "percent_cover": 0.73214285714285721, "percent_above_0.1m": 97.560975609756099, "low_level_<0.5": 4.8780487804878048, "mid_level_0.5-2": 2.4390243902439024, "tall_2+": 90.243902439024396 }, "geometry": { "type": "Point", "coordinates": [ -2.258208479792611, 53.498864296911741 ] } },
{ "type": "Feature", "properties": { "max_height": 7.730255126953125, "mean_height": 0.57476359605789185, "std_height": 1.5595585107803345, "count_pixels": 42, "percent_cover": 0.75, "percent_above_0.1m": 23.809523809523807, "low_level_<0.5": 2.3809523809523809, "mid_level_0.5-2": 9.5238095238095237, "tall_2+": 9.5238095238095237 }, "geometry": { "type": "Point", "coordinates": [ -2.257999595469407, 53.498864744485601 ] } },
{ "type": "Feature", "properties": { "max_height": 1.7570037841796875, "mean_height": 0.10125750303268433, "std_height": 0.31642398238182068, "count_pixels": 42, "percent_cover": 0.75, "percent_above_0.1m": 14.285714285714285, "low_level_<0.5": 7.1428571428571423, "mid_level_0.5-2": 7.1428571428571423, "tall_2+": 0.0 }, "geometry": { "type": "Point", "coordinates": [ -2.257790711140748, 53.498865191694556 ] } },
{ "type": "Feature", "properties": { "max_height": 5.0904998779296875, "mean_height": 0.17379769682884216, "std_height": 0.79493618011474609, "count_pixels": 43, "percent_cover": 0.7678571428571429, "percent_above_0.1m": 9.3023255813953494, "low_level_<0.5": 0.0, "mid_level_0.5-2": 4.6511627906976747, "tall_2+": 2.3255813953488373 }, "geometry": { "type": "Point", "coordinates": [ -2.257581826806623, 53.498865638538632 ] } },
{ "type": "Feature", "properties": { "max_height": 0.006999969482421875, "mean_height": 4.7994213673518971e-05, "std_height": 0.0026432434096932411, "count_pixels": 43, "percent_cover": 0.7678571428571429, "percent_above_0.1m": 0.0, "low_level_<0.5": 0.0, "mid_level_0.5-2": 0.0, "tall_2+": 0.0 }, "geometry": { "type": "Point", "coordinates": [ -2.257372942467044, 53.498866085017823 ] } },
{ "type": "Feature", "properties": { "max_height": 1.7180023193359375, "mean_height": 0.054476164281368256, "std_height": 0.26898416876792908, "count_pixels": 40, "percent_cover": 0.7142857142857143, "percent_above_0.1m": 5.0, "low_level_<0.5": 2.5, "mid_level_0.5-2": 2.5, "tall_2+": 0.0 }, "geometry": { "type": "Point", "coordinates": [ -2.257164058122021, 53.498866531132158 ] } },
{ "type": "Feature", "properties": { "max_height": 5.3832511901855469, "mean_height": 0.42975759506225586, "std_height": 1.0657511949539185, "count_pixels": 43, "percent_cover": 0.7678571428571429, "percent_above_0.1m": 27.906976744186046, "low_level_<0.5": 6.9767441860465116, "mid_level_0.5-2": 9.3023255813953494, "tall_2+": 9.3023255813953494 }, "geometry": { "type": "Point", "coordinates": [ -2.256955173771549, 53.498866976881565 ] } },
{ "type": "Feature", "properties": { "max_height": 13.700504302978516, "mean_height": 3.7178685665130615, "std_height": 4.3717432022094727, "count_pixels": 43, "percent_cover": 0.7678571428571429, "percent_above_0.1m": 58.139534883720934, "low_level_<0.5": 2.3255813953488373, "mid_level_0.5-2": 6.9767441860465116, "tall_2+": 46.511627906976742 }, "geometry": { "type": "Point", "coordinates": [ -2.258313578097215, 53.498971932703931 ] } },
{ "type": "Feature", "properties": { "max_height": 8.4140052795410156, "mean_height": 1.7214059829711914, "std_height": 1.9063011407852173, "count_pixels": 42, "percent_cover": 0.75, "percent_above_0.1m": 66.666666666666657, "low_level_<0.5": 2.3809523809523809, "mid_level_0.5-2": 28.571428571428569, "tall_2+": 35.714285714285715 }, "geometry": { "type": "Point", "coordinates": [ -2.258104693266857, 53.498972380478932 ] } },
{ "type": "Feature", "properties": { "max_height": 2.3315048217773438, "mean_height": 0.28235897421836853, "std_height": 0.55553936958312988, "count_pixels": 42, "percent_cover": 0.75, "percent_above_0.1m": 28.571428571428569, "low_level_<0.5": 7.1428571428571423, "mid_level_0.5-2": 19.047619047619047, "tall_2+": 2.3809523809523809 }, "geometry": { "type": "Point", "coordinates": [ -2.257895808431032, 53.498972827889041 ] } },
{ "type": "Feature", "properties": { "max_height": 0.10425186157226562, "mean_height": 0.0068061640486121178, "std_height": 0.021823190152645111, "count_pixels": 41, "percent_cover": 0.73214285714285721, "percent_above_0.1m": 2.4390243902439024, "low_level_<0.5": 0.0, "mid_level_0.5-2": 0.0, "tall_2+": 0.0 }, "geometry": { "type": "Point", "coordinates": [ -2.257686923589748, 53.498973274934251 ] } },
{ "type": "Feature", "properties": { "max_height": 0.0162506103515625, "mean_height": 0.0012819243129342794, "std_height": 0.0037596719339489937, "count_pixels": 41, "percent_cover": 0.73214285714285721, "percent_above_0.1m": 0.0, "low_level_<0.5": 0.0, "mid_level_0.5-2": 0.0, "tall_2+": 0.0 }, "geometry": { "type": "Point", "coordinates": [ -2.25747803874301, 53.498973721614583 ] } },
{ "type": "Feature", "properties": { "max_height": 0.6150054931640625, "mean_height": 0.082251355051994324, "std_height": 0.16756933927536011, "count_pixels": 40, "percent_cover": 0.7142857142857143, "percent_above_0.1m": 17.5, "low_level_<0.5": 12.5, "mid_level_0.5-2": 5.0, "tall_2+": 0.0 }, "geometry": { "type": "Point", "coordinates": [ -2.257269153890817, 53.498974167930029 ] } },
{ "type": "Feature", "properties": { "max_height": 3.6982498168945312, "mean_height": 0.28657683730125427, "std_height": 0.81907826662063599, "count_pixels": 40, "percent_cover": 0.7142857142857143, "percent_above_0.1m": 25.0, "low_level_<0.5": 10.0, "mid_level_0.5-2": 2.5, "tall_2+": 7.5 }, "geometry": { "type": "Point", "coordinates": [ -2.257060269033178, 53.498974613880605 ] } },
{ "type": "Feature", "properties": { "max_height": 7.3552513122558594, "mean_height": 3.9507579803466797, "std_height": 2.6183383464813232, "count_pixels": 41, "percent_cover": 0.73214285714285721, "percent_above_0.1m": 87.804878048780495, "low_level_<0.5": 7.3170731707317067, "mid_level_0.5-2": 9.7560975609756095, "tall_2+": 70.731707317073173 }, "geometry": { "type": "Point", "coordinates": [ -2.256851384170096, 53.498975059466289 ] } },
{ "type": "Feature", "properties": { "max_height": 7.7117500305175781, "mean_height": 3.9246327877044678, "std_height": 2.4796912670135498, "count_pixels": 42, "percent_cover": 0.75, "percent_above_0.1m": 90.476190476190482, "low_level_<0.5": 2.3809523809523809, "mid_level_0.5-2": 14.285714285714285, "tall_2+": 73.80952380952381 }, "geometry": { "type": "Point", "coordinates": [ -2.25800090623393, 53.499080463971531 ] } },
{ "type": "Feature", "properties": { "max_height": 6.7029991149902344, "mean_height": 2.426567554473877, "std_height": 1.9486809968948364, "count_pixels": 42, "percent_cover": 0.75, "percent_above_0.1m": 80.952380952380949, "low_level_<0.5": 7.1428571428571423, "mid_level_0.5-2": 19.047619047619047, "tall_2+": 54.761904761904766 }, "geometry": { "type": "Point", "coordinates": [ -2.257792020885485, 53.499080911217895 ] } },
{ "type": "Feature", "properties": { "max_height": 2.1480026245117188, "mean_height": 0.21655423939228058, "std_height": 0.53743898868560791, "count_pixels": 43, "percent_cover": 0.7678571428571429, "percent_above_0.1m": 16.279069767441861, "low_level_<0.5": 2.3255813953488373, "mid_level_0.5-2": 11.627906976744185, "tall_2+": 2.3255813953488373 }, "geometry": { "type": "Point", "coordinates": [ -2.257583135531577, 53.499081358099374 ] } },
{ "type": "Feature", "properties": { "max_height": 4.3350028991699219, "mean_height": 0.25314748287200928, "std_height": 0.74015301465988159, "count_pixels": 43, "percent_cover": 0.7678571428571429, "percent_above_0.1m": 20.930232558139537, "low_level_<0.5": 6.9767441860465116, "mid_level_0.5-2": 11.627906976744185, "tall_2+": 2.3255813953488373 }, "geometry": { "type": "Point", "coordinates": [ -2.257374250172219, 53.499081804615955 ] } },
{ "type": "Feature", "properties": { "max_height": 3.9500007629394531, "mean_height": 0.4250892698764801, "std_height": 0.91558939218521118, "count_pixels": 40, "percent_cover": 0.7142857142857143, "percent_above_0.1m": 37.5, "low_level_<0.5": 17.5, "mid_level_0.5-2": 7.5, "tall_2+": 10.0 }, "geometry": { "type": "Point", "coordinates": [ -2.257165364807407, 53.499082250767671 ] } },
{ "type": "Feature", "properties": { "max_height": 16.009502410888672, "mean_height": 7.059112548828125, "std_height": 3.9246134757995605, "count_pixels": 43, "percent_cover": 0.7678571428571429, "percent_above_0.1m": 97.674418604651152, "low_level_<0.5": 2.3255813953488373, "mid_level_0.5-2": 9.3023255813953494, "tall_2+": 86.04651162790698 }, "geometry": { "type": "Point", "coordinates": [ -2.256956479437156, 53.499082696554474 ] } },
{ "type": "Feature", "properties": { "max_height": 17.900005340576172, "mean_height": 8.2902116775512695, "std_height": 5.5338230133056641, "count_pixels": 43, "percent_cover": 0.7678571428571429, "percent_above_0.1m": 90.697674418604649, "low_level_<0.5": 2.3255813953488373, "mid_level_0.5-2": 6.9767441860465116, "tall_2+": 79.069767441860463 }, "geometry": { "type": "Point", "coordinates": [ -2.256747594061457, 53.499083141976399 ] } },
{ "type": "Feature", "properties": { "max_height": 14.784500122070312, "mean_height": 4.5213408470153809, "std_height": 4.6846089363098145, "count_pixels": 42, "percent_cover": 0.75, "percent_above_0.1m": 80.952380952380949, "low_level_<0.5": 21.428571428571427, "mid_level_0.5-2": 7.1428571428571423, "tall_2+": 52.380952380952387 }, "geometry": { "type": "Point", "coordinates": [ -2.256538708680328, 53.499083587033439 ] } },
{ "type": "Feature", "properties": { "max_height": 8.7939987182617188, "mean_height": 1.7816324234008789, "std_height": 2.1663434505462646, "count_pixels": 42, "percent_cover": 0.75, "percent_above_0.1m": 80.952380952380949, "low_level_<0.5": 14.285714285714285, "mid_level_0.5-2": 23.809523809523807, "tall_2+": 35.714285714285715 }, "geometry": { "type": "Point", "coordinates": [ -2.257897118693831, 53.499188547389558 ] } },
{ "type": "Feature", "properties": { "max_height": 8.2170028686523438, "mean_height": 4.5562090873718262, "std_height": 1.7930467128753662, "count_pixels": 41, "percent_cover": 0.73214285714285721, "percent_above_0.1m": 100.0, "low_level_<0.5": 0.0, "mid_level_0.5-2": 7.3170731707317067, "tall_2+": 92.682926829268297 }, "geometry": { "type": "Point", "coordinates": [ -2.25768823283276, 53.499188994472163 ] } },
{ "type": "Feature", "properties": { "max_height": 5.7327499389648438, "mean_height": 0.92197138071060181, "std_height": 1.4302407503128052, "count_pixels": 41, "percent_cover": 0.73214285714285721, "percent_above_0.1m": 46.341463414634148, "low_level_<0.5": 4.8780487804878048, "mid_level_0.5-2": 24.390243902439025, "tall_2+": 14.634146341463413 }, "geometry": { "type": "Point", "coordinates": [ -2.257479346966229, 53.499189441189905 ] } },
{ "type": "Feature", "properties": { "max_height": 6.2697525024414062, "mean_height": 1.6430079936981201, "std_height": 2.1144387722015381, "count_pixels": 40, "percent_cover": 0.7142857142857143, "percent_above_0.1m": 47.5, "low_level_<0.5": 5.0, "mid_level_0.5-2": 5.0, "tall_2+": 37.5 }, "geometry": { "type": "Point", "coordinates": [ -2.257270461094245, 53.499189887542741 ] } },
{ "type": "Feature", "properties": { "max_height": 7.9847526550292969, "mean_height": 2.4370522499084473, "std_height": 2.5931727886199951, "count_pixels": 40, "percent_cover": 0.7142857142857143, "percent_above_0.1m": 65.0, "low_level_<0.5": 5.0, "mid_level_0.5-2": 12.5, "tall_2+": 47.5 }, "geometry": { "type": "Point", "coordinates": [ -2.257061575216816, 53.499190333530692 ] } },
{ "type": "Feature", "properties": { "max_height": 16.893253326416016, "mean_height": 9.1364469528198242, "std_height": 1.9183152914047241, "count_pixels": 41, "percent_cover": 0.73214285714285721, "percent_above_0.1m": 100.0, "low_level_<0.5": 0.0, "mid_level_0.5-2": 0.0, "tall_2+": 100.0 }, "geometry": { "type": "Point", "coordinates": [ -2.256852689333949, 53.499190779153764 ] } },
{ "type": "Feature", "properties": { "max_height": 16.516754150390625, "mean_height": 11.574471473693848, "std_height": 2.4697616100311279, "count_pixels": 41, "percent_cover": 0.73214285714285721, "percent_above_0.1m": 100.0, "low_level_<0.5": 0.0, "mid_level_0.5-2": 0.0, "tall_2+": 100.0 }, "geometry": { "type": "Point", "coordinates": [ -2.256643803445629, 53.499191224411938 ] } },
{ "type": "Feature", "properties": { "max_height": 10.586002349853516, "mean_height": 7.4377636909484863, "std_height": 2.0200369358062744, "count_pixels": 42, "percent_cover": 0.75, "percent_above_0.1m": 100.0, "low_level_<0.5": 0.0, "mid_level_0.5-2": 4.7619047619047619, "tall_2+": 95.238095238095227 }, "geometry": { "type": "Point", "coordinates": [ -2.257793330646551, 53.499296630732999 ] } },
{ "type": "Feature", "properties": { "max_height": 8.0137519836425781, "mean_height": 5.2439379692077637, "std_height": 2.1187071800231934, "count_pixels": 43, "percent_cover": 0.7678571428571429, "percent_above_0.1m": 97.674418604651152, "low_level_<0.5": 2.3255813953488373, "mid_level_0.5-2": 6.9767441860465116, "tall_2+": 88.372093023255815 }, "geometry": { "type": "Point", "coordinates": [ -2.257584444272851, 53.499297077651867 ] } }
]
}
