{
"type": "FeatureCollection",
"name": "d68e85c51de2_foliage",
"crs": { "type": "name", "properties": { "name": "urn:ogc:def:crs:OGC:1.3:CRS84" } },
"features": [
{ "type": "Feature", "properties": { "max_height": 3.9532508850097656, "mean_height": 0.66343694925308228, "std_height": 0.99387449026107788, "count_pixels": 43, "percent_cover": 1.2573099415204678, "percent_above_0.1m": 44.186046511627907, "low_level_<0.5": 4.6511627906976747, "mid_level_0.5-2": 25.581395348837212, "tall_2+": 11.627906976744185 }, "geometry": { "type": "Point", "coordinates": [ -2.47747201313854, 53.460523693658821 ] } },
{ "type": "Feature", "properties": { "max_height": 14.425502777099609, "mean_height": 10.260369300842285, "std_height": 3.24432373046875, "count_pixels": 43, "percent_cover": 1.2573099415204678, "percent_above_0.1m": 100.0, "low_level_<0.5": 0.0, "mid_level_0.5-2": 2.3255813953488373, "tall_2+": 97.674418604651152 }, "geometry": { "type": "Point", "coordinates": [ -2.477263325135711, 53.460524527421889 ] } },
{ "type": "Feature", "properties": { "max_height": 2.9689998626708984, "mean_height": 0.98565346002578735, "std_height": 0.95741945505142212, "count_pixels": 41, "percent_cover": 1.198830409356725, "percent_above_0.1m": 70.731707317073173, "low_level_<0.5": 14.634146341463413, "mid_level_0.5-2": 29.268292682926827, "tall_2+": 24.390243902439025 }, "geometry": { "type": "Point", "coordinates": [ -2.477577565531163, 53.460631132273463 ] } },
{ "type": "Feature", "properties": { "max_height": 11.844751358032227, "mean_height": 4.8678851127624512, "std_height": 3.9722979068756104, "count_pixels": 41, "percent_cover": 1.198830409356725, "percent_above_0.1m": 90.243902439024396, "low_level_<0.5": 4.8780487804878048, "mid_level_0.5-2": 14.634146341463413, "tall_2+": 68.292682926829272 }, "geometry": { "type": "Point", "coordinates": [ -2.477368877010478, 53.460631966231169 ] } },
{ "type": "Feature", "properties": { "max_height": 13.54150390625, "mean_height": 3.1617512702941895, "std_height": 3.8764224052429199, "count_pixels": 36, "percent_cover": 1.0526315789473684, "percent_above_0.1m": 58.333333333333336, "low_level_<0.5": 2.7777777777777777, "mid_level_0.5-2": 13.888888888888889, "tall_2+": 41.666666666666671 }, "geometry": { "type": "Point", "coordinates": [ -2.477160188479482, 53.460632799824523 ] } },
{ "type": "Feature", "properties": { "max_height": 10.298749923706055, "mean_height": 5.5707211494445801, "std_height": 3.1642229557037354, "count_pixels": 41, "percent_cover": 1.198830409356725, "percent_above_0.1m": 85.365853658536579, "low_level_<0.5": 0.0, "mid_level_0.5-2": 7.3170731707317067, "tall_2+": 78.048780487804876 }, "geometry": { "type": "Point", "coordinates": [ -2.476951499938182, 53.46063363305354 ] } },
{ "type": "Feature", "properties": { "max_height": 2.85150146484375, "mean_height": 1.0013207197189331, "std_height": 1.024083137512207, "count_pixels": 43, "percent_cover": 1.2573099415204678, "percent_above_0.1m": 72.093023255813947, "low_level_<0.5": 18.604651162790699, "mid_level_0.5-2": 23.255813953488371, "tall_2+": 27.906976744186046 }, "geometry": { "type": "Point", "coordinates": [ -2.477683118451948, 53.460738570782453 ] } },
{ "type": "Feature", "properties": { "max_height": 3.1350021362304688, "mean_height": 1.8530826568603516, "std_height": 1.0143277645111084, "count_pixels": 43, "percent_cover": 1.2573099415204678, "percent_above_0.1m": 95.348837209302332, "low_level_<0.5": 4.6511627906976747, "mid_level_0.5-2": 32.558139534883722, "tall_2+": 55.813953488372093 }, "geometry": { "type": "Point", "coordinates": [ -2.477474429413406, 53.46073940493482 ] } },
{ "type": "Feature", "properties": { "max_height": 3.8857517242431641, "mean_height": 1.3953093290328979, "std_height": 1.4286007881164551, "count_pixels": 43, "percent_cover": 1.2573099415204678, "percent_above_0.1m": 69.767441860465112, "low_level_<0.5": 11.627906976744185, "mid_level_0.5-2": 18.604651162790699, "tall_2+": 37.209302325581397 }, "geometry": { "type": "Point", "coordinates": [ -2.477265740364555, 53.460740238722835 ] } },
{ "type": "Feature", "properties": { "max_height": 7.8417510986328125, "mean_height": 2.3113555908203125, "std_height": 2.1448688507080078, "count_pixels": 43, "percent_cover": 1.2573099415204678, "percent_above_0.1m": 74.418604651162795, "low_level_<0.5": 6.9767441860465116, "mid_level_0.5-2": 16.279069767441861, "tall_2+": 51.162790697674424 }, "geometry": { "type": "Point", "coordinates": [ -2.477057051305394, 53.460741072146497 ] } },
{ "type": "Feature", "properties": { "max_height": 6.4315032958984375, "mean_height": 2.5028557777404785, "std_height": 2.1416981220245361, "count_pixels": 43, "percent_cover": 1.2573099415204678, "percent_above_0.1m": 79.069767441860463, "low_level_<0.5": 9.3023255813953494, "mid_level_0.5-2": 18.604651162790699, "tall_2+": 51.162790697674424 }, "geometry": { "type": "Point", "coordinates": [ -2.476848362235925, 53.460741905205836 ] } },
{ "type": "Feature", "properties": { "max_height": 2.7945003509521484, "mean_height": 0.82464736700057983, "std_height": 0.86178112030029297, "count_pixels": 41, "percent_cover": 1.198830409356725, "percent_above_0.1m": 65.853658536585371, "low_level_<0.5": 12.195121951219512, "mid_level_0.5-2": 39.024390243902438, "tall_2+": 14.634146341463413 }, "geometry": { "type": "Point", "coordinates": [ -2.477788671900903, 53.460846009185779 ] } },
{ "type": "Feature", "properties": { "max_height": 3.9245014190673828, "mean_height": 2.4709949493408203, "std_height": 1.1420831680297852, "count_pixels": 41, "percent_cover": 1.198830409356725, "percent_above_0.1m": 95.121951219512198, "low_level_<0.5": 2.4390243902439024, "mid_level_0.5-2": 17.073170731707318, "tall_2+": 75.609756097560975 }, "geometry": { "type": "Point", "coordinates": [ -2.477579982344505, 53.460846843532806 ] } },
{ "type": "Feature", "properties": { "max_height": 3.9060020446777344, "mean_height": 2.4653246402740479, "std_height": 1.2406107187271118, "count_pixels": 41, "percent_cover": 1.198830409356725, "percent_above_0.1m": 90.243902439024396, "low_level_<0.5": 4.8780487804878048, "mid_level_0.5-2": 9.7560975609756095, "tall_2+": 73.170731707317074 }, "geometry": { "type": "Point", "coordinates": [ -2.477371292777792, 53.460847677515488 ] } },
{ "type": "Feature", "properties": { "max_height": 3.4267520904541016, "mean_height": 0.6867440938949585, "std_height": 0.87346845865249634, "count_pixels": 36, "percent_cover": 1.0526315789473684, "percent_above_0.1m": 55.555555555555557, "low_level_<0.5": 8.3333333333333321, "mid_level_0.5-2": 30.555555555555557, "tall_2+": 11.111111111111111 }, "geometry": { "type": "Point", "coordinates": [ -2.477162603200767, 53.460848511133811 ] } },
{ "type": "Feature", "properties": { "max_height": 4.8964996337890625, "mean_height": 1.5899887084960938, "std_height": 1.8234614133834839, "count_pixels": 41, "percent_cover": 1.198830409356725, "percent_above_0.1m": 51.219512195121951, "low_level_<0.5": 2.4390243902439024, "mid_level_0.5-2": 9.7560975609756095, "tall_2+": 39.024390243902438 }, "geometry": { "type": "Point", "coordinates": [ -2.476953913613436, 53.460849344387782 ] } },
{ "type": "Feature", "properties": { "max_height": 7.3692512512207031, "mean_height": 1.019298791885376, "std_height": 1.3539105653762817, "count_pixels": 42, "percent_cover": 1.2280701754385965, "percent_above_0.1m": 66.666666666666657, "low_level_<0.5": 14.285714285714285, "mid_level_0.5-2": 28.571428571428569, "tall_2+": 21.428571428571427 }, "geometry": { "type": "Point", "coordinates": [ -2.477894225878028, 53.460953447483455 ] } },
{ "type": "Feature", "properties": { "max_height": 0.03350067138671875, "mean_height": 0.0023965169675648212, "std_height": 0.0066721918992698193, "count_pixels": 43, "percent_cover": 1.2573099415204678, "percent_above_0.1m": 0.0, "low_level_<0.5": 0.0, "mid_level_0.5-2": 0.0, "tall_2+": 0.0 }, "geometry": { "type": "Point", "coordinates": [ -2.477685535803774, 53.460954282025142 ] } },
{ "type": "Feature", "properties": { "max_height": 7.1157512664794922, "mean_height": 1.5825651884078979, "std_height": 2.1183514595031738, "count_pixels": 43, "percent_cover": 1.2573099415204678, "percent_above_0.1m": 51.162790697674424, "low_level_<0.5": 2.3255813953488373, "mid_level_0.5-2": 9.3023255813953494, "tall_2+": 34.883720930232556 }, "geometry": { "type": "Point", "coordinates": [ -2.477476845719197, 53.460955116202484 ] } },
{ "type": "Feature", "properties": { "max_height": 7.2122516632080078, "mean_height": 2.3764431476593018, "std_height": 2.7865486145019531, "count_pixels": 43, "percent_cover": 1.2573099415204678, "percent_above_0.1m": 58.139534883720934, "low_level_<0.5": 2.3255813953488373, "mid_level_0.5-2": 13.953488372093023, "tall_2+": 41.860465116279073 }, "geometry": { "type": "Point", "coordinates": [ -2.47726815562431, 53.460955950015467 ] } },
{ "type": "Feature", "properties": { "max_height": 5.5157508850097656, "mean_height": 2.1042163372039795, "std_height": 1.9952462911605835, "count_pixels": 43, "percent_cover": 1.2573099415204678, "percent_above_0.1m": 65.116279069767444, "low_level_<0.5": 9.3023255813953494, "mid_level_0.5-2": 4.6511627906976747, "tall_2+": 51.162790697674424 }, "geometry": { "type": "Point", "coordinates": [ -2.477059465519112, 53.460956783464113 ] } },
{ "type": "Feature", "properties": { "max_height": 11.750001907348633, "mean_height": 2.8804473876953125, "std_height": 3.6530134677886963, "count_pixels": 42, "percent_cover": 1.2280701754385965, "percent_above_0.1m": 57.142857142857139, "low_level_<0.5": 4.7619047619047619, "mid_level_0.5-2": 11.904761904761903, "tall_2+": 40.476190476190474 }, "geometry": { "type": "Point", "coordinates": [ -2.477999780383335, 53.461060885675487 ] } },
{ "type": "Feature", "properties": { "max_height": 11.923500061035156, "mean_height": 4.2598981857299805, "std_height": 4.6757373809814453, "count_pixels": 41, "percent_cover": 1.198830409356725, "percent_above_0.1m": 56.09756097560976, "low_level_<0.5": 0.0, "mid_level_0.5-2": 0.0, "tall_2+": 51.219512195121951 }, "geometry": { "type": "Point", "coordinates": [ -2.477791089791217, 53.461061720411813 ] } },
{ "type": "Feature", "properties": { "max_height": 7.3702526092529297, "mean_height": 1.333372950553894, "std_height": 2.2613213062286377, "count_pixels": 41, "percent_cover": 1.198830409356725, "percent_above_0.1m": 36.585365853658537, "low_level_<0.5": 2.4390243902439024, "mid_level_0.5-2": 7.3170731707317067, "tall_2+": 26.829268292682929 }, "geometry": { "type": "Point", "coordinates": [ -2.477582399188782, 53.46106255478383 ] } },
{ "type": "Feature", "properties": { "max_height": 7.777252197265625, "mean_height": 2.7177696228027344, "std_height": 2.9237332344055176, "count_pixels": 41, "percent_cover": 1.198830409356725, "percent_above_0.1m": 53.658536585365859, "low_level_<0.5": 0.0, "mid_level_0.5-2": 4.8780487804878048, "tall_2+": 48.780487804878049 }, "geometry": { "type": "Point", "coordinates": [ -2.477373708576024, 53.46106338879148 ] } },
{ "type": "Feature", "properties": { "max_height": 0.60500144958496094, "mean_height": 0.02450111135840416, "std_height": 0.10821317881345749, "count_pixels": 36, "percent_cover": 1.0526315789473684, "percent_above_0.1m": 5.5555555555555554, "low_level_<0.5": 2.7777777777777777, "mid_level_0.5-2": 2.7777777777777777, "tall_2+": 0.0 }, "geometry": { "type": "Point", "coordinates": [ -2.477165017952958, 53.461064222434779 ] } },
{ "type": "Feature", "properties": { "max_height": 6.8035011291503906, "mean_height": 2.1952800750732422, "std_height": 2.5250511169433594, "count_pixels": 43, "percent_cover": 1.2573099415204678, "percent_above_0.1m": 58.139534883720934, "low_level_<0.5": 2.3255813953488373, "mid_level_0.5-2": 16.279069767441861, "tall_2+": 39.534883720930232 }, "geometry": { "type": "Point", "coordinates": [ -2.47768795318654, 53.461169993259524 ] } },
{ "type": "Feature", "properties": { "max_height": 7.3854999542236328, "mean_height": 2.6697454452514648, "std_height": 2.6802587509155273, "count_pixels": 43, "percent_cover": 1.2573099415204678, "percent_above_0.1m": 69.767441860465112, "low_level_<0.5": 2.3255813953488373, "mid_level_0.5-2": 16.279069767441861, "tall_2+": 46.511627906976742 }, "geometry": { "type": "Point", "coordinates": [ -2.477479262055917, 53.461170827461842 ] } }
]
}
