{
"type": "FeatureCollection",
"name": "ROCHD_32_walking",
"crs": { "type": "name", "properties": { "name": "urn:ogc:def:crs:OGC:1.3:CRS84" } },
"features": [
{"type":"Feature","properties":{"highway":"footway","name":null,"category":"Footpath (pedestrian only)"},"geometry":{"type":"MultiLineString","coordinates":[[[-2.1636362,53.6163444],[-2.1633731,53.6164331],[-2.1632982,53.6164778],[-2.163217,53.6165263]]]}},
{"type":"Feature","properties":{"highway":"footway","name":null,"category":"Footpath (pedestrian only)"},"geometry":{"type":"MultiLineString","coordinates":[[[-2.1552421,53.6166703],[-2.1551773,53.6166939],[-2.1550801,53.6166584],[-2.1548679,53.6165329],[-2.1548446,53.6165477],[-2.1550861,53.6166873],[-2.1550288,53.6167208],[-2.1549845,53.6167461],[-2.1547992,53.6168283],[-2.1545615,53.6169315]]]}},
{"type":"Feature","properties":{"highway":"footway","name":null,"category":"Footpath (pedestrian only)"},"geometry":{"type":"MultiLineString","coordinates":[[[-2.1596322,53.6160702],[-2.1596967,53.6161123],[-2.1597687,53.6161606],[-2.1599912,53.616317],[-2.1606175,53.6167574],[-2.160636,53.616805],[-2.1605959,53.6168911],[-2.1605001,53.6169009],[-2.1603931,53.6168905],[-2.1603303,53.6168629],[-2.1601209,53.6167065],[-2.1597606,53.6164373],[-2.1594765,53.6162251],[-2.1594165,53.6161822]]]}},
{"type":"Feature","properties":{"highway":"footway","name":null,"category":"Footpath (pedestrian only)"},"geometry":{"type":"MultiLineString","coordinates":[[[-2.1612288,53.6167289],[-2.161136,53.6167144],[-2.1610249,53.6166906],[-2.1609385,53.6166522],[-2.1608212,53.6165478],[-2.1605558,53.616264],[-2.1604261,53.6161221],[-2.1604663,53.6160452],[-2.1604632,53.6159244],[-2.1604354,53.6158621],[-2.1603303,53.6157875],[-2.1601336,53.6157537]]]}},
{"type":"Feature","properties":{"highway":"footway","name":null,"category":"Footpath (pedestrian only)"},"geometry":{"type":"MultiLineString","coordinates":[[[-2.1607194,53.6170376],[-2.1607224,53.6169752],[-2.1607348,53.6167135],[-2.160741,53.6166769],[-2.1607996,53.6166641],[-2.1608675,53.6166531],[-2.1609385,53.6166522]]]}},
{"type":"Feature","properties":{"highway":"footway","name":null,"category":"Footpath (pedestrian only)"},"geometry":{"type":"MultiLineString","coordinates":[[[-2.1569084,53.6185062],[-2.1569823,53.6185428]]]}},
{"type":"Feature","properties":{"highway":"footway","name":null,"category":"Footpath (pedestrian only)"},"geometry":{"type":"MultiLineString","coordinates":[[[-2.1557451,53.6164906],[-2.1558376,53.6164245]]]}},
{"type":"Feature","properties":{"highway":"footway","name":null,"category":"Footpath (pedestrian only)"},"geometry":{"type":"MultiLineString","coordinates":[[[-2.160194,53.6230306],[-2.1599524,53.6230625],[-2.1598086,53.6227386]]]}},
{"type":"Feature","properties":{"highway":"footway","name":null,"category":"Footpath (pedestrian only)"},"geometry":{"type":"MultiLineString","coordinates":[[[-2.1618987,53.6189046],[-2.161927,53.6191555],[-2.1619662,53.6192237],[-2.1620323,53.6192644],[-2.1620984,53.6192978],[-2.1622036,53.619305],[-2.1624044,53.6192919],[-2.1626198,53.6192949],[-2.1627912,53.6193094],[-2.1630262,53.6193689],[-2.1634008,53.6194415],[-2.163577,53.6194662]]]}},
{"type":"Feature","properties":{"highway":"path","name":null,"category":"Shared path"},"geometry":{"type":"MultiLineString","coordinates":[[[-2.1593323,53.6190356],[-2.1592601,53.6189427],[-2.1592958,53.6188801]]]}},
{"type":"Feature","properties":{"highway":"footway","name":null,"category":"Footpath (pedestrian only)"},"geometry":{"type":"MultiLineString","coordinates":[[[-2.1632982,53.6164778],[-2.1632586,53.6164277],[-2.1629516,53.6162946],[-2.1629319,53.6162727]]]}},
{"type":"Feature","properties":{"highway":"footway","name":null,"category":"Footpath (pedestrian only)"},"geometry":{"type":"MultiLineString","coordinates":[[[-2.1636766,53.6193517],[-2.163577,53.6194662],[-2.1633714,53.6196956],[-2.1631633,53.6197203],[-2.1624338,53.6198452],[-2.1620588,53.6198441]]]}},
{"type":"Feature","properties":{"highway":"footway","name":null,"category":"Footpath (pedestrian only)"},"geometry":{"type":"MultiLineString","coordinates":[[[-2.1638071,53.6233204],[-2.1636113,53.6234415],[-2.1635384,53.6235241],[-2.1635052,53.6236302],[-2.1635008,53.6237665],[-2.1635086,53.6239079],[-2.1635096,53.6239276],[-2.1635185,53.623997],[-2.1636002,53.6242958],[-2.163608,53.6243057],[-2.1637593,53.6245001],[-2.163852,53.624584],[-2.163989,53.6247464],[-2.164095,53.6248224],[-2.1642188,53.6248683],[-2.1644109,53.6249102],[-2.1645927,53.6249413],[-2.1646636,53.6249376],[-2.1648022,53.6248791],[-2.1650949,53.6247658],[-2.1652921,53.6247055],[-2.1655694,53.6246325],[-2.1657574,53.6245758],[-2.1658005,53.6245539],[-2.1658868,53.6244753],[-2.1660377,53.6243602],[-2.1661117,53.6242505],[-2.1661178,53.6242122],[-2.1660254,53.6241738],[-2.1659176,53.6240934],[-2.165896,53.624055],[-2.1659913,53.6239631],[-2.1660149,53.6238772],[-2.1659319,53.6237707],[-2.1659114,53.6237444],[-2.1658127,53.6236829],[-2.1658275,53.6236423],[-2.1658723,53.6236116],[-2.1657777,53.6235103],[-2.1657635,53.6234959],[-2.1656896,53.6233259],[-2.1657851,53.6232382],[-2.1659052,53.6231651],[-2.1659669,53.623103],[-2.1660008,53.6230372],[-2.16601,53.6229641],[-2.1659576,53.6228526],[-2.1658159,53.6227558],[-2.1654893,53.6225657],[-2.1650888,53.6223574],[-2.1649717,53.6222715],[-2.1648854,53.6222332],[-2.1647283,53.6221911],[-2.164605,53.6221509],[-2.1645342,53.6220943],[-2.1643863,53.6219938],[-2.1642507,53.6219499],[-2.1641306,53.6219316],[-2.1640311,53.6219248],[-2.1639253,53.6219374],[-2.1637639,53.6218585],[-2.1635852,53.6218275],[-2.1635082,53.621833],[-2.1635113,53.6218896],[-2.1635638,53.6221776],[-2.1634527,53.6225895],[-2.1634004,53.6228563],[-2.1634558,53.6230134],[-2.1636376,53.6231889],[-2.1637454,53.6232839],[-2.1638071,53.6233204]]]}},
{"type":"Feature","properties":{"highway":"footway","name":null,"category":"Footpath (pedestrian only)"},"geometry":{"type":"MultiLineString","coordinates":[[[-2.1634081,53.6216275],[-2.1635082,53.621833]]]}},
{"type":"Feature","properties":{"highway":"footway","name":null,"category":"Footpath (pedestrian only)"},"geometry":{"type":"MultiLineString","coordinates":[[[-2.1607055,53.6158315],[-2.1606763,53.6158094],[-2.1606574,53.6157965],[-2.160647,53.615716]]]}},
{"type":"Feature","properties":{"highway":"footway","name":"The Walk","category":"Footpath (pedestrian only)"},"geometry":{"type":"MultiLineString","coordinates":[[[-2.1577609,53.6170726],[-2.1578479,53.6171139],[-2.1585289,53.6173253]]]}},
{"type":"Feature","properties":{"highway":"footway","name":"Stationer's Entry","category":"Footpath (pedestrian only)"},"geometry":{"type":"MultiLineString","coordinates":[[[-2.1574484,53.6172264],[-2.1575224,53.6172302],[-2.157595,53.6172339],[-2.158056,53.6173139]]]}},
{"type":"Feature","properties":{"highway":"footway","name":null,"category":"Footpath (pedestrian only)"},"geometry":{"type":"MultiLineString","coordinates":[[[-2.1583756,53.6173946],[-2.1584506,53.6174098]]]}},
{"type":"Feature","properties":{"highway":"footway","name":"Stationer's Entry","category":"Footpath (pedestrian only)"},"geometry":{"type":"MultiLineString","coordinates":[[[-2.158056,53.6173139],[-2.1583756,53.6173946]]]}},
{"type":"Feature","properties":{"highway":"footway","name":"The Butts Avenue","category":"Footpath (pedestrian only)"},"geometry":{"type":"MultiLineString","coordinates":[[[-2.1580777,53.6174543],[-2.1582257,53.6175338]]]}},
{"type":"Feature","properties":{"highway":"footway","name":null,"category":"Footpath (pedestrian only)"},"geometry":{"type":"MultiLineString","coordinates":[[[-2.1582257,53.6175338],[-2.1582849,53.6175689]]]}},
{"type":"Feature","properties":{"highway":"footway","name":"Bull Brow","category":"Footpath (pedestrian only)"},"geometry":{"type":"MultiLineString","coordinates":[[[-2.157703,53.6174472],[-2.1577108,53.6174718]]]}},
{"type":"Feature","properties":{"highway":"footway","name":"Bull Brow","category":"Footpath (pedestrian only)"},"geometry":{"type":"MultiLineString","coordinates":[[[-2.1577108,53.6174718],[-2.1577503,53.6175982]]]}},
{"type":"Feature","properties":{"highway":"footway","name":"Bull Brow","category":"Footpath (pedestrian only)"},"geometry":{"type":"MultiLineString","coordinates":[[[-2.1577503,53.6175982],[-2.157767,53.6176413]]]}},
{"type":"Feature","properties":{"highway":"footway","name":"Miall Street underpass","category":"Footpath (pedestrian only)"},"geometry":{"type":"MultiLineString","coordinates":[[[-2.1533279,53.6098403],[-2.1534855,53.609944]]]}},
{"type":"Feature","properties":{"highway":"footway","name":null,"category":"Footpath (pedestrian only)"},"geometry":{"type":"MultiLineString","coordinates":[[[-2.1553028,53.6171731],[-2.1549372,53.6169136],[-2.1547992,53.6168283],[-2.1546678,53.6167005],[-2.1546213,53.6166502],[-2.1545392,53.61656],[-2.1542256,53.6163688],[-2.1542385,53.6163237],[-2.1542866,53.6162738]]]}},
{"type":"Feature","properties":{"highway":"footway","name":null,"category":"Footpath (pedestrian only)"},"geometry":{"type":"MultiLineString","coordinates":[[[-2.159739,53.6166816],[-2.159238,53.6169276],[-2.1589324,53.6170829],[-2.1587959,53.6171386],[-2.158567,53.6171606]]]}},
{"type":"Feature","properties":{"highway":"footway","name":null,"category":"Footpath (pedestrian only)"},"geometry":{"type":"MultiLineString","coordinates":[[[-2.1559074,53.617183],[-2.1560586,53.6171609]]]}},
{"type":"Feature","properties":{"highway":"footway","name":null,"category":"Footpath (pedestrian only)"},"geometry":{"type":"MultiLineString","coordinates":[[[-2.1547521,53.6105506],[-2.1547392,53.6106106],[-2.1548326,53.6108026],[-2.1549478,53.6110392]]]}},
{"type":"Feature","properties":{"highway":"footway","name":null,"category":"Footpath (pedestrian only)"},"geometry":{"type":"MultiLineString","coordinates":[[[-2.1545532,53.6108516],[-2.1548326,53.6108026],[-2.1551113,53.6107491]]]}},
{"type":"Feature","properties":{"highway":"footway","name":null,"category":"Footpath (pedestrian only)"},"geometry":{"type":"MultiLineString","coordinates":[[[-2.1543534,53.6107809],[-2.1542645,53.6105673]]]}},
{"type":"Feature","properties":{"highway":"footway","name":null,"category":"Footpath (pedestrian only)"},"geometry":{"type":"MultiLineString","coordinates":[[[-2.1545245,53.6112606],[-2.1545376,53.6112996]]]}},
{"type":"Feature","properties":{"highway":"footway","name":null,"category":"Footpath (pedestrian only)"},"geometry":{"type":"MultiLineString","coordinates":[[[-2.1545376,53.6112996],[-2.1546329,53.6112846]]]}},
{"type":"Feature","properties":{"highway":"footway","name":null,"category":"Footpath (pedestrian only)"},"geometry":{"type":"MultiLineString","coordinates":[[[-2.1546329,53.6112846],[-2.1546538,53.6112477],[-2.1546507,53.6111636],[-2.154702,53.611069]]]}},
{"type":"Feature","properties":{"highway":"footway","name":"Miall Street underpass","category":"Footpath (pedestrian only)"},"geometry":{"type":"MultiLineString","coordinates":[[[-2.1540027,53.6102844],[-2.1540544,53.6103942]]]}},
{"type":"Feature","properties":{"highway":"footway","name":"Miall Street underpass","category":"Footpath (pedestrian only)"},"geometry":{"type":"MultiLineString","coordinates":[[[-2.1535845,53.6100091],[-2.1540027,53.6102844]]]}},
{"type":"Feature","properties":{"highway":"footway","name":null,"category":"Footpath (pedestrian only)"},"geometry":{"type":"MultiLineString","coordinates":[[[-2.159673,53.6133665],[-2.1600478,53.6133922]]]}},
{"type":"Feature","properties":{"highway":"footway","name":null,"category":"Footpath (pedestrian only)"},"geometry":{"type":"MultiLineString","coordinates":[[[-2.1601851,53.6133896],[-2.1605573,53.6134159]]]}},
{"type":"Feature","properties":{"highway":"footway","name":null,"category":"Footpath (pedestrian only)"},"geometry":{"type":"MultiLineString","coordinates":[[[-2.1613333,53.6130936],[-2.1613836,53.613166],[-2.1613997,53.613228]]]}},
{"type":"Feature","properties":{"highway":"footway","name":null,"category":"Footpath (pedestrian only)"},"geometry":{"type":"MultiLineString","coordinates":[[[-2.1601101,53.6134341],[-2.1601339,53.613433],[-2.1601557,53.6134271],[-2.1601727,53.6134171],[-2.1601829,53.6134043],[-2.1601851,53.6133896],[-2.1601787,53.6133759],[-2.1601649,53.6133643],[-2.1601452,53.6133563],[-2.1601223,53.6133528],[-2.1600985,53.613354],[-2.1600769,53.6133601],[-2.16006,53.6133702],[-2.1600527,53.6133783],[-2.1600478,53.6133922],[-2.1600512,53.6134062],[-2.1600625,53.6134187],[-2.1600803,53.6134281],[-2.1601101,53.6134341]]]}},
{"type":"Feature","properties":{"highway":"path","name":null,"category":"Shared path"},"geometry":{"type":"MultiLineString","coordinates":[[[-2.1586405,53.6166696],[-2.1586532,53.6166515],[-2.1587465,53.6165768]]]}},
{"type":"Feature","properties":{"highway":"footway","name":null,"category":"Footpath (pedestrian only)"},"geometry":{"type":"MultiLineString","coordinates":[[[-2.1639253,53.6219374],[-2.1639469,53.6219619],[-2.1639979,53.6220765]]]}},
{"type":"Feature","properties":{"highway":"footway","name":null,"category":"Footpath (pedestrian only)"},"geometry":{"type":"MultiLineString","coordinates":[[[-2.1639253,53.6219374],[-2.1638138,53.6221747],[-2.1635638,53.6221776]]]}},
{"type":"Feature","properties":{"highway":"footway","name":null,"category":"Footpath (pedestrian only)"},"geometry":{"type":"MultiLineString","coordinates":[[[-2.1580392,53.6155003],[-2.1580153,53.6154646],[-2.1578995,53.6153388],[-2.1578432,53.6153531],[-2.1577654,53.6152545],[-2.1578888,53.6152242],[-2.1579639,53.6153197],[-2.1578995,53.6153388]]]}},
{"type":"Feature","properties":{"highway":"footway","name":null,"category":"Footpath (pedestrian only)"},"geometry":{"type":"MultiLineString","coordinates":[[[-2.157577,53.6155867],[-2.1575025,53.6153833]]]}},
{"type":"Feature","properties":{"highway":"footway","name":null,"category":"Footpath (pedestrian only)"},"geometry":{"type":"MultiLineString","coordinates":[[[-2.1572531,53.6149315],[-2.1572643,53.6148533],[-2.1573233,53.6146589],[-2.1574462,53.6144144]]]}},
{"type":"Feature","properties":{"highway":"footway","name":null,"category":"Footpath (pedestrian only)"},"geometry":{"type":"MultiLineString","coordinates":[[[-2.1568588,53.6146864],[-2.156942,53.6147135],[-2.1570546,53.6148026],[-2.1571592,53.6148837],[-2.1572531,53.6149315]]]}},
{"type":"Feature","properties":{"highway":"footway","name":null,"category":"Footpath (pedestrian only)"},"geometry":{"type":"MultiLineString","coordinates":[[[-2.1577091,53.6143618],[-2.1578369,53.6145915]]]}},
{"type":"Feature","properties":{"highway":"footway","name":null,"category":"Footpath (pedestrian only)"},"geometry":{"type":"MultiLineString","coordinates":[[[-2.1577091,53.6143618],[-2.1578432,53.6144462],[-2.158001,53.614537]]]}},
{"type":"Feature","properties":{"highway":"footway","name":null,"category":"Footpath (pedestrian only)"},"geometry":{"type":"MultiLineString","coordinates":[[[-2.1566493,53.6156922],[-2.1566431,53.6156567],[-2.1570466,53.615369]]]}},
{"type":"Feature","properties":{"highway":"footway","name":null,"category":"Footpath (pedestrian only)"},"geometry":{"type":"MultiLineString","coordinates":[[[-2.1571275,53.6156392],[-2.1570908,53.6155731],[-2.1570949,53.6155451],[-2.1572301,53.6154507]]]}},
{"type":"Feature","properties":{"highway":"path","name":null,"category":"Shared path"},"geometry":{"type":"MultiLineString","coordinates":[[[-2.1620719,53.621268],[-2.1620718,53.621172]]]}},
{"type":"Feature","properties":{"highway":"path","name":null,"category":"Shared path"},"geometry":{"type":"MultiLineString","coordinates":[[[-2.1622881,53.6212212],[-2.1622928,53.62131],[-2.1623485,53.6213092],[-2.1623606,53.6213124],[-2.1623713,53.6213184],[-2.1623774,53.6213286]]]}},
{"type":"Feature","properties":{"highway":"path","name":"Halfpenny Bridge","category":"Shared path"},"geometry":{"type":"MultiLineString","coordinates":[[[-2.1507672,53.6107566],[-2.1504452,53.6108973]]]}},
{"type":"Feature","properties":{"highway":"path","name":null,"category":"Shared path"},"geometry":{"type":"MultiLineString","coordinates":[[[-2.1504452,53.6108973],[-2.1500665,53.6110558],[-2.1499577,53.6110849]]]}},
{"type":"Feature","properties":{"highway":"footway","name":null,"category":"Footpath (pedestrian only)"},"geometry":{"type":"MultiLineString","coordinates":[[[-2.151351,53.6130168],[-2.15136,53.6129589],[-2.1507199,53.6121692],[-2.1498945,53.611172],[-2.1493043,53.6104676],[-2.1491733,53.610438],[-2.1491104,53.6103752]]]}},
{"type":"Feature","properties":{"highway":"footway","name":null,"category":"Footpath (pedestrian only)"},"geometry":{"type":"MultiLineString","coordinates":[[[-2.1569783,53.6187198],[-2.1568885,53.6186703]]]}},
{"type":"Feature","properties":{"highway":"footway","name":null,"category":"Footpath (pedestrian only)"},"geometry":{"type":"MultiLineString","coordinates":[[[-2.1568885,53.6186703],[-2.1568286,53.6186366]]]}},
{"type":"Feature","properties":{"highway":"footway","name":null,"category":"Footpath (pedestrian only)"},"geometry":{"type":"MultiLineString","coordinates":[[[-2.1571401,53.6188779],[-2.1570821,53.6187997],[-2.1569783,53.6187198]]]}},
{"type":"Feature","properties":{"highway":"path","name":null,"category":"Shared path"},"geometry":{"type":"MultiLineString","coordinates":[[[-2.145708,53.6194858],[-2.1456646,53.6194313],[-2.1455667,53.6193205]]]}},
{"type":"Feature","properties":{"highway":"footway","name":null,"category":"Footpath (pedestrian only)"},"geometry":{"type":"MultiLineString","coordinates":[[[-2.153901,53.6107081],[-2.1538966,53.6106694],[-2.1538863,53.6106286],[-2.1539556,53.610619],[-2.1539222,53.6105789],[-2.1538983,53.6105442],[-2.1539597,53.6105011],[-2.154001,53.6104453],[-2.1540544,53.6103942]]]}},
{"type":"Feature","properties":{"highway":"footway","name":null,"category":"Footpath (pedestrian only)"},"geometry":{"type":"MultiLineString","coordinates":[[[-2.1541692,53.6104301],[-2.1542815,53.6104659],[-2.1542654,53.6105197],[-2.1542645,53.6105673],[-2.1542221,53.6106028]]]}},
{"type":"Feature","properties":{"highway":"footway","name":null,"category":"Footpath (pedestrian only)"},"geometry":{"type":"MultiLineString","coordinates":[[[-2.155067,53.6173582],[-2.1548624,53.6173814],[-2.1548142,53.6173851],[-2.1546534,53.6173973],[-2.1545687,53.6173836]]]}},
{"type":"Feature","properties":{"highway":"footway","name":null,"category":"Footpath (pedestrian only)"},"geometry":{"type":"MultiLineString","coordinates":[[[-2.1536176,53.6178664],[-2.1537341,53.6181526],[-2.1536549,53.6181622],[-2.1537936,53.6184772]]]}},
{"type":"Feature","properties":{"highway":"footway","name":null,"category":"Footpath (pedestrian only)"},"geometry":{"type":"MultiLineString","coordinates":[[[-2.1584965,53.6141791],[-2.1583802,53.6139562]]]}},
{"type":"Feature","properties":{"highway":"footway","name":null,"category":"Footpath (pedestrian only)"},"geometry":{"type":"MultiLineString","coordinates":[[[-2.1618751,53.61399],[-2.1619648,53.6140182],[-2.1620426,53.6140826],[-2.162056,53.6142059],[-2.1620499,53.6142217],[-2.1620265,53.6142823],[-2.1619406,53.6143197],[-2.1618977,53.6143388]]]}},
{"type":"Feature","properties":{"highway":"footway","name":null,"category":"Footpath (pedestrian only)"},"geometry":{"type":"MultiLineString","coordinates":[[[-2.1618977,53.6143388],[-2.1618186,53.614264],[-2.1618515,53.6141915]]]}},
{"type":"Feature","properties":{"highway":"footway","name":null,"category":"Footpath (pedestrian only)"},"geometry":{"type":"MultiLineString","coordinates":[[[-2.1618977,53.6143388],[-2.1619559,53.6144159],[-2.1619842,53.614503],[-2.1619417,53.6145744],[-2.1617506,53.614651],[-2.16147,53.6147266],[-2.1609622,53.6148633],[-2.1607921,53.6149091],[-2.1605724,53.6149683],[-2.1603096,53.6151065],[-2.1600535,53.6151885],[-2.1597903,53.6152303],[-2.159718,53.6152418],[-2.1597204,53.6153021],[-2.1598196,53.615354],[-2.1599574,53.6153699],[-2.1601021,53.6153499],[-2.160206,53.6152965],[-2.1604292,53.6151183],[-2.1605298,53.6150522],[-2.1605724,53.6149683]]]}},
{"type":"Feature","properties":{"highway":"footway","name":null,"category":"Footpath (pedestrian only)"},"geometry":{"type":"MultiLineString","coordinates":[[[-2.1605724,53.6149683],[-2.1605369,53.6148705],[-2.1605546,53.6148338],[-2.16062,53.6148149],[-2.1606731,53.6148317],[-2.1607598,53.6148737],[-2.1607921,53.6149091],[-2.1608058,53.6149745]]]}},
{"type":"Feature","properties":{"highway":"footway","name":null,"category":"Footpath (pedestrian only)"},"geometry":{"type":"MultiLineString","coordinates":[[[-2.1607598,53.6148737],[-2.1607227,53.6147992],[-2.1606798,53.6146997],[-2.1606918,53.6146456]]]}},
{"type":"Feature","properties":{"highway":"footway","name":null,"category":"Footpath (pedestrian only)"},"geometry":{"type":"MultiLineString","coordinates":[[[-2.1609622,53.6148633],[-2.1609154,53.6148124],[-2.1609369,53.6147612],[-2.1609662,53.6147082],[-2.1610756,53.6146433],[-2.1612266,53.6146132],[-2.1617026,53.6145154],[-2.1617657,53.6144834],[-2.1617869,53.6142725],[-2.1618186,53.614264]]]}},
{"type":"Feature","properties":{"highway":"footway","name":null,"category":"Footpath (pedestrian only)"},"geometry":{"type":"MultiLineString","coordinates":[[[-2.1619417,53.6145744],[-2.1619198,53.6146556],[-2.1618473,53.6147469],[-2.1615535,53.6148403],[-2.1612067,53.6149348],[-2.1610775,53.614938],[-2.1609622,53.6148633]]]}},
{"type":"Feature","properties":{"highway":"footway","name":null,"category":"Footpath (pedestrian only)"},"geometry":{"type":"MultiLineString","coordinates":[[[-2.1619842,53.614503],[-2.1622082,53.6145077],[-2.1623554,53.6144398],[-2.1625468,53.6143678],[-2.1626706,53.6142861],[-2.1627577,53.6141963],[-2.162839,53.6140849],[-2.162909,53.6137812],[-2.1629096,53.613682]]]}},
{"type":"Feature","properties":{"highway":"footway","name":null,"category":"Footpath (pedestrian only)"},"geometry":{"type":"MultiLineString","coordinates":[[[-2.1622083,53.6147716],[-2.1627916,53.6142384]]]}},
{"type":"Feature","properties":{"highway":"footway","name":null,"category":"Footpath (pedestrian only)"},"geometry":{"type":"MultiLineString","coordinates":[[[-2.1627916,53.6142384],[-2.162839,53.6140849]]]}},
{"type":"Feature","properties":{"highway":"footway","name":null,"category":"Footpath (pedestrian only)"},"geometry":{"type":"MultiLineString","coordinates":[[[-2.1635845,53.611583],[-2.163527,53.6116053],[-2.1635036,53.6116953],[-2.1634137,53.6120018],[-2.1632858,53.612438],[-2.1631662,53.61264],[-2.1630534,53.6127948],[-2.1629096,53.613682]]]}},
{"type":"Feature","properties":{"highway":"footway","name":null,"category":"Footpath (pedestrian only)"},"geometry":{"type":"MultiLineString","coordinates":[[[-2.1635036,53.6116953],[-2.1632061,53.611478],[-2.16301,53.6114947]]]}},
{"type":"Feature","properties":{"highway":"footway","name":null,"category":"Footpath (pedestrian only)"},"geometry":{"type":"MultiLineString","coordinates":[[[-2.1611425,53.6130627],[-2.1611078,53.613004],[-2.1611063,53.6129492],[-2.1611526,53.6129091]]]}},
{"type":"Feature","properties":{"highway":"footway","name":"Robinson Street","category":"Footpath (pedestrian only)"},"geometry":{"type":"MultiLineString","coordinates":[[[-2.1532338,53.6159946],[-2.153174,53.6159381],[-2.153104,53.6159314],[-2.1523049,53.6160104]]]}},
{"type":"Feature","properties":{"highway":"path","name":null,"category":"Shared path"},"geometry":{"type":"MultiLineString","coordinates":[[[-2.1502738,53.6138312],[-2.1500934,53.6136842]]]}},
{"type":"Feature","properties":{"highway":"path","name":null,"category":"Shared path"},"geometry":{"type":"MultiLineString","coordinates":[[[-2.1701527,53.6147351],[-2.1699771,53.6146247]]]}},
{"type":"Feature","properties":{"highway":"path","name":null,"category":"Shared path"},"geometry":{"type":"MultiLineString","coordinates":[[[-2.1703906,53.6148713],[-2.17027,53.6148043],[-2.1701527,53.6147351]]]}},
{"type":"Feature","properties":{"highway":"path","name":null,"category":"Shared path"},"geometry":{"type":"MultiLineString","coordinates":[[[-2.1699771,53.6146247],[-2.1699269,53.6145907]]]}},
{"type":"Feature","properties":{"highway":"path","name":null,"category":"Shared path"},"geometry":{"type":"MultiLineString","coordinates":[[[-2.1699269,53.6145907],[-2.1698865,53.6145668]]]}},
{"type":"Feature","properties":{"highway":"path","name":null,"category":"Shared path"},"geometry":{"type":"MultiLineString","coordinates":[[[-2.1702064,53.6140683],[-2.1703073,53.6139358],[-2.1704932,53.6137352],[-2.1707463,53.6133397],[-2.1708881,53.613174],[-2.1711986,53.6128307],[-2.1712635,53.6128143]]]}},
{"type":"Feature","properties":{"highway":"path","name":null,"category":"Shared path"},"geometry":{"type":"MultiLineString","coordinates":[[[-2.1701659,53.6141254],[-2.1700587,53.6140792],[-2.1700318,53.6140426],[-2.1700173,53.614023],[-2.170006,53.6139634],[-2.1700046,53.6139067],[-2.170065,53.6137392],[-2.1700805,53.6136513],[-2.1700861,53.6135725],[-2.1700889,53.6135329],[-2.1700573,53.6134996],[-2.1699737,53.6134312],[-2.1698845,53.6133466],[-2.1698241,53.6132896],[-2.1697482,53.6132029],[-2.1697068,53.613132],[-2.1696829,53.6130808],[-2.1696822,53.6130033],[-2.1697026,53.6128933],[-2.1697251,53.6127416],[-2.1696951,53.6126757]]]}},
{"type":"Feature","properties":{"highway":"path","name":null,"category":"Shared path"},"geometry":{"type":"MultiLineString","coordinates":[[[-2.1700318,53.6140426],[-2.1685351,53.6135751],[-2.1684906,53.6135524]]]}},
{"type":"Feature","properties":{"highway":"path","name":null,"category":"Shared path"},"geometry":{"type":"MultiLineString","coordinates":[[[-2.1684906,53.6135524],[-2.1684119,53.6135114],[-2.1682828,53.613398]]]}},
{"type":"Feature","properties":{"highway":"path","name":null,"category":"Shared path"},"geometry":{"type":"MultiLineString","coordinates":[[[-2.1646363,53.608286],[-2.1646887,53.6082953],[-2.1647995,53.6083248]]]}},
{"type":"Feature","properties":{"highway":"path","name":null,"category":"Shared path"},"geometry":{"type":"MultiLineString","coordinates":[[[-2.1651475,53.6089272],[-2.1652575,53.60892],[-2.1653701,53.6089126],[-2.1654733,53.608893],[-2.1655532,53.6088646],[-2.1656277,53.608821],[-2.1657491,53.6087383],[-2.1659067,53.6086189],[-2.1659993,53.6085557],[-2.1660792,53.6085241],[-2.1661729,53.6085052],[-2.1662623,53.6084989],[-2.1663464,53.6085039],[-2.1664454,53.6085179],[-2.1666051,53.6085406],[-2.1670012,53.6086284],[-2.1673494,53.6087301],[-2.1675825,53.6088229],[-2.1678572,53.6089689],[-2.1679826,53.6090229],[-2.1680372,53.6090465],[-2.1681319,53.609068],[-2.1682501,53.6090781],[-2.168397,53.6090756],[-2.1685695,53.6090541],[-2.1687495,53.6090175],[-2.1689177,53.608955],[-2.1690625,53.6088829],[-2.1691871,53.6087895],[-2.1694852,53.6084945]]]}},
{"type":"Feature","properties":{"highway":"path","name":null,"category":"Shared path"},"geometry":{"type":"MultiLineString","coordinates":[[[-2.1650382,53.6170437],[-2.1651532,53.6169285]]]}},
{"type":"Feature","properties":{"highway":"path","name":null,"category":"Shared path"},"geometry":{"type":"MultiLineString","coordinates":[[[-2.1651532,53.6169285],[-2.1652768,53.6168928]]]}},
{"type":"Feature","properties":{"highway":"footway","name":null,"category":"Footpath (pedestrian only)"},"geometry":{"type":"MultiLineString","coordinates":[[[-2.1513809,53.6177678],[-2.1513074,53.6177938],[-2.1513367,53.6178253],[-2.1512717,53.6178513],[-2.1511708,53.6178874],[-2.1511515,53.6178795],[-2.1510979,53.61786],[-2.1510606,53.6178465],[-2.1510233,53.6178609],[-2.1508971,53.6178197],[-2.1507904,53.617802]]]}},
{"type":"Feature","properties":{"highway":"footway","name":null,"category":"Footpath (pedestrian only)"},"geometry":{"type":"MultiLineString","coordinates":[[[-2.1511708,53.6178874],[-2.1511703,53.6179034],[-2.1511907,53.6179466]]]}},
{"type":"Feature","properties":{"highway":"footway","name":null,"category":"Footpath (pedestrian only)"},"geometry":{"type":"MultiLineString","coordinates":[[[-2.1514719,53.6180303],[-2.1516158,53.6179706],[-2.15168,53.6179391]]]}},
{"type":"Feature","properties":{"highway":"path","name":null,"category":"Shared path"},"geometry":{"type":"MultiLineString","coordinates":[[[-2.1552059,53.6090632],[-2.1551299,53.609095]]]}},
{"type":"Feature","properties":{"highway":"path","name":null,"category":"Shared path"},"geometry":{"type":"MultiLineString","coordinates":[[[-2.1574485,53.6166524],[-2.1575222,53.6167803]]]}},
{"type":"Feature","properties":{"highway":"path","name":null,"category":"Shared path"},"geometry":{"type":"MultiLineString","coordinates":[[[-2.1589331,53.6153339],[-2.1589996,53.6152649]]]}},
{"type":"Feature","properties":{"highway":"path","name":null,"category":"Shared path"},"geometry":{"type":"MultiLineString","coordinates":[[[-2.1590045,53.6152261],[-2.1589972,53.6151746],[-2.1589446,53.6151445],[-2.1588044,53.6150518],[-2.1587449,53.6149853],[-2.1586892,53.6148959],[-2.1581858,53.6148814],[-2.1579699,53.6150035],[-2.1573528,53.6151121]]]}},
{"type":"Feature","properties":{"highway":"path","name":null,"category":"Shared path"},"geometry":{"type":"MultiLineString","coordinates":[[[-2.1557727,53.6153387],[-2.1557605,53.6153046]]]}},
{"type":"Feature","properties":{"highway":"path","name":null,"category":"Shared path"},"geometry":{"type":"MultiLineString","coordinates":[[[-2.1557389,53.6152315],[-2.1556809,53.6151988]]]}},
{"type":"Feature","properties":{"highway":"path","name":null,"category":"Shared path"},"geometry":{"type":"MultiLineString","coordinates":[[[-2.1568588,53.6146864],[-2.1567547,53.61466]]]}},
{"type":"Feature","properties":{"highway":"path","name":null,"category":"Shared path"},"geometry":{"type":"MultiLineString","coordinates":[[[-2.1574462,53.6144144],[-2.157399,53.6143729]]]}},
{"type":"Feature","properties":{"highway":"path","name":null,"category":"Shared path"},"geometry":{"type":"MultiLineString","coordinates":[[[-2.1577091,53.6143618],[-2.1576447,53.6142952]]]}},
{"type":"Feature","properties":{"highway":"path","name":null,"category":"Shared path"},"geometry":{"type":"MultiLineString","coordinates":[[[-2.1618515,53.6141915],[-2.1620499,53.6142217]]]}},
{"type":"Feature","properties":{"highway":"path","name":null,"category":"Shared path"},"geometry":{"type":"MultiLineString","coordinates":[[[-2.1618972,53.6149138],[-2.1619857,53.6150327],[-2.162515,53.6148942],[-2.1626611,53.6149199]]]}},
{"type":"Feature","properties":{"highway":"path","name":null,"category":"Shared path"},"geometry":{"type":"MultiLineString","coordinates":[[[-2.1626611,53.6149199],[-2.163108,53.6149991]]]}},
{"type":"Feature","properties":{"highway":"path","name":null,"category":"Shared path"},"geometry":{"type":"MultiLineString","coordinates":[[[-2.163108,53.6149991],[-2.1632632,53.6150343],[-2.163325,53.6150131]]]}},
{"type":"Feature","properties":{"highway":"path","name":null,"category":"Shared path"},"geometry":{"type":"MultiLineString","coordinates":[[[-2.1632632,53.6150343],[-2.1633661,53.6150681],[-2.1634222,53.6150915],[-2.1635903,53.6150579]]]}},
{"type":"Feature","properties":{"highway":"path","name":null,"category":"Shared path"},"geometry":{"type":"MultiLineString","coordinates":[[[-2.1639044,53.6104217],[-2.1637392,53.6102863],[-2.16344,53.6100764],[-2.1632203,53.6101149],[-2.1631771,53.6102083],[-2.1628035,53.6102822],[-2.1625271,53.6102413],[-2.1625086,53.6102386],[-2.1619572,53.6103292]]]}},
{"type":"Feature","properties":{"highway":"path","name":null,"category":"Shared path"},"geometry":{"type":"MultiLineString","coordinates":[[[-2.1572301,53.6154507],[-2.1573858,53.6153299],[-2.157458,53.6153027]]]}},
{"type":"Feature","properties":{"highway":"path","name":null,"category":"Shared path"},"geometry":{"type":"MultiLineString","coordinates":[[[-2.1570466,53.615369],[-2.1572617,53.6152225],[-2.1573216,53.6151855],[-2.1573833,53.6151673]]]}},
{"type":"Feature","properties":{"highway":"path","name":null,"category":"Shared path"},"geometry":{"type":"MultiLineString","coordinates":[[[-2.1582174,53.6139673],[-2.1580435,53.6139201],[-2.1580239,53.6137848],[-2.1580142,53.6135749],[-2.1579569,53.613553],[-2.1579456,53.6133953],[-2.1579208,53.6133944],[-2.1579163,53.613306],[-2.1579313,53.6133038],[-2.1579336,53.6131716],[-2.1580601,53.613164],[-2.1580383,53.6129237],[-2.15796,53.6129067],[-2.1579524,53.6128259],[-2.1579856,53.6128232],[-2.1579788,53.6127665],[-2.1575527,53.612737],[-2.1574736,53.6125248],[-2.1573487,53.6123888]]]}},
{"type":"Feature","properties":{"highway":"path","name":null,"category":"Shared path"},"geometry":{"type":"MultiLineString","coordinates":[[[-2.1579569,53.613553],[-2.1577137,53.6135502],[-2.1576396,53.6134974],[-2.1573262,53.6135013]]]}},
{"type":"Feature","properties":{"highway":"path","name":null,"category":"Shared path"},"geometry":{"type":"MultiLineString","coordinates":[[[-2.1542866,53.6162738],[-2.1543534,53.6161576]]]}},
{"type":"Feature","properties":{"highway":"path","name":null,"category":"Shared path"},"geometry":{"type":"MultiLineString","coordinates":[[[-2.1542366,53.6160317],[-2.1542255,53.6160091],[-2.1542348,53.615997],[-2.1542926,53.6159728]]]}},
{"type":"Feature","properties":{"highway":"path","name":null,"category":"Shared path"},"geometry":{"type":"MultiLineString","coordinates":[[[-2.1550861,53.6166873],[-2.1551216,53.6167005]]]}},
{"type":"Feature","properties":{"highway":"path","name":null,"category":"Shared path"},"geometry":{"type":"MultiLineString","coordinates":[[[-2.1552158,53.6167186],[-2.1552488,53.6167171],[-2.1552831,53.6166965]]]}},
{"type":"Feature","properties":{"highway":"path","name":null,"category":"Shared path"},"geometry":{"type":"MultiLineString","coordinates":[[[-2.1555665,53.6169252],[-2.1554498,53.6169731]]]}},
{"type":"Feature","properties":{"highway":"path","name":null,"category":"Shared path"},"geometry":{"type":"MultiLineString","coordinates":[[[-2.15464,53.6152588],[-2.1544263,53.6153587],[-2.1544044,53.615369]]]}},
{"type":"Feature","properties":{"highway":"path","name":null,"category":"Shared path"},"geometry":{"type":"MultiLineString","coordinates":[[[-2.1636362,53.6163444],[-2.163747,53.6163769],[-2.1639119,53.6162497]]]}},
{"type":"Feature","properties":{"highway":"footway","name":null,"category":"Footpath (pedestrian only)"},"geometry":{"type":"MultiLineString","coordinates":[[[-2.155473,53.612916],[-2.1554209,53.6128896],[-2.155377,53.612923]]]}},
{"type":"Feature","properties":{"highway":"footway","name":null,"category":"Footpath (pedestrian only)"},"geometry":{"type":"MultiLineString","coordinates":[[[-2.155377,53.612923],[-2.1553232,53.6129018],[-2.1552841,53.6128829],[-2.1552449,53.6128639],[-2.1551895,53.6128374]]]}},
{"type":"Feature","properties":{"highway":"footway","name":null,"category":"Footpath (pedestrian only)"},"geometry":{"type":"MultiLineString","coordinates":[[[-2.1548508,53.6129661],[-2.1549287,53.6129464],[-2.1549217,53.6128924],[-2.1549734,53.6128788]]]}},
{"type":"Feature","properties":{"highway":"footway","name":null,"category":"Footpath (pedestrian only)"},"geometry":{"type":"MultiLineString","coordinates":[[[-2.1548172,53.6132477],[-2.1547408,53.6132081],[-2.1547822,53.6131746],[-2.1547499,53.6131593],[-2.1547086,53.6131399]]]}},
{"type":"Feature","properties":{"highway":"path","name":null,"category":"Shared path"},"geometry":{"type":"MultiLineString","coordinates":[[[-2.1621107,53.6084001],[-2.1622452,53.6086498],[-2.16233,53.6088074]]]}},
{"type":"Feature","properties":{"highway":"path","name":null,"category":"Shared path"},"geometry":{"type":"MultiLineString","coordinates":[[[-2.1628636,53.6097355],[-2.1627407,53.609757],[-2.1627395,53.6097699],[-2.1625606,53.6099024],[-2.1625563,53.6099063],[-2.1624818,53.6099728],[-2.1624521,53.6100278],[-2.1624531,53.6100696],[-2.1625271,53.6102413]]]}},
{"type":"Feature","properties":{"highway":"path","name":null,"category":"Shared path"},"geometry":{"type":"MultiLineString","coordinates":[[[-2.1627407,53.609757],[-2.1627284,53.609735],[-2.1624065,53.6091283]]]}},
{"type":"Feature","properties":{"highway":"path","name":null,"category":"Shared path"},"geometry":{"type":"MultiLineString","coordinates":[[[-2.1627284,53.609735],[-2.1626185,53.6097068],[-2.162468,53.6097333],[-2.1624292,53.6096708],[-2.1622251,53.609589],[-2.1621811,53.6095121],[-2.1621205,53.6094841],[-2.1621187,53.6094806],[-2.1619733,53.60921]]]}},
{"type":"Feature","properties":{"highway":"path","name":null,"category":"Shared path"},"geometry":{"type":"MultiLineString","coordinates":[[[-2.1621187,53.6094806],[-2.1615641,53.6095872],[-2.1615482,53.6096053],[-2.1613934,53.6096318],[-2.1613821,53.6096434]]]}},
{"type":"Feature","properties":{"highway":"path","name":null,"category":"Shared path"},"geometry":{"type":"MultiLineString","coordinates":[[[-2.162468,53.6097333],[-2.162513,53.6098216],[-2.1625563,53.6099063]]]}},
{"type":"Feature","properties":{"highway":"path","name":null,"category":"Shared path"},"geometry":{"type":"MultiLineString","coordinates":[[[-2.162513,53.6098216],[-2.1619844,53.6099144]]]}},
{"type":"Feature","properties":{"highway":"path","name":null,"category":"Shared path"},"geometry":{"type":"MultiLineString","coordinates":[[[-2.1631771,53.6102083],[-2.1632907,53.610424]]]}},
{"type":"Feature","properties":{"highway":"path","name":null,"category":"Shared path"},"geometry":{"type":"MultiLineString","coordinates":[[[-2.1658183,53.6196624],[-2.1657779,53.6197366],[-2.1657412,53.6197966]]]}},
{"type":"Feature","properties":{"highway":"path","name":null,"category":"Shared path"},"geometry":{"type":"MultiLineString","coordinates":[[[-2.1647172,53.6194989],[-2.1646569,53.6195852]]]}},
{"type":"Feature","properties":{"highway":"path","name":null,"category":"Shared path"},"geometry":{"type":"MultiLineString","coordinates":[[[-2.1670572,53.6198986],[-2.1669678,53.6200496]]]}},
{"type":"Feature","properties":{"highway":"path","name":null,"category":"Shared path"},"geometry":{"type":"MultiLineString","coordinates":[[[-2.1695372,53.618757],[-2.1695909,53.6187426],[-2.1696484,53.6187045],[-2.1696888,53.6186617],[-2.1697377,53.6185856],[-2.1697762,53.6184608],[-2.1697732,53.6183676],[-2.1694772,53.6181532],[-2.1693626,53.6180599],[-2.1692662,53.61805],[-2.1691605,53.6179955],[-2.1690336,53.6179716],[-2.1690206,53.6179692],[-2.1685516,53.6177657],[-2.1683816,53.6177305],[-2.1683836,53.6177186]]]}},
{"type":"Feature","properties":{"highway":"path","name":null,"category":"Shared path"},"geometry":{"type":"MultiLineString","coordinates":[[[-2.1684763,53.6181317],[-2.1689185,53.6181258],[-2.1690084,53.6181199],[-2.169059,53.6181051],[-2.1690943,53.6180792],[-2.1691067,53.6180468],[-2.1690864,53.6180073],[-2.1690336,53.6179716]]]}},
{"type":"Feature","properties":{"highway":"path","name":null,"category":"Shared path"},"geometry":{"type":"MultiLineString","coordinates":[[[-2.1695182,53.6199669],[-2.169497,53.6196707],[-2.1695143,53.61948],[-2.1695896,53.6193532],[-2.1697507,53.6191826],[-2.1698659,53.6191151],[-2.1699871,53.6190129],[-2.1702642,53.618732],[-2.170085,53.6186266],[-2.1698576,53.6184506],[-2.1697732,53.6183676]]]}},
{"type":"Feature","properties":{"highway":"path","name":null,"category":"Shared path"},"geometry":{"type":"MultiLineString","coordinates":[[[-2.1702642,53.618732],[-2.1704008,53.6187588],[-2.1705936,53.6188034],[-2.1708572,53.6188264],[-2.1709589,53.6188258]]]}},
{"type":"Feature","properties":{"highway":"path","name":null,"category":"Shared path"},"geometry":{"type":"MultiLineString","coordinates":[[[-2.1698659,53.6191151],[-2.1705345,53.619358]]]}},
{"type":"Feature","properties":{"highway":"path","name":null,"category":"Shared path"},"geometry":{"type":"MultiLineString","coordinates":[[[-2.1664454,53.6085179],[-2.1665236,53.6084143],[-2.1669031,53.608475],[-2.1670868,53.6084724],[-2.1672373,53.6084205],[-2.1673126,53.6083526],[-2.1673518,53.6082705],[-2.1673533,53.6081883],[-2.1672961,53.6081132],[-2.1671696,53.6080677],[-2.167022,53.608065],[-2.166906,53.6080962],[-2.1667344,53.6081427],[-2.1665989,53.6081472],[-2.1665206,53.6081266],[-2.1664318,53.6080739],[-2.1662827,53.6079372],[-2.1661788,53.6079274],[-2.1660855,53.6079497],[-2.1660162,53.6080123],[-2.165712,53.6083991],[-2.1654019,53.6087645],[-2.1652212,53.6088395],[-2.1652575,53.60892]]]}},
{"type":"Feature","properties":{"highway":"footway","name":null,"category":"Footpath (pedestrian only)"},"geometry":{"type":"MultiLineString","coordinates":[[[-2.1588478,53.6187158],[-2.1589537,53.6187927],[-2.1589606,53.6187977]]]}},
{"type":"Feature","properties":{"highway":"footway","name":null,"category":"Footpath (pedestrian only)"},"geometry":{"type":"MultiLineString","coordinates":[[[-2.1588314,53.6188433],[-2.1588506,53.6188354],[-2.1589537,53.6187927]]]}},
{"type":"Feature","properties":{"highway":"footway","name":null,"category":"Footpath (pedestrian only)"},"geometry":{"type":"MultiLineString","coordinates":[[[-2.1572368,53.6190368],[-2.1572714,53.6190852]]]}},
{"type":"Feature","properties":{"highway":"footway","name":null,"category":"Footpath (pedestrian only)"},"geometry":{"type":"MultiLineString","coordinates":[[[-2.1572817,53.6190967],[-2.1572889,53.6191095]]]}},
{"type":"Feature","properties":{"highway":"footway","name":null,"category":"Footpath (pedestrian only)"},"geometry":{"type":"MultiLineString","coordinates":[[[-2.1589679,53.6191597],[-2.1589039,53.6191024],[-2.1587787,53.6189877],[-2.1587592,53.6189699]]]}},
{"type":"Feature","properties":{"highway":"footway","name":null,"category":"Footpath (pedestrian only)"},"geometry":{"type":"MultiLineString","coordinates":[[[-2.1587787,53.6189877],[-2.1589259,53.6189317],[-2.1588506,53.6188354]]]}},
{"type":"Feature","properties":{"highway":"footway","name":null,"category":"Footpath (pedestrian only)"},"geometry":{"type":"MultiLineString","coordinates":[[[-2.1585204,53.6186065],[-2.1586174,53.6186468]]]}},
{"type":"Feature","properties":{"highway":"path","name":"High Level Road","category":"Shared path"},"geometry":{"type":"MultiLineString","coordinates":[[[-2.1527864,53.6108162],[-2.1530091,53.610728],[-2.1534204,53.610548],[-2.1537578,53.6104026],[-2.1538995,53.6103761],[-2.1540544,53.6103942]]]}},
{"type":"Feature","properties":{"highway":"footway","name":null,"category":"Footpath (pedestrian only)"},"geometry":{"type":"MultiLineString","coordinates":[[[-2.1540268,53.61356],[-2.1540775,53.6135862],[-2.1541094,53.6136028],[-2.1541358,53.6136165]]]}},
{"type":"Feature","properties":{"highway":"path","name":null,"category":"Shared path"},"geometry":{"type":"MultiLineString","coordinates":[[[-2.1511665,53.619793],[-2.1509818,53.6201405],[-2.1508512,53.6203312]]]}},
{"type":"Feature","properties":{"highway":"path","name":null,"category":"Shared path"},"geometry":{"type":"MultiLineString","coordinates":[[[-2.1509818,53.6201405],[-2.1510974,53.6201336],[-2.1512937,53.6200959],[-2.1513237,53.6200807],[-2.1513481,53.6200647],[-2.1514215,53.6199639],[-2.1514367,53.619956],[-2.151449,53.6199497],[-2.1514992,53.619945],[-2.1516618,53.6199247],[-2.1518006,53.6198968],[-2.1518722,53.6198964],[-2.1519942,53.6199204]]]}},
{"type":"Feature","properties":{"highway":"path","name":null,"category":"Shared path"},"geometry":{"type":"MultiLineString","coordinates":[[[-2.1516618,53.6199247],[-2.1517625,53.6199959]]]}},
{"type":"Feature","properties":{"highway":"path","name":null,"category":"Shared path"},"geometry":{"type":"MultiLineString","coordinates":[[[-2.1514367,53.619956],[-2.1513866,53.6199174],[-2.1513316,53.6198482],[-2.1512888,53.6198271],[-2.151213,53.6198079],[-2.1511665,53.619793]]]}},
{"type":"Feature","properties":{"highway":"path","name":null,"category":"Shared path"},"geometry":{"type":"MultiLineString","coordinates":[[[-2.1520699,53.6198549],[-2.1519648,53.6198946]]]}},
{"type":"Feature","properties":{"highway":"path","name":null,"category":"Shared path"},"geometry":{"type":"MultiLineString","coordinates":[[[-2.1500664,53.6197951],[-2.1499682,53.6198859]]]}},
{"type":"Feature","properties":{"highway":"footway","name":null,"category":"Footpath (pedestrian only)"},"geometry":{"type":"MultiLineString","coordinates":[[[-2.154282,53.620307],[-2.1542701,53.6203361],[-2.1542485,53.6203823],[-2.1543001,53.6204361],[-2.1543257,53.6204681],[-2.1543937,53.6204489],[-2.1544282,53.6205],[-2.1544726,53.6205612],[-2.1544512,53.6205993]]]}},
{"type":"Feature","properties":{"highway":"footway","name":null,"category":"Footpath (pedestrian only)"},"geometry":{"type":"MultiLineString","coordinates":[[[-2.1544512,53.6205993],[-2.1544952,53.620608],[-2.1545623,53.6206252]]]}},
{"type":"Feature","properties":{"highway":"footway","name":null,"category":"Footpath (pedestrian only)"},"geometry":{"type":"MultiLineString","coordinates":[[[-2.1544512,53.6205993],[-2.154399,53.6206227],[-2.1543179,53.6206533],[-2.1542877,53.6206238],[-2.1542264,53.6206407],[-2.1541489,53.6206634],[-2.1541109,53.6206981],[-2.1540647,53.620735]]]}},
{"type":"Feature","properties":{"highway":"footway","name":null,"category":"Footpath (pedestrian only)"},"geometry":{"type":"MultiLineString","coordinates":[[[-2.15223,53.6188096],[-2.1522893,53.6187889],[-2.1524266,53.618741],[-2.1525037,53.6187119]]]}},
{"type":"Feature","properties":{"highway":"footway","name":null,"category":"Footpath (pedestrian only)"},"geometry":{"type":"MultiLineString","coordinates":[[[-2.1615612,53.616827],[-2.16166,53.6168933],[-2.1617733,53.6169153],[-2.1618379,53.6169278],[-2.1618679,53.616869],[-2.1619705,53.6168879]]]}},
{"type":"Feature","properties":{"highway":"path","name":null,"category":"Shared path"},"geometry":{"type":"MultiLineString","coordinates":[[[-2.1629516,53.6162946],[-2.1630652,53.6160536],[-2.1629019,53.6160245],[-2.1629094,53.6160089],[-2.1624685,53.6159295]]]}},
{"type":"Feature","properties":{"highway":"path","name":null,"category":"Shared path"},"geometry":{"type":"MultiLineString","coordinates":[[[-2.161874,53.6186674],[-2.1616654,53.6186663],[-2.1616503,53.6186583],[-2.1615109,53.6185848],[-2.1614952,53.6185766],[-2.161429,53.6185797],[-2.1610887,53.6186208]]]}},
{"type":"Feature","properties":{"highway":"footway","name":null,"category":"Footpath (pedestrian only)"},"geometry":{"type":"MultiLineString","coordinates":[[[-2.1601875,53.6189959],[-2.1602319,53.6190169],[-2.1604523,53.6190685],[-2.1605915,53.6190924],[-2.1610286,53.6190885],[-2.1615563,53.6190253]]]}},
{"type":"Feature","properties":{"highway":"path","name":null,"category":"Shared path"},"geometry":{"type":"MultiLineString","coordinates":[[[-2.1605767,53.6188776],[-2.1604343,53.6189993]]]}},
{"type":"Feature","properties":{"highway":"path","name":null,"category":"Shared path"},"geometry":{"type":"MultiLineString","coordinates":[[[-2.1609562,53.618636],[-2.1608455,53.6186529],[-2.160783,53.6186775],[-2.160716,53.6187177],[-2.1605767,53.6188776]]]}},
{"type":"Feature","properties":{"highway":"path","name":null,"category":"Shared path"},"geometry":{"type":"MultiLineString","coordinates":[[[-2.1610887,53.6186208],[-2.1609562,53.618636]]]}},
{"type":"Feature","properties":{"highway":"path","name":null,"category":"Shared path"},"geometry":{"type":"MultiLineString","coordinates":[[[-2.161874,53.6186674],[-2.1620486,53.618668],[-2.1621477,53.6187339]]]}},
{"type":"Feature","properties":{"highway":"path","name":null,"category":"Shared path"},"geometry":{"type":"MultiLineString","coordinates":[[[-2.1623281,53.6187375],[-2.1624125,53.6188952]]]}},
{"type":"Feature","properties":{"highway":"path","name":null,"category":"Shared path"},"geometry":{"type":"MultiLineString","coordinates":[[[-2.1616294,53.618487],[-2.1618899,53.6183414],[-2.1621448,53.6182193],[-2.1624747,53.6181187],[-2.1628724,53.6180363],[-2.1633716,53.6179754]]]}},
{"type":"Feature","properties":{"highway":"path","name":null,"category":"Shared path"},"geometry":{"type":"MultiLineString","coordinates":[[[-2.1633716,53.6179754],[-2.1636814,53.6179019],[-2.1638395,53.6178831],[-2.1640729,53.6179608],[-2.1644192,53.6179274],[-2.1647866,53.6179452],[-2.1649952,53.6180073],[-2.1653987,53.6179658],[-2.1655387,53.6179421],[-2.1657053,53.6178785]]]}},
{"type":"Feature","properties":{"highway":"path","name":null,"category":"Shared path"},"geometry":{"type":"MultiLineString","coordinates":[[[-2.1649952,53.6180073],[-2.1649892,53.6180658]]]}},
{"type":"Feature","properties":{"highway":"path","name":null,"category":"Shared path"},"geometry":{"type":"MultiLineString","coordinates":[[[-2.1615264,53.6185509],[-2.1616294,53.618487]]]}},
{"type":"Feature","properties":{"highway":"path","name":null,"category":"Shared path"},"geometry":{"type":"MultiLineString","coordinates":[[[-2.1615109,53.6185848],[-2.1615264,53.6185509]]]}},
{"type":"Feature","properties":{"highway":"path","name":null,"category":"Shared path"},"geometry":{"type":"MultiLineString","coordinates":[[[-2.1616654,53.6186663],[-2.1616879,53.6187201],[-2.16168,53.6187567],[-2.1616537,53.6187872],[-2.1615876,53.6188144],[-2.161532,53.6188307],[-2.1615142,53.6188459],[-2.161535,53.6189476]]]}},
{"type":"Feature","properties":{"highway":"path","name":null,"category":"Shared path"},"geometry":{"type":"MultiLineString","coordinates":[[[-2.1631507,53.617294],[-2.1631206,53.6173512],[-2.1630992,53.6173475]]]}},
{"type":"Feature","properties":{"highway":"path","name":null,"category":"Shared path"},"geometry":{"type":"MultiLineString","coordinates":[[[-2.1630864,53.6173733],[-2.1630356,53.6174839]]]}},
{"type":"Feature","properties":{"highway":"path","name":null,"category":"Shared path"},"geometry":{"type":"MultiLineString","coordinates":[[[-2.1630093,53.6175452],[-2.1630187,53.617615]]]}},
{"type":"Feature","properties":{"highway":"path","name":null,"category":"Shared path"},"geometry":{"type":"MultiLineString","coordinates":[[[-2.1626514,53.6172033],[-2.1626882,53.6171398]]]}},
{"type":"Feature","properties":{"highway":"footway","name":null,"category":"Footpath (pedestrian only)"},"geometry":{"type":"MultiLineString","coordinates":[[[-2.154212,53.6175619],[-2.1542444,53.6174968]]]}},
{"type":"Feature","properties":{"highway":"footway","name":null,"category":"Footpath (pedestrian only)"},"geometry":{"type":"MultiLineString","coordinates":[[[-2.1538561,53.6177479],[-2.1538777,53.6177201],[-2.1540339,53.6176894],[-2.1541158,53.6176709],[-2.1538988,53.6176413],[-2.1539084,53.6176102],[-2.1541127,53.6175767],[-2.1542444,53.6174968]]]}},
{"type":"Feature","properties":{"highway":"footway","name":null,"category":"Footpath (pedestrian only)"},"geometry":{"type":"MultiLineString","coordinates":[[[-2.1534973,53.6176749],[-2.1529468,53.6177468],[-2.1529206,53.6176916]]]}},
{"type":"Feature","properties":{"highway":"footway","name":null,"category":"Footpath (pedestrian only)"},"geometry":{"type":"MultiLineString","coordinates":[[[-2.1583452,53.6168911],[-2.1583122,53.6169],[-2.1582775,53.6169092]]]}},
{"type":"Feature","properties":{"highway":"footway","name":null,"category":"Footpath (pedestrian only)"},"geometry":{"type":"MultiLineString","coordinates":[[[-2.1575224,53.6172302],[-2.1575264,53.617203]]]}},
{"type":"Feature","properties":{"highway":"footway","name":null,"category":"Footpath (pedestrian only)"},"geometry":{"type":"MultiLineString","coordinates":[[[-2.1568982,53.6170694],[-2.1568253,53.6171207],[-2.1567913,53.6171455]]]}},
{"type":"Feature","properties":{"highway":"footway","name":"Kilnerdeyne Terrace","category":"Footpath (pedestrian only)"},"geometry":{"type":"MultiLineString","coordinates":[[[-2.1627018,53.6125726],[-2.1616941,53.6127787]]]}},
{"type":"Feature","properties":{"highway":"footway","name":"Lombard Street","category":"Footpath (pedestrian only)"},"geometry":{"type":"MultiLineString","coordinates":[[[-2.1695155,53.6187507],[-2.1693365,53.6189408],[-2.1690951,53.6190712],[-2.1690718,53.6191073],[-2.168675,53.6191394]]]}},
{"type":"Feature","properties":{"highway":"footway","name":null,"category":"Footpath (pedestrian only)"},"geometry":{"type":"MultiLineString","coordinates":[[[-2.1690861,53.6189683],[-2.1690951,53.6190712]]]}},
{"type":"Feature","properties":{"highway":"footway","name":null,"category":"Footpath (pedestrian only)"},"geometry":{"type":"MultiLineString","coordinates":[[[-2.1641645,53.6089998],[-2.1639536,53.6089351],[-2.1636944,53.6089644],[-2.1634222,53.6090086],[-2.1626169,53.609155],[-2.1625522,53.6091672]]]}},
{"type":"Feature","properties":{"highway":"footway","name":null,"category":"Footpath (pedestrian only)"},"geometry":{"type":"MultiLineString","coordinates":[[[-2.1726653,53.6163754],[-2.1721689,53.6157432],[-2.1713988,53.6149624]]]}},
{"type":"Feature","properties":{"highway":"footway","name":"Miall Street underpass","category":"Footpath (pedestrian only)"},"geometry":{"type":"MultiLineString","coordinates":[[[-2.153248,53.6097877],[-2.1533279,53.6098403]]]}},
{"type":"Feature","properties":{"highway":"footway","name":"Miall Street underpass","category":"Footpath (pedestrian only)"},"geometry":{"type":"MultiLineString","coordinates":[[[-2.1534855,53.609944],[-2.1535845,53.6100091]]]}},
{"type":"Feature","properties":{"highway":"path","name":"High Level Road","category":"Shared path"},"geometry":{"type":"MultiLineString","coordinates":[[[-2.151952,53.6111816],[-2.1520586,53.6111503],[-2.1522218,53.6111009],[-2.1521971,53.6110596],[-2.1521803,53.611026],[-2.1525638,53.6109044],[-2.1527864,53.6108162]]]}},
{"type":"Feature","properties":{"highway":"footway","name":null,"category":"Footpath (pedestrian only)"},"geometry":{"type":"MultiLineString","coordinates":[[[-2.1619934,53.6215068],[-2.1619612,53.6214672],[-2.1619491,53.6210802]]]}},
{"type":"Feature","properties":{"highway":"footway","name":null,"category":"Footpath (pedestrian only)"},"geometry":{"type":"MultiLineString","coordinates":[[[-2.1619934,53.6215068],[-2.1612623,53.6214819]]]}},
{"type":"Feature","properties":{"highway":"footway","name":null,"category":"Footpath (pedestrian only)"},"geometry":{"type":"MultiLineString","coordinates":[[[-2.1709848,53.6205975],[-2.1706327,53.6204999],[-2.1706259,53.6204015]]]}},
{"type":"Feature","properties":{"highway":"footway","name":null,"category":"Footpath (pedestrian only)"},"geometry":{"type":"MultiLineString","coordinates":[[[-2.1531549,53.6173616],[-2.1532853,53.6173831],[-2.1540962,53.6175167]]]}},
{"type":"Feature","properties":{"highway":"footway","name":null,"category":"Footpath (pedestrian only)"},"geometry":{"type":"MultiLineString","coordinates":[[[-2.1550543,53.6191835],[-2.1552686,53.6193772]]]}},
{"type":"Feature","properties":{"highway":"footway","name":null,"category":"Footpath (pedestrian only)"},"geometry":{"type":"MultiLineString","coordinates":[[[-2.1604523,53.6190685],[-2.1602465,53.619131],[-2.1598503,53.6192513],[-2.1597387,53.6192852],[-2.1597293,53.619309],[-2.1598786,53.6192956]]]}},
{"type":"Feature","properties":{"highway":"footway","name":null,"category":"Footpath (pedestrian only)"},"geometry":{"type":"MultiLineString","coordinates":[[[-2.1601875,53.6189959],[-2.1601469,53.6190209],[-2.1602465,53.619131]]]}},
{"type":"Feature","properties":{"highway":"footway","name":null,"category":"Footpath (pedestrian only)"},"geometry":{"type":"MultiLineString","coordinates":[[[-2.1601469,53.6190209],[-2.1600834,53.6190862],[-2.1600348,53.6191394],[-2.1599834,53.6191766],[-2.1599152,53.6192192],[-2.1598503,53.6192513]]]}},
{"type":"Feature","properties":{"highway":"path","name":"St Alban's Terrace","category":"Shared path"},"geometry":{"type":"MultiLineString","coordinates":[[[-2.1647418,53.6110034],[-2.1670329,53.6111962],[-2.1670329,53.6111517],[-2.1671149,53.611156]]]}},
{"type":"Feature","properties":{"highway":"path","name":null,"category":"Shared path"},"geometry":{"type":"MultiLineString","coordinates":[[[-2.167804,53.6112411],[-2.1678818,53.6113085]]]}},
{"type":"Feature","properties":{"highway":"path","name":null,"category":"Shared path"},"geometry":{"type":"MultiLineString","coordinates":[[[-2.1679597,53.611312],[-2.1679638,53.6112607]]]}},
{"type":"Feature","properties":{"highway":"path","name":null,"category":"Shared path"},"geometry":{"type":"MultiLineString","coordinates":[[[-2.1679692,53.6111588],[-2.1677695,53.6108175],[-2.1676397,53.610615],[-2.1676161,53.6104145],[-2.1677566,53.6101892],[-2.1678392,53.6099861],[-2.1680133,53.6098589],[-2.1680935,53.6097661],[-2.167942,53.609565],[-2.1677867,53.6094123],[-2.1677937,53.6092501],[-2.1679826,53.6090229]]]}},
{"type":"Feature","properties":{"highway":"path","name":null,"category":"Shared path"},"geometry":{"type":"MultiLineString","coordinates":[[[-2.1683064,53.6177184],[-2.1683836,53.6177186],[-2.1685079,53.6177191],[-2.1686149,53.6177087],[-2.1686356,53.6176768],[-2.1686318,53.6176426],[-2.1685974,53.6176185],[-2.1683871,53.6175605],[-2.1682907,53.6175353],[-2.1682695,53.6175227],[-2.168277,53.6175146],[-2.1684442,53.6175076],[-2.1685131,53.6175106],[-2.1685361,53.6174945],[-2.1684547,53.6174425],[-2.1684384,53.6174269],[-2.1684347,53.6174158],[-2.1684459,53.6174058],[-2.1684753,53.6174032],[-2.1685342,53.6174091],[-2.168587,53.6174058],[-2.1686388,53.6173414]]]}},
{"type":"Feature","properties":{"highway":"path","name":null,"category":"Shared path"},"geometry":{"type":"MultiLineString","coordinates":[[[-2.165129,53.6220358],[-2.1650819,53.6220736],[-2.1650367,53.6221103]]]}},
{"type":"Feature","properties":{"highway":"path","name":null,"category":"Shared path"},"geometry":{"type":"MultiLineString","coordinates":[[[-2.1636482,53.6211267],[-2.1635905,53.6210999],[-2.1633834,53.6210498]]]}},
{"type":"Feature","properties":{"highway":"path","name":null,"category":"Shared path"},"geometry":{"type":"MultiLineString","coordinates":[[[-2.164457,53.6200684],[-2.1643585,53.6200483],[-2.164241,53.6200218]]]}},
{"type":"Feature","properties":{"highway":"path","name":null,"category":"Shared path"},"geometry":{"type":"MultiLineString","coordinates":[[[-2.1701832,53.620452],[-2.170187,53.6203877]]]}},
{"type":"Feature","properties":{"highway":"path","name":null,"category":"Shared path"},"geometry":{"type":"MultiLineString","coordinates":[[[-2.1576269,53.6218207],[-2.1574473,53.6218762],[-2.157015,53.62201]]]}},
{"type":"Feature","properties":{"highway":"path","name":null,"category":"Shared path"},"geometry":{"type":"MultiLineString","coordinates":[[[-2.1534014,53.6206093],[-2.1534148,53.6205297]]]}},
{"type":"Feature","properties":{"highway":"path","name":null,"category":"Shared path"},"geometry":{"type":"MultiLineString","coordinates":[[[-2.1536153,53.6204497],[-2.1537941,53.6204838]]]}},
{"type":"Feature","properties":{"highway":"path","name":null,"category":"Shared path"},"geometry":{"type":"MultiLineString","coordinates":[[[-2.1511665,53.619793],[-2.1511507,53.619776]]]}},
{"type":"Feature","properties":{"highway":"path","name":null,"category":"Shared path"},"geometry":{"type":"MultiLineString","coordinates":[[[-2.151217,53.6197534],[-2.1511783,53.6197135]]]}},
{"type":"Feature","properties":{"highway":"path","name":null,"category":"Shared path"},"geometry":{"type":"MultiLineString","coordinates":[[[-2.1502568,53.6202152],[-2.1501819,53.6202384],[-2.1498802,53.6203316],[-2.1497957,53.6203593]]]}},
{"type":"Feature","properties":{"highway":"path","name":null,"category":"Shared path"},"geometry":{"type":"MultiLineString","coordinates":[[[-2.1494102,53.6206288],[-2.1491918,53.620384],[-2.1489451,53.6201248]]]}},
{"type":"Feature","properties":{"highway":"footway","name":null,"category":"Footpath (pedestrian only)"},"geometry":{"type":"MultiLineString","coordinates":[[[-2.1643936,53.6104019],[-2.1642598,53.610388],[-2.1641811,53.6103776],[-2.1641647,53.6104494],[-2.164066,53.6104393],[-2.1639044,53.6104217]]]}},
{"type":"Feature","properties":{"highway":"footway","name":null,"category":"Footpath (pedestrian only)"},"geometry":{"type":"MultiLineString","coordinates":[[[-2.1649727,53.6143424],[-2.1650118,53.6144215],[-2.1650522,53.6144822],[-2.1650222,53.6145095]]]}},
{"type":"Feature","properties":{"highway":"footway","name":null,"category":"Footpath (pedestrian only)"},"geometry":{"type":"MultiLineString","coordinates":[[[-2.1650522,53.6144822],[-2.1651136,53.6145077],[-2.1651413,53.6144978],[-2.1651997,53.614477],[-2.1652842,53.6144618],[-2.1653494,53.6144501],[-2.1654045,53.6144624]]]}},
{"type":"Feature","properties":{"highway":"footway","name":null,"category":"Footpath (pedestrian only)"},"geometry":{"type":"MultiLineString","coordinates":[[[-2.1633149,53.6119942],[-2.1633706,53.6119985],[-2.1634137,53.6120018]]]}},
{"type":"Feature","properties":{"highway":"footway","name":null,"category":"Footpath (pedestrian only)"},"geometry":{"type":"MultiLineString","coordinates":[[[-2.1635845,53.611583],[-2.1636274,53.6115692],[-2.1636477,53.6115021],[-2.1636545,53.6114794],[-2.1635984,53.6114742],[-2.1636109,53.6114285],[-2.1636153,53.6114128],[-2.1636816,53.6113846],[-2.1637086,53.6113731],[-2.1637884,53.6113833],[-2.1638471,53.6113908],[-2.1638545,53.6113627],[-2.1639802,53.6113781]]]}},
{"type":"Feature","properties":{"highway":"footway","name":null,"category":"Footpath (pedestrian only)"},"geometry":{"type":"MultiLineString","coordinates":[[[-2.1636816,53.6113846],[-2.1636401,53.6113443]]]}},
{"type":"Feature","properties":{"highway":"footway","name":null,"category":"Footpath (pedestrian only)"},"geometry":{"type":"MultiLineString","coordinates":[[[-2.1605246,53.6152604],[-2.1603722,53.6153833]]]}},
{"type":"Feature","properties":{"highway":"footway","name":null,"category":"Footpath (pedestrian only)"},"geometry":{"type":"MultiLineString","coordinates":[[[-2.160741,53.6166769],[-2.1602246,53.6162074],[-2.1599235,53.615996],[-2.1598609,53.6159516]]]}},
{"type":"Feature","properties":{"highway":"footway","name":null,"category":"Footpath (pedestrian only)"},"geometry":{"type":"MultiLineString","coordinates":[[[-2.1604261,53.6161221],[-2.1602246,53.6162074],[-2.1599912,53.616317],[-2.1597606,53.6164373],[-2.1595378,53.6165501]]]}},
{"type":"Feature","properties":{"highway":"footway","name":null,"category":"Footpath (pedestrian only)"},"geometry":{"type":"MultiLineString","coordinates":[[[-2.1607224,53.6169752],[-2.1602192,53.6169304],[-2.1600851,53.6168847],[-2.1599261,53.6168039],[-2.159739,53.6166816],[-2.1595378,53.6165501],[-2.1592321,53.6163504],[-2.1591706,53.6163098]]]}},
{"type":"Feature","properties":{"highway":"footway","name":null,"category":"Footpath (pedestrian only)"},"geometry":{"type":"MultiLineString","coordinates":[[[-2.1603303,53.6168629],[-2.1602192,53.6169304]]]}},
{"type":"Feature","properties":{"highway":"footway","name":null,"category":"Footpath (pedestrian only)"},"geometry":{"type":"MultiLineString","coordinates":[[[-2.1599261,53.6168039],[-2.1601209,53.6167065]]]}},
{"type":"Feature","properties":{"highway":"footway","name":null,"category":"Footpath (pedestrian only)"},"geometry":{"type":"MultiLineString","coordinates":[[[-2.1600834,53.6190862],[-2.158569,53.6195758],[-2.1584973,53.6195999],[-2.1584148,53.6196263],[-2.1583535,53.619646],[-2.1583321,53.6196578],[-2.1583255,53.6196708],[-2.158343,53.6196964],[-2.1583646,53.6197064],[-2.1583895,53.61971],[-2.1584271,53.6197014],[-2.1584589,53.6197408]]]}},
{"type":"Feature","properties":{"highway":"path","name":null,"category":"Shared path"},"geometry":{"type":"MultiLineString","coordinates":[[[-2.1569867,53.6199495],[-2.1570201,53.6199924],[-2.1571322,53.6201062]]]}},
{"type":"Feature","properties":{"highway":"path","name":null,"category":"Shared path"},"geometry":{"type":"MultiLineString","coordinates":[[[-2.1570343,53.6195484],[-2.1568772,53.6197571]]]}},
{"type":"Feature","properties":{"highway":"path","name":null,"category":"Shared path"},"geometry":{"type":"MultiLineString","coordinates":[[[-2.1568772,53.6197571],[-2.1569867,53.6199495]]]}},
{"type":"Feature","properties":{"highway":"path","name":null,"category":"Shared path"},"geometry":{"type":"MultiLineString","coordinates":[[[-2.1574039,53.6200163],[-2.1571322,53.6201062],[-2.1568287,53.6202051]]]}},
{"type":"Feature","properties":{"highway":"footway","name":null,"category":"Footpath (pedestrian only)"},"geometry":{"type":"MultiLineString","coordinates":[[[-2.164434,53.6089313],[-2.1643693,53.6089517],[-2.1643335,53.608963]]]}},
{"type":"Feature","properties":{"highway":"footway","name":null,"category":"Footpath (pedestrian only)"},"geometry":{"type":"MultiLineString","coordinates":[[[-2.1647316,53.6089354],[-2.1646722,53.6089345],[-2.164578,53.608933],[-2.1645019,53.6089321],[-2.164434,53.6089313],[-2.164422,53.6088946],[-2.1644298,53.6088604],[-2.1644392,53.6088192],[-2.1644442,53.6088035],[-2.1645419,53.6087997],[-2.1645971,53.6087975],[-2.1646125,53.608754],[-2.1646904,53.608771],[-2.1647424,53.6087842],[-2.1647999,53.6087988]]]}},
{"type":"Feature","properties":{"highway":"path","name":null,"category":"Shared path"},"geometry":{"type":"MultiLineString","coordinates":[[[-2.1645366,53.6085086],[-2.1646067,53.6083961],[-2.1646887,53.6082953]]]}},
{"type":"Feature","properties":{"highway":"footway","name":null,"category":"Footpath (pedestrian only)"},"geometry":{"type":"MultiLineString","coordinates":[[[-2.16441,53.6086929],[-2.1644446,53.608679],[-2.1644753,53.6086494],[-2.1645366,53.6085086]]]}},
{"type":"Feature","properties":{"highway":"footway","name":null,"category":"Footpath (pedestrian only)"},"geometry":{"type":"MultiLineString","coordinates":[[[-2.16441,53.6086929],[-2.163446,53.6088749]]]}},
{"type":"Feature","properties":{"highway":"footway","name":null,"category":"Footpath (pedestrian only)"},"geometry":{"type":"MultiLineString","coordinates":[[[-2.1647999,53.6087988],[-2.1647867,53.6088287],[-2.1647316,53.6089354]]]}},
{"type":"Feature","properties":{"highway":"footway","name":null,"category":"Footpath (pedestrian only)"},"geometry":{"type":"MultiLineString","coordinates":[[[-2.16491,53.608858],[-2.1648525,53.6089438],[-2.1648975,53.6089811]]]}},
{"type":"Feature","properties":{"highway":"footway","name":null,"category":"Footpath (pedestrian only)"},"geometry":{"type":"MultiLineString","coordinates":[[[-2.1643335,53.608963],[-2.1642528,53.6089745],[-2.1641645,53.6089998]]]}},
{"type":"Feature","properties":{"highway":"path","name":null,"category":"Shared path"},"geometry":{"type":"MultiLineString","coordinates":[[[-2.1688102,53.6122252],[-2.1688106,53.61231],[-2.1685969,53.6124493],[-2.1685327,53.6124517]]]}},
{"type":"Feature","properties":{"highway":"path","name":"Underpass into shopping centre","category":"Shared path"},"geometry":{"type":"MultiLineString","coordinates":[[[-2.160716,53.6187177],[-2.1602117,53.6184563]]]}},
{"type":"Feature","properties":{"highway":"path","name":null,"category":"Shared path"},"geometry":{"type":"MultiLineString","coordinates":[[[-2.1570981,53.6184636],[-2.1575222,53.6186687],[-2.1575848,53.6186481]]]}},
{"type":"Feature","properties":{"highway":"footway","name":null,"category":"Footpath (pedestrian only)"},"geometry":{"type":"MultiLineString","coordinates":[[[-2.1681974,53.6136725],[-2.1682428,53.6137274],[-2.1686156,53.6138579],[-2.1687202,53.6139008],[-2.1687712,53.6139255],[-2.1687492,53.6139609]]]}},
{"type":"Feature","properties":{"highway":"footway","name":null,"category":"Footpath (pedestrian only)"},"geometry":{"type":"MultiLineString","coordinates":[[[-2.1626973,53.6094255],[-2.1627764,53.6094088],[-2.162751,53.6093682],[-2.1630286,53.6093125],[-2.1631251,53.609338],[-2.1631707,53.6093054],[-2.1636575,53.6092099],[-2.1636723,53.6092441],[-2.1635261,53.6094104],[-2.1634859,53.6094175]]]}},
{"type":"Feature","properties":{"highway":"footway","name":null,"category":"Footpath (pedestrian only)"},"geometry":{"type":"MultiLineString","coordinates":[[[-2.163789,53.6094175],[-2.1635717,53.6094518],[-2.1635047,53.6094327],[-2.1634859,53.6094175],[-2.1633974,53.6094295],[-2.1631251,53.609338],[-2.1630996,53.6093626],[-2.1632606,53.6096642],[-2.1630085,53.6097119],[-2.1628636,53.6097355]]]}},
{"type":"Feature","properties":{"highway":"footway","name":null,"category":"Footpath (pedestrian only)"},"geometry":{"type":"MultiLineString","coordinates":[[[-2.158336,53.6088662],[-2.1584259,53.6088248],[-2.1584608,53.6087818],[-2.1584366,53.6087309],[-2.1583951,53.6086434],[-2.1583736,53.6085789],[-2.1584111,53.6085049],[-2.1584487,53.608423],[-2.1585627,53.6083442],[-2.158678,53.6082535],[-2.1587837,53.6082226]]]}},
{"type":"Feature","properties":{"highway":"path","name":null,"category":"Shared path"},"geometry":{"type":"MultiLineString","coordinates":[[[-2.1546538,53.6112477],[-2.1547191,53.6115865],[-2.1546959,53.6115879],[-2.1546142,53.6115929],[-2.1544922,53.6116004]]]}},
{"type":"Feature","properties":{"highway":"footway","name":null,"category":"Footpath (pedestrian only)"},"geometry":{"type":"MultiLineString","coordinates":[[[-2.1547191,53.6115865],[-2.154789,53.6120357],[-2.1548108,53.6121745],[-2.1548918,53.6125504]]]}},
{"type":"Feature","properties":{"highway":"footway","name":null,"category":"Footpath (pedestrian only)"},"geometry":{"type":"MultiLineString","coordinates":[[[-2.1550931,53.6128436],[-2.1551431,53.6128482],[-2.155175,53.6128443],[-2.1551895,53.6128374]]]}},
{"type":"Feature","properties":{"highway":"footway","name":null,"category":"Footpath (pedestrian only)"},"geometry":{"type":"MultiLineString","coordinates":[[[-2.1546534,53.6173973],[-2.1547841,53.6174695],[-2.1548377,53.6174632],[-2.1563219,53.6172885],[-2.1563538,53.6172878]]]}},
{"type":"Feature","properties":{"highway":"footway","name":null,"category":"Footpath (pedestrian only)"},"geometry":{"type":"MultiLineString","coordinates":[[[-2.1563538,53.6172878],[-2.156419,53.6172985]]]}},
{"type":"Feature","properties":{"highway":"footway","name":null,"category":"Footpath (pedestrian only)"},"geometry":{"type":"MultiLineString","coordinates":[[[-2.1558347,53.6172597],[-2.1559352,53.617247],[-2.155918,53.6172127],[-2.1559126,53.6171977],[-2.1559074,53.617183]]]}},
{"type":"Feature","properties":{"highway":"footway","name":null,"category":"Footpath (pedestrian only)"},"geometry":{"type":"MultiLineString","coordinates":[[[-2.1559074,53.617183],[-2.1553462,53.6172588]]]}},
{"type":"Feature","properties":{"highway":"footway","name":null,"category":"Footpath (pedestrian only)"},"geometry":{"type":"MultiLineString","coordinates":[[[-2.1553462,53.6172588],[-2.1553414,53.6172491],[-2.1553238,53.6172133],[-2.1553028,53.6171731]]]}},
{"type":"Feature","properties":{"highway":"footway","name":null,"category":"Footpath (pedestrian only)"},"geometry":{"type":"MultiLineString","coordinates":[[[-2.1553462,53.6172588],[-2.1547744,53.6173396],[-2.1546886,53.6173164]]]}},
{"type":"Feature","properties":{"highway":"footway","name":null,"category":"Footpath (pedestrian only)"},"geometry":{"type":"MultiLineString","coordinates":[[[-2.156388,53.6171362],[-2.1564485,53.6171317]]]}},
{"type":"Feature","properties":{"highway":"footway","name":null,"category":"Footpath (pedestrian only)"},"geometry":{"type":"MultiLineString","coordinates":[[[-2.1564485,53.6171317],[-2.1565392,53.6171424],[-2.156621,53.6171553],[-2.1566455,53.6171586]]]}},
{"type":"Feature","properties":{"highway":"footway","name":null,"category":"Footpath (pedestrian only)"},"geometry":{"type":"MultiLineString","coordinates":[[[-2.1566455,53.6171586],[-2.1567913,53.6171455]]]}},
{"type":"Feature","properties":{"highway":"footway","name":null,"category":"Footpath (pedestrian only)"},"geometry":{"type":"MultiLineString","coordinates":[[[-2.1568982,53.6170694],[-2.1569118,53.6169568]]]}},
{"type":"Feature","properties":{"highway":"footway","name":null,"category":"Footpath (pedestrian only)"},"geometry":{"type":"MultiLineString","coordinates":[[[-2.1578393,53.6167371],[-2.1578553,53.6167485],[-2.1580633,53.6168016],[-2.1582582,53.6169131]]]}},
{"type":"Feature","properties":{"highway":"footway","name":null,"category":"Footpath (pedestrian only)"},"geometry":{"type":"MultiLineString","coordinates":[[[-2.1578553,53.6167485],[-2.1573499,53.6168656],[-2.1569807,53.6169512],[-2.1569118,53.6169568]]]}},
{"type":"Feature","properties":{"highway":"footway","name":null,"category":"Footpath (pedestrian only)"},"geometry":{"type":"MultiLineString","coordinates":[[[-2.1578393,53.6167371],[-2.1578259,53.6167149]]]}},
{"type":"Feature","properties":{"highway":"path","name":"Miall Street underpass","category":"Shared path"},"geometry":{"type":"MultiLineString","coordinates":[[[-2.1540544,53.6103942],[-2.1541692,53.6104301]]]}},
{"type":"Feature","properties":{"highway":"path","name":null,"category":"Shared path"},"geometry":{"type":"MultiLineString","coordinates":[[[-2.1509111,53.6122323],[-2.1512265,53.6122853]]]}},
{"type":"Feature","properties":{"highway":"footway","name":null,"category":"Footpath (pedestrian only)"},"geometry":{"type":"MultiLineString","coordinates":[[[-2.151351,53.6130168],[-2.151393,53.613068],[-2.1514318,53.6131152]]]}},
{"type":"Feature","properties":{"highway":"footway","name":null,"category":"Footpath (pedestrian only)"},"geometry":{"type":"MultiLineString","coordinates":[[[-2.1514318,53.6131152],[-2.1514663,53.6131079],[-2.1514928,53.6131076],[-2.1515143,53.6131224],[-2.1515811,53.6132094]]]}},
{"type":"Feature","properties":{"highway":"footway","name":null,"category":"Footpath (pedestrian only)"},"geometry":{"type":"MultiLineString","coordinates":[[[-2.1517841,53.6130691],[-2.1517596,53.6130582],[-2.1517407,53.6130246],[-2.1517076,53.6129795],[-2.1516659,53.6129226],[-2.1516355,53.612915],[-2.1516564,53.612878],[-2.1516659,53.612861]]]}},
{"type":"Feature","properties":{"highway":"path","name":null,"category":"Shared path"},"geometry":{"type":"MultiLineString","coordinates":[[[-2.1516659,53.612861],[-2.1517565,53.6127776]]]}},
{"type":"Feature","properties":{"highway":"footway","name":null,"category":"Footpath (pedestrian only)"},"geometry":{"type":"MultiLineString","coordinates":[[[-2.1549901,53.6201973],[-2.1547058,53.6202776],[-2.1545556,53.6203078],[-2.154396,53.620315],[-2.154282,53.620307],[-2.1541653,53.6202816],[-2.1540781,53.6202514],[-2.1540071,53.620206],[-2.1538247,53.6200453],[-2.1537737,53.6199678],[-2.153733,53.6199271]]]}},
{"type":"Feature","properties":{"highway":"footway","name":null,"category":"Footpath (pedestrian only)"},"geometry":{"type":"MultiLineString","coordinates":[[[-2.1545623,53.6206252],[-2.1545408,53.6206881],[-2.1545328,53.6207294],[-2.1545663,53.62077],[-2.1547567,53.6209299]]]}},
{"type":"Feature","properties":{"highway":"footway","name":null,"category":"Footpath (pedestrian only)"},"geometry":{"type":"MultiLineString","coordinates":[[[-2.1544924,53.6209422],[-2.1543623,53.6208792],[-2.1540647,53.620735],[-2.1539708,53.6207143],[-2.1539206,53.6207052],[-2.1538562,53.6207024],[-2.1537636,53.6207199],[-2.1535799,53.6207676],[-2.1534176,53.620774],[-2.1532735,53.6207787],[-2.1531782,53.6207756],[-2.1529651,53.6207855],[-2.1525601,53.6208714],[-2.1525156,53.6208581],[-2.1524448,53.620846],[-2.1522753,53.6208575]]]}},
{"type":"Feature","properties":{"highway":"footway","name":null,"category":"Footpath (pedestrian only)"},"geometry":{"type":"MultiLineString","coordinates":[[[-2.1543623,53.6208792],[-2.1539722,53.6208603],[-2.1537603,53.6208475],[-2.1531782,53.6207756]]]}},
{"type":"Feature","properties":{"highway":"footway","name":null,"category":"Footpath (pedestrian only)"},"geometry":{"type":"MultiLineString","coordinates":[[[-2.1540647,53.620735],[-2.1539722,53.6208603]]]}},
{"type":"Feature","properties":{"highway":"footway","name":null,"category":"Footpath (pedestrian only)"},"geometry":{"type":"MultiLineString","coordinates":[[[-2.1546972,53.6207134],[-2.1545408,53.6206881]]]}},
{"type":"Feature","properties":{"highway":"footway","name":null,"category":"Footpath (pedestrian only)"},"geometry":{"type":"MultiLineString","coordinates":[[[-2.1582934,53.6195897],[-2.1582164,53.6196132],[-2.1581117,53.6196458]]]}},
{"type":"Feature","properties":{"highway":"footway","name":null,"category":"Footpath (pedestrian only)"},"geometry":{"type":"MultiLineString","coordinates":[[[-2.1581117,53.6196458],[-2.1580842,53.6196566],[-2.1580661,53.6196733],[-2.15806,53.6196908],[-2.1580667,53.6197111],[-2.1581629,53.6198355]]]}},
{"type":"Feature","properties":{"highway":"footway","name":null,"category":"Footpath (pedestrian only)"},"geometry":{"type":"MultiLineString","coordinates":[[[-2.1584195,53.6195197],[-2.1583976,53.6194921],[-2.158358,53.6194432],[-2.1583067,53.6194577],[-2.1582586,53.6194011],[-2.1582317,53.6193702]]]}},
{"type":"Feature","properties":{"highway":"footway","name":null,"category":"Footpath (pedestrian only)"},"geometry":{"type":"MultiLineString","coordinates":[[[-2.1583686,53.6195692],[-2.1583854,53.6195908],[-2.1584148,53.6196263]]]}},
{"type":"Feature","properties":{"highway":"footway","name":null,"category":"Footpath (pedestrian only)"},"geometry":{"type":"MultiLineString","coordinates":[[[-2.1582934,53.6195897],[-2.1583686,53.6195692],[-2.158398,53.6195611],[-2.1584188,53.61955],[-2.1584265,53.6195349],[-2.1584195,53.6195197]]]}},
{"type":"Feature","properties":{"highway":"footway","name":null,"category":"Footpath (pedestrian only)"},"geometry":{"type":"MultiLineString","coordinates":[[[-2.1582317,53.6193702],[-2.1581217,53.6194036],[-2.1580319,53.6194307],[-2.1580156,53.6194113]]]}},
{"type":"Feature","properties":{"highway":"footway","name":null,"category":"Footpath (pedestrian only)"},"geometry":{"type":"MultiLineString","coordinates":[[[-2.1586292,53.6192153],[-2.1583745,53.6193009],[-2.1583278,53.6192979],[-2.158095,53.619371],[-2.1580021,53.6193984]]]}},
{"type":"Feature","properties":{"highway":"footway","name":null,"category":"Footpath (pedestrian only)"},"geometry":{"type":"MultiLineString","coordinates":[[[-2.158095,53.619371],[-2.158106,53.6193844],[-2.1581217,53.6194036]]]}},
{"type":"Feature","properties":{"highway":"footway","name":null,"category":"Footpath (pedestrian only)"},"geometry":{"type":"MultiLineString","coordinates":[[[-2.1580156,53.6194113],[-2.1580021,53.6193984],[-2.1579846,53.6193784]]]}},
{"type":"Feature","properties":{"highway":"path","name":null,"category":"Shared path"},"geometry":{"type":"MultiLineString","coordinates":[[[-2.1604343,53.6189993],[-2.1604247,53.6190075],[-2.1601935,53.6189651],[-2.1601822,53.6189758],[-2.1601875,53.6189959]]]}},
{"type":"Feature","properties":{"highway":"footway","name":null,"category":"Footpath (pedestrian only)"},"geometry":{"type":"MultiLineString","coordinates":[[[-2.1537709,53.6138346],[-2.15382,53.6138488],[-2.1538554,53.6138609],[-2.1537884,53.6139365],[-2.1538897,53.6139693],[-2.1539185,53.6139763],[-2.1537825,53.6141376],[-2.1537307,53.614199],[-2.153785,53.6142147],[-2.1538273,53.6142277]]]}},
{"type":"Feature","properties":{"highway":"footway","name":null,"category":"Footpath (pedestrian only)"},"geometry":{"type":"MultiLineString","coordinates":[[[-2.1536387,53.6144821],[-2.1536224,53.6144824],[-2.1535646,53.6144887],[-2.1535437,53.6144907]]]}},
{"type":"Feature","properties":{"highway":"footway","name":null,"category":"Footpath (pedestrian only)"},"geometry":{"type":"MultiLineString","coordinates":[[[-2.1560865,53.61708],[-2.1555478,53.617144],[-2.1553028,53.6171731],[-2.1550335,53.617205]]]}},
{"type":"Feature","properties":{"highway":"footway","name":null,"category":"Footpath (pedestrian only)"},"geometry":{"type":"MultiLineString","coordinates":[[[-2.1526389,53.61876],[-2.152596,53.6187457],[-2.1525037,53.6187119],[-2.1524972,53.6186706],[-2.1524927,53.6186303],[-2.1524123,53.6186367],[-2.1524015,53.6185882],[-2.1523962,53.6185484]]]}},
{"type":"Feature","properties":{"highway":"footway","name":null,"category":"Footpath (pedestrian only)"},"geometry":{"type":"MultiLineString","coordinates":[[[-2.1522213,53.618881],[-2.1521987,53.6188611],[-2.1522566,53.6188364],[-2.15223,53.6188096],[-2.1519187,53.6185206],[-2.1518821,53.6185324]]]}},
{"type":"Feature","properties":{"highway":"footway","name":null,"category":"Footpath (pedestrian only)"},"geometry":{"type":"MultiLineString","coordinates":[[[-2.1516395,53.6178789],[-2.15168,53.6179391],[-2.1517351,53.6179533]]]}},
{"type":"Feature","properties":{"highway":"footway","name":null,"category":"Footpath (pedestrian only)"},"geometry":{"type":"MultiLineString","coordinates":[[[-2.1537153,53.6138177],[-2.1537709,53.6138346]]]}},
{"type":"Feature","properties":{"highway":"footway","name":null,"category":"Footpath (pedestrian only)"},"geometry":{"type":"MultiLineString","coordinates":[[[-2.1547086,53.6131399],[-2.154661,53.6131174]]]}},
{"type":"Feature","properties":{"highway":"footway","name":null,"category":"Footpath (pedestrian only)"},"geometry":{"type":"MultiLineString","coordinates":[[[-2.1547724,53.6129812],[-2.1548508,53.6129661]]]}},
{"type":"Feature","properties":{"highway":"footway","name":null,"category":"Footpath (pedestrian only)"},"geometry":{"type":"MultiLineString","coordinates":[[[-2.1549734,53.6128788],[-2.155059,53.6128536],[-2.1550931,53.6128436]]]}},
{"type":"Feature","properties":{"highway":"footway","name":null,"category":"Footpath (pedestrian only)"},"geometry":{"type":"MultiLineString","coordinates":[[[-2.1542221,53.6106028],[-2.1541598,53.6106413],[-2.1540554,53.6106282],[-2.1539556,53.610619]]]}},
{"type":"Feature","properties":{"highway":"footway","name":null,"category":"Footpath (pedestrian only)"},"geometry":{"type":"MultiLineString","coordinates":[[[-2.1644017,53.6087394],[-2.1644211,53.6087762],[-2.1644442,53.6088035]]]}},
{"type":"Feature","properties":{"highway":"footway","name":null,"category":"Footpath (pedestrian only)"},"geometry":{"type":"MultiLineString","coordinates":[[[-2.1647316,53.6089354],[-2.16475,53.6089671],[-2.1647631,53.6089898]]]}},
{"type":"Feature","properties":{"highway":"footway","name":null,"category":"Footpath (pedestrian only)"},"geometry":{"type":"MultiLineString","coordinates":[[[-2.1647867,53.6088287],[-2.1648325,53.6088394],[-2.1648821,53.6088513],[-2.16491,53.608858]]]}},
{"type":"Feature","properties":{"highway":"footway","name":null,"category":"Footpath (pedestrian only)"},"geometry":{"type":"MultiLineString","coordinates":[[[-2.16441,53.6086929],[-2.1644219,53.6087118],[-2.1644312,53.6087265],[-2.1644017,53.6087394]]]}},
{"type":"Feature","properties":{"highway":"pedestrian","name":"Packer Street","category":"Pedestrian area/street"},"geometry":{"type":"MultiLineString","coordinates":[[[-2.1582225,53.616525],[-2.1581761,53.6165054],[-2.1581074,53.6164764],[-2.1580266,53.616401],[-2.1579759,53.6162922],[-2.1576562,53.6155773]]]}},
{"type":"Feature","properties":{"highway":"pedestrian","name":"Yorkshire Street","category":"Pedestrian area/street"},"geometry":{"type":"MultiLineString","coordinates":[[[-2.1579708,53.6166676],[-2.1580317,53.6167277],[-2.1580849,53.6167722],[-2.1581812,53.6168262],[-2.1582897,53.6168883],[-2.1583122,53.6169],[-2.1583746,53.6169324],[-2.1584428,53.616969],[-2.1585081,53.6170217],[-2.158536,53.6170904],[-2.158567,53.6171606],[-2.1585289,53.6173253],[-2.1585241,53.6173452],[-2.1584506,53.6174098],[-2.1582849,53.6175689],[-2.1581656,53.6177407],[-2.1579328,53.6180113],[-2.1572259,53.6183761],[-2.1570981,53.6184636],[-2.1569823,53.6185428],[-2.1568286,53.6186366],[-2.1564213,53.6188852],[-2.1560881,53.6190818]]]}},
{"type":"Feature","properties":{"highway":"pedestrian","name":"Smith Street","category":"Pedestrian area/street"},"geometry":{"type":"MultiLineString","coordinates":[[[-2.1546886,53.6173164],[-2.1549073,53.6172733],[-2.1549614,53.6172657],[-2.1550974,53.6172465]]]}},
{"type":"Feature","properties":{"highway":"pedestrian","name":"Lyceum Passage","category":"Pedestrian area/street"},"geometry":{"type":"MultiLineString","coordinates":[[[-2.1570102,53.6175138],[-2.1568982,53.6177648]]]}},
{"type":"Feature","properties":{"highway":"pedestrian","name":"Smith Street","category":"Pedestrian area/street"},"geometry":{"type":"MultiLineString","coordinates":[[[-2.1532661,53.6176395],[-2.153321,53.6176303],[-2.1534254,53.6176129],[-2.1535291,53.6175956],[-2.1535467,53.6175927],[-2.153628,53.6175795],[-2.1540962,53.6175167],[-2.1542444,53.6174968],[-2.1542675,53.6174937],[-2.1543962,53.6174691],[-2.1544824,53.6174348],[-2.1545687,53.6173836],[-2.1546886,53.6173164]]]}},
{"type":"Feature","properties":{"highway":"pedestrian","name":null,"category":"Pedestrian area/street"},"geometry":{"type":"MultiLineString","coordinates":[[[-2.1554206,53.6158931],[-2.1551067,53.6160043],[-2.155074,53.6160159]]]}},
{"type":"Feature","properties":{"highway":"pedestrian","name":"Trafalgar Street","category":"Pedestrian area/street"},"geometry":{"type":"MultiLineString","coordinates":[[[-2.1466455,53.619258],[-2.1465925,53.6191914],[-2.1464984,53.6190697]]]}},
{"type":"Feature","properties":{"highway":"pedestrian","name":"New Retail Street","category":"Pedestrian area/street"},"geometry":{"type":"MultiLineString","coordinates":[[[-2.1558191,53.6179235],[-2.1555218,53.6178377],[-2.1541973,53.617756]]]}},
{"type":"Feature","properties":{"highway":"pedestrian","name":null,"category":"Pedestrian area/street"},"geometry":{"type":"MultiLineString","coordinates":[[[-2.1540702,53.6152993],[-2.1542232,53.6152446],[-2.1542577,53.6152323]]]}},
{"type":"Feature","properties":{"highway":"pedestrian","name":null,"category":"Pedestrian area/street"},"geometry":{"type":"MultiLineString","coordinates":[[[-2.1614547,53.6089763],[-2.1616196,53.6092768]]]}},
{"type":"Feature","properties":{"highway":"pedestrian","name":null,"category":"Pedestrian area/street"},"geometry":{"type":"MultiLineString","coordinates":[[[-2.1622648,53.60882],[-2.1624244,53.6091249]]]}},
{"type":"Feature","properties":{"highway":"pedestrian","name":null,"category":"Pedestrian area/street"},"geometry":{"type":"MultiLineString","coordinates":[[[-2.1625902,53.6117544],[-2.1625215,53.6116517],[-2.1624589,53.6115595]]]}},
{"type":"Feature","properties":{"highway":"pedestrian","name":"The Esplanade","category":"Pedestrian area/street"},"geometry":{"type":"MultiLineString","coordinates":[[[-2.1602414,53.6155902],[-2.1601975,53.6156554],[-2.1601336,53.6157537],[-2.1600772,53.6158393],[-2.1598609,53.6159516],[-2.1596322,53.6160702],[-2.1595202,53.6161283],[-2.1594165,53.6161822],[-2.1591706,53.6163098],[-2.1589269,53.6164363],[-2.1586434,53.6165099],[-2.1585738,53.6165175]]]}},
{"type":"Feature","properties":{"highway":"pedestrian","name":null,"category":"Pedestrian area/street"},"geometry":{"type":"MultiLineString","coordinates":[[[-2.1568982,53.6170694],[-2.1573961,53.617087],[-2.1575149,53.6171456],[-2.1575264,53.617203]]]}},
{"type":"Feature","properties":{"highway":"pedestrian","name":null,"category":"Pedestrian area/street"},"geometry":{"type":"MultiLineString","coordinates":[[[-2.1573961,53.617087],[-2.1582582,53.6169131],[-2.1582775,53.6169092]]]}},
{"type":"Feature","properties":{"highway":"pedestrian","name":null,"category":"Pedestrian area/street"},"geometry":{"type":"MultiLineString","coordinates":[[[-2.1573961,53.617087],[-2.1573499,53.6168656]]]}},
{"type":"Feature","properties":{"highway":"pedestrian","name":null,"category":"Pedestrian area/street"},"geometry":{"type":"MultiLineString","coordinates":[[[-2.1595202,53.6161283],[-2.1590774,53.6158249]]]}},
{"type":"Feature","properties":{"highway":"pedestrian","name":"Yorkshire Street","category":"Pedestrian area/street"},"geometry":{"type":"MultiLineString","coordinates":[[[-2.1529315,53.620272],[-2.152968,53.6202564],[-2.1534247,53.6200825]]]}}
]
}
