{
"type": "FeatureCollection",
"name": "23cfef4df57d_foliage",
"crs": { "type": "name", "properties": { "name": "urn:ogc:def:crs:OGC:1.3:CRS84" } },
"features": [
{ "type": "Feature", "properties": { "max_height": 0.95225143432617188, "mean_height": 0.07470916211605072, "std_height": 0.19809529185295105, "count_pixels": 42, "percent_cover": 0.78125, "percent_above_0.1m": 19.047619047619047, "low_level_<0.5": 9.5238095238095237, "mid_level_0.5-2": 4.7619047619047619, "tall_2+": 0.0 }, "geometry": null },
{ "type": "Feature", "properties": { "max_height": 0.00099945068359375, "mean_height": -8.0729638284537941e-05, "std_height": 0.00077111064456403255, "count_pixels": 43, "percent_cover": 0.79985119047619047, "percent_above_0.1m": 0.0, "low_level_<0.5": 0.0, "mid_level_0.5-2": 0.0, "tall_2+": 0.0 }, "geometry": null },
{ "type": "Feature", "properties": { "max_height": 0.42500114440917969, "mean_height": 0.010192959569394588, "std_height": 0.064012080430984497, "count_pixels": 43, "percent_cover": 0.79985119047619047, "percent_above_0.1m": 2.3255813953488373, "low_level_<0.5": 2.3255813953488373, "mid_level_0.5-2": 0.0, "tall_2+": 0.0 }, "geometry": null },
{ "type": "Feature", "properties": { "max_height": 0.0162506103515625, "mean_height": 0.0004569530428852886, "std_height": 0.002741366159170866, "count_pixels": 40, "percent_cover": 0.74404761904761896, "percent_above_0.1m": 0.0, "low_level_<0.5": 0.0, "mid_level_0.5-2": 0.0, "tall_2+": 0.0 }, "geometry": null },
{ "type": "Feature", "properties": { "max_height": 8.5900001525878906, "mean_height": 1.8483961820602417, "std_height": 2.1771247386932373, "count_pixels": 43, "percent_cover": 0.79985119047619047, "percent_above_0.1m": 65.116279069767444, "low_level_<0.5": 9.3023255813953494, "mid_level_0.5-2": 13.953488372093023, "tall_2+": 39.534883720930232 }, "geometry": null },
{ "type": "Feature", "properties": { "max_height": 7.7432518005371094, "mean_height": 3.3031864166259766, "std_height": 2.4656047821044922, "count_pixels": 43, "percent_cover": 0.79985119047619047, "percent_above_0.1m": 88.372093023255815, "low_level_<0.5": 6.9767441860465116, "mid_level_0.5-2": 18.604651162790699, "tall_2+": 60.465116279069761 }, "geometry": null },
{ "type": "Feature", "properties": { "max_height": 0.095251083374023438, "mean_height": 0.0035602932330220938, "std_height": 0.015664659440517426, "count_pixels": 42, "percent_cover": 0.78125, "percent_above_0.1m": 0.0, "low_level_<0.5": 0.0, "mid_level_0.5-2": 0.0, "tall_2+": 0.0 }, "geometry": null },
{ "type": "Feature", "properties": { "max_height": 0.022001266479492188, "mean_height": 0.0010311778169125319, "std_height": 0.0039828810840845108, "count_pixels": 41, "percent_cover": 0.76264880952380953, "percent_above_0.1m": 0.0, "low_level_<0.5": 0.0, "mid_level_0.5-2": 0.0, "tall_2+": 0.0 }, "geometry": null },
{ "type": "Feature", "properties": { "max_height": 0.70900344848632812, "mean_height": 0.017311654984951019, "std_height": 0.10936731100082397, "count_pixels": 41, "percent_cover": 0.76264880952380953, "percent_above_0.1m": 2.4390243902439024, "low_level_<0.5": 0.0, "mid_level_0.5-2": 2.4390243902439024, "tall_2+": 0.0 }, "geometry": null },
{ "type": "Feature", "properties": { "max_height": 0.0012493133544921875, "mean_height": -1.1539459592313506e-05, "std_height": 0.00043994182487949729, "count_pixels": 40, "percent_cover": 0.74404761904761896, "percent_above_0.1m": 0.0, "low_level_<0.5": 0.0, "mid_level_0.5-2": 0.0, "tall_2+": 0.0 }, "geometry": null },
{ "type": "Feature", "properties": { "max_height": 0.4862518310546875, "mean_height": 0.027019690722227097, "std_height": 0.086876392364501953, "count_pixels": 40, "percent_cover": 0.74404761904761896, "percent_above_0.1m": 10.0, "low_level_<0.5": 7.5, "mid_level_0.5-2": 0.0, "tall_2+": 0.0 }, "geometry": null },
{ "type": "Feature", "properties": { "max_height": 0.12475109100341797, "mean_height": 0.015900731086730957, "std_height": 0.032170113176107407, "count_pixels": 40, "percent_cover": 0.74404761904761896, "percent_above_0.1m": 5.0, "low_level_<0.5": 0.0, "mid_level_0.5-2": 0.0, "tall_2+": 0.0 }, "geometry": null },
{ "type": "Feature", "properties": { "max_height": 0.073250770568847656, "mean_height": 0.0029153823852539062, "std_height": 0.012683099135756493, "count_pixels": 41, "percent_cover": 0.76264880952380953, "percent_above_0.1m": 0.0, "low_level_<0.5": 0.0, "mid_level_0.5-2": 0.0, "tall_2+": 0.0 }, "geometry": null },
{ "type": "Feature", "properties": { "max_height": 2.1310005187988281, "mean_height": 0.1070859506726265, "std_height": 0.40737554430961609, "count_pixels": 41, "percent_cover": 0.76264880952380953, "percent_above_0.1m": 7.3170731707317067, "low_level_<0.5": 0.0, "mid_level_0.5-2": 4.8780487804878048, "tall_2+": 2.4390243902439024 }, "geometry": null },
{ "type": "Feature", "properties": { "max_height": 0.0010013580322265625, "mean_height": -0.00011490612814668566, "std_height": 0.0004387267108540982, "count_pixels": 41, "percent_cover": 0.76264880952380953, "percent_above_0.1m": 0.0, "low_level_<0.5": 0.0, "mid_level_0.5-2": 0.0, "tall_2+": 0.0 }, "geometry": null },
{ "type": "Feature", "properties": { "max_height": 0.001499176025390625, "mean_height": 3.0426752346102148e-05, "std_height": 0.00049762689741328359, "count_pixels": 42, "percent_cover": 0.78125, "percent_above_0.1m": 0.0, "low_level_<0.5": 0.0, "mid_level_0.5-2": 0.0, "tall_2+": 0.0 }, "geometry": null },
{ "type": "Feature", "properties": { "max_height": 1.8005008697509766, "mean_height": 0.11055875569581985, "std_height": 0.36700913310050964, "count_pixels": 43, "percent_cover": 0.79985119047619047, "percent_above_0.1m": 11.627906976744185, "low_level_<0.5": 4.6511627906976747, "mid_level_0.5-2": 6.9767441860465116, "tall_2+": 0.0 }, "geometry": null },
{ "type": "Feature", "properties": { "max_height": 1.1672515869140625, "mean_height": 0.038087621331214905, "std_height": 0.18811842799186707, "count_pixels": 43, "percent_cover": 0.79985119047619047, "percent_above_0.1m": 4.6511627906976747, "low_level_<0.5": 2.3255813953488373, "mid_level_0.5-2": 2.3255813953488373, "tall_2+": 0.0 }, "geometry": null },
{ "type": "Feature", "properties": { "max_height": 6.7202491760253906, "mean_height": 1.4258382320404053, "std_height": 1.9958828687667847, "count_pixels": 40, "percent_cover": 0.74404761904761896, "percent_above_0.1m": 42.5, "low_level_<0.5": 2.5, "mid_level_0.5-2": 7.5, "tall_2+": 32.5 }, "geometry": null },
{ "type": "Feature", "properties": { "max_height": 7.1182518005371094, "mean_height": 0.52709954977035522, "std_height": 1.5498055219650269, "count_pixels": 43, "percent_cover": 0.79985119047619047, "percent_above_0.1m": 18.604651162790699, "low_level_<0.5": 6.9767441860465116, "mid_level_0.5-2": 2.3255813953488373, "tall_2+": 9.3023255813953494 }, "geometry": null },
{ "type": "Feature", "properties": { "max_height": 7.1455001831054688, "mean_height": 1.2266577482223511, "std_height": 2.2111408710479736, "count_pixels": 43, "percent_cover": 0.79985119047619047, "percent_above_0.1m": 32.558139534883722, "low_level_<0.5": 2.3255813953488373, "mid_level_0.5-2": 4.6511627906976747, "tall_2+": 25.581395348837212 }, "geometry": null },
{ "type": "Feature", "properties": { "max_height": 0.000751495361328125, "mean_height": -0.00015317476936616004, "std_height": 0.00045139197027310729, "count_pixels": 39, "percent_cover": 0.7254464285714286, "percent_above_0.1m": 0.0, "low_level_<0.5": 0.0, "mid_level_0.5-2": 0.0, "tall_2+": 0.0 }, "geometry": null },
{ "type": "Feature", "properties": { "max_height": 0.0019998550415039062, "mean_height": -3.99877862946596e-05, "std_height": 0.00054149213247001171, "count_pixels": 43, "percent_cover": 0.79985119047619047, "percent_above_0.1m": 0.0, "low_level_<0.5": 0.0, "mid_level_0.5-2": 0.0, "tall_2+": 0.0 }, "geometry": null },
{ "type": "Feature", "properties": { "max_height": 0.010251045227050781, "mean_height": 0.00021000795823056251, "std_height": 0.0016783395549282432, "count_pixels": 43, "percent_cover": 0.79985119047619047, "percent_above_0.1m": 0.0, "low_level_<0.5": 0.0, "mid_level_0.5-2": 0.0, "tall_2+": 0.0 }, "geometry": null },
{ "type": "Feature", "properties": { "max_height": 0.0020008087158203125, "mean_height": -5.2974337449995801e-05, "std_height": 0.00070386892184615135, "count_pixels": 42, "percent_cover": 0.78125, "percent_above_0.1m": 0.0, "low_level_<0.5": 0.0, "mid_level_0.5-2": 0.0, "tall_2+": 0.0 }, "geometry": null },
{ "type": "Feature", "properties": { "max_height": 0.0015010833740234375, "mean_height": 7.987603748915717e-05, "std_height": 0.000544946757145226, "count_pixels": 41, "percent_cover": 0.76264880952380953, "percent_above_0.1m": 0.0, "low_level_<0.5": 0.0, "mid_level_0.5-2": 0.0, "tall_2+": 0.0 }, "geometry": null },
{ "type": "Feature", "properties": { "max_height": 0.68400001525878906, "mean_height": 0.036275118589401245, "std_height": 0.129346564412117, "count_pixels": 41, "percent_cover": 0.76264880952380953, "percent_above_0.1m": 7.3170731707317067, "low_level_<0.5": 2.4390243902439024, "mid_level_0.5-2": 2.4390243902439024, "tall_2+": 0.0 }, "geometry": null },
{ "type": "Feature", "properties": { "max_height": 2.4497509002685547, "mean_height": 0.096063137054443359, "std_height": 0.42113626003265381, "count_pixels": 40, "percent_cover": 0.74404761904761896, "percent_above_0.1m": 7.5, "low_level_<0.5": 2.5, "mid_level_0.5-2": 2.5, "tall_2+": 2.5 }, "geometry": null },
{ "type": "Feature", "properties": { "max_height": 4.7692508697509766, "mean_height": 0.49903807044029236, "std_height": 1.3002527952194214, "count_pixels": 40, "percent_cover": 0.74404761904761896, "percent_above_0.1m": 17.5, "low_level_<0.5": 0.0, "mid_level_0.5-2": 7.5, "tall_2+": 10.0 }, "geometry": null },
{ "type": "Feature", "properties": { "max_height": 0.93575096130371094, "mean_height": 0.090415351092815399, "std_height": 0.22877016663551331, "count_pixels": 41, "percent_cover": 0.76264880952380953, "percent_above_0.1m": 19.512195121951219, "low_level_<0.5": 9.7560975609756095, "mid_level_0.5-2": 7.3170731707317067, "tall_2+": 0.0 }, "geometry": null },
{ "type": "Feature", "properties": { "max_height": 7.8472518920898438, "mean_height": 2.4059510231018066, "std_height": 2.251356840133667, "count_pixels": 40, "percent_cover": 0.74404761904761896, "percent_above_0.1m": 77.5, "low_level_<0.5": 5.0, "mid_level_0.5-2": 20.0, "tall_2+": 52.5 }, "geometry": null },
{ "type": "Feature", "properties": { "max_height": 4.5052509307861328, "mean_height": 0.38045182824134827, "std_height": 0.88374614715576172, "count_pixels": 41, "percent_cover": 0.76264880952380953, "percent_above_0.1m": 34.146341463414636, "low_level_<0.5": 7.3170731707317067, "mid_level_0.5-2": 19.512195121951219, "tall_2+": 4.8780487804878048 }, "geometry": null },
{ "type": "Feature", "properties": { "max_height": 0.67100048065185547, "mean_height": 0.041110482066869736, "std_height": 0.12316758185625076, "count_pixels": 41, "percent_cover": 0.76264880952380953, "percent_above_0.1m": 12.195121951219512, "low_level_<0.5": 9.7560975609756095, "mid_level_0.5-2": 2.4390243902439024, "tall_2+": 0.0 }, "geometry": null },
{ "type": "Feature", "properties": { "max_height": 0.002750396728515625, "mean_height": 0.00017142877914011478, "std_height": 0.00062331627123057842, "count_pixels": 41, "percent_cover": 0.76264880952380953, "percent_above_0.1m": 0.0, "low_level_<0.5": 0.0, "mid_level_0.5-2": 0.0, "tall_2+": 0.0 }, "geometry": null },
{ "type": "Feature", "properties": { "max_height": 0.0012502670288085938, "mean_height": -0.00018971307144965976, "std_height": 0.00066787307150661945, "count_pixels": 42, "percent_cover": 0.78125, "percent_above_0.1m": 0.0, "low_level_<0.5": 0.0, "mid_level_0.5-2": 0.0, "tall_2+": 0.0 }, "geometry": null },
{ "type": "Feature", "properties": { "max_height": 0.001251220703125, "mean_height": -2.246679287054576e-05, "std_height": 0.00065334734972566366, "count_pixels": 43, "percent_cover": 0.79985119047619047, "percent_above_0.1m": 0.0, "low_level_<0.5": 0.0, "mid_level_0.5-2": 0.0, "tall_2+": 0.0 }, "geometry": null },
{ "type": "Feature", "properties": { "max_height": 0.027500152587890625, "mean_height": 0.00075080781243741512, "std_height": 0.0042909765616059303, "count_pixels": 43, "percent_cover": 0.79985119047619047, "percent_above_0.1m": 0.0, "low_level_<0.5": 0.0, "mid_level_0.5-2": 0.0, "tall_2+": 0.0 }, "geometry": null },
{ "type": "Feature", "properties": { "max_height": 0.4160003662109375, "mean_height": 0.010694432072341442, "std_height": 0.064929172396659851, "count_pixels": 40, "percent_cover": 0.74404761904761896, "percent_above_0.1m": 2.5, "low_level_<0.5": 2.5, "mid_level_0.5-2": 0.0, "tall_2+": 0.0 }, "geometry": null },
{ "type": "Feature", "properties": { "max_height": 7.4212512969970703, "mean_height": 1.1726868152618408, "std_height": 2.2309494018554688, "count_pixels": 43, "percent_cover": 0.79985119047619047, "percent_above_0.1m": 39.534883720930232, "low_level_<0.5": 9.3023255813953494, "mid_level_0.5-2": 9.3023255813953494, "tall_2+": 18.604651162790699 }, "geometry": null },
{ "type": "Feature", "properties": { "max_height": 1.8012504577636719, "mean_height": 0.32106480002403259, "std_height": 0.45025342702865601, "count_pixels": 43, "percent_cover": 0.79985119047619047, "percent_above_0.1m": 51.162790697674424, "low_level_<0.5": 23.255813953488371, "mid_level_0.5-2": 23.255813953488371, "tall_2+": 0.0 }, "geometry": null },
{ "type": "Feature", "properties": { "max_height": 5.5040016174316406, "mean_height": 0.93359082937240601, "std_height": 1.5640910863876343, "count_pixels": 39, "percent_cover": 0.7254464285714286, "percent_above_0.1m": 43.589743589743591, "low_level_<0.5": 10.256410256410255, "mid_level_0.5-2": 17.948717948717949, "tall_2+": 15.384615384615385 }, "geometry": null },
{ "type": "Feature", "properties": { "max_height": 6.3415012359619141, "mean_height": 3.6505241394042969, "std_height": 2.3154916763305664, "count_pixels": 43, "percent_cover": 0.79985119047619047, "percent_above_0.1m": 95.348837209302332, "low_level_<0.5": 4.6511627906976747, "mid_level_0.5-2": 13.953488372093023, "tall_2+": 72.093023255813947 }, "geometry": null },
{ "type": "Feature", "properties": { "max_height": 1.4805011749267578, "mean_height": 0.14745417237281799, "std_height": 0.33385884761810303, "count_pixels": 43, "percent_cover": 0.79985119047619047, "percent_above_0.1m": 20.930232558139537, "low_level_<0.5": 2.3255813953488373, "mid_level_0.5-2": 13.953488372093023, "tall_2+": 0.0 }, "geometry": null },
{ "type": "Feature", "properties": { "max_height": 0.001251220703125, "mean_height": -3.508158988552168e-05, "std_height": 0.00051917636301368475, "count_pixels": 42, "percent_cover": 0.78125, "percent_above_0.1m": 0.0, "low_level_<0.5": 0.0, "mid_level_0.5-2": 0.0, "tall_2+": 0.0 }, "geometry": null },
{ "type": "Feature", "properties": { "max_height": 0.0019998550415039062, "mean_height": -0.00029805811936967075, "std_height": 0.0009693476022221148, "count_pixels": 41, "percent_cover": 0.76264880952380953, "percent_above_0.1m": 0.0, "low_level_<0.5": 0.0, "mid_level_0.5-2": 0.0, "tall_2+": 0.0 }, "geometry": null },
{ "type": "Feature", "properties": { "max_height": 1.6200008392333984, "mean_height": 0.091354414820671082, "std_height": 0.26879629492759705, "count_pixels": 41, "percent_cover": 0.76264880952380953, "percent_above_0.1m": 19.512195121951219, "low_level_<0.5": 12.195121951219512, "mid_level_0.5-2": 4.8780487804878048, "tall_2+": 0.0 }, "geometry": null },
{ "type": "Feature", "properties": { "max_height": 1.3257503509521484, "mean_height": 0.095575645565986633, "std_height": 0.29636681079864502, "count_pixels": 40, "percent_cover": 0.74404761904761896, "percent_above_0.1m": 10.0, "low_level_<0.5": 2.5, "mid_level_0.5-2": 7.5, "tall_2+": 0.0 }, "geometry": null },
{ "type": "Feature", "properties": { "max_height": 6.3360004425048828, "mean_height": 2.8960375785827637, "std_height": 2.5753142833709717, "count_pixels": 41, "percent_cover": 0.76264880952380953, "percent_above_0.1m": 82.926829268292678, "low_level_<0.5": 9.7560975609756095, "mid_level_0.5-2": 17.073170731707318, "tall_2+": 53.658536585365859 }, "geometry": null },
{ "type": "Feature", "properties": { "max_height": 0.16774940490722656, "mean_height": 0.004122687503695488, "std_height": 0.02587832510471344, "count_pixels": 41, "percent_cover": 0.76264880952380953, "percent_above_0.1m": 2.4390243902439024, "low_level_<0.5": 2.4390243902439024, "mid_level_0.5-2": 0.0, "tall_2+": 0.0 }, "geometry": null },
{ "type": "Feature", "properties": { "max_height": 1.6007509231567383, "mean_height": 0.16745893657207489, "std_height": 0.35230454802513123, "count_pixels": 42, "percent_cover": 0.78125, "percent_above_0.1m": 23.809523809523807, "low_level_<0.5": 7.1428571428571423, "mid_level_0.5-2": 16.666666666666664, "tall_2+": 0.0 }, "geometry": null },
{ "type": "Feature", "properties": { "max_height": 6.2657527923583984, "mean_height": 1.0765007734298706, "std_height": 1.80247962474823, "count_pixels": 43, "percent_cover": 0.79985119047619047, "percent_above_0.1m": 72.093023255813947, "low_level_<0.5": 30.232558139534881, "mid_level_0.5-2": 16.279069767441861, "tall_2+": 18.604651162790699 }, "geometry": null }
]
}
