{
"type": "FeatureCollection",
"name": "6ffb59d3f33c_visibility",
"crs": { "type": "name", "properties": { "name": "urn:ogc:def:crs:OGC:1.3:CRS84" } },
"features": [
{ "type": "Feature", "properties": { "visible_points": 0, "total_points": 46, "visibility_pct": 0.0 }, "geometry": null },
{ "type": "Feature", "properties": { "visible_points": 3, "total_points": 51, "visibility_pct": 5.8823529411764701 }, "geometry": null },
{ "type": "Feature", "properties": { "visible_points": 7, "total_points": 56, "visibility_pct": 12.5 }, "geometry": null },
{ "type": "Feature", "properties": { "visible_points": 10, "total_points": 62, "visibility_pct": 16.129032258064516 }, "geometry": null },
{ "type": "Feature", "properties": { "visible_points": 4, "total_points": 66, "visibility_pct": 6.0606060606060606 }, "geometry": null },
{ "type": "Feature", "properties": { "visible_points": 12, "total_points": 66, "visibility_pct": 18.181818181818183 }, "geometry": null },
{ "type": "Feature", "properties": { "visible_points": 13, "total_points": 73, "visibility_pct": 17.80821917808219 }, "geometry": null },
{ "type": "Feature", "properties": { "visible_points": 12, "total_points": 78, "visibility_pct": 15.384615384615385 }, "geometry": null },
{ "type": "Feature", "properties": { "visible_points": 3, "total_points": 80, "visibility_pct": 3.75 }, "geometry": null },
{ "type": "Feature", "properties": { "visible_points": 6, "total_points": 69, "visibility_pct": 8.695652173913043 }, "geometry": null },
{ "type": "Feature", "properties": { "visible_points": 12, "total_points": 77, "visibility_pct": 15.584415584415584 }, "geometry": null },
{ "type": "Feature", "properties": { "visible_points": 13, "total_points": 84, "visibility_pct": 15.476190476190476 }, "geometry": null },
{ "type": "Feature", "properties": { "visible_points": 14, "total_points": 90, "visibility_pct": 15.555555555555555 }, "geometry": null },
{ "type": "Feature", "properties": { "visible_points": 13, "total_points": 89, "visibility_pct": 14.606741573033707 }, "geometry": null },
{ "type": "Feature", "properties": { "visible_points": 2, "total_points": 83, "visibility_pct": 2.4096385542168677 }, "geometry": null },
{ "type": "Feature", "properties": { "visible_points": 13, "total_points": 80, "visibility_pct": 16.25 }, "geometry": null },
{ "type": "Feature", "properties": { "visible_points": 14, "total_points": 89, "visibility_pct": 15.730337078651685 }, "geometry": null },
{ "type": "Feature", "properties": { "visible_points": 16, "total_points": 95, "visibility_pct": 16.842105263157894 }, "geometry": null },
{ "type": "Feature", "properties": { "visible_points": 13, "total_points": 98, "visibility_pct": 13.26530612244898 }, "geometry": null },
{ "type": "Feature", "properties": { "visible_points": 9, "total_points": 95, "visibility_pct": 9.4736842105263168 }, "geometry": null },
{ "type": "Feature", "properties": { "visible_points": 4, "total_points": 90, "visibility_pct": 4.4444444444444446 }, "geometry": null },
{ "type": "Feature", "properties": { "visible_points": 0, "total_points": 83, "visibility_pct": 0.0 }, "geometry": null },
{ "type": "Feature", "properties": { "visible_points": 1, "total_points": 78, "visibility_pct": 1.2820512820512819 }, "geometry": null },
{ "type": "Feature", "properties": { "visible_points": 14, "total_points": 89, "visibility_pct": 15.730337078651685 }, "geometry": null },
{ "type": "Feature", "properties": { "visible_points": 14, "total_points": 98, "visibility_pct": 14.285714285714285 }, "geometry": null },
{ "type": "Feature", "properties": { "visible_points": 12, "total_points": 104, "visibility_pct": 11.538461538461538 }, "geometry": null },
{ "type": "Feature", "properties": { "visible_points": 16, "total_points": 106, "visibility_pct": 15.09433962264151 }, "geometry": null },
{ "type": "Feature", "properties": { "visible_points": 17, "total_points": 101, "visibility_pct": 16.831683168316832 }, "geometry": null },
{ "type": "Feature", "properties": { "visible_points": 51, "total_points": 96, "visibility_pct": 53.125 }, "geometry": null },
{ "type": "Feature", "properties": { "visible_points": 13, "total_points": 88, "visibility_pct": 14.772727272727273 }, "geometry": null },
{ "type": "Feature", "properties": { "visible_points": 0, "total_points": 78, "visibility_pct": 0.0 }, "geometry": null },
{ "type": "Feature", "properties": { "visible_points": 0, "total_points": 84, "visibility_pct": 0.0 }, "geometry": null },
{ "type": "Feature", "properties": { "visible_points": 9, "total_points": 96, "visibility_pct": 9.375 }, "geometry": null },
{ "type": "Feature", "properties": { "visible_points": 16, "total_points": 105, "visibility_pct": 15.238095238095239 }, "geometry": null },
{ "type": "Feature", "properties": { "visible_points": 21, "total_points": 111, "visibility_pct": 18.918918918918919 }, "geometry": null },
{ "type": "Feature", "properties": { "visible_points": 23, "total_points": 111, "visibility_pct": 20.72072072072072 }, "geometry": null },
{ "type": "Feature", "properties": { "visible_points": 21, "total_points": 107, "visibility_pct": 19.626168224299064 }, "geometry": null },
{ "type": "Feature", "properties": { "visible_points": 36, "total_points": 100, "visibility_pct": 36.0 }, "geometry": null },
{ "type": "Feature", "properties": { "visible_points": 28, "total_points": 91, "visibility_pct": 30.76923076923077 }, "geometry": null },
{ "type": "Feature", "properties": { "visible_points": 21, "total_points": 80, "visibility_pct": 26.25 }, "geometry": null },
{ "type": "Feature", "properties": { "visible_points": 10, "total_points": 69, "visibility_pct": 14.492753623188406 }, "geometry": null },
{ "type": "Feature", "properties": { "visible_points": 0, "total_points": 58, "visibility_pct": 0.0 }, "geometry": null },
{ "type": "Feature", "properties": { "visible_points": 0, "total_points": 89, "visibility_pct": 0.0 }, "geometry": null },
{ "type": "Feature", "properties": { "visible_points": 14, "total_points": 101, "visibility_pct": 13.861386138613863 }, "geometry": null },
{ "type": "Feature", "properties": { "visible_points": 28, "total_points": 111, "visibility_pct": 25.225225225225223 }, "geometry": null },
{ "type": "Feature", "properties": { "visible_points": 31, "total_points": 116, "visibility_pct": 26.72413793103448 }, "geometry": null },
{ "type": "Feature", "properties": { "visible_points": 33, "total_points": 115, "visibility_pct": 28.695652173913043 }, "geometry": null },
{ "type": "Feature", "properties": { "visible_points": 32, "total_points": 112, "visibility_pct": 28.571428571428569 }, "geometry": null },
{ "type": "Feature", "properties": { "visible_points": 20, "total_points": 103, "visibility_pct": 19.417475728155338 }, "geometry": null },
{ "type": "Feature", "properties": { "visible_points": 20, "total_points": 92, "visibility_pct": 21.739130434782609 }, "geometry": null },
{ "type": "Feature", "properties": { "visible_points": 21, "total_points": 81, "visibility_pct": 25.925925925925924 }, "geometry": null },
{ "type": "Feature", "properties": { "visible_points": 14, "total_points": 69, "visibility_pct": 20.289855072463769 }, "geometry": null },
{ "type": "Feature", "properties": { "visible_points": 3, "total_points": 82, "visibility_pct": 3.6585365853658534 }, "geometry": null },
{ "type": "Feature", "properties": { "visible_points": 15, "total_points": 94, "visibility_pct": 15.957446808510639 }, "geometry": null },
{ "type": "Feature", "properties": { "visible_points": 30, "total_points": 105, "visibility_pct": 28.571428571428569 }, "geometry": null },
{ "type": "Feature", "properties": { "visible_points": 47, "total_points": 114, "visibility_pct": 41.228070175438596 }, "geometry": null },
{ "type": "Feature", "properties": { "visible_points": 42, "total_points": 119, "visibility_pct": 35.294117647058826 }, "geometry": null },
{ "type": "Feature", "properties": { "visible_points": 39, "total_points": 118, "visibility_pct": 33.050847457627121 }, "geometry": null },
{ "type": "Feature", "properties": { "visible_points": 31, "total_points": 114, "visibility_pct": 27.192982456140353 }, "geometry": null },
{ "type": "Feature", "properties": { "visible_points": 24, "total_points": 104, "visibility_pct": 23.076923076923077 }, "geometry": null },
{ "type": "Feature", "properties": { "visible_points": 21, "total_points": 92, "visibility_pct": 22.826086956521738 }, "geometry": null },
{ "type": "Feature", "properties": { "visible_points": 18, "total_points": 79, "visibility_pct": 22.784810126582279 }, "geometry": null },
{ "type": "Feature", "properties": { "visible_points": 16, "total_points": 67, "visibility_pct": 23.880597014925371 }, "geometry": null },
{ "type": "Feature", "properties": { "visible_points": 0, "total_points": 83, "visibility_pct": 0.0 }, "geometry": null },
{ "type": "Feature", "properties": { "visible_points": 25, "total_points": 94, "visibility_pct": 26.595744680851062 }, "geometry": null },
{ "type": "Feature", "properties": { "visible_points": 36, "total_points": 104, "visibility_pct": 34.615384615384613 }, "geometry": null },
{ "type": "Feature", "properties": { "visible_points": 41, "total_points": 111, "visibility_pct": 36.936936936936938 }, "geometry": null },
{ "type": "Feature", "properties": { "visible_points": 42, "total_points": 115, "visibility_pct": 36.521739130434781 }, "geometry": null },
{ "type": "Feature", "properties": { "visible_points": 41, "total_points": 115, "visibility_pct": 35.652173913043477 }, "geometry": null },
{ "type": "Feature", "properties": { "visible_points": 35, "total_points": 109, "visibility_pct": 32.11009174311927 }, "geometry": null },
{ "type": "Feature", "properties": { "visible_points": 25, "total_points": 97, "visibility_pct": 25.773195876288657 }, "geometry": null },
{ "type": "Feature", "properties": { "visible_points": 24, "total_points": 85, "visibility_pct": 28.235294117647058 }, "geometry": null },
{ "type": "Feature", "properties": { "visible_points": 0, "total_points": 73, "visibility_pct": 0.0 }, "geometry": null },
{ "type": "Feature", "properties": { "visible_points": 10, "total_points": 81, "visibility_pct": 12.345679012345679 }, "geometry": null },
{ "type": "Feature", "properties": { "visible_points": 33, "total_points": 91, "visibility_pct": 36.263736263736263 }, "geometry": null },
{ "type": "Feature", "properties": { "visible_points": 37, "total_points": 99, "visibility_pct": 37.373737373737377 }, "geometry": null },
{ "type": "Feature", "properties": { "visible_points": 38, "total_points": 105, "visibility_pct": 36.19047619047619 }, "geometry": null },
{ "type": "Feature", "properties": { "visible_points": 39, "total_points": 107, "visibility_pct": 36.44859813084112 }, "geometry": null },
{ "type": "Feature", "properties": { "visible_points": 36, "total_points": 105, "visibility_pct": 34.285714285714285 }, "geometry": null },
{ "type": "Feature", "properties": { "visible_points": 31, "total_points": 97, "visibility_pct": 31.958762886597935 }, "geometry": null },
{ "type": "Feature", "properties": { "visible_points": 25, "total_points": 87, "visibility_pct": 28.735632183908045 }, "geometry": null },
{ "type": "Feature", "properties": { "visible_points": 0, "total_points": 76, "visibility_pct": 0.0 }, "geometry": null },
{ "type": "Feature", "properties": { "visible_points": 14, "total_points": 69, "visibility_pct": 20.289855072463769 }, "geometry": null },
{ "type": "Feature", "properties": { "visible_points": 23, "total_points": 78, "visibility_pct": 29.487179487179489 }, "geometry": null },
{ "type": "Feature", "properties": { "visible_points": 28, "total_points": 86, "visibility_pct": 32.558139534883722 }, "geometry": null },
{ "type": "Feature", "properties": { "visible_points": 34, "total_points": 93, "visibility_pct": 36.55913978494624 }, "geometry": null },
{ "type": "Feature", "properties": { "visible_points": 35, "total_points": 98, "visibility_pct": 35.714285714285715 }, "geometry": null },
{ "type": "Feature", "properties": { "visible_points": 34, "total_points": 98, "visibility_pct": 34.693877551020407 }, "geometry": null },
{ "type": "Feature", "properties": { "visible_points": 33, "total_points": 92, "visibility_pct": 35.869565217391305 }, "geometry": null },
{ "type": "Feature", "properties": { "visible_points": 31, "total_points": 84, "visibility_pct": 36.904761904761905 }, "geometry": null },
{ "type": "Feature", "properties": { "visible_points": 25, "total_points": 75, "visibility_pct": 33.333333333333329 }, "geometry": null },
{ "type": "Feature", "properties": { "visible_points": 0, "total_points": 65, "visibility_pct": 0.0 }, "geometry": null },
{ "type": "Feature", "properties": { "visible_points": 18, "total_points": 65, "visibility_pct": 27.692307692307693 }, "geometry": null },
{ "type": "Feature", "properties": { "visible_points": 19, "total_points": 73, "visibility_pct": 26.027397260273972 }, "geometry": null },
{ "type": "Feature", "properties": { "visible_points": 24, "total_points": 80, "visibility_pct": 30.0 }, "geometry": null },
{ "type": "Feature", "properties": { "visible_points": 28, "total_points": 86, "visibility_pct": 32.558139534883722 }, "geometry": null },
{ "type": "Feature", "properties": { "visible_points": 30, "total_points": 88, "visibility_pct": 34.090909090909086 }, "geometry": null },
{ "type": "Feature", "properties": { "visible_points": 31, "total_points": 85, "visibility_pct": 36.470588235294116 }, "geometry": null },
{ "type": "Feature", "properties": { "visible_points": 31, "total_points": 79, "visibility_pct": 39.24050632911392 }, "geometry": null },
{ "type": "Feature", "properties": { "visible_points": 27, "total_points": 71, "visibility_pct": 38.028169014084504 }, "geometry": null },
{ "type": "Feature", "properties": { "visible_points": 2, "total_points": 63, "visibility_pct": 3.1746031746031744 }, "geometry": null },
{ "type": "Feature", "properties": { "visible_points": 0, "total_points": 53, "visibility_pct": 0.0 }, "geometry": null },
{ "type": "Feature", "properties": { "visible_points": 17, "total_points": 60, "visibility_pct": 28.333333333333332 }, "geometry": null },
{ "type": "Feature", "properties": { "visible_points": 17, "total_points": 67, "visibility_pct": 25.373134328358208 }, "geometry": null },
{ "type": "Feature", "properties": { "visible_points": 22, "total_points": 73, "visibility_pct": 30.136986301369863 }, "geometry": null },
{ "type": "Feature", "properties": { "visible_points": 22, "total_points": 77, "visibility_pct": 28.571428571428569 }, "geometry": null },
{ "type": "Feature", "properties": { "visible_points": 27, "total_points": 76, "visibility_pct": 35.526315789473685 }, "geometry": null },
{ "type": "Feature", "properties": { "visible_points": 27, "total_points": 72, "visibility_pct": 37.5 }, "geometry": null },
{ "type": "Feature", "properties": { "visible_points": 0, "total_points": 66, "visibility_pct": 0.0 }, "geometry": null },
{ "type": "Feature", "properties": { "visible_points": 2, "total_points": 59, "visibility_pct": 3.3898305084745761 }, "geometry": null }
]
}
