{
"type": "FeatureCollection",
"name": "PREST_20_walking",
"crs": { "type": "name", "properties": { "name": "urn:ogc:def:crs:OGC:1.3:CRS84" } },
"features": [
{"type":"Feature","properties":{"highway":"footway","name":null,"category":"Footpath (pedestrian only)"},"geometry":{"type":"MultiLineString","coordinates":[[[-2.6631421,53.7974378],[-2.6613072,53.7980592],[-2.6609153,53.7981346],[-2.6601314,53.7982518],[-2.6596146,53.7983352],[-2.6584205,53.7988908],[-2.6576964,53.7991437]]]}},
{"type":"Feature","properties":{"highway":"track","name":null,"category":"Track"},"geometry":{"type":"MultiLineString","coordinates":[[[-2.6773434,53.7980522],[-2.678063,53.798179],[-2.6787221,53.7983095],[-2.6797367,53.7982804],[-2.6806641,53.7983411],[-2.6816249,53.7983818]]]}},
{"type":"Feature","properties":{"highway":"footway","name":"Newby Place","category":"Footpath (pedestrian only)"},"geometry":{"type":"MultiLineString","coordinates":[[[-2.6722172,53.7809582],[-2.6725398,53.7816276]]]}},
{"type":"Feature","properties":{"highway":"path","name":"Moorland Avenue","category":"Shared path"},"geometry":{"type":"MultiLineString","coordinates":[[[-2.6757301,53.7829344],[-2.6758006,53.782923],[-2.6758616,53.782898],[-2.6759313,53.7828774],[-2.6760212,53.7828592],[-2.6760949,53.7828473]]]}},
{"type":"Feature","properties":{"highway":"path","name":null,"category":"Shared path"},"geometry":{"type":"MultiLineString","coordinates":[[[-2.6784196,53.7839649],[-2.6783676,53.7838847]]]}},
{"type":"Feature","properties":{"highway":"path","name":null,"category":"Shared path"},"geometry":{"type":"MultiLineString","coordinates":[[[-2.6765218,53.7843121],[-2.6766135,53.7844491],[-2.6764754,53.7851981],[-2.6764679,53.7852391],[-2.6764999,53.785401]]]}},
{"type":"Feature","properties":{"highway":"path","name":null,"category":"Shared path"},"geometry":{"type":"MultiLineString","coordinates":[[[-2.6742392,53.7839762],[-2.6739518,53.783907],[-2.6739619,53.7839094]]]}},
{"type":"Feature","properties":{"highway":"path","name":null,"category":"Shared path"},"geometry":{"type":"MultiLineString","coordinates":[[[-2.6743204,53.7857999],[-2.6741615,53.7855505],[-2.6734702,53.784465],[-2.6733461,53.7844045],[-2.6730658,53.784395],[-2.6722732,53.7845702]]]}},
{"type":"Feature","properties":{"highway":"path","name":null,"category":"Shared path"},"geometry":{"type":"MultiLineString","coordinates":[[[-2.6734702,53.784465],[-2.6739554,53.7842707],[-2.6740093,53.7842134]]]}},
{"type":"Feature","properties":{"highway":"footway","name":null,"category":"Footpath (pedestrian only)"},"geometry":{"type":"MultiLineString","coordinates":[[[-2.6764679,53.7852391],[-2.6757998,53.7855145],[-2.6758472,53.7856178],[-2.6758276,53.7857378],[-2.6758997,53.7859226],[-2.6760705,53.7860781]]]}},
{"type":"Feature","properties":{"highway":"footway","name":null,"category":"Footpath (pedestrian only)"},"geometry":{"type":"MultiLineString","coordinates":[[[-2.6757998,53.7855145],[-2.6757952,53.7854189]]]}},
{"type":"Feature","properties":{"highway":"footway","name":null,"category":"Footpath (pedestrian only)"},"geometry":{"type":"MultiLineString","coordinates":[[[-2.6718752,53.7867853],[-2.6717777,53.7867518],[-2.6717291,53.7867087],[-2.6716261,53.7865225],[-2.6714606,53.7863609],[-2.6715732,53.7862789]]]}},
{"type":"Feature","properties":{"highway":"path","name":null,"category":"Shared path"},"geometry":{"type":"MultiLineString","coordinates":[[[-2.6651994,53.7857284],[-2.6654713,53.7858143]]]}},
{"type":"Feature","properties":{"highway":"path","name":null,"category":"Shared path"},"geometry":{"type":"MultiLineString","coordinates":[[[-2.6658083,53.7858541],[-2.6663475,53.7859885],[-2.6668108,53.7859785],[-2.6673562,53.7860235],[-2.6677543,53.7861378]]]}},
{"type":"Feature","properties":{"highway":"path","name":null,"category":"Shared path"},"geometry":{"type":"MultiLineString","coordinates":[[[-2.6677543,53.7861378],[-2.6678853,53.7864086],[-2.667906,53.7864513],[-2.6681453,53.7869565],[-2.668293,53.7872853],[-2.6686121,53.7880089],[-2.668649,53.7881077],[-2.6686806,53.7881753]]]}},
{"type":"Feature","properties":{"highway":"path","name":null,"category":"Shared path"},"geometry":{"type":"MultiLineString","coordinates":[[[-2.668293,53.7872853],[-2.6684702,53.7870842]]]}},
{"type":"Feature","properties":{"highway":"path","name":null,"category":"Shared path"},"geometry":{"type":"MultiLineString","coordinates":[[[-2.668293,53.7872853],[-2.6679818,53.7870983],[-2.6681453,53.7869565],[-2.668434,53.787029]]]}},
{"type":"Feature","properties":{"highway":"path","name":null,"category":"Shared path"},"geometry":{"type":"MultiLineString","coordinates":[[[-2.6678853,53.7864086],[-2.6681586,53.7863406]]]}},
{"type":"Feature","properties":{"highway":"path","name":null,"category":"Shared path"},"geometry":{"type":"MultiLineString","coordinates":[[[-2.667906,53.7864513],[-2.6676869,53.7864911],[-2.6675649,53.7865124]]]}},
{"type":"Feature","properties":{"highway":"path","name":null,"category":"Shared path"},"geometry":{"type":"MultiLineString","coordinates":[[[-2.6613154,53.7858483],[-2.6616341,53.7856422],[-2.6620889,53.7853614],[-2.6636941,53.7853895],[-2.6643238,53.7855092],[-2.6647854,53.7856723],[-2.6651994,53.7857284],[-2.6660793,53.7857488],[-2.6663473,53.7857449],[-2.6667781,53.7857386],[-2.6674165,53.7855806],[-2.6682705,53.7851091],[-2.669049,53.7847963],[-2.6691784,53.784637],[-2.6699009,53.7844204],[-2.6701813,53.7843599],[-2.6702028,53.7842962],[-2.6705479,53.784207],[-2.670715,53.7841306],[-2.6719174,53.7839267],[-2.6726722,53.7839139],[-2.6730766,53.7839904],[-2.6731821,53.7839629]]]}},
{"type":"Feature","properties":{"highway":"path","name":null,"category":"Shared path"},"geometry":{"type":"MultiLineString","coordinates":[[[-2.6642329,53.785655],[-2.6643088,53.7859375],[-2.6644688,53.7858541],[-2.6649069,53.785864],[-2.6651933,53.7858242],[-2.6654713,53.7858143],[-2.6656482,53.7858441],[-2.6658083,53.7858541],[-2.6660442,53.7858192],[-2.6663473,53.7857449]]]}},
{"type":"Feature","properties":{"highway":"path","name":null,"category":"Shared path"},"geometry":{"type":"MultiLineString","coordinates":[[[-2.6679818,53.7870983],[-2.6678887,53.7870994],[-2.6678635,53.7871098]]]}},
{"type":"Feature","properties":{"highway":"path","name":null,"category":"Shared path"},"geometry":{"type":"MultiLineString","coordinates":[[[-2.6757952,53.7854189],[-2.6757408,53.7853293],[-2.6741615,53.7855505]]]}},
{"type":"Feature","properties":{"highway":"footway","name":null,"category":"Footpath (pedestrian only)"},"geometry":{"type":"MultiLineString","coordinates":[[[-2.6722732,53.7845702],[-2.67216,53.7846763]]]}},
{"type":"Feature","properties":{"highway":"footway","name":null,"category":"Footpath (pedestrian only)"},"geometry":{"type":"MultiLineString","coordinates":[[[-2.6708922,53.7874674],[-2.6709867,53.7875401],[-2.6711739,53.7876841]]]}},
{"type":"Feature","properties":{"highway":"path","name":null,"category":"Shared path"},"geometry":{"type":"MultiLineString","coordinates":[[[-2.685694,53.7897712],[-2.6861034,53.7893159]]]}},
{"type":"Feature","properties":{"highway":"path","name":null,"category":"Shared path"},"geometry":{"type":"MultiLineString","coordinates":[[[-2.6826801,53.7868879],[-2.6830084,53.7868558],[-2.6853221,53.7866298],[-2.6871374,53.7863211],[-2.6878213,53.7860555],[-2.6881575,53.7859309],[-2.689858,53.7855609],[-2.6929032,53.7853896],[-2.6934154,53.7854294],[-2.6935318,53.7854263],[-2.6936935,53.785412],[-2.6940252,53.7854987],[-2.6942079,53.7854905],[-2.6942557,53.7855083],[-2.6942761,53.7855158]]]}},
{"type":"Feature","properties":{"highway":"footway","name":null,"category":"Footpath (pedestrian only)"},"geometry":{"type":"MultiLineString","coordinates":[[[-2.694342,53.7855252],[-2.6943416,53.7855422],[-2.6943862,53.7857401],[-2.6946542,53.78607],[-2.6946703,53.7861396],[-2.6946529,53.7862261],[-2.6947767,53.7864895],[-2.6949365,53.7867232],[-2.6950782,53.7868636],[-2.6952638,53.7869838],[-2.6953341,53.7870922],[-2.6954235,53.7871582],[-2.6954463,53.787323],[-2.6955093,53.7873281],[-2.69561,53.7875188],[-2.6956789,53.7876121],[-2.6957026,53.7877705],[-2.6957212,53.7879303],[-2.6956781,53.7884036],[-2.6954211,53.7888786],[-2.6952431,53.7890422],[-2.6951904,53.7893615],[-2.6955068,53.7896185],[-2.6953156,53.7900818],[-2.6954343,53.7902726],[-2.6952117,53.7906876],[-2.6949911,53.7908869],[-2.6950256,53.7910319],[-2.6947949,53.7912928],[-2.6942412,53.7915809],[-2.6941264,53.7917927],[-2.6938985,53.7918846],[-2.6937337,53.7921572],[-2.6933381,53.7923688],[-2.6926659,53.7929203],[-2.692424,53.7928739],[-2.6923772,53.7929628],[-2.6920266,53.7930332],[-2.6916883,53.7930267],[-2.6915454,53.793189],[-2.6910764,53.7934579],[-2.691222,53.7936262]]]}},
{"type":"Feature","properties":{"highway":"path","name":null,"category":"Shared path"},"geometry":{"type":"MultiLineString","coordinates":[[[-2.6879872,53.7955809],[-2.6869991,53.796201],[-2.6868349,53.7963037]]]}},
{"type":"Feature","properties":{"highway":"footway","name":null,"category":"Footpath (pedestrian only)"},"geometry":{"type":"MultiLineString","coordinates":[[[-2.691222,53.7936262],[-2.6914865,53.7936394]]]}},
{"type":"Feature","properties":{"highway":"path","name":null,"category":"Shared path"},"geometry":{"type":"MultiLineString","coordinates":[[[-2.691222,53.7936262],[-2.6909562,53.7937012],[-2.6907105,53.7938049],[-2.690488,53.793956],[-2.690434,53.794027],[-2.690187,53.794577],[-2.690036,53.794719],[-2.68952,53.794986],[-2.689306,53.795072],[-2.6890152,53.7950784],[-2.6889058,53.7950831],[-2.6887928,53.795126],[-2.688705,53.795158],[-2.688491,53.79531],[-2.688296,53.795521],[-2.6881144,53.7956642]]]}},
{"type":"Feature","properties":{"highway":"footway","name":null,"category":"Footpath (pedestrian only)"},"geometry":{"type":"MultiLineString","coordinates":[[[-2.693924,53.7927453],[-2.6938783,53.7927878],[-2.6938511,53.7928145],[-2.69377,53.7928448],[-2.6936547,53.7928848],[-2.6935823,53.7929177],[-2.6934971,53.7929644],[-2.6934354,53.7929981],[-2.6933804,53.7930155],[-2.693312,53.7930278],[-2.693243,53.793033],[-2.6931565,53.7930464],[-2.6930793,53.7930647],[-2.6930069,53.7930967],[-2.6929318,53.7931534],[-2.6928379,53.7932255],[-2.6926857,53.7933118],[-2.6925322,53.7933887],[-2.6924142,53.7934307],[-2.692337,53.7934259],[-2.6922492,53.7934271],[-2.6921748,53.793433],[-2.6921178,53.7934433],[-2.692065,53.793464],[-2.6919857,53.7935012],[-2.6919032,53.7935372],[-2.691725,53.793585],[-2.6914865,53.7936394]]]}},
{"type":"Feature","properties":{"highway":"path","name":null,"category":"Shared path"},"geometry":{"type":"MultiLineString","coordinates":[[[-2.6783676,53.7838847],[-2.6783484,53.7838551]]]}},
{"type":"Feature","properties":{"highway":"footway","name":null,"category":"Footpath (pedestrian only)"},"geometry":{"type":"MultiLineString","coordinates":[[[-2.6739015,53.7838948],[-2.6737236,53.7837706],[-2.6736871,53.7836678],[-2.6736645,53.7836159]]]}},
{"type":"Feature","properties":{"highway":"path","name":null,"category":"Shared path"},"geometry":{"type":"MultiLineString","coordinates":[[[-2.6783484,53.7838551],[-2.6782118,53.7835731],[-2.678096,53.7834768],[-2.6780048,53.7833706],[-2.6777205,53.7830996],[-2.6775193,53.7829126],[-2.6774362,53.7828191],[-2.6773901,53.7826924]]]}},
{"type":"Feature","properties":{"highway":"path","name":null,"category":"Shared path"},"geometry":{"type":"MultiLineString","coordinates":[[[-2.6739619,53.7839094],[-2.6739015,53.7838948]]]}},
{"type":"Feature","properties":{"highway":"footway","name":null,"category":"Footpath (pedestrian only)"},"geometry":{"type":"MultiLineString","coordinates":[[[-2.6843298,53.7928955],[-2.6837178,53.7930849],[-2.683235,53.7932148],[-2.6827147,53.7936679],[-2.6825967,53.7940165],[-2.6823728,53.7941389],[-2.6822676,53.7941964]]]}},
{"type":"Feature","properties":{"highway":"footway","name":null,"category":"Footpath (pedestrian only)"},"geometry":{"type":"MultiLineString","coordinates":[[[-2.6773536,53.7955855],[-2.6780241,53.7949962]]]}},
{"type":"Feature","properties":{"highway":"footway","name":null,"category":"Footpath (pedestrian only)"},"geometry":{"type":"MultiLineString","coordinates":[[[-2.6781589,53.7961261],[-2.6770009,53.7966122],[-2.6760896,53.7969402],[-2.6759097,53.7970571]]]}},
{"type":"Feature","properties":{"highway":"track","name":"Fernyhalgh Lane","category":"Track"},"geometry":{"type":"MultiLineString","coordinates":[[[-2.6757958,53.7970003],[-2.674958,53.796556],[-2.674538,53.7964],[-2.674067,53.796053],[-2.673978,53.796006],[-2.6736226,53.7958923],[-2.673531,53.795863],[-2.673243,53.795696],[-2.673108,53.795562],[-2.672973,53.795298],[-2.67288,53.794885]]]}},
{"type":"Feature","properties":{"highway":"track","name":null,"category":"Track"},"geometry":{"type":"MultiLineString","coordinates":[[[-2.6753233,53.7986786],[-2.6752126,53.7986031],[-2.675107,53.7985663],[-2.6749393,53.798512],[-2.6745741,53.7983618],[-2.6743793,53.7982707],[-2.6743008,53.7982419],[-2.6741493,53.798194],[-2.6740275,53.7981524],[-2.6739301,53.7981013],[-2.6739161,53.7980811]]]}},
{"type":"Feature","properties":{"highway":"track","name":null,"category":"Track"},"geometry":{"type":"MultiLineString","coordinates":[[[-2.6736352,53.7981364],[-2.6736109,53.7981556],[-2.6735378,53.7982867],[-2.6728317,53.7983234],[-2.6719361,53.7983985],[-2.67152,53.7984547],[-2.6713351,53.7984932],[-2.6708457,53.7985607],[-2.6706526,53.7985816],[-2.6699429,53.7987181],[-2.6695704,53.7988208],[-2.6692251,53.79893]]]}},
{"type":"Feature","properties":{"highway":"track","name":null,"category":"Track"},"geometry":{"type":"MultiLineString","coordinates":[[[-2.67152,53.7984547],[-2.6714303,53.7985077],[-2.6714086,53.7985655],[-2.6719633,53.7999065],[-2.6720231,53.79999],[-2.6720176,53.8000317],[-2.6719469,53.8000478],[-2.6716669,53.8000671],[-2.6716234,53.8000912],[-2.671635,53.8002092],[-2.6721778,53.8015515]]]}},
{"type":"Feature","properties":{"highway":"track","name":null,"category":"Track"},"geometry":{"type":"MultiLineString","coordinates":[[[-2.6728317,53.7983234],[-2.6727727,53.7981151],[-2.6725075,53.7975432]]]}},
{"type":"Feature","properties":{"highway":"footway","name":null,"category":"Footpath (pedestrian only)"},"geometry":{"type":"MultiLineString","coordinates":[[[-2.6639589,53.7943523],[-2.6636006,53.7954556],[-2.6627666,53.7961361],[-2.6627666,53.7964477],[-2.6630344,53.7971785],[-2.6631421,53.7974378]]]}},
{"type":"Feature","properties":{"highway":"footway","name":null,"category":"Footpath (pedestrian only)"},"geometry":{"type":"MultiLineString","coordinates":[[[-2.691725,53.793585],[-2.6918663,53.7936049],[-2.6920121,53.7936328],[-2.6921201,53.7936702],[-2.6924014,53.7938733]]]}},
{"type":"Feature","properties":{"highway":"footway","name":null,"category":"Footpath (pedestrian only)"},"geometry":{"type":"MultiLineString","coordinates":[[[-2.6924142,53.7934307],[-2.6923491,53.7934608],[-2.6922727,53.7935099],[-2.6922297,53.7935439],[-2.6921681,53.7936057],[-2.6921201,53.7936702]]]}},
{"type":"Feature","properties":{"highway":"footway","name":null,"category":"Footpath (pedestrian only)"},"geometry":{"type":"MultiLineString","coordinates":[[[-2.6729585,53.7941489],[-2.672455,53.794193],[-2.671976,53.794195],[-2.671309,53.794247],[-2.6707593,53.7942192],[-2.6703588,53.7940446],[-2.6700185,53.7939141],[-2.6690556,53.7936607],[-2.6683484,53.7935668],[-2.6679911,53.7935259],[-2.6667099,53.7934804],[-2.665903,53.793453],[-2.6649257,53.7934218]]]}},
{"type":"Feature","properties":{"highway":"footway","name":null,"category":"Footpath (pedestrian only)"},"geometry":{"type":"MultiLineString","coordinates":[[[-2.675045,53.7869499],[-2.6750226,53.7868848],[-2.6748754,53.7865645]]]}},
{"type":"Feature","properties":{"highway":"footway","name":null,"category":"Footpath (pedestrian only)"},"geometry":{"type":"MultiLineString","coordinates":[[[-2.664088,53.797578],[-2.6638056,53.7975024],[-2.6635521,53.797465],[-2.6634444,53.79745]]]}},
{"type":"Feature","properties":{"highway":"footway","name":null,"category":"Footpath (pedestrian only)"},"geometry":{"type":"MultiLineString","coordinates":[[[-2.6632961,53.797448],[-2.6631421,53.7974378]]]}},
{"type":"Feature","properties":{"highway":"footway","name":null,"category":"Footpath (pedestrian only)"},"geometry":{"type":"MultiLineString","coordinates":[[[-2.6634444,53.79745],[-2.6633703,53.797449]]]}},
{"type":"Feature","properties":{"highway":"footway","name":null,"category":"Footpath (pedestrian only)"},"geometry":{"type":"MultiLineString","coordinates":[[[-2.6801785,53.791472],[-2.6801838,53.7915529],[-2.6802923,53.7916701],[-2.6806336,53.7917967],[-2.6807553,53.7918685],[-2.6807738,53.7919436],[-2.6806838,53.7921467],[-2.6805992,53.7923202],[-2.6806177,53.7925592],[-2.6806362,53.7926624],[-2.6807367,53.7929374],[-2.6807447,53.7930421],[-2.6807888,53.7931874]]]}},
{"type":"Feature","properties":{"highway":"footway","name":null,"category":"Footpath (pedestrian only)"},"geometry":{"type":"MultiLineString","coordinates":[[[-2.6822824,53.7915265],[-2.6821502,53.7914546],[-2.6816914,53.7913147],[-2.6814339,53.7912069],[-2.6812032,53.7910849],[-2.6810583,53.7910057],[-2.6809967,53.7909344],[-2.680972,53.7908375]]]}},
{"type":"Feature","properties":{"highway":"footway","name":null,"category":"Footpath (pedestrian only)"},"geometry":{"type":"MultiLineString","coordinates":[[[-2.6808481,53.7907891],[-2.680924,53.7908165]]]}},
{"type":"Feature","properties":{"highway":"footway","name":null,"category":"Footpath (pedestrian only)"},"geometry":{"type":"MultiLineString","coordinates":[[[-2.680924,53.7908165],[-2.680972,53.7908375],[-2.6811978,53.7906349],[-2.6813024,53.7904955],[-2.6813588,53.7903117],[-2.6814982,53.7901437],[-2.6816243,53.7899885],[-2.6817718,53.7898744],[-2.6818607,53.7897944],[-2.6818834,53.7897894]]]}},
{"type":"Feature","properties":{"highway":"footway","name":null,"category":"Footpath (pedestrian only)"},"geometry":{"type":"MultiLineString","coordinates":[[[-2.6775224,53.79168],[-2.6781347,53.7916743],[-2.6785076,53.7916411],[-2.678926,53.7915508],[-2.679449,53.7914668],[-2.6798138,53.7913416],[-2.6797521,53.7912687],[-2.6797226,53.7911832],[-2.6797602,53.7911277],[-2.6798138,53.7911087],[-2.6798782,53.7911182],[-2.6798996,53.7911372],[-2.6799291,53.7911515],[-2.6799613,53.7911515],[-2.6799908,53.791142],[-2.6800203,53.7911293],[-2.6800337,53.7910707],[-2.6800606,53.7909645],[-2.6800767,53.7909217],[-2.6803422,53.7908108],[-2.6806211,53.7906587],[-2.6807204,53.7905842],[-2.680766,53.7905668],[-2.6808143,53.7905541],[-2.6808384,53.7905668],[-2.6808518,53.790608],[-2.6808572,53.7906524],[-2.6808357,53.7906936],[-2.6808304,53.7907094],[-2.6808518,53.7907379],[-2.6808481,53.7907891]]]}},
{"type":"Feature","properties":{"highway":"footway","name":null,"category":"Footpath (pedestrian only)"},"geometry":{"type":"MultiLineString","coordinates":[[[-2.6822676,53.7941964],[-2.6820678,53.7942147],[-2.6817376,53.7942142],[-2.6814796,53.7941513],[-2.6811506,53.7941642],[-2.6807036,53.7942565],[-2.6800813,53.7947906],[-2.6798935,53.7949427],[-2.6795717,53.7951297],[-2.6793732,53.7952438],[-2.6792863,53.7952447]]]}},
{"type":"Feature","properties":{"highway":"footway","name":null,"category":"Footpath (pedestrian only)"},"geometry":{"type":"MultiLineString","coordinates":[[[-2.6868417,53.7919302],[-2.686546,53.7917831],[-2.6864722,53.7917555],[-2.6863592,53.7916457],[-2.6863316,53.7916189],[-2.6862618,53.7915777],[-2.6860178,53.7916442],[-2.6858273,53.7914921]]]}},
{"type":"Feature","properties":{"highway":"footway","name":null,"category":"Footpath (pedestrian only)"},"geometry":{"type":"MultiLineString","coordinates":[[[-2.6928379,53.7932255],[-2.692848,53.7932429],[-2.692856,53.7932754],[-2.6928641,53.7933182],[-2.6928829,53.7933364],[-2.6930948,53.7934148]]]}},
{"type":"Feature","properties":{"highway":"footway","name":null,"category":"Footpath (pedestrian only)"},"geometry":{"type":"MultiLineString","coordinates":[[[-2.670465,53.7836698],[-2.6704006,53.7836278],[-2.670355,53.7835366],[-2.6703255,53.7834875],[-2.6702226,53.7834219]]]}},
{"type":"Feature","properties":{"highway":"footway","name":null,"category":"Footpath (pedestrian only)"},"geometry":{"type":"MultiLineString","coordinates":[[[-2.6736645,53.7836159],[-2.6734865,53.7835786],[-2.673296,53.7835786],[-2.6730426,53.7836032],[-2.6729728,53.783608],[-2.672879,53.7836056],[-2.6725075,53.7835406],[-2.6723908,53.7835327],[-2.6721776,53.7835073],[-2.6720072,53.7834923],[-2.6719254,53.7834962],[-2.6718114,53.78352],[-2.67168,53.7835462],[-2.6716183,53.7835541],[-2.6715459,53.7835565],[-2.6714627,53.783558],[-2.671338,53.7835668],[-2.6712267,53.7835739],[-2.671157,53.7835905],[-2.6710363,53.7836159],[-2.6709129,53.7836309],[-2.6707198,53.7836476],[-2.670583,53.7836563],[-2.670465,53.7836698],[-2.6702558,53.7837379],[-2.6700412,53.7838084],[-2.6697823,53.7838639],[-2.6695597,53.7839067],[-2.6694699,53.7839233],[-2.6694256,53.7839257],[-2.669384,53.7839186],[-2.6693559,53.7839011],[-2.6693156,53.7838694],[-2.6692237,53.783765]]]}},
{"type":"Feature","properties":{"highway":"footway","name":null,"category":"Footpath (pedestrian only)"},"geometry":{"type":"MultiLineString","coordinates":[[[-2.6732217,53.7826016],[-2.6731096,53.7826127],[-2.6730439,53.7826294],[-2.6729997,53.7826444],[-2.6729064,53.7826826]]]}},
{"type":"Feature","properties":{"highway":"footway","name":null,"category":"Footpath (pedestrian only)"},"geometry":{"type":"MultiLineString","coordinates":[[[-2.6729969,53.7820986],[-2.672549,53.7821951],[-2.67214,53.7822807],[-2.6720731,53.7822074]]]}},
{"type":"Feature","properties":{"highway":"footway","name":null,"category":"Footpath (pedestrian only)"},"geometry":{"type":"MultiLineString","coordinates":[[[-2.6789013,53.7832869],[-2.6787731,53.7833568],[-2.6785719,53.7834328],[-2.67836,53.7835073],[-2.6782118,53.7835731],[-2.6778558,53.7837324],[-2.6777002,53.7838021],[-2.6775929,53.7838338],[-2.6773623,53.783856],[-2.6771423,53.783856],[-2.676689,53.783848],[-2.6763001,53.7838306],[-2.6761284,53.7838385],[-2.6759166,53.7838417],[-2.6757234,53.7838037],[-2.6754525,53.7837482],[-2.675238,53.7837482],[-2.6749885,53.7837339],[-2.6746425,53.7837054],[-2.6743475,53.7836595],[-2.6741195,53.7836484],[-2.6736871,53.7836678]]]}},
{"type":"Feature","properties":{"highway":"footway","name":null,"category":"Footpath (pedestrian only)"},"geometry":{"type":"MultiLineString","coordinates":[[[-2.687754,53.7888592],[-2.6877245,53.789165],[-2.6877004,53.7892078],[-2.6876548,53.7892506],[-2.6876011,53.7892981],[-2.6875743,53.7893298],[-2.6875716,53.7893789],[-2.6875689,53.7894106],[-2.6875689,53.7894993]]]}},
{"type":"Feature","properties":{"highway":"footway","name":null,"category":"Footpath (pedestrian only)"},"geometry":{"type":"MultiLineString","coordinates":[[[-2.6920938,53.785102],[-2.6923164,53.7851623],[-2.6925873,53.7852241],[-2.6929736,53.7853001],[-2.6933384,53.7853778],[-2.6935318,53.7854263],[-2.6936227,53.7854491],[-2.6937168,53.7854944],[-2.6937809,53.7855252],[-2.6938641,53.7855854]]]}},
{"type":"Feature","properties":{"highway":"footway","name":null,"category":"Footpath (pedestrian only)"},"geometry":{"type":"MultiLineString","coordinates":[[[-2.6907715,53.7880357],[-2.6903832,53.7881168],[-2.6900513,53.7881363],[-2.6896396,53.7878994],[-2.689602,53.7878407],[-2.6894414,53.7877515]]]}},
{"type":"Feature","properties":{"highway":"footway","name":null,"category":"Footpath (pedestrian only)"},"geometry":{"type":"MultiLineString","coordinates":[[[-2.6877822,53.7860429],[-2.6874911,53.7857744],[-2.6873839,53.7856033],[-2.6874365,53.7851583],[-2.6874935,53.7846949],[-2.687451,53.7846338]]]}},
{"type":"Feature","properties":{"highway":"footway","name":null,"category":"Footpath (pedestrian only)"},"geometry":{"type":"MultiLineString","coordinates":[[[-2.6878641,53.7861184],[-2.6877822,53.7860429]]]}},
{"type":"Feature","properties":{"highway":"footway","name":null,"category":"Footpath (pedestrian only)"},"geometry":{"type":"MultiLineString","coordinates":[[[-2.6893406,53.7876956],[-2.6892882,53.7876665],[-2.6891192,53.787546],[-2.6890013,53.7874034],[-2.6889825,53.7872767],[-2.6889181,53.7871372],[-2.6886606,53.7869471],[-2.6882851,53.7867252],[-2.6881241,53.7865414],[-2.6880169,53.7863639],[-2.687931,53.7861801],[-2.6878641,53.7861184]]]}},
{"type":"Feature","properties":{"highway":"footway","name":null,"category":"Footpath (pedestrian only)"},"geometry":{"type":"MultiLineString","coordinates":[[[-2.6894414,53.7877515],[-2.6893406,53.7876956]]]}},
{"type":"Feature","properties":{"highway":"footway","name":null,"category":"Footpath (pedestrian only)"},"geometry":{"type":"MultiLineString","coordinates":[[[-2.6924287,53.7864094],[-2.6924193,53.7861669]]]}},
{"type":"Feature","properties":{"highway":"footway","name":null,"category":"Footpath (pedestrian only)"},"geometry":{"type":"MultiLineString","coordinates":[[[-2.6774425,53.7956159],[-2.6779028,53.7959076],[-2.6781589,53.7961261]]]}},
{"type":"Feature","properties":{"highway":"footway","name":null,"category":"Footpath (pedestrian only)"},"geometry":{"type":"MultiLineString","coordinates":[[[-2.6816249,53.7983818],[-2.6838619,53.7990551],[-2.6834945,53.799554]]]}},
{"type":"Feature","properties":{"highway":"footway","name":null,"category":"Footpath (pedestrian only)"},"geometry":{"type":"MultiLineString","coordinates":[[[-2.6816249,53.7983818],[-2.6816726,53.7982635],[-2.6816806,53.7981178],[-2.6817584,53.7979958],[-2.6818872,53.7978516],[-2.6819918,53.7977312],[-2.6821333,53.7976292]]]}},
{"type":"Feature","properties":{"highway":"track","name":null,"category":"Track"},"geometry":{"type":"MultiLineString","coordinates":[[[-2.6594373,53.7947638],[-2.6604571,53.79448],[-2.6612033,53.7943101],[-2.661509,53.7942444],[-2.6616514,53.7941791],[-2.661803,53.7941401],[-2.6618825,53.7941786],[-2.6620092,53.794218],[-2.6621272,53.7942249],[-2.6622597,53.794228]]]}},
{"type":"Feature","properties":{"highway":"footway","name":null,"category":"Footpath (pedestrian only)"},"geometry":{"type":"MultiLineString","coordinates":[[[-2.6729969,53.7820986],[-2.6727704,53.7815915]]]}},
{"type":"Feature","properties":{"highway":"footway","name":null,"category":"Footpath (pedestrian only)"},"geometry":{"type":"MultiLineString","coordinates":[[[-2.6736645,53.7836159],[-2.6732217,53.7826016],[-2.6729969,53.7820986]]]}},
{"type":"Feature","properties":{"highway":"footway","name":null,"category":"Footpath (pedestrian only)"},"geometry":{"type":"MultiLineString","coordinates":[[[-2.6633703,53.797449],[-2.6632961,53.797448]]]}},
{"type":"Feature","properties":{"highway":"footway","name":null,"category":"Footpath (pedestrian only)"},"geometry":{"type":"MultiLineString","coordinates":[[[-2.6759097,53.7970571],[-2.6739161,53.7980811]]]}},
{"type":"Feature","properties":{"highway":"track","name":null,"category":"Track"},"geometry":{"type":"MultiLineString","coordinates":[[[-2.6739161,53.7980811],[-2.6738544,53.7979287],[-2.6738436,53.7977577],[-2.6738327,53.7975771],[-2.6737624,53.7973135],[-2.6737867,53.7971664],[-2.6738057,53.7970082],[-2.6737705,53.796914],[-2.6736691,53.7968375],[-2.6734485,53.7966711],[-2.6731509,53.7964889],[-2.6730157,53.796417],[-2.6728885,53.7962028],[-2.6726098,53.7961006],[-2.6723609,53.795936],[-2.6721336,53.7958481],[-2.6718225,53.7956195]]]}},
{"type":"Feature","properties":{"highway":"footway","name":null,"category":"Footpath (pedestrian only)"},"geometry":{"type":"MultiLineString","coordinates":[[[-2.6901388,53.8000434],[-2.6891904,53.7996071],[-2.6886413,53.7993771],[-2.6881321,53.7991825],[-2.6869241,53.7987226],[-2.6858558,53.7983688],[-2.6851769,53.7981211],[-2.684558,53.7978735],[-2.6837892,53.7975433],[-2.6832401,53.7973015],[-2.6827985,53.7970969]]]}},
{"type":"Feature","properties":{"highway":"footway","name":null,"category":"Footpath (pedestrian only)"},"geometry":{"type":"MultiLineString","coordinates":[[[-2.6792863,53.7952447],[-2.6794863,53.7955088],[-2.6801452,53.795898],[-2.6813674,53.7965453],[-2.6819611,53.7968185],[-2.6824048,53.7970326],[-2.6827985,53.7970969]]]}},
{"type":"Feature","properties":{"highway":"footway","name":null,"category":"Footpath (pedestrian only)"},"geometry":{"type":"MultiLineString","coordinates":[[[-2.6730721,53.7933669],[-2.6740251,53.7934511],[-2.674105,53.7934574],[-2.6746589,53.7936319],[-2.6755698,53.7939445],[-2.6758898,53.7939954]]]}},
{"type":"Feature","properties":{"highway":"footway","name":null,"category":"Footpath (pedestrian only)"},"geometry":{"type":"MultiLineString","coordinates":[[[-2.6758898,53.7939954],[-2.6762714,53.7942281],[-2.6771084,53.7944898],[-2.6778716,53.7947516],[-2.6779254,53.7947966]]]}},
{"type":"Feature","properties":{"highway":"footway","name":null,"category":"Footpath (pedestrian only)"},"geometry":{"type":"MultiLineString","coordinates":[[[-2.6779254,53.7947966],[-2.6781221,53.7948478]]]}},
{"type":"Feature","properties":{"highway":"path","name":null,"category":"Shared path"},"geometry":{"type":"MultiLineString","coordinates":[[[-2.6781221,53.7948478],[-2.6781983,53.7947876],[-2.6782293,53.794721]]]}},
{"type":"Feature","properties":{"highway":"footway","name":null,"category":"Footpath (pedestrian only)"},"geometry":{"type":"MultiLineString","coordinates":[[[-2.6781221,53.7948478],[-2.6784466,53.7950744],[-2.6790835,53.7952469],[-2.6792863,53.7952447]]]}},
{"type":"Feature","properties":{"highway":"footway","name":null,"category":"Footpath (pedestrian only)"},"geometry":{"type":"MultiLineString","coordinates":[[[-2.6779254,53.7947966],[-2.677932,53.7949327],[-2.6780241,53.7949962]]]}},
{"type":"Feature","properties":{"highway":"footway","name":null,"category":"Footpath (pedestrian only)"},"geometry":{"type":"MultiLineString","coordinates":[[[-2.6787075,53.7905677],[-2.6782611,53.7906653],[-2.677791,53.7907679],[-2.6776028,53.790841],[-2.6773495,53.7910279],[-2.6770138,53.7911577],[-2.6769534,53.791218],[-2.6769705,53.7914334],[-2.6769613,53.7915002],[-2.6769556,53.7917819],[-2.6769216,53.7920971],[-2.6768648,53.7924055],[-2.6767116,53.7925598],[-2.6765356,53.7926671],[-2.6762912,53.7927349]]]}},
{"type":"Feature","properties":{"highway":"footway","name":null,"category":"Footpath (pedestrian only)"},"geometry":{"type":"MultiLineString","coordinates":[[[-2.6747752,53.7869929],[-2.6747636,53.7869487],[-2.6745678,53.7869275],[-2.6745209,53.7868753],[-2.6744685,53.78682],[-2.6744134,53.7867792],[-2.6743858,53.7867157],[-2.6744299,53.7866571],[-2.6744161,53.7866198],[-2.6743968,53.7865675],[-2.6742948,53.7863394],[-2.6741349,53.7859924],[-2.6740853,53.7859044],[-2.6743334,53.785823],[-2.6743204,53.7857999]]]}},
{"type":"Feature","properties":{"highway":"path","name":null,"category":"Shared path"},"geometry":{"type":"MultiLineString","coordinates":[[[-2.6731821,53.7839629],[-2.6734432,53.7838948],[-2.6738961,53.7839649],[-2.6742392,53.7839762],[-2.6748342,53.7841433],[-2.6763277,53.784242],[-2.6765218,53.7843121],[-2.676759,53.7841975],[-2.6769801,53.784172],[-2.6774168,53.7842166],[-2.6779128,53.7841146],[-2.6784196,53.7839649],[-2.6788186,53.7840031],[-2.6795357,53.7841114],[-2.6797635,53.7841848],[-2.6798678,53.7842185]]]}},
{"type":"Feature","properties":{"highway":"footway","name":null,"category":"Footpath (pedestrian only)"},"geometry":{"type":"MultiLineString","coordinates":[[[-2.6808488,53.7841693],[-2.6811135,53.7839131],[-2.6812753,53.7837897],[-2.6815231,53.783799],[-2.6817606,53.7838329],[-2.6820006,53.7837959],[-2.6822824,53.7837034],[-2.683013,53.7835431],[-2.6837749,53.7833457],[-2.6843385,53.7832656],[-2.6848395,53.7833365],[-2.6850482,53.7834043],[-2.6852479,53.7835071]]]}},
{"type":"Feature","properties":{"highway":"footway","name":null,"category":"Footpath (pedestrian only)"},"geometry":{"type":"MultiLineString","coordinates":[[[-2.6744957,53.8039433],[-2.6746068,53.8019459],[-2.6746779,53.8006663],[-2.6741806,53.7998063],[-2.673847,53.7981927],[-2.6738565,53.7981467],[-2.6739161,53.7980811]]]}},
{"type":"Feature","properties":{"highway":"footway","name":null,"category":"Footpath (pedestrian only)"},"geometry":{"type":"MultiLineString","coordinates":[[[-2.6764281,53.7930115],[-2.6761735,53.793167],[-2.6760279,53.7932548],[-2.6759635,53.7933625],[-2.6758719,53.7936188]]]}},
{"type":"Feature","properties":{"highway":"footway","name":null,"category":"Footpath (pedestrian only)"},"geometry":{"type":"MultiLineString","coordinates":[[[-2.6758719,53.7936188],[-2.6758898,53.7939954]]]}},
{"type":"Feature","properties":{"highway":"path","name":null,"category":"Shared path"},"geometry":{"type":"MultiLineString","coordinates":[[[-2.6676257,53.7882911],[-2.6676044,53.78835],[-2.6677358,53.7884134],[-2.6678726,53.788518],[-2.6679853,53.7886416],[-2.6680496,53.7887184],[-2.6680919,53.7887768],[-2.6681449,53.7888523],[-2.6681703,53.7890267],[-2.6682615,53.7891693],[-2.668291,53.7892675],[-2.6683179,53.7893325],[-2.6682508,53.7894212],[-2.6681837,53.7894941],[-2.6681542,53.7895765],[-2.6681328,53.7896478],[-2.668165,53.7897508],[-2.6682079,53.7898585],[-2.6683165,53.7899346],[-2.668338,53.7899916],[-2.6683326,53.7900693],[-2.6683568,53.7901342],[-2.6683702,53.7901707],[-2.6683514,53.790223],[-2.6683676,53.7902851],[-2.668346,53.7903648],[-2.6681891,53.790509],[-2.6681291,53.7905681],[-2.6681918,53.7907062],[-2.6681811,53.7908219],[-2.6681864,53.7909629],[-2.6682991,53.7910992],[-2.6683956,53.7911372],[-2.6685244,53.7911768],[-2.6686451,53.7911927],[-2.6686429,53.7912237]]]}},
{"type":"Feature","properties":{"highway":"footway","name":null,"category":"Footpath (pedestrian only)"},"geometry":{"type":"MultiLineString","coordinates":[[[-2.6744245,53.7871902],[-2.6743665,53.7871882],[-2.6742597,53.7871731],[-2.674163,53.7871538],[-2.6740698,53.787126],[-2.6740166,53.787105],[-2.6739746,53.7870764],[-2.6739727,53.7870732],[-2.6739463,53.7870284]]]}},
{"type":"Feature","properties":{"highway":"footway","name":null,"category":"Footpath (pedestrian only)"},"geometry":{"type":"MultiLineString","coordinates":[[[-2.6738126,53.7870247],[-2.673793,53.7870655],[-2.6737892,53.7870734],[-2.6737208,53.7871019],[-2.6736259,53.7871258],[-2.6735155,53.7871349],[-2.6734688,53.7871349],[-2.6734056,53.7871204],[-2.67336,53.7871101],[-2.6732791,53.7870899],[-2.6732278,53.7870633],[-2.6731889,53.7870403],[-2.6730707,53.7870091],[-2.6728592,53.7869595],[-2.672755,53.7869365],[-2.672528,53.7869043],[-2.6723554,53.7868933],[-2.6722496,53.7868841],[-2.6721408,53.7868924],[-2.6720568,53.7869108],[-2.6719775,53.7869301],[-2.6717598,53.7870412],[-2.6713041,53.7873372],[-2.6711391,53.7874417],[-2.6710236,53.7875196],[-2.6709867,53.7875401],[-2.6708987,53.7875948],[-2.670597,53.7877174],[-2.6702128,53.7878371],[-2.6698733,53.7879318],[-2.6696271,53.7879858],[-2.6693972,53.7880363],[-2.6687278,53.7881658],[-2.6686806,53.7881753],[-2.6685544,53.7882006],[-2.6684874,53.7882128],[-2.6683503,53.7882425]]]}},
{"type":"Feature","properties":{"highway":"footway","name":null,"category":"Footpath (pedestrian only)"},"geometry":{"type":"MultiLineString","coordinates":[[[-2.673793,53.7870655],[-2.6738896,53.7870697],[-2.6739727,53.7870732]]]}},
{"type":"Feature","properties":{"highway":"footway","name":null,"category":"Footpath (pedestrian only)"},"geometry":{"type":"MultiLineString","coordinates":[[[-2.6740251,53.7934511],[-2.6743002,53.7932583],[-2.6746733,53.7926632],[-2.6744518,53.7920947],[-2.6746041,53.7917635],[-2.6747079,53.7914158],[-2.6747426,53.7910478],[-2.6751441,53.7906388],[-2.6749824,53.7905175]]]}},
{"type":"Feature","properties":{"highway":"footway","name":null,"category":"Footpath (pedestrian only)"},"geometry":{"type":"MultiLineString","coordinates":[[[-2.6748961,53.7904526],[-2.6748855,53.7904447],[-2.6747218,53.7903034],[-2.6747287,53.790148],[-2.6748672,53.7900458],[-2.6751432,53.7899302]]]}},
{"type":"Feature","properties":{"highway":"footway","name":null,"category":"Footpath (pedestrian only)"},"geometry":{"type":"MultiLineString","coordinates":[[[-2.6749824,53.7905175],[-2.6748961,53.7904526]]]}},
{"type":"Feature","properties":{"highway":"footway","name":"Newby Place","category":"Footpath (pedestrian only)"},"geometry":{"type":"MultiLineString","coordinates":[[[-2.6723542,53.7809373],[-2.6726768,53.7816067]]]}},
{"type":"Feature","properties":{"highway":"footway","name":null,"category":"Footpath (pedestrian only)"},"geometry":{"type":"MultiLineString","coordinates":[[[-2.6830121,53.7847716],[-2.6830439,53.7847338],[-2.6830939,53.7846793]]]}},
{"type":"Feature","properties":{"highway":"path","name":null,"category":"Shared path"},"geometry":{"type":"MultiLineString","coordinates":[[[-2.6886568,53.7844401],[-2.6889861,53.7844173]]]}},
{"type":"Feature","properties":{"highway":"track","name":null,"category":"Track"},"geometry":{"type":"MultiLineString","coordinates":[[[-2.6874935,53.7846949],[-2.6880876,53.7846043],[-2.6881872,53.7846067],[-2.6882685,53.7846392],[-2.688486,53.7847473],[-2.6885877,53.7847617],[-2.6888174,53.7847557],[-2.689043,53.7847292],[-2.68923,53.7846956],[-2.68948,53.7846812],[-2.6907888,53.7845685]]]}},
{"type":"Feature","properties":{"highway":"track","name":null,"category":"Track"},"geometry":{"type":"MultiLineString","coordinates":[[[-2.68923,53.7846956],[-2.6892099,53.7846608],[-2.6891784,53.7845659],[-2.6891713,53.7844758]]]}},
{"type":"Feature","properties":{"highway":"track","name":null,"category":"Track"},"geometry":{"type":"MultiLineString","coordinates":[[[-2.6620092,53.794218],[-2.66181,53.7942324],[-2.6615333,53.7943007],[-2.661294,53.7943718],[-2.6610605,53.7944538]]]}},
{"type":"Feature","properties":{"highway":"track","name":null,"category":"Track"},"geometry":{"type":"MultiLineString","coordinates":[[[-2.661803,53.7941401],[-2.6617867,53.7941092],[-2.6618112,53.7940899]]]}},
{"type":"Feature","properties":{"highway":"track","name":null,"category":"Track"},"geometry":{"type":"MultiLineString","coordinates":[[[-2.6623847,53.7942301],[-2.6623809,53.7944013]]]}},
{"type":"Feature","properties":{"highway":"footway","name":null,"category":"Footpath (pedestrian only)"},"geometry":{"type":"MultiLineString","coordinates":[[[-2.6912844,53.7981131],[-2.6912531,53.7980835],[-2.6912085,53.7980436]]]}},
{"type":"Feature","properties":{"highway":"footway","name":null,"category":"Footpath (pedestrian only)"},"geometry":{"type":"MultiLineString","coordinates":[[[-2.6844744,53.7931253],[-2.6844355,53.7930924],[-2.6843953,53.7930588]]]}},
{"type":"Feature","properties":{"highway":"footway","name":null,"category":"Footpath (pedestrian only)"},"geometry":{"type":"MultiLineString","coordinates":[[[-2.6844744,53.7931253],[-2.6844374,53.7931395]]]}},
{"type":"Feature","properties":{"highway":"footway","name":null,"category":"Footpath (pedestrian only)"},"geometry":{"type":"MultiLineString","coordinates":[[[-2.6806362,53.7926624],[-2.6803373,53.7926561],[-2.679951,53.7926999],[-2.6798605,53.7926997]]]}},
{"type":"Feature","properties":{"highway":"footway","name":null,"category":"Footpath (pedestrian only)"},"geometry":{"type":"MultiLineString","coordinates":[[[-2.6808024,53.793232],[-2.6808187,53.7932859],[-2.680824,53.7933968],[-2.6807785,53.7935622]]]}},
{"type":"Feature","properties":{"highway":"footway","name":null,"category":"Footpath (pedestrian only)"},"geometry":{"type":"MultiLineString","coordinates":[[[-2.6807888,53.7931874],[-2.6808024,53.793232]]]}},
{"type":"Feature","properties":{"highway":"footway","name":null,"category":"Footpath (pedestrian only)"},"geometry":{"type":"MultiLineString","coordinates":[[[-2.6809967,53.7909344],[-2.6808196,53.7910469],[-2.6804986,53.7911794],[-2.6803955,53.7913122],[-2.680168,53.7913138],[-2.6801753,53.7914246]]]}},
{"type":"Feature","properties":{"highway":"footway","name":null,"category":"Footpath (pedestrian only)"},"geometry":{"type":"MultiLineString","coordinates":[[[-2.6801753,53.7914246],[-2.6801785,53.791472]]]}},
{"type":"Feature","properties":{"highway":"footway","name":null,"category":"Footpath (pedestrian only)"},"geometry":{"type":"MultiLineString","coordinates":[[[-2.6767733,53.7914316],[-2.6767731,53.791489],[-2.6765396,53.7915116],[-2.6764484,53.7915568],[-2.6763911,53.7916721],[-2.6763847,53.7917361],[-2.6762169,53.7917937]]]}},
{"type":"Feature","properties":{"highway":"footway","name":null,"category":"Footpath (pedestrian only)"},"geometry":{"type":"MultiLineString","coordinates":[[[-2.6804974,53.7935182],[-2.6802207,53.7937058],[-2.6799995,53.7938589],[-2.6798297,53.7938984],[-2.6797066,53.7938197]]]}},
{"type":"Feature","properties":{"highway":"footway","name":null,"category":"Footpath (pedestrian only)"},"geometry":{"type":"MultiLineString","coordinates":[[[-2.6799995,53.7938589],[-2.6800576,53.7939763],[-2.680328,53.7940397],[-2.6804911,53.7941822],[-2.680433,53.7942759],[-2.6802386,53.7944013],[-2.6801895,53.7944514],[-2.6800523,53.7944737]]]}},
{"type":"Feature","properties":{"highway":"footway","name":null,"category":"Footpath (pedestrian only)"},"geometry":{"type":"MultiLineString","coordinates":[[[-2.6807036,53.7942565],[-2.6804911,53.7941822]]]}},
{"type":"Feature","properties":{"highway":"footway","name":null,"category":"Footpath (pedestrian only)"},"geometry":{"type":"MultiLineString","coordinates":[[[-2.6792095,53.7894546],[-2.6791184,53.7896283],[-2.6788714,53.7897099],[-2.6780747,53.7898489],[-2.6775719,53.7898975],[-2.6771279,53.7900347],[-2.6768222,53.790165],[-2.6760607,53.7902848],[-2.6752639,53.7905905],[-2.6751441,53.7906388]]]}},
{"type":"Feature","properties":{"highway":"footway","name":null,"category":"Footpath (pedestrian only)"},"geometry":{"type":"MultiLineString","coordinates":[[[-2.679133,53.7889629],[-2.6789743,53.7892566],[-2.6791206,53.7893797]]]}},
{"type":"Feature","properties":{"highway":"footway","name":null,"category":"Footpath (pedestrian only)"},"geometry":{"type":"MultiLineString","coordinates":[[[-2.6791206,53.7893797],[-2.6792095,53.7894546]]]}},
{"type":"Feature","properties":{"highway":"footway","name":null,"category":"Footpath (pedestrian only)"},"geometry":{"type":"MultiLineString","coordinates":[[[-2.6769365,53.7888732],[-2.6768652,53.789022],[-2.6762008,53.7891863],[-2.6764313,53.7896945]]]}},
{"type":"Feature","properties":{"highway":"path","name":null,"category":"Shared path"},"geometry":{"type":"MultiLineString","coordinates":[[[-2.6711739,53.7876841],[-2.6714405,53.787699],[-2.6715993,53.7877741],[-2.6717132,53.7878913],[-2.6718218,53.7880031],[-2.6718539,53.7882796],[-2.6719464,53.7885728],[-2.6719624,53.7886257],[-2.6720351,53.7888672],[-2.6721631,53.7890301],[-2.6729883,53.7893849],[-2.6734039,53.7895467],[-2.6736127,53.7897666],[-2.6738295,53.7899077]]]}},
{"type":"Feature","properties":{"highway":"path","name":null,"category":"Shared path"},"geometry":{"type":"MultiLineString","coordinates":[[[-2.6736127,53.7897666],[-2.6734626,53.7899196]]]}},
{"type":"Feature","properties":{"highway":"footway","name":null,"category":"Footpath (pedestrian only)"},"geometry":{"type":"MultiLineString","coordinates":[[[-2.6718088,53.7887264],[-2.6719624,53.7886257]]]}},
{"type":"Feature","properties":{"highway":"footway","name":null,"category":"Footpath (pedestrian only)"},"geometry":{"type":"MultiLineString","coordinates":[[[-2.671936,53.7878344],[-2.6717132,53.7878913]]]}},
{"type":"Feature","properties":{"highway":"footway","name":null,"category":"Footpath (pedestrian only)"},"geometry":{"type":"MultiLineString","coordinates":[[[-2.6715087,53.7829382],[-2.6714762,53.782976],[-2.6710692,53.7831223],[-2.6706268,53.783224]]]}},
{"type":"Feature","properties":{"highway":"footway","name":null,"category":"Footpath (pedestrian only)"},"geometry":{"type":"MultiLineString","coordinates":[[[-2.6695251,53.7836503],[-2.6691805,53.7829327]]]}}
]
}
