{
"type": "FeatureCollection",
"name": "ROSSE_2_cycling",
"crs": { "type": "name", "properties": { "name": "urn:ogc:def:crs:OGC:1.3:CRS84" } },
"features": [
{"type":"Feature","properties":{"highway":"track","name":null,"category":"Track"},"geometry":{"type":"MultiLineString","coordinates":[[[-2.1837952,53.7047365],[-2.1837509,53.7046938],[-2.1837253,53.7046404],[-2.1836789,53.7045675],[-2.1836428,53.7045218],[-2.1834968,53.704426],[-2.1833738,53.7043554],[-2.1832257,53.7042962],[-2.1830621,53.7042525],[-2.182877,53.7042262],[-2.1826292,53.7042106],[-2.1822328,53.704217],[-2.1816053,53.7041807]]]}},
{"type":"Feature","properties":{"highway":"track","name":null,"category":"Track"},"geometry":{"type":"MultiLineString","coordinates":[[[-2.182384,53.7051589],[-2.1819967,53.7052585],[-2.1815461,53.705068],[-2.1801665,53.7048473],[-2.1795538,53.7047492],[-2.1791133,53.704697],[-2.1787261,53.7046502],[-2.1782416,53.704598],[-2.1771584,53.7047538],[-2.176939,53.7047928],[-2.1765093,53.7048722],[-2.1762278,53.7049343],[-2.1757326,53.7051711],[-2.1757081,53.7051828]]]}},
{"type":"Feature","properties":{"highway":"track","name":null,"category":"Track"},"geometry":{"type":"MultiLineString","coordinates":[[[-2.1861258,53.7016506],[-2.1861063,53.7014993],[-2.1862645,53.7011095],[-2.1862414,53.7007989],[-2.1859879,53.700457],[-2.1852368,53.69986],[-2.1847648,53.6997202],[-2.1843556,53.6996723],[-2.1839667,53.6996933],[-2.1836427,53.6995945],[-2.1831073,53.6993843]]]}},
{"type":"Feature","properties":{"highway":"track","name":null,"category":"Track"},"geometry":{"type":"MultiLineString","coordinates":[[[-2.1815113,53.6939373],[-2.1812932,53.6940074],[-2.1811019,53.6941094],[-2.1808426,53.6941767],[-2.1802544,53.6944606],[-2.1788366,53.6950696],[-2.178613,53.6951584],[-2.1785651,53.69526]]]}},
{"type":"Feature","properties":{"highway":"bridleway","name":null,"category":"Bridleway"},"geometry":{"type":"MultiLineString","coordinates":[[[-2.1886197,53.697647],[-2.1885431,53.697407]]]}},
{"type":"Feature","properties":{"highway":"cycleway","name":null,"category":"Dedicated cycleway"},"geometry":{"type":"MultiLineString","coordinates":[[[-2.1888329,53.6985147],[-2.1887414,53.6984981],[-2.1882956,53.6985052],[-2.18824,53.6985102],[-2.1881834,53.6985222],[-2.1881269,53.6985436],[-2.1880704,53.6985722],[-2.187822,53.6987224],[-2.1877561,53.6987604]]]}},
{"type":"Feature","properties":{"highway":"path","name":null,"category":"Shared path"},"geometry":{"type":"MultiLineString","coordinates":[[[-2.191936,53.6947704],[-2.1917072,53.6950345]]]}},
{"type":"Feature","properties":{"highway":"path","name":null,"category":"Shared path"},"geometry":{"type":"MultiLineString","coordinates":[[[-2.191879,53.6966091],[-2.1918677,53.6966696],[-2.192331,53.6970831],[-2.1924782,53.6971608],[-2.1925125,53.6971972],[-2.192533,53.6972533],[-2.1925342,53.6973155],[-2.1925148,53.6973729],[-2.1925227,53.6974303],[-2.1925558,53.6974959],[-2.1926197,53.6975688],[-2.1926802,53.6976276],[-2.1927562,53.6976522]]]}},
{"type":"Feature","properties":{"highway":"path","name":null,"category":"Shared path"},"geometry":{"type":"MultiLineString","coordinates":[[[-2.1949806,53.6979754],[-2.1949977,53.6980468],[-2.1950616,53.6980833],[-2.1951358,53.6980806],[-2.195226,53.6981022],[-2.1953595,53.6981252],[-2.1956073,53.6981893],[-2.1957303,53.6982211],[-2.1958394,53.698354]]]}},
{"type":"Feature","properties":{"highway":"path","name":null,"category":"Shared path"},"geometry":{"type":"MultiLineString","coordinates":[[[-2.1956073,53.6981893],[-2.1960158,53.6980837]]]}},
{"type":"Feature","properties":{"highway":"path","name":null,"category":"Shared path"},"geometry":{"type":"MultiLineString","coordinates":[[[-2.1949977,53.6980468],[-2.1949761,53.69809],[-2.195024,53.6982272],[-2.1950603,53.698271]]]}},
{"type":"Feature","properties":{"highway":"path","name":null,"category":"Shared path"},"geometry":{"type":"MultiLineString","coordinates":[[[-2.1935754,53.6963383],[-2.1936441,53.6963494],[-2.1936951,53.6963345],[-2.1939825,53.6963258],[-2.194077,53.6963055],[-2.1942105,53.6962528],[-2.1943338,53.6961694]]]}},
{"type":"Feature","properties":{"highway":"path","name":null,"category":"Shared path"},"geometry":{"type":"MultiLineString","coordinates":[[[-2.1950287,53.6954085],[-2.1949944,53.6953383],[-2.1946258,53.6950951],[-2.1945847,53.6951052]]]}},
{"type":"Feature","properties":{"highway":"path","name":null,"category":"Shared path"},"geometry":{"type":"MultiLineString","coordinates":[[[-2.1890792,53.6929295],[-2.1886683,53.6927926],[-2.1886204,53.6927662],[-2.1885987,53.6927426],[-2.188579,53.6926436]]]}},
{"type":"Feature","properties":{"highway":"path","name":null,"category":"Shared path"},"geometry":{"type":"MultiLineString","coordinates":[[[-2.1934701,53.7017001],[-2.1935427,53.7016927]]]}},
{"type":"Feature","properties":{"highway":"path","name":null,"category":"Shared path"},"geometry":{"type":"MultiLineString","coordinates":[[[-2.1937686,53.701767],[-2.1938661,53.701767]]]}},
{"type":"Feature","properties":{"highway":"path","name":null,"category":"Shared path"},"geometry":{"type":"MultiLineString","coordinates":[[[-2.1944609,53.7019025],[-2.194698,53.7019551]]]}},
{"type":"Feature","properties":{"highway":"path","name":null,"category":"Shared path"},"geometry":{"type":"MultiLineString","coordinates":[[[-2.1951656,53.7022133],[-2.1950438,53.7022879]]]}},
{"type":"Feature","properties":{"highway":"path","name":null,"category":"Shared path"},"geometry":{"type":"MultiLineString","coordinates":[[[-2.1951276,53.702355],[-2.1950438,53.7022879],[-2.1949595,53.7022696],[-2.1948695,53.7022476],[-2.1948063,53.7022168],[-2.19459,53.7020733],[-2.1945253,53.7020476],[-2.1943469,53.7019486],[-2.194264,53.7019361],[-2.1938236,53.701907],[-2.1934513,53.7018704],[-2.1933614,53.7018742],[-2.1932687,53.7018692],[-2.1931907,53.7018521],[-2.1931696,53.7018712],[-2.1928887,53.701778]]]}},
{"type":"Feature","properties":{"highway":"path","name":null,"category":"Shared path"},"geometry":{"type":"MultiLineString","coordinates":[[[-2.1938236,53.701907],[-2.1937171,53.7020331],[-2.1937098,53.7020417],[-2.1937338,53.7021387]]]}},
{"type":"Feature","properties":{"highway":"path","name":null,"category":"Shared path"},"geometry":{"type":"MultiLineString","coordinates":[[[-2.1937171,53.7020331],[-2.1931696,53.7018712]]]}},
{"type":"Feature","properties":{"highway":"path","name":null,"category":"Shared path"},"geometry":{"type":"MultiLineString","coordinates":[[[-2.2001462,53.696208],[-2.2000586,53.6961909],[-2.199865,53.6960837],[-2.1997141,53.6959863]]]}},
{"type":"Feature","properties":{"highway":"path","name":null,"category":"Shared path"},"geometry":{"type":"MultiLineString","coordinates":[[[-2.1985844,53.6974865],[-2.1986418,53.697477]]]}},
{"type":"Feature","properties":{"highway":"path","name":null,"category":"Shared path"},"geometry":{"type":"MultiLineString","coordinates":[[[-2.1987188,53.6974635],[-2.1989202,53.6974352],[-2.1991743,53.6973996],[-2.1992776,53.697422],[-2.1992969,53.6974381]]]}},
{"type":"Feature","properties":{"highway":"path","name":null,"category":"Shared path"},"geometry":{"type":"MultiLineString","coordinates":[[[-2.1989202,53.6974352],[-2.1990238,53.6976872],[-2.1990546,53.6977622],[-2.1990174,53.6978144],[-2.1987448,53.6978593]]]}},
{"type":"Feature","properties":{"highway":"path","name":null,"category":"Shared path"},"geometry":{"type":"MultiLineString","coordinates":[[[-2.1991827,53.6972259],[-2.199104,53.6972524],[-2.1985063,53.697318]]]}},
{"type":"Feature","properties":{"highway":"path","name":null,"category":"Shared path"},"geometry":{"type":"MultiLineString","coordinates":[[[-2.1999706,53.7033297],[-2.2000813,53.7032975],[-2.2001536,53.703261]]]}},
{"type":"Feature","properties":{"highway":"bridleway","name":null,"category":"Bridleway"},"geometry":{"type":"MultiLineString","coordinates":[[[-2.2035191,53.6998576],[-2.2040405,53.6999199],[-2.2043621,53.6999251],[-2.2050744,53.7000018],[-2.2056535,53.7000405],[-2.205887,53.7000239],[-2.206438,53.6999631],[-2.2072786,53.6998801],[-2.2074094,53.6998635],[-2.2075401,53.6998083]]]}},
{"type":"Feature","properties":{"highway":"track","name":null,"category":"Track"},"geometry":{"type":"MultiLineString","coordinates":[[[-2.2030261,53.694077],[-2.2028227,53.6941207],[-2.2027047,53.6941398],[-2.2025438,53.694162],[-2.2024848,53.6941715]]]}},
{"type":"Feature","properties":{"highway":"path","name":null,"category":"Shared path"},"geometry":{"type":"MultiLineString","coordinates":[[[-2.1972987,53.6972893],[-2.1971433,53.6974184],[-2.1969674,53.6974538],[-2.1967839,53.6975497],[-2.1967463,53.6975694],[-2.1962357,53.6976752]]]}},
{"type":"Feature","properties":{"highway":"path","name":null,"category":"Shared path"},"geometry":{"type":"MultiLineString","coordinates":[[[-2.1967839,53.6975497],[-2.197316,53.6977079],[-2.1975171,53.6976758]]]}},
{"type":"Feature","properties":{"highway":"path","name":null,"category":"Shared path"},"geometry":{"type":"MultiLineString","coordinates":[[[-2.1968757,53.6965921],[-2.1962785,53.6968054],[-2.1963875,53.6969381]]]}},
{"type":"Feature","properties":{"highway":"track","name":null,"category":"Track"},"geometry":{"type":"MultiLineString","coordinates":[[[-2.1852598,53.7060359],[-2.1845931,53.7061857],[-2.1839279,53.7056649],[-2.1829429,53.705193],[-2.1827581,53.7051356],[-2.1825725,53.705133],[-2.182384,53.7051589]]]}},
{"type":"Feature","properties":{"highway":"track","name":null,"category":"Track"},"geometry":{"type":"MultiLineString","coordinates":[[[-2.1823836,53.7049653],[-2.1823389,53.7048859],[-2.1822545,53.7047713],[-2.1821652,53.7046803],[-2.1819617,53.7044952],[-2.1816053,53.7041807]]]}},
{"type":"Feature","properties":{"highway":"track","name":null,"category":"Track"},"geometry":{"type":"MultiLineString","coordinates":[[[-2.182384,53.7051589],[-2.1823786,53.7050572],[-2.1823801,53.7050319],[-2.1823903,53.7049844],[-2.1823836,53.7049653]]]}},
{"type":"Feature","properties":{"highway":"track","name":null,"category":"Track"},"geometry":{"type":"MultiLineString","coordinates":[[[-2.1849464,53.7048844],[-2.1847661,53.7048974],[-2.1845716,53.7049283],[-2.184448,53.7049266],[-2.1842919,53.7048964],[-2.1841057,53.7048388],[-2.1839839,53.7047887],[-2.1837952,53.7047365]]]}},
{"type":"Feature","properties":{"highway":"track","name":null,"category":"Track"},"geometry":{"type":"MultiLineString","coordinates":[[[-2.1816053,53.7041807],[-2.1813562,53.7041935],[-2.179002,53.704224]]]}},
{"type":"Feature","properties":{"highway":"track","name":null,"category":"Track"},"geometry":{"type":"MultiLineString","coordinates":[[[-2.1825562,53.7031846],[-2.1824629,53.7032674],[-2.1823697,53.7033261],[-2.1822881,53.7033675],[-2.1821511,53.7034037],[-2.1820024,53.7034262],[-2.1818858,53.7034365],[-2.1818537,53.7034572],[-2.1818363,53.70349],[-2.1818479,53.7035435],[-2.1818712,53.7036263],[-2.1818479,53.7037299],[-2.1818246,53.7038317],[-2.1817663,53.7039007],[-2.1816555,53.7040077],[-2.1815972,53.7040819],[-2.1815972,53.7041405],[-2.1816053,53.7041807]]]}},
{"type":"Feature","properties":{"highway":"track","name":null,"category":"Track"},"geometry":{"type":"MultiLineString","coordinates":[[[-2.1828156,53.7028809],[-2.1826961,53.702981],[-2.1826262,53.7030794],[-2.1825562,53.7031846]]]}},
{"type":"Feature","properties":{"highway":"track","name":null,"category":"Track"},"geometry":{"type":"MultiLineString","coordinates":[[[-2.1789913,53.7000782],[-2.178542,53.7002538],[-2.1770829,53.6999997],[-2.1769274,53.7001549],[-2.1766445,53.7003076],[-2.1762763,53.7004846],[-2.1759198,53.7006054]]]}},
{"type":"Feature","properties":{"highway":"track","name":null,"category":"Track"},"geometry":{"type":"MultiLineString","coordinates":[[[-2.1780056,53.6991994],[-2.1783179,53.6990797]]]}},
{"type":"Feature","properties":{"highway":"path","name":null,"category":"Shared path"},"geometry":{"type":"MultiLineString","coordinates":[[[-2.1917072,53.6950345],[-2.1915012,53.6952722]]]}},
{"type":"Feature","properties":{"highway":"path","name":null,"category":"Shared path"},"geometry":{"type":"MultiLineString","coordinates":[[[-2.1915012,53.6952722],[-2.1910358,53.6957425]]]}},
{"type":"Feature","properties":{"highway":"path","name":null,"category":"Shared path"},"geometry":{"type":"MultiLineString","coordinates":[[[-2.1943338,53.6961694],[-2.1945988,53.6959916],[-2.1947036,53.6959312],[-2.1948852,53.6958648],[-2.1950558,53.6957847],[-2.1951813,53.6956986]]]}},
{"type":"Feature","properties":{"highway":"path","name":null,"category":"Shared path"},"geometry":{"type":"MultiLineString","coordinates":[[[-2.1984883,53.6963038],[-2.1982931,53.6963115],[-2.198168,53.6963572],[-2.1980871,53.6964111],[-2.1978874,53.6964618]]]}}
]
}
