{
"type": "FeatureCollection",
"name": "WIGAN_8_cycling",
"crs": { "type": "name", "properties": { "name": "urn:ogc:def:crs:OGC:1.3:CRS84" } },
"features": [
{"type":"Feature","properties":{"highway":"path","name":null,"category":"Shared path"},"geometry":{"type":"MultiLineString","coordinates":[[[-2.4716507,53.5043552],[-2.4730418,53.5043699],[-2.4745867,53.5040636],[-2.4752734,53.5026853],[-2.4758099,53.5016203],[-2.4763805,53.5016323],[-2.4769585,53.5016065],[-2.478155,53.5015113],[-2.4787048,53.5014397],[-2.4792749,53.5013802],[-2.4803988,53.501295],[-2.4809459,53.5012635]]]}},
{"type":"Feature","properties":{"highway":"path","name":null,"category":"Shared path"},"geometry":{"type":"MultiLineString","coordinates":[[[-2.4710183,53.4960826],[-2.4712697,53.4976628],[-2.4714363,53.4979974],[-2.471613,53.4983521],[-2.4719467,53.4988927],[-2.4721321,53.4990541],[-2.4726022,53.4994634],[-2.4730158,53.4998586],[-2.4738875,53.5004453],[-2.4745645,53.5007956],[-2.4750194,53.5010947],[-2.4753925,53.501468],[-2.4758099,53.5016203],[-2.4756967,53.5023753],[-2.4757079,53.5028877],[-2.4755915,53.5033405],[-2.4756041,53.5040955],[-2.4755969,53.5044862],[-2.4757519,53.5046882],[-2.4756919,53.5053532]]]}},
{"type":"Feature","properties":{"highway":"path","name":"Black Lane","category":"Shared path"},"geometry":{"type":"MultiLineString","coordinates":[[[-2.4899287,53.4987801],[-2.4895727,53.4987368],[-2.4887573,53.4987432],[-2.4887426,53.4987439],[-2.4875751,53.4988013]]]}},
{"type":"Feature","properties":{"highway":"path","name":"Cooling Lane","category":"Shared path"},"geometry":{"type":"MultiLineString","coordinates":[[[-2.4777844,53.5085502],[-2.4779525,53.5085726],[-2.4778686,53.5086925],[-2.4778519,53.508911],[-2.4779592,53.5096129],[-2.4780665,53.5108379],[-2.478023,53.5111668],[-2.47803,53.5111942]]]}},
{"type":"Feature","properties":{"highway":"cycleway","name":null,"category":"Dedicated cycleway"},"geometry":{"type":"MultiLineString","coordinates":[[[-2.5027941,53.5014424],[-2.5027476,53.5014685],[-2.5010565,53.5023508],[-2.4987706,53.5035203],[-2.4987122,53.5035488],[-2.4986943,53.5035576],[-2.4985993,53.5036041],[-2.4971837,53.5042831],[-2.4961522,53.5047846],[-2.4942705,53.5057338],[-2.4927286,53.5065401],[-2.490785,53.5075478],[-2.4894556,53.5082495],[-2.4884738,53.5087658],[-2.4875839,53.509218],[-2.4873381,53.5093316],[-2.4869953,53.5094707],[-2.486594,53.509622],[-2.4860965,53.5098013],[-2.4857906,53.5098984],[-2.4853822,53.5100137],[-2.4847852,53.5101564],[-2.4839969,53.5103359],[-2.4831768,53.5105074],[-2.482062,53.5107138],[-2.4808182,53.510914],[-2.4798637,53.5110562],[-2.4789954,53.5111571],[-2.4789152,53.5111863],[-2.4784953,53.5112372],[-2.4784114,53.511228],[-2.4780377,53.5112683]]]}},
{"type":"Feature","properties":{"highway":"path","name":null,"category":"Shared path"},"geometry":{"type":"MultiLineString","coordinates":[[[-2.4809459,53.5012635],[-2.4809506,53.5013391],[-2.4808698,53.501571],[-2.48084,53.5017993],[-2.4806599,53.502058],[-2.4802361,53.5027733],[-2.4800562,53.5032004],[-2.4799092,53.5035494],[-2.4798991,53.5037398],[-2.4799092,53.5038327],[-2.4797891,53.5039717],[-2.4795951,53.5040813],[-2.4790078,53.5042886],[-2.4784574,53.5046135],[-2.4774899,53.5050073],[-2.477396,53.5050958],[-2.4773801,53.5051108],[-2.477372,53.5053114],[-2.4777013,53.506021],[-2.4777937,53.5065473],[-2.4778049,53.5067085],[-2.4778024,53.5070454],[-2.4778018,53.5071243],[-2.4778008,53.5072552],[-2.4777962,53.507358],[-2.4778916,53.5074904],[-2.4779618,53.5078035],[-2.4779849,53.507998],[-2.4782197,53.5081475]]]}},
{"type":"Feature","properties":{"highway":"cycleway","name":null,"category":"Dedicated cycleway"},"geometry":{"type":"MultiLineString","coordinates":[[[-2.4775928,53.5053397],[-2.4774868,53.5053074],[-2.477372,53.5053114],[-2.4766648,53.5053266],[-2.4761718,53.5053596],[-2.4756919,53.5053532],[-2.4749487,53.505398]]]}},
{"type":"Feature","properties":{"highway":"path","name":null,"category":"Shared path"},"geometry":{"type":"MultiLineString","coordinates":[[[-2.4902492,53.5011793],[-2.4893447,53.5009192]]]}},
{"type":"Feature","properties":{"highway":"path","name":null,"category":"Shared path"},"geometry":{"type":"MultiLineString","coordinates":[[[-2.4880107,53.5024944],[-2.4881596,53.5025109],[-2.4883103,53.5024891],[-2.4883795,53.5024567],[-2.4885083,53.5024535],[-2.488857,53.5023993],[-2.4889911,53.5023546],[-2.489093,53.5023004],[-2.4892915,53.5023291],[-2.4895275,53.5023418],[-2.4897528,53.5022365],[-2.4898655,53.5022174],[-2.4900747,53.5022844],[-2.4902195,53.5022876],[-2.4905092,53.5022461]]]}},
{"type":"Feature","properties":{"highway":"path","name":null,"category":"Shared path"},"geometry":{"type":"MultiLineString","coordinates":[[[-2.4907453,53.5007273],[-2.4908177,53.500667],[-2.4908748,53.5006194],[-2.4909598,53.5005486],[-2.4908901,53.500405],[-2.4908579,53.5002646],[-2.4909652,53.5000764],[-2.4911315,53.4998881],[-2.4911798,53.4997732],[-2.4911422,53.4996584],[-2.4909957,53.499525]]]}},
{"type":"Feature","properties":{"highway":"path","name":null,"category":"Shared path"},"geometry":{"type":"MultiLineString","coordinates":[[[-2.4914373,53.5021855],[-2.4922338,53.5027031]]]}},
{"type":"Feature","properties":{"highway":"path","name":null,"category":"Shared path"},"geometry":{"type":"MultiLineString","coordinates":[[[-2.4907453,53.5007273],[-2.4902492,53.5011793],[-2.49041,53.5015646],[-2.4903937,53.5018258],[-2.4904385,53.5020724],[-2.4905092,53.5022461],[-2.4914373,53.5021855],[-2.4912678,53.5019128],[-2.4910158,53.5016734],[-2.4909019,53.5013712],[-2.4909019,53.5011777],[-2.4907881,53.5009843],[-2.4908084,53.5007521],[-2.4908177,53.500667]]]}},
{"type":"Feature","properties":{"highway":"path","name":"Cooling Lane","category":"Shared path"},"geometry":{"type":"MultiLineString","coordinates":[[[-2.4783625,53.5078884],[-2.4782197,53.5081475],[-2.4781464,53.5082954],[-2.4779525,53.5085726]]]}},
{"type":"Feature","properties":{"highway":"path","name":null,"category":"Shared path"},"geometry":{"type":"MultiLineString","coordinates":[[[-2.4882919,53.5065919],[-2.4870469,53.5066177],[-2.4859502,53.5065233],[-2.4857362,53.5065049]]]}},
{"type":"Feature","properties":{"highway":"path","name":null,"category":"Shared path"},"geometry":{"type":"MultiLineString","coordinates":[[[-2.4809459,53.5012635],[-2.481494,53.5012456],[-2.4820502,53.5011696],[-2.4821716,53.5011433],[-2.4823048,53.5011144],[-2.4826393,53.5009878],[-2.4828776,53.5008194],[-2.4830929,53.5005224],[-2.4840814,53.4999329],[-2.4866313,53.4995905],[-2.4877012,53.4994232],[-2.4875864,53.4988565],[-2.4875751,53.4988013]]]}},
{"type":"Feature","properties":{"highway":"track","name":null,"category":"Track"},"geometry":{"type":"MultiLineString","coordinates":[[[-2.4885965,53.5104169],[-2.4886097,53.5110053]]]}},
{"type":"Feature","properties":{"highway":"path","name":"Meanley Road","category":"Shared path"},"geometry":{"type":"MultiLineString","coordinates":[[[-2.4744435,53.5072167],[-2.4754809,53.5075041],[-2.4758058,53.507592],[-2.4758778,53.5076222],[-2.4766289,53.5080305],[-2.4773531,53.508415],[-2.4776347,53.5084962],[-2.4777844,53.5085502]]]}},
{"type":"Feature","properties":{"highway":"path","name":null,"category":"Shared path"},"geometry":{"type":"MultiLineString","coordinates":[[[-2.492649,53.4983922],[-2.4925864,53.4982783],[-2.4925722,53.4982218]]]}},
{"type":"Feature","properties":{"highway":"path","name":null,"category":"Shared path"},"geometry":{"type":"MultiLineString","coordinates":[[[-2.4958394,53.4984484],[-2.4956849,53.4983357],[-2.495501,53.4982059]]]}},
{"type":"Feature","properties":{"highway":"path","name":"Black Lane","category":"Shared path"},"geometry":{"type":"MultiLineString","coordinates":[[[-2.4916409,53.499069],[-2.4915426,53.4990464],[-2.4913641,53.4990125],[-2.4905169,53.4988517],[-2.4900103,53.4987901]]]}},
{"type":"Feature","properties":{"highway":"path","name":"Black Lane","category":"Shared path"},"geometry":{"type":"MultiLineString","coordinates":[[[-2.4900103,53.4987901],[-2.4899287,53.4987801]]]}},
{"type":"Feature","properties":{"highway":"path","name":null,"category":"Shared path"},"geometry":{"type":"MultiLineString","coordinates":[[[-2.4826978,53.5067696],[-2.4824491,53.5067908],[-2.4821151,53.5068193],[-2.4820223,53.5066607]]]}},
{"type":"Feature","properties":{"highway":"path","name":null,"category":"Shared path"},"geometry":{"type":"MultiLineString","coordinates":[[[-2.4821151,53.5068193],[-2.4821325,53.5069021],[-2.4819502,53.5069532]]]}},
{"type":"Feature","properties":{"highway":"path","name":null,"category":"Shared path"},"geometry":{"type":"MultiLineString","coordinates":[[[-2.4814134,53.5067853],[-2.4814497,53.5070065],[-2.4816034,53.5069979]]]}},
{"type":"Feature","properties":{"highway":"path","name":null,"category":"Shared path"},"geometry":{"type":"MultiLineString","coordinates":[[[-2.4805702,53.506801],[-2.4805932,53.507047],[-2.4803627,53.5070582]]]}},
{"type":"Feature","properties":{"highway":"path","name":null,"category":"Shared path"},"geometry":{"type":"MultiLineString","coordinates":[[[-2.4819039,53.5072902],[-2.4818866,53.5070596]]]}},
{"type":"Feature","properties":{"highway":"path","name":null,"category":"Shared path"},"geometry":{"type":"MultiLineString","coordinates":[[[-2.4819659,53.5070572],[-2.4818866,53.5070596],[-2.48171,53.5070645]]]}},
{"type":"Feature","properties":{"highway":"path","name":null,"category":"Shared path"},"geometry":{"type":"MultiLineString","coordinates":[[[-2.4821525,53.5072812],[-2.4821224,53.5070541],[-2.4822708,53.5070348]]]}},
{"type":"Feature","properties":{"highway":"path","name":null,"category":"Shared path"},"geometry":{"type":"MultiLineString","coordinates":[[[-2.4827641,53.5071859],[-2.4826795,53.5069099],[-2.4827802,53.5068711]]]}},
{"type":"Feature","properties":{"highway":"path","name":null,"category":"Shared path"},"geometry":{"type":"MultiLineString","coordinates":[[[-2.4810509,53.5067873],[-2.4810261,53.5065754],[-2.4811746,53.5065677]]]}},
{"type":"Feature","properties":{"highway":"path","name":null,"category":"Shared path"},"geometry":{"type":"MultiLineString","coordinates":[[[-2.4816927,53.506254],[-2.4817575,53.5064463],[-2.4818946,53.5064306]]]}},
{"type":"Feature","properties":{"highway":"path","name":null,"category":"Shared path"},"geometry":{"type":"MultiLineString","coordinates":[[[-2.4822138,53.5061878],[-2.4824413,53.5061561],[-2.4824944,53.5061487]]]}},
{"type":"Feature","properties":{"highway":"path","name":null,"category":"Shared path"},"geometry":{"type":"MultiLineString","coordinates":[[[-2.4821168,53.5062001],[-2.4820406,53.5059834]]]}},
{"type":"Feature","properties":{"highway":"path","name":null,"category":"Shared path"},"geometry":{"type":"MultiLineString","coordinates":[[[-2.481915,53.5059989],[-2.4820406,53.5059834],[-2.4821734,53.5059657]]]}},
{"type":"Feature","properties":{"highway":"path","name":null,"category":"Shared path"},"geometry":{"type":"MultiLineString","coordinates":[[[-2.4822408,53.5057178],[-2.4820018,53.5057474],[-2.481913,53.5055145]]]}},
{"type":"Feature","properties":{"highway":"path","name":null,"category":"Shared path"},"geometry":{"type":"MultiLineString","coordinates":[[[-2.4804028,53.5055733],[-2.4804254,53.5056314],[-2.4803699,53.5057171],[-2.4802129,53.5058403]]]}},
{"type":"Feature","properties":{"highway":"path","name":null,"category":"Shared path"},"geometry":{"type":"MultiLineString","coordinates":[[[-2.482887,53.5062867],[-2.4828999,53.5063294],[-2.4826727,53.5064081],[-2.4826299,53.5064123]]]}},
{"type":"Feature","properties":{"highway":"path","name":null,"category":"Shared path"},"geometry":{"type":"MultiLineString","coordinates":[[[-2.4817318,53.5046146],[-2.4821981,53.5045488],[-2.4825958,53.5046209]]]}},
{"type":"Feature","properties":{"highway":"path","name":null,"category":"Shared path"},"geometry":{"type":"MultiLineString","coordinates":[[[-2.4821981,53.5045488],[-2.4821884,53.5044901]]]}},
{"type":"Feature","properties":{"highway":"path","name":null,"category":"Shared path"},"geometry":{"type":"MultiLineString","coordinates":[[[-2.4778018,53.5071243],[-2.4779038,53.5070735],[-2.4778024,53.5070454]]]}},
{"type":"Feature","properties":{"highway":"path","name":null,"category":"Shared path"},"geometry":{"type":"MultiLineString","coordinates":[[[-2.4779038,53.5070735],[-2.4779686,53.5070679],[-2.4783269,53.5070371]]]}},
{"type":"Feature","properties":{"highway":"path","name":null,"category":"Shared path"},"geometry":{"type":"MultiLineString","coordinates":[[[-2.4796287,53.5069814],[-2.479741,53.5066249],[-2.4798084,53.5063163],[-2.4795691,53.5062997]]]}},
{"type":"Feature","properties":{"highway":"path","name":null,"category":"Shared path"},"geometry":{"type":"MultiLineString","coordinates":[[[-2.4802129,53.5058403],[-2.4802478,53.5059166],[-2.4796498,53.5059932]]]}},
{"type":"Feature","properties":{"highway":"path","name":null,"category":"Shared path"},"geometry":{"type":"MultiLineString","coordinates":[[[-2.4803601,53.5051199],[-2.4804013,53.5052875],[-2.479926,53.5053358]]]}},
{"type":"Feature","properties":{"highway":"path","name":null,"category":"Shared path"},"geometry":{"type":"MultiLineString","coordinates":[[[-2.4816585,53.5077903],[-2.4816651,53.5078902],[-2.4809373,53.5079009],[-2.480934,53.5078539]]]}},
{"type":"Feature","properties":{"highway":"path","name":null,"category":"Shared path"},"geometry":{"type":"MultiLineString","coordinates":[[[-2.4833551,53.5072412],[-2.482778,53.5072532],[-2.4827641,53.5071859]]]}},
{"type":"Feature","properties":{"highway":"path","name":null,"category":"Shared path"},"geometry":{"type":"MultiLineString","coordinates":[[[-2.483579,53.5046734],[-2.4834489,53.5046273],[-2.4833309,53.5045865]]]}},
{"type":"Feature","properties":{"highway":"path","name":null,"category":"Shared path"},"geometry":{"type":"MultiLineString","coordinates":[[[-2.4847258,53.5042217],[-2.484743,53.5041818],[-2.4848396,53.5041837],[-2.4851394,53.5041895]]]}},
{"type":"Feature","properties":{"highway":"path","name":null,"category":"Shared path"},"geometry":{"type":"MultiLineString","coordinates":[[[-2.4848396,53.5041837],[-2.4848165,53.5044098]]]}},
{"type":"Feature","properties":{"highway":"path","name":null,"category":"Shared path"},"geometry":{"type":"MultiLineString","coordinates":[[[-2.4847258,53.5042217],[-2.4847142,53.5043412],[-2.4846205,53.5043412],[-2.4846032,53.5046516],[-2.4844836,53.5047501],[-2.4844346,53.5047501],[-2.4844245,53.5048316],[-2.4843328,53.5048285]]]}},
{"type":"Feature","properties":{"highway":"path","name":null,"category":"Shared path"},"geometry":{"type":"MultiLineString","coordinates":[[[-2.4857811,53.5042878],[-2.4860586,53.5043033],[-2.4860431,53.504406],[-2.485952,53.5044007],[-2.4859231,53.5045823],[-2.4858749,53.5045801]]]}},
{"type":"Feature","properties":{"highway":"path","name":null,"category":"Shared path"},"geometry":{"type":"MultiLineString","coordinates":[[[-2.4863454,53.5039395],[-2.4863723,53.5038409],[-2.4863924,53.5038392],[-2.4863756,53.5037511],[-2.4864017,53.5037493],[-2.4863865,53.5036649],[-2.4865385,53.5036536],[-2.4865674,53.5036117],[-2.4865396,53.5034172]]]}},
{"type":"Feature","properties":{"highway":"path","name":null,"category":"Shared path"},"geometry":{"type":"MultiLineString","coordinates":[[[-2.4865396,53.5034172],[-2.4865315,53.5033982],[-2.4865067,53.5033399]]]}},
{"type":"Feature","properties":{"highway":"path","name":null,"category":"Shared path"},"geometry":{"type":"MultiLineString","coordinates":[[[-2.4864934,53.5033065],[-2.4864639,53.5032358]]]}},
{"type":"Feature","properties":{"highway":"path","name":null,"category":"Shared path"},"geometry":{"type":"MultiLineString","coordinates":[[[-2.4859992,53.5031703],[-2.4862745,53.503125],[-2.4862778,53.5031341],[-2.4864611,53.5031391],[-2.4864789,53.5031786]]]}},
{"type":"Feature","properties":{"highway":"path","name":null,"category":"Shared path"},"geometry":{"type":"MultiLineString","coordinates":[[[-2.4861756,53.502796],[-2.4861988,53.5028449],[-2.4862815,53.5030111],[-2.4861095,53.5030415]]]}},
{"type":"Feature","properties":{"highway":"path","name":null,"category":"Shared path"},"geometry":{"type":"MultiLineString","coordinates":[[[-2.4824989,53.5015745],[-2.4821716,53.5011433]]]}},
{"type":"Feature","properties":{"highway":"path","name":null,"category":"Shared path"},"geometry":{"type":"MultiLineString","coordinates":[[[-2.4835934,53.5009523],[-2.4830158,53.5014865]]]}},
{"type":"Feature","properties":{"highway":"path","name":"Empress Drive","category":"Shared path"},"geometry":{"type":"MultiLineString","coordinates":[[[-2.481396,53.5028348],[-2.4812635,53.502816]]]}},
{"type":"Feature","properties":{"highway":"path","name":null,"category":"Shared path"},"geometry":{"type":"MultiLineString","coordinates":[[[-2.4812166,53.5028466],[-2.4812635,53.502816],[-2.481334,53.5026112],[-2.4813632,53.5026099]]]}},
{"type":"Feature","properties":{"highway":"path","name":null,"category":"Shared path"},"geometry":{"type":"MultiLineString","coordinates":[[[-2.4817305,53.5036623],[-2.4821718,53.5036723]]]}},
{"type":"Feature","properties":{"highway":"path","name":null,"category":"Shared path"},"geometry":{"type":"MultiLineString","coordinates":[[[-2.4815066,53.5029129],[-2.4815967,53.5029183],[-2.4816455,53.5025371],[-2.4815664,53.5025339],[-2.4815677,53.5025057],[-2.4814441,53.5025011]]]}},
{"type":"Feature","properties":{"highway":"path","name":null,"category":"Shared path"},"geometry":{"type":"MultiLineString","coordinates":[[[-2.4813163,53.5021979],[-2.4812976,53.5020277],[-2.4816199,53.5020145]]]}},
{"type":"Feature","properties":{"highway":"path","name":null,"category":"Shared path"},"geometry":{"type":"MultiLineString","coordinates":[[[-2.4863381,53.501616],[-2.4867607,53.501587]]]}},
{"type":"Feature","properties":{"highway":"path","name":null,"category":"Shared path"},"geometry":{"type":"MultiLineString","coordinates":[[[-2.4889481,53.5038832],[-2.4890073,53.5036516],[-2.4891411,53.5036624]]]}},
{"type":"Feature","properties":{"highway":"path","name":null,"category":"Shared path"},"geometry":{"type":"MultiLineString","coordinates":[[[-2.4894931,53.5036547],[-2.4892598,53.5036626],[-2.4890916,53.503645]]]}},
{"type":"Feature","properties":{"highway":"path","name":null,"category":"Shared path"},"geometry":{"type":"MultiLineString","coordinates":[[[-2.489438,53.5034035],[-2.4890448,53.5034666]]]}},
{"type":"Feature","properties":{"highway":"path","name":null,"category":"Shared path"},"geometry":{"type":"MultiLineString","coordinates":[[[-2.4904352,53.5035421],[-2.490856,53.5034788],[-2.4908912,53.5035607]]]}},
{"type":"Feature","properties":{"highway":"path","name":null,"category":"Shared path"},"geometry":{"type":"MultiLineString","coordinates":[[[-2.4912852,53.5036574],[-2.4911902,53.5034493],[-2.4910897,53.5034646]]]}},
{"type":"Feature","properties":{"highway":"path","name":null,"category":"Shared path"},"geometry":{"type":"MultiLineString","coordinates":[[[-2.4915487,53.5036157],[-2.4914705,53.5034076],[-2.4915469,53.5033964]]]}},
{"type":"Feature","properties":{"highway":"path","name":null,"category":"Shared path"},"geometry":{"type":"MultiLineString","coordinates":[[[-2.4921609,53.5029405],[-2.4921643,53.5028489],[-2.4921256,53.5027383]]]}},
{"type":"Feature","properties":{"highway":"path","name":null,"category":"Shared path"},"geometry":{"type":"MultiLineString","coordinates":[[[-2.4924503,53.5029834],[-2.4924647,53.5027163],[-2.4923903,53.5027156]]]}},
{"type":"Feature","properties":{"highway":"path","name":null,"category":"Shared path"},"geometry":{"type":"MultiLineString","coordinates":[[[-2.4922092,53.5031434],[-2.4926366,53.5031506],[-2.4926334,53.5032435]]]}},
{"type":"Feature","properties":{"highway":"path","name":null,"category":"Shared path"},"geometry":{"type":"MultiLineString","coordinates":[[[-2.4925529,53.5035765],[-2.4925197,53.5033309],[-2.4926439,53.5033262]]]}},
{"type":"Feature","properties":{"highway":"path","name":null,"category":"Shared path"},"geometry":{"type":"MultiLineString","coordinates":[[[-2.4889436,53.5029206],[-2.488646,53.5031114],[-2.488678,53.5031291]]]}},
{"type":"Feature","properties":{"highway":"path","name":null,"category":"Shared path"},"geometry":{"type":"MultiLineString","coordinates":[[[-2.4892826,53.5024288],[-2.4895406,53.5026602],[-2.4894283,53.5027053]]]}},
{"type":"Feature","properties":{"highway":"path","name":null,"category":"Shared path"},"geometry":{"type":"MultiLineString","coordinates":[[[-2.4891466,53.502978],[-2.4893698,53.5028874],[-2.4894731,53.5028455],[-2.4894211,53.5028026]]]}},
{"type":"Feature","properties":{"highway":"path","name":null,"category":"Shared path"},"geometry":{"type":"MultiLineString","coordinates":[[[-2.4898696,53.5032402],[-2.4897279,53.5030118]]]}},
{"type":"Feature","properties":{"highway":"path","name":null,"category":"Shared path"},"geometry":{"type":"MultiLineString","coordinates":[[[-2.4906137,53.5031192],[-2.4906302,53.503386],[-2.4904941,53.5034066]]]}},
{"type":"Feature","properties":{"highway":"path","name":null,"category":"Shared path"},"geometry":{"type":"MultiLineString","coordinates":[[[-2.4925317,53.5036516],[-2.4925542,53.5038728],[-2.4926551,53.5038694]]]}},
{"type":"Feature","properties":{"highway":"path","name":null,"category":"Shared path"},"geometry":{"type":"MultiLineString","coordinates":[[[-2.4904828,53.5052416],[-2.4908149,53.5051363],[-2.490799,53.5051193]]]}},
{"type":"Feature","properties":{"highway":"path","name":null,"category":"Shared path"},"geometry":{"type":"MultiLineString","coordinates":[[[-2.4913624,53.5048538],[-2.4912854,53.5048801],[-2.4911032,53.5046762]]]}},
{"type":"Feature","properties":{"highway":"path","name":null,"category":"Shared path"},"geometry":{"type":"MultiLineString","coordinates":[[[-2.4906882,53.5047933],[-2.4908649,53.504992],[-2.4909326,53.5049702]]]}},
{"type":"Feature","properties":{"highway":"path","name":null,"category":"Shared path"},"geometry":{"type":"MultiLineString","coordinates":[[[-2.4904616,53.5048265],[-2.4906307,53.5050234],[-2.4905491,53.5050495]]]}},
{"type":"Feature","properties":{"highway":"path","name":null,"category":"Shared path"},"geometry":{"type":"MultiLineString","coordinates":[[[-2.48982,53.505578],[-2.4896086,53.505351],[-2.4897013,53.5053216]]]}},
{"type":"Feature","properties":{"highway":"path","name":null,"category":"Shared path"},"geometry":{"type":"MultiLineString","coordinates":[[[-2.489166,53.5055435],[-2.4888224,53.505647],[-2.4887822,53.5056279],[-2.4887471,53.5055854]]]}},
{"type":"Feature","properties":{"highway":"path","name":null,"category":"Shared path"},"geometry":{"type":"MultiLineString","coordinates":[[[-2.4896989,53.5050379],[-2.4898855,53.5052464],[-2.4898143,53.5052691]]]}},
{"type":"Feature","properties":{"highway":"path","name":null,"category":"Shared path"},"geometry":{"type":"MultiLineString","coordinates":[[[-2.4892686,53.5051689],[-2.4892989,53.5052308],[-2.4894461,53.5053895],[-2.4893969,53.5054058]]]}},
{"type":"Feature","properties":{"highway":"path","name":null,"category":"Shared path"},"geometry":{"type":"MultiLineString","coordinates":[[[-2.4884985,53.5051641],[-2.4886865,53.5053858],[-2.4886117,53.505407]]]}},
{"type":"Feature","properties":{"highway":"path","name":null,"category":"Shared path"},"geometry":{"type":"MultiLineString","coordinates":[[[-2.4881261,53.5049382],[-2.4880353,53.5049494],[-2.4880573,53.5050451],[-2.4881837,53.5051992]]]}},
{"type":"Feature","properties":{"highway":"path","name":null,"category":"Shared path"},"geometry":{"type":"MultiLineString","coordinates":[[[-2.4882027,53.5045975],[-2.4881049,53.5043776],[-2.4880503,53.5043868]]]}},
{"type":"Feature","properties":{"highway":"path","name":null,"category":"Shared path"},"geometry":{"type":"MultiLineString","coordinates":[[[-2.4916856,53.504074],[-2.4915714,53.5041877],[-2.4915373,53.5041974]]]}},
{"type":"Feature","properties":{"highway":"path","name":null,"category":"Shared path"},"geometry":{"type":"MultiLineString","coordinates":[[[-2.4905866,53.5042164],[-2.4906604,53.5041941],[-2.4908658,53.5043928],[-2.4908308,53.5044052]]]}},
{"type":"Feature","properties":{"highway":"path","name":null,"category":"Shared path"},"geometry":{"type":"MultiLineString","coordinates":[[[-2.4910943,53.5045995],[-2.4909016,53.5044025],[-2.4909307,53.5043926]]]}},
{"type":"Feature","properties":{"highway":"path","name":null,"category":"Shared path"},"geometry":{"type":"MultiLineString","coordinates":[[[-2.4904248,53.5044137],[-2.4900943,53.5045306],[-2.4901592,53.504596]]]}},
{"type":"Feature","properties":{"highway":"path","name":null,"category":"Shared path"},"geometry":{"type":"MultiLineString","coordinates":[[[-2.4903274,53.504307],[-2.4899808,53.5044251]]]}},
{"type":"Feature","properties":{"highway":"path","name":null,"category":"Shared path"},"geometry":{"type":"MultiLineString","coordinates":[[[-2.4896198,53.5041052],[-2.4896428,53.5043621],[-2.4895881,53.5043634]]]}},
{"type":"Feature","properties":{"highway":"path","name":null,"category":"Shared path"},"geometry":{"type":"MultiLineString","coordinates":[[[-2.4896197,53.504539],[-2.4899595,53.5044172]]]}},
{"type":"Feature","properties":{"highway":"path","name":null,"category":"Shared path"},"geometry":{"type":"MultiLineString","coordinates":[[[-2.4893446,53.5048815],[-2.4892475,53.5047748]]]}},
{"type":"Feature","properties":{"highway":"path","name":null,"category":"Shared path"},"geometry":{"type":"MultiLineString","coordinates":[[[-2.4894239,53.5046801],[-2.4892111,53.5044762],[-2.4891553,53.5044959]]]}},
{"type":"Feature","properties":{"highway":"path","name":null,"category":"Shared path"},"geometry":{"type":"MultiLineString","coordinates":[[[-2.4886152,53.5045914],[-2.488849,53.5045473],[-2.4889636,53.5045038],[-2.4889436,53.5044825]]]}},
{"type":"Feature","properties":{"highway":"path","name":null,"category":"Shared path"},"geometry":{"type":"MultiLineString","coordinates":[[[-2.4889157,53.5049458],[-2.489273,53.5048295]]]}},
{"type":"Feature","properties":{"highway":"path","name":null,"category":"Shared path"},"geometry":{"type":"MultiLineString","coordinates":[[[-2.488655,53.5047912],[-2.4883213,53.5048824],[-2.4883673,53.5049417]]]}}
]
}
