{
"type": "FeatureCollection",
"name": "SEFTO_69_toilets",
"crs": { "type": "name", "properties": { "name": "urn:ogc:def:crs:OGC:1.3:CRS84" } },
"features": [
{ "type": "Feature", "properties": { "name": "Bootle Oriel Road", "payment_info": "Free", "accessible": "False", "radar": "False", "women": "Unknown", "men": "Unknown", "baby_change": "True", "Mon": "Unknown", "Tue": "Unknown", "Wed": "Unknown", "Thu": "Unknown", "Fri": "Unknown", "Sat": "Unknown", "Sun": "Unknown", "index_right": 93, "park_offical_id": "SEFTO_69" }, "geometry": { "type": "Point", "coordinates": [ -2.995221639, 53.44762574 ] } }
]
}
