{
"type": "FeatureCollection",
"name": "5ff4f25094cb_visibility",
"crs": { "type": "name", "properties": { "name": "urn:ogc:def:crs:OGC:1.3:CRS84" } },
"features": [
{ "type": "Feature", "properties": { "visible_points": 14, "total_points": 45, "visibility_pct": 31.111111111111111 }, "geometry": { "type": "Point", "coordinates": [ -2.151995248648201, 53.910280954767543 ] } },
{ "type": "Feature", "properties": { "visible_points": 10, "total_points": 49, "visibility_pct": 20.408163265306122 }, "geometry": { "type": "Point", "coordinates": [ -2.151784323837075, 53.91028122297157 ] } },
{ "type": "Feature", "properties": { "visible_points": 16, "total_points": 46, "visibility_pct": 34.782608695652172 }, "geometry": { "type": "Point", "coordinates": [ -2.152101105812509, 53.910388673633783 ] } },
{ "type": "Feature", "properties": { "visible_points": 15, "total_points": 50, "visibility_pct": 30.0 }, "geometry": { "type": "Point", "coordinates": [ -2.151890180499731, 53.910388942036988 ] } },
{ "type": "Feature", "properties": { "visible_points": 14, "total_points": 55, "visibility_pct": 25.454545454545453 }, "geometry": { "type": "Point", "coordinates": [ -2.151679255183754, 53.910389210069695 ] } },
{ "type": "Feature", "properties": { "visible_points": 4, "total_points": 59, "visibility_pct": 6.7796610169491522 }, "geometry": { "type": "Point", "coordinates": [ -2.151468329090041, 53.910389477591956 ] } },
{ "type": "Feature", "properties": { "visible_points": 11, "total_points": 45, "visibility_pct": 24.444444444444443 }, "geometry": { "type": "Point", "coordinates": [ -2.152206963481647, 53.910496392391494 ] } },
{ "type": "Feature", "properties": { "visible_points": 14, "total_points": 51, "visibility_pct": 27.450980392156865 }, "geometry": { "type": "Point", "coordinates": [ -2.151996037667222, 53.910496660993836 ] } },
{ "type": "Feature", "properties": { "visible_points": 19, "total_points": 56, "visibility_pct": 33.928571428571431 }, "geometry": { "type": "Point", "coordinates": [ -2.151785111849585, 53.910496929225722 ] } },
{ "type": "Feature", "properties": { "visible_points": 16, "total_points": 60, "visibility_pct": 26.666666666666668 }, "geometry": { "type": "Point", "coordinates": [ -2.151574186011527, 53.910497197083998 ] } },
{ "type": "Feature", "properties": { "visible_points": 17, "total_points": 62, "visibility_pct": 27.419354838709676 }, "geometry": { "type": "Point", "coordinates": [ -2.151363258456741, 53.91049746397821 ] } },
{ "type": "Feature", "properties": { "visible_points": 14, "total_points": 55, "visibility_pct": 25.454545454545453 }, "geometry": { "type": "Point", "coordinates": [ -2.151890969020254, 53.910604648273214 ] } },
{ "type": "Feature", "properties": { "visible_points": 16, "total_points": 60, "visibility_pct": 26.666666666666668 }, "geometry": { "type": "Point", "coordinates": [ -2.15168004269777, 53.910604916333789 ] } },
{ "type": "Feature", "properties": { "visible_points": 16, "total_points": 62, "visibility_pct": 25.806451612903224 }, "geometry": { "type": "Point", "coordinates": [ -2.151469115585108, 53.910605183884108 ] } },
{ "type": "Feature", "properties": { "visible_points": 6, "total_points": 60, "visibility_pct": 10.0 }, "geometry": { "type": "Point", "coordinates": [ -2.151258186547442, 53.91060545014421 ] } },
{ "type": "Feature", "properties": { "visible_points": 8, "total_points": 62, "visibility_pct": 12.903225806451612 }, "geometry": { "type": "Point", "coordinates": [ -2.151574973032314, 53.910712903358927 ] } },
{ "type": "Feature", "properties": { "visible_points": 15, "total_points": 59, "visibility_pct": 25.423728813559322 }, "geometry": { "type": "Point", "coordinates": [ -2.151364044435159, 53.910713170271066 ] } },
{ "type": "Feature", "properties": { "visible_points": 8, "total_points": 54, "visibility_pct": 14.814814814814813 }, "geometry": { "type": "Point", "coordinates": [ -2.151153114094091, 53.910713436216426 ] } },
{ "type": "Feature", "properties": { "visible_points": 7, "total_points": 48, "visibility_pct": 14.583333333333334 }, "geometry": { "type": "Point", "coordinates": [ -2.150942183749634, 53.910713701791238 ] } },
{ "type": "Feature", "properties": { "visible_points": 0, "total_points": 53, "visibility_pct": 0.0 }, "geometry": { "type": "Point", "coordinates": [ -2.151258971985182, 53.910821156433961 ] } },
{ "type": "Feature", "properties": { "visible_points": 10, "total_points": 48, "visibility_pct": 20.833333333333336 }, "geometry": { "type": "Point", "coordinates": [ -2.151048041096678, 53.910821422194822 ] } },
{ "type": "Feature", "properties": { "visible_points": 7, "total_points": 42, "visibility_pct": 16.666666666666664 }, "geometry": { "type": "Point", "coordinates": [ -2.150837110204796, 53.910821687585141 ] } },
{ "type": "Feature", "properties": { "visible_points": 0, "total_points": 46, "visibility_pct": 0.0 }, "geometry": { "type": "Point", "coordinates": [ -2.151153898991145, 53.910929142503043 ] } },
{ "type": "Feature", "properties": { "visible_points": 6, "total_points": 41, "visibility_pct": 14.634146341463413 }, "geometry": { "type": "Point", "coordinates": [ -2.150942967555202, 53.910929408079397 ] } }
]
}
