{
"type": "FeatureCollection",
"name": "WIRRA_52_cycling",
"crs": { "type": "name", "properties": { "name": "urn:ogc:def:crs:OGC:1.3:CRS84" } },
"features": [
{"type":"Feature","properties":{"highway":"cycleway","name":null,"category":"Dedicated cycleway"},"geometry":{"type":"MultiLineString","coordinates":[[[-2.9975902,53.3476459],[-2.9967675,53.3462239],[-2.9967046,53.3461189],[-2.9965495,53.3459414],[-2.9961031,53.3455724],[-2.9959486,53.3453572],[-2.995262,53.344066],[-2.9952191,53.3439737],[-2.9950646,53.3438097],[-2.9949187,53.3436816],[-2.9948414,53.3435945],[-2.9946526,53.3434818],[-2.9940175,53.3431026],[-2.9934482,53.3428516],[-2.9930888,53.342701],[-2.9922924,53.3424669],[-2.9913882,53.3423327],[-2.9908464,53.3422687]]]}},
{"type":"Feature","properties":{"highway":"cycleway","name":null,"category":"Dedicated cycleway"},"geometry":{"type":"MultiLineString","coordinates":[[[-2.9975902,53.3476459],[-2.9976573,53.3477671]]]}},
{"type":"Feature","properties":{"highway":"cycleway","name":null,"category":"Dedicated cycleway"},"geometry":{"type":"MultiLineString","coordinates":[[[-2.9976573,53.3477671],[-2.9976619,53.3477808],[-2.997556,53.3478679]]]}},
{"type":"Feature","properties":{"highway":"cycleway","name":null,"category":"Dedicated cycleway"},"geometry":{"type":"MultiLineString","coordinates":[[[-2.988388,53.3502275],[-2.9893792,53.3514788]]]}},
{"type":"Feature","properties":{"highway":"cycleway","name":null,"category":"Dedicated cycleway"},"geometry":{"type":"MultiLineString","coordinates":[[[-2.9893792,53.3514788],[-2.9898542,53.3520769],[-2.9899372,53.3521814],[-2.9899903,53.3522271],[-2.9900996,53.3523211],[-2.9904003,53.3526823],[-2.9906175,53.3529465],[-2.990867,53.3532699],[-2.9909064,53.3533214]]]}},
{"type":"Feature","properties":{"highway":"cycleway","name":null,"category":"Dedicated cycleway"},"geometry":{"type":"MultiLineString","coordinates":[[[-3.0036474,53.3457091],[-3.003745,53.3457114],[-3.0037458,53.3456083],[-3.0039236,53.3453228],[-3.0038867,53.3450837],[-3.0038859,53.3450788],[-3.0039014,53.3450535],[-3.0039391,53.3450286],[-3.0040069,53.3449865],[-3.0040989,53.3449578],[-3.0055723,53.344695],[-3.0061694,53.3446472],[-3.0064616,53.3446222],[-3.0069697,53.3445855],[-3.0070633,53.3445787],[-3.0073248,53.3445599],[-3.0078077,53.3445251],[-3.0083938,53.34448],[-3.0088628,53.3444491]]]}},
{"type":"Feature","properties":{"highway":"path","name":"Kempson Terrace","category":"Shared path"},"geometry":{"type":"MultiLineString","coordinates":[[[-3.00997,53.3451066],[-3.0099303,53.3451195],[-3.0098703,53.3451343],[-3.0097724,53.3451583],[-3.0096166,53.3451587]]]}},
{"type":"Feature","properties":{"highway":"cycleway","name":null,"category":"Dedicated cycleway"},"geometry":{"type":"MultiLineString","coordinates":[[[-3.0036474,53.3457091],[-3.0035524,53.3457134],[-3.0035524,53.3457479],[-3.0035535,53.3457908],[-3.0035388,53.3458156],[-3.0034907,53.3458279],[-3.0033647,53.3458383],[-3.003343,53.3458453],[-3.0033443,53.3458621],[-3.0033473,53.3458911]]]}},
{"type":"Feature","properties":{"highway":"cycleway","name":null,"category":"Dedicated cycleway"},"geometry":{"type":"MultiLineString","coordinates":[[[-2.9983275,53.3473161],[-2.9983931,53.3472724],[-2.9984039,53.3472338],[-2.9983852,53.3472074],[-2.9983945,53.3471858],[-2.9984224,53.3471759],[-2.9984723,53.3471569],[-2.9984747,53.347143],[-2.9984607,53.3471117]]]}},
{"type":"Feature","properties":{"highway":"cycleway","name":null,"category":"Dedicated cycleway"},"geometry":{"type":"MultiLineString","coordinates":[[[-2.9976475,53.3477021],[-2.9975467,53.3477763],[-2.9973782,53.347851]]]}},
{"type":"Feature","properties":{"highway":"cycleway","name":null,"category":"Dedicated cycleway"},"geometry":{"type":"MultiLineString","coordinates":[[[-3.0098092,53.3443876],[-3.0089405,53.3444441],[-3.0088628,53.3444491]]]}},
{"type":"Feature","properties":{"highway":"path","name":null,"category":"Shared path"},"geometry":{"type":"MultiLineString","coordinates":[[[-3.0029745,53.3531569],[-3.0025164,53.3528752],[-3.0020401,53.3524274],[-3.0019051,53.3522229],[-3.0006758,53.350974],[-3.0006971,53.3509177],[-3.0007321,53.3508251],[-3.0004544,53.3503663],[-3.0003823,53.3502471],[-3.0001297,53.3498297]]]}},
{"type":"Feature","properties":{"highway":"path","name":null,"category":"Shared path"},"geometry":{"type":"MultiLineString","coordinates":[[[-3.0040821,53.3510265],[-3.0039593,53.3510716],[-3.0038394,53.3511157],[-3.0035496,53.351234],[-3.0034813,53.3512642],[-3.0032505,53.3513662],[-3.0026343,53.3516497],[-3.0020454,53.351866],[-3.0019641,53.3521742],[-3.0019051,53.3522229]]]}},
{"type":"Feature","properties":{"highway":"path","name":null,"category":"Shared path"},"geometry":{"type":"MultiLineString","coordinates":[[[-3.0026343,53.3516497],[-3.0027683,53.3517688],[-3.0027854,53.3517832],[-3.002798,53.3518343],[-3.0028037,53.3518572],[-3.0027707,53.3518905],[-3.0023809,53.3522831],[-3.0022102,53.352328],[-3.002141,53.3523583],[-3.0020401,53.3524274]]]}},
{"type":"Feature","properties":{"highway":"path","name":null,"category":"Shared path"},"geometry":{"type":"MultiLineString","coordinates":[[[-3.006092,53.3516959],[-3.0059145,53.3516816],[-3.0057512,53.351658],[-3.0056614,53.351634],[-3.0055832,53.3516021],[-3.005469,53.3515324],[-3.0053653,53.3514644],[-3.0051618,53.3513041],[-3.0051374,53.3512893],[-3.005127,53.351283],[-3.005091,53.3512612],[-3.0050275,53.3512381],[-3.0049625,53.35122],[-3.0047976,53.3511912],[-3.0046432,53.3511623],[-3.0044286,53.3511372],[-3.0043691,53.3511435],[-3.0043171,53.3511066]]]}},
{"type":"Feature","properties":{"highway":"path","name":null,"category":"Shared path"},"geometry":{"type":"MultiLineString","coordinates":[[[-3.0051618,53.3513041],[-3.0051529,53.3516184],[-3.0051362,53.3516176],[-3.0049974,53.3515604],[-3.0049846,53.351558],[-3.0049739,53.351558],[-3.0049632,53.3515612],[-3.004901,53.3515869],[-3.004812,53.3516248]]]}},
{"type":"Feature","properties":{"highway":"path","name":null,"category":"Shared path"},"geometry":{"type":"MultiLineString","coordinates":[[[-3.0110531,53.3545742],[-3.010449,53.3547857]]]}},
{"type":"Feature","properties":{"highway":"path","name":null,"category":"Shared path"},"geometry":{"type":"MultiLineString","coordinates":[[[-3.011526,53.354412],[-3.0110531,53.3545742],[-3.0107533,53.3543268]]]}},
{"type":"Feature","properties":{"highway":"path","name":null,"category":"Shared path"},"geometry":{"type":"MultiLineString","coordinates":[[[-3.0109892,53.3539492],[-3.0109589,53.3539365],[-3.0108619,53.3538529],[-3.0102207,53.3541428],[-3.010104,53.354207],[-3.0097764,53.3544245]]]}},
{"type":"Feature","properties":{"highway":"path","name":null,"category":"Shared path"},"geometry":{"type":"MultiLineString","coordinates":[[[-3.0024872,53.3498136],[-3.0026711,53.3499217],[-3.0028554,53.350201],[-3.002906,53.3503177]]]}},
{"type":"Feature","properties":{"highway":"path","name":null,"category":"Shared path"},"geometry":{"type":"MultiLineString","coordinates":[[[-3.0039524,53.3456112],[-3.0037458,53.3456083]]]}},
{"type":"Feature","properties":{"highway":"path","name":null,"category":"Shared path"},"geometry":{"type":"MultiLineString","coordinates":[[[-3.0042867,53.3457111],[-3.0039524,53.3456112],[-3.0039236,53.3453228]]]}},
{"type":"Feature","properties":{"highway":"path","name":null,"category":"Shared path"},"geometry":{"type":"MultiLineString","coordinates":[[[-3.0007935,53.3504296],[-3.000727,53.3504349],[-3.0006617,53.3504137],[-3.0005451,53.3503806],[-3.0004544,53.3503663]]]}},
{"type":"Feature","properties":{"highway":"cycleway","name":null,"category":"Dedicated cycleway"},"geometry":{"type":"MultiLineString","coordinates":[[[-2.9922602,53.354872],[-2.9920822,53.3548241],[-2.9919386,53.3548194],[-2.9917272,53.3548934],[-2.9916752,53.3549356],[-2.9915971,53.354999],[-2.9914948,53.3549724],[-2.9914263,53.3549541],[-2.9914629,53.3548679],[-2.991364,53.3548524],[-2.9912594,53.3548462],[-2.9908836,53.3548239],[-2.9908322,53.3548209]]]}},
{"type":"Feature","properties":{"highway":"cycleway","name":null,"category":"Dedicated cycleway"},"geometry":{"type":"MultiLineString","coordinates":[[[-2.9920822,53.3548241],[-2.9921094,53.35476],[-2.9921439,53.354692],[-2.9922168,53.3546642],[-2.9923329,53.3546386]]]}},
{"type":"Feature","properties":{"highway":"cycleway","name":null,"category":"Dedicated cycleway"},"geometry":{"type":"MultiLineString","coordinates":[[[-2.9912594,53.3548462],[-2.9912655,53.3547844],[-2.9912069,53.3547255],[-2.9910775,53.3546906],[-2.9910913,53.3546483],[-2.9911176,53.3546078],[-2.9910886,53.3545654],[-2.9910652,53.3545287],[-2.99117,53.354492],[-2.9912686,53.354378],[-2.9913949,53.3542768],[-2.991438,53.3541315],[-2.9914474,53.3540743],[-2.9914327,53.3539713],[-2.9913637,53.3538594],[-2.9909668,53.3533925],[-2.9909064,53.3533214]]]}},
{"type":"Feature","properties":{"highway":"cycleway","name":null,"category":"Dedicated cycleway"},"geometry":{"type":"MultiLineString","coordinates":[[[-2.9917312,53.353951],[-2.99166,53.3539697],[-2.9915785,53.3539908],[-2.99163,53.3540735],[-2.9915392,53.3540758],[-2.9914474,53.3540743]]]}},
{"type":"Feature","properties":{"highway":"cycleway","name":null,"category":"Dedicated cycleway"},"geometry":{"type":"MultiLineString","coordinates":[[[-2.9886995,53.350161],[-2.9896196,53.3513989]]]}},
{"type":"Feature","properties":{"highway":"cycleway","name":null,"category":"Dedicated cycleway"},"geometry":{"type":"MultiLineString","coordinates":[[[-2.9896196,53.3513989],[-2.9902333,53.3520911],[-2.9917312,53.353951],[-2.9917759,53.3540117],[-2.991833,53.354029],[-2.9918879,53.3540361],[-2.9919282,53.3540852],[-2.9919731,53.3541452],[-2.9919594,53.3541882],[-2.9919833,53.354241],[-2.9923329,53.3546386],[-2.9923817,53.3547312],[-2.9923342,53.354775]]]}},
{"type":"Feature","properties":{"highway":"track","name":null,"category":"Track"},"geometry":{"type":"MultiLineString","coordinates":[[[-2.993586,53.3551711],[-2.9930624,53.354508]]]}},
{"type":"Feature","properties":{"highway":"path","name":null,"category":"Shared path"},"geometry":{"type":"MultiLineString","coordinates":[[[-2.9918128,53.3549981],[-2.9916752,53.3549356]]]}},
{"type":"Feature","properties":{"highway":"path","name":null,"category":"Shared path"},"geometry":{"type":"MultiLineString","coordinates":[[[-2.9927853,53.356217],[-2.9929952,53.356158]]]}},
{"type":"Feature","properties":{"highway":"path","name":null,"category":"Shared path"},"geometry":{"type":"MultiLineString","coordinates":[[[-2.9930391,53.3561458],[-2.9931676,53.3561112],[-2.9933859,53.3560484]]]}},
{"type":"Feature","properties":{"highway":"path","name":null,"category":"Shared path"},"geometry":{"type":"MultiLineString","coordinates":[[[-2.9929952,53.356158],[-2.9930391,53.3561458]]]}},
{"type":"Feature","properties":{"highway":"path","name":"Portbury Walk","category":"Shared path"},"geometry":{"type":"MultiLineString","coordinates":[[[-2.9935471,53.3562512],[-2.9933723,53.3563477],[-2.9931676,53.3561112],[-2.9929035,53.3557892],[-2.9928133,53.3556793]]]}},
{"type":"Feature","properties":{"highway":"path","name":null,"category":"Shared path"},"geometry":{"type":"MultiLineString","coordinates":[[[-2.9929035,53.3557892],[-2.992629,53.3557553]]]}},
{"type":"Feature","properties":{"highway":"path","name":null,"category":"Shared path"},"geometry":{"type":"MultiLineString","coordinates":[[[-2.9986898,53.3606787],[-2.9985854,53.3607543]]]}},
{"type":"Feature","properties":{"highway":"path","name":null,"category":"Shared path"},"geometry":{"type":"MultiLineString","coordinates":[[[-2.9962565,53.3577739],[-2.9968062,53.3584493],[-2.9965182,53.3586262]]]}},
{"type":"Feature","properties":{"highway":"path","name":null,"category":"Shared path"},"geometry":{"type":"MultiLineString","coordinates":[[[-2.9957053,53.3571283],[-2.9952612,53.3565717],[-2.9951586,53.3566023],[-2.9947662,53.3564322]]]}},
{"type":"Feature","properties":{"highway":"path","name":null,"category":"Shared path"},"geometry":{"type":"MultiLineString","coordinates":[[[-2.9965497,53.3574516],[-2.997496,53.3571969]]]}},
{"type":"Feature","properties":{"highway":"path","name":"Brook Street","category":"Shared path"},"geometry":{"type":"MultiLineString","coordinates":[[[-3.0017146,53.3575456],[-3.0018158,53.3576051]]]}},
{"type":"Feature","properties":{"highway":"path","name":null,"category":"Shared path"},"geometry":{"type":"MultiLineString","coordinates":[[[-2.9998944,53.3541682],[-2.9994834,53.354243]]]}},
{"type":"Feature","properties":{"highway":"path","name":"Poets Corner","category":"Shared path"},"geometry":{"type":"MultiLineString","coordinates":[[[-2.993722,53.3509448],[-2.9936553,53.3509083]]]}},
{"type":"Feature","properties":{"highway":"path","name":null,"category":"Shared path"},"geometry":{"type":"MultiLineString","coordinates":[[[-2.9905787,53.3519993],[-2.9902333,53.3520911],[-2.9900866,53.3521301]]]}},
{"type":"Feature","properties":{"highway":"path","name":null,"category":"Shared path"},"geometry":{"type":"MultiLineString","coordinates":[[[-3.0095401,53.3491145],[-3.0098637,53.3490335],[-3.0101677,53.3488726]]]}},
{"type":"Feature","properties":{"highway":"path","name":null,"category":"Shared path"},"geometry":{"type":"MultiLineString","coordinates":[[[-3.0098637,53.3490335],[-3.0095773,53.3486258]]]}},
{"type":"Feature","properties":{"highway":"path","name":null,"category":"Shared path"},"geometry":{"type":"MultiLineString","coordinates":[[[-3.0081649,53.3477704],[-3.0081419,53.3478116]]]}},
{"type":"Feature","properties":{"highway":"path","name":null,"category":"Shared path"},"geometry":{"type":"MultiLineString","coordinates":[[[-3.003086,53.3438495],[-3.0025976,53.3434087],[-3.0020591,53.3428801]]]}},
{"type":"Feature","properties":{"highway":"path","name":null,"category":"Shared path"},"geometry":{"type":"MultiLineString","coordinates":[[[-3.0009381,53.3501307],[-3.0003823,53.3502471]]]}},
{"type":"Feature","properties":{"highway":"cycleway","name":null,"category":"Dedicated cycleway"},"geometry":{"type":"MultiLineString","coordinates":[[[-3.0157936,53.350101],[-3.0158268,53.3500725],[-3.0161784,53.3501201],[-3.0161924,53.3501376],[-3.0161793,53.3501585]]]}},
{"type":"Feature","properties":{"highway":"path","name":null,"category":"Shared path"},"geometry":{"type":"MultiLineString","coordinates":[[[-3.0111987,53.3541343],[-3.011526,53.354412],[-3.011958,53.3542616]]]}},
{"type":"Feature","properties":{"highway":"path","name":null,"category":"Shared path"},"geometry":{"type":"MultiLineString","coordinates":[[[-3.0014817,53.353789],[-3.0016611,53.3537541],[-3.0018336,53.3537193]]]}},
{"type":"Feature","properties":{"highway":"path","name":null,"category":"Shared path"},"geometry":{"type":"MultiLineString","coordinates":[[[-3.005127,53.351283],[-3.0049632,53.3510574],[-3.004875,53.3508786],[-3.0048781,53.3508333],[-3.0049632,53.3507363],[-3.0049903,53.350679],[-3.0049787,53.3506166]]]}},
{"type":"Feature","properties":{"highway":"cycleway","name":null,"category":"Dedicated cycleway"},"geometry":{"type":"MultiLineString","coordinates":[[[-2.9983275,53.3473161],[-2.9982296,53.3473474],[-2.9979721,53.3474851],[-2.9978448,53.3475654]]]}},
{"type":"Feature","properties":{"highway":"cycleway","name":null,"category":"Dedicated cycleway"},"geometry":{"type":"MultiLineString","coordinates":[[[-2.9978448,53.3475654],[-2.9976475,53.3477021]]]}},
{"type":"Feature","properties":{"highway":"path","name":null,"category":"Shared path"},"geometry":{"type":"MultiLineString","coordinates":[[[-2.9908322,53.3548209],[-2.9907059,53.3548433],[-2.9891587,53.3556692],[-2.9878743,53.3563531]]]}},
{"type":"Feature","properties":{"highway":"path","name":null,"category":"Shared path"},"geometry":{"type":"MultiLineString","coordinates":[[[-2.9910775,53.3546906],[-2.9909978,53.3546859],[-2.9909173,53.3546963],[-2.9908805,53.354716],[-2.9908649,53.3547351],[-2.9908455,53.3547594],[-2.9908836,53.3548239]]]}},
{"type":"Feature","properties":{"highway":"path","name":null,"category":"Shared path"},"geometry":{"type":"MultiLineString","coordinates":[[[-2.9909668,53.3533925],[-2.9908814,53.353425],[-2.9906313,53.3535572],[-2.9894216,53.3541967],[-2.9893419,53.3541377]]]}},
{"type":"Feature","properties":{"highway":"path","name":null,"category":"Shared path"},"geometry":{"type":"MultiLineString","coordinates":[[[-2.9894216,53.3541967],[-2.9900071,53.3546775],[-2.990248,53.3548798]]]}},
{"type":"Feature","properties":{"highway":"path","name":null,"category":"Shared path"},"geometry":{"type":"MultiLineString","coordinates":[[[-2.9910652,53.3545287],[-2.9908358,53.354588],[-2.990248,53.3548798],[-2.9901828,53.3549158],[-2.989862,53.3550923],[-2.9884722,53.3558302],[-2.9878552,53.3561644],[-2.9867223,53.3560434],[-2.9861892,53.3559833],[-2.9845699,53.3557939],[-2.9845256,53.3558336]]]}},
{"type":"Feature","properties":{"highway":"cycle_lane_on_street","name":"New Chester Road","category":"Cycle lane on street"},"geometry":{"type":"MultiLineString","coordinates":[[[-2.9974106,53.3610243],[-2.9975673,53.3612158],[-2.9979479,53.3616721],[-2.9980845,53.3618417],[-2.9982103,53.3620061],[-2.9983783,53.3622025]]]}}
]
}
