{
"type": "FeatureCollection",
"name": "WIRRA_33_cycling",
"crs": { "type": "name", "properties": { "name": "urn:ogc:def:crs:OGC:1.3:CRS84" } },
"features": [
{"type":"Feature","properties":{"highway":"track","name":null,"category":"Track"},"geometry":{"type":"MultiLineString","coordinates":[[[-3.1038036,53.3842912],[-3.1050969,53.3853569],[-3.1052819,53.3854054]]]}},
{"type":"Feature","properties":{"highway":"cycleway","name":null,"category":"Dedicated cycleway"},"geometry":{"type":"MultiLineString","coordinates":[[[-3.1059478,53.3840658],[-3.1058599,53.3840971],[-3.1058645,53.3841671],[-3.1061519,53.3844489],[-3.1067647,53.3849625],[-3.1076361,53.3856773],[-3.1086179,53.3864988],[-3.109525,53.3872352],[-3.1099251,53.3875755]]]}},
{"type":"Feature","properties":{"highway":"cycleway","name":null,"category":"Dedicated cycleway"},"geometry":{"type":"MultiLineString","coordinates":[[[-3.1111178,53.3878975],[-3.1110031,53.3878706],[-3.1108818,53.3878531],[-3.1107236,53.3878582],[-3.1105822,53.3879034],[-3.1105151,53.3879277],[-3.1105751,53.3879767],[-3.1104926,53.3880099],[-3.1103922,53.3880536],[-3.1102485,53.3879826],[-3.110064,53.3878266],[-3.1100103,53.3876902],[-3.1099251,53.3875755],[-3.1097282,53.3875771]]]}},
{"type":"Feature","properties":{"highway":"cycleway","name":null,"category":"Dedicated cycleway"},"geometry":{"type":"MultiLineString","coordinates":[[[-3.1104198,53.3876104],[-3.1104143,53.3876331],[-3.1107236,53.3878582],[-3.1108311,53.3879551],[-3.1108784,53.3880002],[-3.1109159,53.3880297],[-3.1109844,53.3880579],[-3.1110611,53.3880878],[-3.1111136,53.3880467],[-3.1111937,53.3880135],[-3.1114899,53.3878554]]]}},
{"type":"Feature","properties":{"highway":"cycleway","name":null,"category":"Dedicated cycleway"},"geometry":{"type":"MultiLineString","coordinates":[[[-3.1214173,53.3883303],[-3.1214693,53.388303],[-3.1215744,53.3883045],[-3.1217069,53.3882944],[-3.121893,53.3882712],[-3.1221325,53.3882429],[-3.1226374,53.3881065],[-3.1228348,53.3880532],[-3.1236184,53.3878714],[-3.123908,53.3878241],[-3.1262274,53.3874689],[-3.1273252,53.3872784],[-3.1279042,53.387178]]]}},
{"type":"Feature","properties":{"highway":"path","name":null,"category":"Shared path"},"geometry":{"type":"MultiLineString","coordinates":[[[-3.0979495,53.3940519],[-3.0978531,53.3940959],[-3.097366,53.3942697]]]}},
{"type":"Feature","properties":{"highway":"cycleway","name":null,"category":"Dedicated cycleway"},"geometry":{"type":"MultiLineString","coordinates":[[[-3.1117529,53.3900754],[-3.1118257,53.3899122],[-3.1118559,53.3897137],[-3.1117358,53.3896799],[-3.111652,53.3895597],[-3.1116181,53.3894287],[-3.1115728,53.3893585],[-3.1114754,53.3892977],[-3.1113869,53.3892328],[-3.1114052,53.3891977],[-3.1113032,53.3890708],[-3.1111764,53.3889168],[-3.1109884,53.3887358],[-3.1107484,53.3885359],[-3.1105943,53.3883724],[-3.1105377,53.3883022],[-3.1104358,53.3881874],[-3.1103693,53.3880882],[-3.1103922,53.3880536]]]}},
{"type":"Feature","properties":{"highway":"cycleway","name":null,"category":"Dedicated cycleway"},"geometry":{"type":"MultiLineString","coordinates":[[[-3.1118559,53.3897137],[-3.1120351,53.3897436]]]}},
{"type":"Feature","properties":{"highway":"path","name":null,"category":"Shared path"},"geometry":{"type":"MultiLineString","coordinates":[[[-3.0962057,53.394568],[-3.0963744,53.3946645],[-3.0965796,53.394989],[-3.0969304,53.3950402]]]}},
{"type":"Feature","properties":{"highway":"cycle_lane_on_street","name":"Saughall Massie Road","category":"Cycle lane on street"},"geometry":{"type":"MultiLineString","coordinates":[[[-3.121269,53.388331],[-3.1196446,53.3882742],[-3.119608,53.3882737],[-3.1193397,53.3882629],[-3.1187028,53.388243],[-3.1179313,53.3882026],[-3.1170017,53.3881488],[-3.1162875,53.3880991],[-3.1161338,53.3880899],[-3.1155143,53.3880396],[-3.1151352,53.3879899],[-3.114774,53.3879548]]]}},
{"type":"Feature","properties":{"highway":"cycle_lane_on_street","name":"Saughall Massie Road","category":"Cycle lane on street"},"geometry":{"type":"MultiLineString","coordinates":[[[-3.1111509,53.3878934],[-3.1110505,53.3879347],[-3.1109276,53.3879851],[-3.1108784,53.3880002],[-3.1107345,53.3880517]]]}},
{"type":"Feature","properties":{"highway":"cycle_lane_on_street","name":"Saughall Massie Road","category":"Cycle lane on street"},"geometry":{"type":"MultiLineString","coordinates":[[[-3.1107345,53.3880517],[-3.1106693,53.3880761],[-3.1105923,53.388105]]]}},
{"type":"Feature","properties":{"highway":"cycle_lane_on_street","name":"Saughall Massie Road","category":"Cycle lane on street"},"geometry":{"type":"MultiLineString","coordinates":[[[-3.1121991,53.3878591],[-3.1116883,53.3878403],[-3.1114899,53.3878554],[-3.1113087,53.3878701],[-3.1111816,53.3878888],[-3.1111509,53.3878934]]]}},
{"type":"Feature","properties":{"highway":"cycle_lane_on_street","name":"Saughall Massie Road","category":"Cycle lane on street"},"geometry":{"type":"MultiLineString","coordinates":[[[-3.1124499,53.3878685],[-3.1122798,53.3878625],[-3.1121991,53.3878591]]]}},
{"type":"Feature","properties":{"highway":"cycle_lane_on_street","name":"Saughall Massie Road","category":"Cycle lane on street"},"geometry":{"type":"MultiLineString","coordinates":[[[-3.114774,53.3879548],[-3.1139097,53.3879255],[-3.113779,53.3879211],[-3.1134258,53.3879076],[-3.1124499,53.3878685]]]}}
]
}
