{
"type": "FeatureCollection",
"name": "WIRRA_45_cycling",
"crs": { "type": "name", "properties": { "name": "urn:ogc:def:crs:OGC:1.3:CRS84" } },
"features": [
{"type":"Feature","properties":{"highway":"cycleway","name":null,"category":"Dedicated cycleway"},"geometry":{"type":"MultiLineString","coordinates":[[[-3.0320768,53.4162981],[-3.0320861,53.4164092],[-3.0321565,53.4164648],[-3.0321489,53.4165183],[-3.0321431,53.416597]]]}},
{"type":"Feature","properties":{"highway":"path","name":null,"category":"Shared path"},"geometry":{"type":"MultiLineString","coordinates":[[[-3.0238196,53.4173118],[-3.023797,53.4172933],[-3.023703,53.4172163],[-3.0236348,53.4172124],[-3.0235471,53.4171341]]]}},
{"type":"Feature","properties":{"highway":"path","name":null,"category":"Shared path"},"geometry":{"type":"MultiLineString","coordinates":[[[-3.0202028,53.4112298],[-3.0199597,53.4111881],[-3.0198144,53.4111712],[-3.0196955,53.4111857],[-3.0193596,53.4112414],[-3.0191986,53.4112713]]]}},
{"type":"Feature","properties":{"highway":"cycleway","name":null,"category":"Dedicated cycleway"},"geometry":{"type":"MultiLineString","coordinates":[[[-3.0456536,53.413628],[-3.0454034,53.4137215],[-3.0453551,53.413704],[-3.0452318,53.4137231],[-3.0447865,53.4133219],[-3.0444754,53.4131188],[-3.0438799,53.412652],[-3.0435259,53.4123498],[-3.0433667,53.4123071],[-3.0432576,53.4122779],[-3.0424657,53.412399],[-3.0423269,53.4124202],[-3.042296,53.4124359]]]}},
{"type":"Feature","properties":{"highway":"cycleway","name":null,"category":"Dedicated cycleway"},"geometry":{"type":"MultiLineString","coordinates":[[[-3.0406026,53.4141466],[-3.0407632,53.4141756]]]}},
{"type":"Feature","properties":{"highway":"cycleway","name":null,"category":"Dedicated cycleway"},"geometry":{"type":"MultiLineString","coordinates":[[[-3.0424657,53.412399],[-3.0424051,53.4122809]]]}},
{"type":"Feature","properties":{"highway":"path","name":null,"category":"Shared path"},"geometry":{"type":"MultiLineString","coordinates":[[[-3.0225697,53.4157081],[-3.0223963,53.4154831],[-3.0221925,53.4154111],[-3.0221013,53.4154127],[-3.0218008,53.4154943],[-3.0216158,53.4154367],[-3.0209613,53.4147829],[-3.0209548,53.4147245],[-3.0209533,53.4147109],[-3.0209881,53.4146182],[-3.021074,53.4145095]]]}},
{"type":"Feature","properties":{"highway":"path","name":null,"category":"Shared path"},"geometry":{"type":"MultiLineString","coordinates":[[[-3.0222474,53.4104349],[-3.0222604,53.4104912],[-3.02225,53.4106896]]]}},
{"type":"Feature","properties":{"highway":"path","name":null,"category":"Shared path"},"geometry":{"type":"MultiLineString","coordinates":[[[-3.0215401,53.4105146],[-3.0215621,53.4105623],[-3.0216126,53.4107169]]]}},
{"type":"Feature","properties":{"highway":"cycleway","name":null,"category":"Dedicated cycleway"},"geometry":{"type":"MultiLineString","coordinates":[[[-3.0202353,53.4129901],[-3.0202679,53.4130262]]]}},
{"type":"Feature","properties":{"highway":"cycleway","name":"Guinea Gap","category":"Dedicated cycleway"},"geometry":{"type":"MultiLineString","coordinates":[[[-3.021554,53.4143569],[-3.021074,53.4145095],[-3.0206561,53.4146148],[-3.0203589,53.4146897]]]}},
{"type":"Feature","properties":{"highway":"path","name":null,"category":"Shared path"},"geometry":{"type":"MultiLineString","coordinates":[[[-3.0289774,53.4053594],[-3.0279099,53.4048328]]]}},
{"type":"Feature","properties":{"highway":"path","name":null,"category":"Shared path"},"geometry":{"type":"MultiLineString","coordinates":[[[-3.0279379,53.4048125],[-3.0290064,53.4053389]]]}},
{"type":"Feature","properties":{"highway":"path","name":null,"category":"Shared path"},"geometry":{"type":"MultiLineString","coordinates":[[[-3.0273308,53.4137794],[-3.0275799,53.4138871]]]}},
{"type":"Feature","properties":{"highway":"cycleway","name":null,"category":"Dedicated cycleway"},"geometry":{"type":"MultiLineString","coordinates":[[[-3.0205173,53.4094768],[-3.0202594,53.4095953]]]}},
{"type":"Feature","properties":{"highway":"cycleway","name":null,"category":"Dedicated cycleway"},"geometry":{"type":"MultiLineString","coordinates":[[[-3.0337887,53.4119591],[-3.0340229,53.4120026],[-3.0340005,53.4120838],[-3.0339785,53.4121418],[-3.0338037,53.4121289]]]}},
{"type":"Feature","properties":{"highway":"cycleway","name":null,"category":"Dedicated cycleway"},"geometry":{"type":"MultiLineString","coordinates":[[[-3.0220987,53.4036158],[-3.0221956,53.4037217],[-3.022258,53.4038157],[-3.0222617,53.4038212],[-3.0223153,53.4039036],[-3.0223699,53.4039382],[-3.0224436,53.4040092],[-3.0224929,53.4040539],[-3.0225634,53.4041092],[-3.0226347,53.4041585],[-3.0227224,53.4042119],[-3.0227865,53.4042474],[-3.0228573,53.4042786],[-3.0229426,53.4043169],[-3.0230549,53.4043547],[-3.0231478,53.4043783],[-3.0232627,53.4044003],[-3.0233763,53.4044157],[-3.0234824,53.404426],[-3.023587,53.4044317],[-3.0236833,53.4044328],[-3.024032,53.4044153],[-3.0250196,53.4044028],[-3.0251851,53.4044149],[-3.0252652,53.4044207],[-3.0253101,53.404424],[-3.0253546,53.4044332],[-3.0255755,53.4044788],[-3.0257634,53.4045278],[-3.0260646,53.4046121],[-3.0267664,53.404831],[-3.0271898,53.40498],[-3.0276868,53.4052429],[-3.0278336,53.4053142],[-3.02855,53.4056621],[-3.0286923,53.4057162],[-3.0289536,53.405796],[-3.029196,53.4058471],[-3.0294217,53.4058757],[-3.0297833,53.4058981],[-3.0319916,53.4060215],[-3.0320817,53.4060297],[-3.0322383,53.4060439],[-3.0324932,53.406009],[-3.0332435,53.4058881],[-3.0337532,53.4058059],[-3.0344371,53.4056971],[-3.0352851,53.4055265],[-3.0366661,53.4052444],[-3.0367866,53.4052138],[-3.0369305,53.4051303]]]}},
{"type":"Feature","properties":{"highway":"path","name":null,"category":"Shared path"},"geometry":{"type":"MultiLineString","coordinates":[[[-3.022052,53.4161908],[-3.0221412,53.4161591]]]}},
{"type":"Feature","properties":{"highway":"path","name":null,"category":"Shared path"},"geometry":{"type":"MultiLineString","coordinates":[[[-3.0228319,53.416232],[-3.0225999,53.4159962],[-3.0223837,53.4157766],[-3.0224704,53.4157463]]]}},
{"type":"Feature","properties":{"highway":"path","name":null,"category":"Shared path"},"geometry":{"type":"MultiLineString","coordinates":[[[-3.0218008,53.4154943],[-3.0217991,53.4155154],[-3.0218043,53.4155347],[-3.021935,53.4156605],[-3.0220101,53.4156851],[-3.0222055,53.4156898],[-3.0223194,53.4156851],[-3.0223544,53.4156774],[-3.0223906,53.4156743],[-3.0224618,53.4156728],[-3.022534,53.415723]]]}},
{"type":"Feature","properties":{"highway":"cycleway","name":null,"category":"Dedicated cycleway"},"geometry":{"type":"MultiLineString","coordinates":[[[-3.0414492,53.4128657],[-3.0413694,53.4129062],[-3.0407632,53.4141756],[-3.0405936,53.4144562]]]}},
{"type":"Feature","properties":{"highway":"cycleway","name":null,"category":"Dedicated cycleway"},"geometry":{"type":"MultiLineString","coordinates":[[[-3.0413694,53.4129062],[-3.041533,53.4125842],[-3.0416616,53.4125167],[-3.042296,53.4124359]]]}},
{"type":"Feature","properties":{"highway":"path","name":null,"category":"Shared path"},"geometry":{"type":"MultiLineString","coordinates":[[[-3.0225008,53.4157353],[-3.022534,53.415723],[-3.0225697,53.4157081],[-3.0226251,53.4156799]]]}},
{"type":"Feature","properties":{"highway":"path","name":null,"category":"Shared path"},"geometry":{"type":"MultiLineString","coordinates":[[[-3.0225265,53.4160223],[-3.0225999,53.4159962]]]}},
{"type":"Feature","properties":{"highway":"path","name":null,"category":"Shared path"},"geometry":{"type":"MultiLineString","coordinates":[[[-3.0228875,53.4162884],[-3.0228538,53.4162542]]]}},
{"type":"Feature","properties":{"highway":"path","name":null,"category":"Shared path"},"geometry":{"type":"MultiLineString","coordinates":[[[-3.0224217,53.4160595],[-3.0224313,53.4160561],[-3.0224462,53.4160508]]]}},
{"type":"Feature","properties":{"highway":"path","name":null,"category":"Shared path"},"geometry":{"type":"MultiLineString","coordinates":[[[-3.0223173,53.4160966],[-3.0223278,53.4160928],[-3.0223417,53.4160879]]]}},
{"type":"Feature","properties":{"highway":"path","name":null,"category":"Shared path"},"geometry":{"type":"MultiLineString","coordinates":[[[-3.0222131,53.4161336],[-3.022227,53.4161286],[-3.0222418,53.4161234]]]}},
{"type":"Feature","properties":{"highway":"path","name":null,"category":"Shared path"},"geometry":{"type":"MultiLineString","coordinates":[[[-3.0225724,53.4163411],[-3.0223278,53.4160928],[-3.0220832,53.4158439]]]}},
{"type":"Feature","properties":{"highway":"path","name":null,"category":"Shared path"},"geometry":{"type":"MultiLineString","coordinates":[[[-3.0226751,53.4163046],[-3.0224313,53.4160561],[-3.0221888,53.4158085]]]}},
{"type":"Feature","properties":{"highway":"path","name":null,"category":"Shared path"},"geometry":{"type":"MultiLineString","coordinates":[[[-3.022443,53.4163874],[-3.0222649,53.4162148],[-3.0222649,53.4162002]]]}},
{"type":"Feature","properties":{"highway":"path","name":null,"category":"Shared path"},"geometry":{"type":"MultiLineString","coordinates":[[[-3.0221365,53.4160739],[-3.022109,53.4160652],[-3.0219403,53.4159003]]]}},
{"type":"Feature","properties":{"highway":"path","name":null,"category":"Shared path"},"geometry":{"type":"MultiLineString","coordinates":[[[-3.0222649,53.4162002],[-3.0222649,53.4161668],[-3.022227,53.4161286],[-3.0221896,53.4160906],[-3.0221365,53.4160739]]]}},
{"type":"Feature","properties":{"highway":"path","name":null,"category":"Shared path"},"geometry":{"type":"MultiLineString","coordinates":[[[-3.0227541,53.416422],[-3.0226752,53.4164538]]]}},
{"type":"Feature","properties":{"highway":"path","name":null,"category":"Shared path"},"geometry":{"type":"MultiLineString","coordinates":[[[-3.0225651,53.4165689],[-3.0225718,53.416575],[-3.0225087,53.4165998]]]}},
{"type":"Feature","properties":{"highway":"path","name":null,"category":"Shared path"},"geometry":{"type":"MultiLineString","coordinates":[[[-3.022523,53.4165136],[-3.0225097,53.4165188],[-3.0225165,53.4165251]]]}},
{"type":"Feature","properties":{"highway":"path","name":null,"category":"Shared path"},"geometry":{"type":"MultiLineString","coordinates":[[[-3.023797,53.4172933],[-3.0235144,53.4172817],[-3.0234967,53.4172796],[-3.0234795,53.4172766],[-3.0234653,53.417272],[-3.0234514,53.4172663],[-3.0234424,53.4172606],[-3.0233229,53.4171511],[-3.0228556,53.4167276],[-3.0227061,53.416581],[-3.0226072,53.4164805]]]}},
{"type":"Feature","properties":{"highway":"path","name":null,"category":"Shared path"},"geometry":{"type":"MultiLineString","coordinates":[[[-3.0226174,53.4164765],[-3.0226072,53.4164805],[-3.0225977,53.4164843]]]}},
{"type":"Feature","properties":{"highway":"path","name":null,"category":"Shared path"},"geometry":{"type":"MultiLineString","coordinates":[[[-3.0234882,53.4170822],[-3.0233978,53.4171198]]]}},
{"type":"Feature","properties":{"highway":"path","name":null,"category":"Shared path"},"geometry":{"type":"MultiLineString","coordinates":[[[-3.0191552,53.4131688],[-3.0192671,53.4130528],[-3.0192764,53.4129877],[-3.0193862,53.4129505],[-3.0194585,53.4129119],[-3.0196483,53.4128656],[-3.0198658,53.4129071],[-3.0202214,53.4129749]]]}},
{"type":"Feature","properties":{"highway":"path","name":null,"category":"Shared path"},"geometry":{"type":"MultiLineString","coordinates":[[[-3.0193169,53.4097524],[-3.0191553,53.4094034]]]}},
{"type":"Feature","properties":{"highway":"cycle_lane_on_street","name":"Church Road","category":"Cycle lane on street"},"geometry":{"type":"MultiLineString","coordinates":[[[-3.0200062,53.4094639],[-3.0200941,53.4094981],[-3.020151,53.4095241],[-3.0201958,53.4095516]]]}}
]
}
