{
"type": "FeatureCollection",
"name": "MANCH_126_cycling",
"crs": { "type": "name", "properties": { "name": "urn:ogc:def:crs:OGC:1.3:CRS84" } },
"features": [
{"type":"Feature","properties":{"highway":"cycleway","name":null,"category":"Dedicated cycleway"},"geometry":{"type":"MultiLineString","coordinates":[[[-2.2363903,53.5400834],[-2.236876,53.5395927]]]}},
{"type":"Feature","properties":{"highway":"cycleway","name":null,"category":"Dedicated cycleway"},"geometry":{"type":"MultiLineString","coordinates":[[[-2.2363903,53.5400834],[-2.2363409,53.5401451],[-2.2363347,53.5401801],[-2.2363454,53.5402151],[-2.2363665,53.5402372],[-2.2363922,53.5402557],[-2.2364394,53.5402778],[-2.2364913,53.5402916],[-2.2368235,53.5403266],[-2.2368791,53.5403448],[-2.2369177,53.5403684],[-2.2369508,53.5404013],[-2.2369638,53.5404397]]]}},
{"type":"Feature","properties":{"highway":"track","name":null,"category":"Track"},"geometry":{"type":"MultiLineString","coordinates":[[[-2.2507449,53.5470372],[-2.2521869,53.5462978]]]}},
{"type":"Feature","properties":{"highway":"track","name":null,"category":"Track"},"geometry":{"type":"MultiLineString","coordinates":[[[-2.2511655,53.5477665],[-2.2493622,53.5482442],[-2.2492601,53.5482713],[-2.2489597,53.5484345]]]}},
{"type":"Feature","properties":{"highway":"path","name":null,"category":"Shared path"},"geometry":{"type":"MultiLineString","coordinates":[[[-2.233136,53.5340874],[-2.2328936,53.5341148],[-2.2328813,53.5341833],[-2.2328041,53.5342751],[-2.23271,53.5343924],[-2.2326885,53.5344147],[-2.2325511,53.5345371],[-2.2323194,53.5347003],[-2.2321134,53.5348432],[-2.2316576,53.535061],[-2.231883,53.5352542]]]}},
{"type":"Feature","properties":{"highway":"path","name":"Alconbury Walk","category":"Shared path"},"geometry":{"type":"MultiLineString","coordinates":[[[-2.2327169,53.5377779],[-2.2325992,53.5377894],[-2.2325245,53.5378563],[-2.2317514,53.5375148],[-2.2311213,53.5371912],[-2.2306446,53.5369041],[-2.2300762,53.5365575],[-2.2296136,53.5362784],[-2.2295897,53.5362424],[-2.2296023,53.536219],[-2.2296731,53.5361634],[-2.2297614,53.5361055],[-2.2301011,53.5359586],[-2.2302939,53.5359572]]]}},
{"type":"Feature","properties":{"highway":"cycleway","name":null,"category":"Dedicated cycleway"},"geometry":{"type":"MultiLineString","coordinates":[[[-2.2400997,53.5367797],[-2.2401629,53.536808],[-2.2402561,53.536846],[-2.2402427,53.5368955],[-2.240244,53.5369513],[-2.2401729,53.5370182],[-2.2400683,53.5371767],[-2.239991,53.5373093],[-2.2398365,53.5374827],[-2.2396705,53.5375704],[-2.2395504,53.5376826],[-2.239434,53.5377427],[-2.2392972,53.5377817],[-2.2391926,53.5378375],[-2.2390491,53.5379754],[-2.2388305,53.5381149],[-2.23864,53.5382576],[-2.2384509,53.5383994],[-2.2383021,53.5384576],[-2.2381599,53.5385039],[-2.2379883,53.5385753],[-2.2377528,53.5386308],[-2.2375537,53.5386497],[-2.2373789,53.5386773],[-2.2371098,53.5387445],[-2.2368966,53.5387565],[-2.2366646,53.5387485],[-2.2365171,53.5387278],[-2.2363427,53.5387485],[-2.2361067,53.5387557],[-2.2359541,53.5387283]]]}},
{"type":"Feature","properties":{"highway":"cycleway","name":null,"category":"Dedicated cycleway"},"geometry":{"type":"MultiLineString","coordinates":[[[-2.236876,53.5395927],[-2.23692,53.5395658],[-2.2369703,53.5395458],[-2.237027,53.5395324],[-2.2370699,53.5395233],[-2.2371537,53.5395136],[-2.2371948,53.5395119],[-2.237237,53.5395158],[-2.2372864,53.5395251],[-2.23734,53.5395388],[-2.2377215,53.5396518],[-2.2379058,53.539667],[-2.2380445,53.5396434]]]}},
{"type":"Feature","properties":{"highway":"cycleway","name":null,"category":"Dedicated cycleway"},"geometry":{"type":"MultiLineString","coordinates":[[[-2.2359541,53.5387283],[-2.2355719,53.5387183],[-2.2352589,53.5387079],[-2.2350099,53.5387028],[-2.2348638,53.5386824],[-2.2347153,53.5386342],[-2.2345047,53.5385838]]]}},
{"type":"Feature","properties":{"highway":"bridleway","name":null,"category":"Bridleway"},"geometry":{"type":"MultiLineString","coordinates":[[[-2.2326579,53.5363532],[-2.2329758,53.5362697],[-2.2332418,53.5361574],[-2.2333877,53.5360707],[-2.2335079,53.5360095],[-2.2335645,53.5358998]]]}},
{"type":"Feature","properties":{"highway":"path","name":null,"category":"Shared path"},"geometry":{"type":"MultiLineString","coordinates":[[[-2.2300762,53.5365575],[-2.2301516,53.5365158],[-2.230287,53.5365146]]]}},
{"type":"Feature","properties":{"highway":"cycleway","name":null,"category":"Dedicated cycleway"},"geometry":{"type":"MultiLineString","coordinates":[[[-2.2380445,53.5396434],[-2.2386402,53.5395366]]]}},
{"type":"Feature","properties":{"highway":"cycleway","name":null,"category":"Dedicated cycleway"},"geometry":{"type":"MultiLineString","coordinates":[[[-2.2505536,53.5326755],[-2.2504661,53.5324584]]]}},
{"type":"Feature","properties":{"highway":"cycleway","name":null,"category":"Dedicated cycleway"},"geometry":{"type":"MultiLineString","coordinates":[[[-2.2355279,53.5373009],[-2.2355825,53.5373558],[-2.2358784,53.5374576]]]}},
{"type":"Feature","properties":{"highway":"cycleway","name":null,"category":"Dedicated cycleway"},"geometry":{"type":"MultiLineString","coordinates":[[[-2.2582388,53.5362062],[-2.258068,53.5361532]]]}},
{"type":"Feature","properties":{"highway":"cycleway","name":null,"category":"Dedicated cycleway"},"geometry":{"type":"MultiLineString","coordinates":[[[-2.2571822,53.5360869],[-2.2569977,53.5360816],[-2.2568904,53.5360932],[-2.2568341,53.5361232],[-2.2567724,53.5361867],[-2.2567757,53.536226],[-2.2567604,53.5362856],[-2.2567354,53.5363648],[-2.2572956,53.536437]]]}},
{"type":"Feature","properties":{"highway":"cycleway","name":null,"category":"Dedicated cycleway"},"geometry":{"type":"MultiLineString","coordinates":[[[-2.2580226,53.5301984],[-2.257903,53.5300846],[-2.2578128,53.5300066],[-2.2577144,53.5299627],[-2.2576078,53.5299042],[-2.2575668,53.5298262],[-2.2575504,53.5297141],[-2.2575011,53.5295581],[-2.2574027,53.5294411],[-2.2572715,53.5294021],[-2.2572387,53.529329],[-2.2572223,53.5291486],[-2.2571854,53.5290851],[-2.2571075,53.5289974],[-2.2569434,53.5288609],[-2.2567302,53.528778],[-2.2565415,53.528739]]]}},
{"type":"Feature","properties":{"highway":"cycleway","name":null,"category":"Dedicated cycleway"},"geometry":{"type":"MultiLineString","coordinates":[[[-2.2601149,53.5357464],[-2.2603029,53.5357211],[-2.2606937,53.5359056],[-2.2606503,53.536177],[-2.2607588,53.5362422],[-2.2620724,53.5353845],[-2.2641676,53.5345595],[-2.2640964,53.5344171],[-2.2640373,53.534299],[-2.2640907,53.5339581],[-2.2642329,53.533552],[-2.2643499,53.5333279],[-2.2645354,53.5330326],[-2.2650627,53.5321487],[-2.2651091,53.5314851],[-2.2651607,53.5307469],[-2.2647916,53.5306898],[-2.2641047,53.5306568],[-2.2638669,53.5305804]]]}},
{"type":"Feature","properties":{"highway":"cycleway","name":null,"category":"Dedicated cycleway"},"geometry":{"type":"MultiLineString","coordinates":[[[-2.2638669,53.5305804],[-2.2619547,53.531174],[-2.2610584,53.5314143],[-2.2607284,53.5314852],[-2.2600359,53.5315557],[-2.2593311,53.5316174],[-2.2583816,53.5316933]]]}},
{"type":"Feature","properties":{"highway":"cycleway","name":null,"category":"Dedicated cycleway"},"geometry":{"type":"MultiLineString","coordinates":[[[-2.2505536,53.5326755],[-2.2505535,53.5327395],[-2.2505526,53.533247],[-2.2505524,53.5333469],[-2.2505474,53.5339715],[-2.2505247,53.5343512],[-2.2505278,53.5344135],[-2.250576,53.5346821],[-2.2506458,53.5349607],[-2.250817,53.5354339],[-2.250949,53.5357795],[-2.2509358,53.5358667],[-2.2510975,53.5358949],[-2.2512552,53.5359364],[-2.2513112,53.5359544],[-2.251366,53.5359864],[-2.2514019,53.5360303],[-2.2514181,53.5360719],[-2.251414,53.5361442],[-2.2514039,53.5362152],[-2.2515957,53.5363549],[-2.2516362,53.5363984]]]}},
{"type":"Feature","properties":{"highway":"cycleway","name":null,"category":"Dedicated cycleway"},"geometry":{"type":"MultiLineString","coordinates":[[[-2.2451331,53.5361539],[-2.2451785,53.536161],[-2.2452345,53.5361619],[-2.2453621,53.5361496],[-2.2461063,53.5360104],[-2.2465177,53.5359786],[-2.2471754,53.5359211],[-2.2477049,53.53588]]]}},
{"type":"Feature","properties":{"highway":"path","name":null,"category":"Shared path"},"geometry":{"type":"MultiLineString","coordinates":[[[-2.2412352,53.5283796],[-2.2410473,53.5281719],[-2.2405578,53.5274911],[-2.2406718,53.5272264],[-2.2407912,53.527134],[-2.240959,53.5270539],[-2.2410889,53.5269753],[-2.2411761,53.5268334],[-2.2411881,53.5267474],[-2.2411876,53.5266737],[-2.2413833,53.5267103],[-2.2415636,53.5267601],[-2.2416911,53.5268207],[-2.2418038,53.5268426],[-2.2419351,53.5268302],[-2.2420376,53.526798],[-2.2420062,53.5270439],[-2.2418734,53.5273349],[-2.2416253,53.5277321],[-2.2416039,53.5277909],[-2.2414376,53.527967],[-2.241364,53.5280862],[-2.2412352,53.5283796],[-2.2412996,53.5285837],[-2.2417824,53.5288579],[-2.2418146,53.528877],[-2.2420399,53.5290811],[-2.2422115,53.5291576],[-2.2423027,53.5294638],[-2.242426,53.5300397]]]}},
{"type":"Feature","properties":{"highway":"cycleway","name":null,"category":"Dedicated cycleway"},"geometry":{"type":"MultiLineString","coordinates":[[[-2.2566176,53.5271633],[-2.2566787,53.5272507],[-2.2568528,53.5274701]]]}},
{"type":"Feature","properties":{"highway":"path","name":null,"category":"Shared path"},"geometry":{"type":"MultiLineString","coordinates":[[[-2.2624292,53.5250212],[-2.2624903,53.5250723],[-2.2625588,53.5251204],[-2.2626284,53.5251627],[-2.2626589,53.5251886],[-2.2626813,53.5252172],[-2.262748,53.5252387],[-2.2628209,53.5252619],[-2.2633462,53.5253114],[-2.2636764,53.5253537],[-2.2639144,53.5253933],[-2.2643053,53.5254872],[-2.2645103,53.5255731],[-2.2645854,53.5256069]]]}},
{"type":"Feature","properties":{"highway":"cycleway","name":null,"category":"Dedicated cycleway"},"geometry":{"type":"MultiLineString","coordinates":[[[-2.2599246,53.5350901],[-2.2596877,53.5350901],[-2.2594953,53.5351634],[-2.2592338,53.5353247],[-2.2590907,53.5354831],[-2.2589032,53.5356766],[-2.2587551,53.535703],[-2.2585874,53.5356972],[-2.2582074,53.5355652],[-2.2579701,53.5354828],[-2.2570676,53.5351693],[-2.2566876,53.5349141],[-2.2565511,53.5346824]]]}},
{"type":"Feature","properties":{"highway":"cycleway","name":null,"category":"Dedicated cycleway"},"geometry":{"type":"MultiLineString","coordinates":[[[-2.2572177,53.5358349],[-2.2570969,53.5357591],[-2.2569731,53.5356856],[-2.2568967,53.5356543],[-2.256765,53.5356433],[-2.2566122,53.535684],[-2.2564067,53.5357466],[-2.2563211,53.5357687],[-2.2562671,53.5357826],[-2.2560195,53.5358296],[-2.2557772,53.5358687],[-2.255613,53.5358838],[-2.2555217,53.5358922],[-2.2551785,53.5358825],[-2.2549776,53.5358573]]]}},
{"type":"Feature","properties":{"highway":"cycleway","name":null,"category":"Dedicated cycleway"},"geometry":{"type":"MultiLineString","coordinates":[[[-2.2651091,53.5314851],[-2.2657721,53.5303094]]]}},
{"type":"Feature","properties":{"highway":"path","name":null,"category":"Shared path"},"geometry":{"type":"MultiLineString","coordinates":[[[-2.231345,53.53932],[-2.2314737,53.5399065]]]}},
{"type":"Feature","properties":{"highway":"path","name":null,"category":"Shared path"},"geometry":{"type":"MultiLineString","coordinates":[[[-2.2314737,53.5399065],[-2.2315338,53.54008],[-2.2315252,53.5401922],[-2.2314308,53.5402942],[-2.2312334,53.5403554],[-2.2309673,53.540386],[-2.2306927,53.540386],[-2.2304352,53.5404115],[-2.2302378,53.5404472],[-2.2299888,53.5405084],[-2.2298086,53.5405645],[-2.229594,53.5406308],[-2.2294224,53.5406665],[-2.2292421,53.540692],[-2.2290361,53.5407022],[-2.2288044,53.5407328],[-2.2285726,53.5407838],[-2.2284096,53.540845],[-2.2282293,53.5409573],[-2.2280491,53.5411409],[-2.2279289,53.5413092],[-2.2278602,53.5414163],[-2.2276886,53.5414826],[-2.2274054,53.5415054],[-2.2270421,53.5415343],[-2.226841,53.5415436],[-2.2266285,53.5415802],[-2.2264253,53.5416596],[-2.2263563,53.5416754]]]}},
{"type":"Feature","properties":{"highway":"path","name":null,"category":"Shared path"},"geometry":{"type":"MultiLineString","coordinates":[[[-2.2534999,53.5402966],[-2.2534964,53.540191],[-2.2535493,53.5400569],[-2.2535987,53.5399647],[-2.2536656,53.5398809],[-2.2537714,53.5397992],[-2.253856,53.5397259],[-2.2539723,53.5396798],[-2.2540734,53.5396394],[-2.2541763,53.5396306]]]}},
{"type":"Feature","properties":{"highway":"cycleway","name":null,"category":"Dedicated cycleway"},"geometry":{"type":"MultiLineString","coordinates":[[[-2.2369638,53.5404397],[-2.2370023,53.5406563]]]}},
{"type":"Feature","properties":{"highway":"cycleway","name":null,"category":"Dedicated cycleway"},"geometry":{"type":"MultiLineString","coordinates":[[[-2.2370023,53.5406563],[-2.2363844,53.5409619],[-2.2364366,53.5410561]]]}},
{"type":"Feature","properties":{"highway":"cycleway","name":null,"category":"Dedicated cycleway"},"geometry":{"type":"MultiLineString","coordinates":[[[-2.2386402,53.5395366],[-2.2387217,53.5395121],[-2.238797,53.5394785],[-2.2388768,53.5393975]]]}},
{"type":"Feature","properties":{"highway":"bridleway","name":"Bridle Road","category":"Bridleway"},"geometry":{"type":"MultiLineString","coordinates":[[[-2.240629,53.540278],[-2.2408451,53.5404169],[-2.2412245,53.5406135],[-2.2413796,53.5406891],[-2.2417861,53.5408927],[-2.2423293,53.541219],[-2.2427928,53.5415037],[-2.2429858,53.5415987],[-2.2436497,53.5418425],[-2.243895,53.5419464],[-2.2445275,53.5422923],[-2.2451541,53.5428852],[-2.2464881,53.5434994],[-2.2470526,53.5437594],[-2.2481282,53.5441074],[-2.2491844,53.5443826],[-2.2493413,53.5444006],[-2.2495171,53.5444063],[-2.2506195,53.5444257],[-2.2514293,53.5444713],[-2.2515331,53.5444646],[-2.2516505,53.5444408],[-2.2519311,53.5443525],[-2.2522917,53.5442409],[-2.2526345,53.5441216],[-2.2530259,53.5439979],[-2.2532034,53.5439558],[-2.253405,53.5439274],[-2.253712,53.5438861],[-2.2541368,53.5438326],[-2.2547505,53.5437515],[-2.2555038,53.5436525],[-2.2557501,53.5436194],[-2.2562642,53.543552],[-2.2568493,53.5434755],[-2.2572919,53.5434169],[-2.2580009,53.543324],[-2.2582778,53.5432878],[-2.2583906,53.5432669],[-2.2585939,53.543217],[-2.2587163,53.5431862],[-2.2588995,53.5431234],[-2.2589952,53.5430898],[-2.2591839,53.5430367],[-2.2593324,53.5430084],[-2.2594996,53.5429889],[-2.2597035,53.5429759],[-2.2598654,53.5429773],[-2.2607868,53.5430785],[-2.2616539,53.5432007],[-2.2669886,53.5439472]]]}},
{"type":"Feature","properties":{"highway":"cycleway","name":null,"category":"Dedicated cycleway"},"geometry":{"type":"MultiLineString","coordinates":[[[-2.2547533,53.5292481],[-2.2545962,53.5293438]]]}},
{"type":"Feature","properties":{"highway":"cycleway","name":null,"category":"Dedicated cycleway"},"geometry":{"type":"MultiLineString","coordinates":[[[-2.2549306,53.5293713],[-2.2547622,53.5294433]]]}},
{"type":"Feature","properties":{"highway":"cycleway","name":null,"category":"Dedicated cycleway"},"geometry":{"type":"MultiLineString","coordinates":[[[-2.2557326,53.5291618],[-2.2551233,53.5293788],[-2.2550159,53.5293863],[-2.2549306,53.5293713],[-2.2547533,53.5292481],[-2.2546495,53.529176],[-2.2544353,53.5290566],[-2.2543936,53.5290333]]]}},
{"type":"Feature","properties":{"highway":"path","name":null,"category":"Shared path"},"geometry":{"type":"MultiLineString","coordinates":[[[-2.2427499,53.533073],[-2.2428018,53.533172],[-2.2427663,53.5332256],[-2.2428646,53.533448],[-2.2430067,53.5336348],[-2.2430722,53.5338961],[-2.2430914,53.5340682],[-2.2431351,53.5342436],[-2.243105,53.5343978],[-2.2431651,53.5346024],[-2.2431842,53.5347793],[-2.2430477,53.5349287],[-2.2428728,53.5350228],[-2.2426598,53.535104],[-2.2425423,53.5351901],[-2.242261,53.5352907],[-2.2420561,53.5352891],[-2.2419933,53.5353313],[-2.2419004,53.5354855],[-2.241742,53.5356576],[-2.2416026,53.5358346],[-2.2414715,53.5359726],[-2.241283,53.5360667],[-2.2411301,53.536156],[-2.2410727,53.5361982],[-2.2410427,53.5362372],[-2.2410235,53.536294],[-2.2410509,53.5363654],[-2.2410946,53.5364304],[-2.241111,53.5364888],[-2.2411273,53.5365424],[-2.2410906,53.5366463]]]}},
{"type":"Feature","properties":{"highway":"cycleway","name":null,"category":"Dedicated cycleway"},"geometry":{"type":"MultiLineString","coordinates":[[[-2.2601852,53.5360349],[-2.2601149,53.5357464],[-2.2600642,53.5356954],[-2.2599271,53.5355578],[-2.2601731,53.5353616],[-2.2601667,53.535123],[-2.2603868,53.5349845],[-2.2615118,53.5347868],[-2.2620888,53.5345253],[-2.2622521,53.5344679],[-2.2634504,53.5343318],[-2.2640964,53.5344171]]]}},
{"type":"Feature","properties":{"highway":"track","name":null,"category":"Track"},"geometry":{"type":"MultiLineString","coordinates":[[[-2.2555038,53.5436525],[-2.2549225,53.5422315],[-2.2547655,53.5419585],[-2.2546839,53.5418781],[-2.2545726,53.5417942],[-2.2544771,53.5417221],[-2.2543757,53.5416394],[-2.2542901,53.5415803],[-2.2541569,53.5414633],[-2.2540873,53.5413628],[-2.2539739,53.5412258],[-2.2539202,53.5411182],[-2.2538566,53.5409776],[-2.2538645,53.540844],[-2.2538904,53.5407589],[-2.2538944,53.5406632],[-2.2538884,53.5406088],[-2.2538586,53.5405722],[-2.2538128,53.5405178],[-2.2535324,53.5403276],[-2.2534999,53.5402966],[-2.2533761,53.5401786],[-2.2532647,53.5400578],[-2.2531605,53.5398489],[-2.2530889,53.5397213],[-2.2530889,53.5396362],[-2.2531287,53.5394613],[-2.2532798,53.5389991],[-2.2533977,53.5387895]]]}},
{"type":"Feature","properties":{"highway":"cycleway","name":null,"category":"Dedicated cycleway"},"geometry":{"type":"MultiLineString","coordinates":[[[-2.2516362,53.5363984],[-2.2505795,53.5366518],[-2.2499326,53.5368284],[-2.2497447,53.5369085],[-2.2495433,53.5370361],[-2.2493991,53.5371691],[-2.2491839,53.5373638],[-2.2490841,53.5374735],[-2.2490575,53.5375468],[-2.2490597,53.5375997],[-2.2491172,53.537654],[-2.2492488,53.5376893],[-2.249458,53.5377259],[-2.2497735,53.5377639],[-2.2500446,53.5378082],[-2.2501666,53.5379339],[-2.2502789,53.5380566],[-2.2503398,53.5380833],[-2.2504113,53.5381011],[-2.2504985,53.5381129],[-2.2505931,53.5381146],[-2.2507127,53.5381034],[-2.2508535,53.5380613],[-2.2509753,53.538011],[-2.2518577,53.5374193],[-2.2520503,53.5374536],[-2.2523844,53.5376541],[-2.2526087,53.5377126],[-2.2528433,53.537724],[-2.2531145,53.5377098],[-2.2534399,53.5376144],[-2.2537138,53.5375085],[-2.2539083,53.5373251],[-2.2540872,53.5369478],[-2.2541199,53.5367028],[-2.2543013,53.5364607],[-2.2543752,53.5364228]]]}},
{"type":"Feature","properties":{"highway":"cycleway","name":null,"category":"Dedicated cycleway"},"geometry":{"type":"MultiLineString","coordinates":[[[-2.2567724,53.5361867],[-2.2566213,53.5361777],[-2.2562783,53.5361274],[-2.2562379,53.5361267],[-2.25615,53.5361252],[-2.2561134,53.5361196],[-2.2558958,53.5360639],[-2.2557923,53.5360704]]]}},
{"type":"Feature","properties":{"highway":"path","name":null,"category":"Shared path"},"geometry":{"type":"MultiLineString","coordinates":[[[-2.2501284,53.5419769],[-2.2496513,53.5418915]]]}},
{"type":"Feature","properties":{"highway":"cycleway","name":null,"category":"Dedicated cycleway"},"geometry":{"type":"MultiLineString","coordinates":[[[-2.258068,53.5361532],[-2.2577623,53.5360608]]]}},
{"type":"Feature","properties":{"highway":"cycleway","name":null,"category":"Dedicated cycleway"},"geometry":{"type":"MultiLineString","coordinates":[[[-2.2505795,53.5366518],[-2.2505933,53.5366914],[-2.2505396,53.5367773],[-2.2504571,53.5369305],[-2.2504124,53.537081],[-2.2503963,53.5371938],[-2.2503889,53.5372827],[-2.2503931,53.537338],[-2.250366,53.5373632],[-2.250345,53.5373788],[-2.2503245,53.5374006],[-2.2503138,53.5374251],[-2.2503086,53.5374569],[-2.2503163,53.5374847],[-2.2503359,53.5375136],[-2.2503675,53.5375378]]]}},
{"type":"Feature","properties":{"highway":"path","name":null,"category":"Shared path"},"geometry":{"type":"MultiLineString","coordinates":[[[-2.2526734,53.5312718],[-2.252006,53.5313401],[-2.251534,53.5315506],[-2.2512336,53.5316781],[-2.250939,53.53196],[-2.2506596,53.5317004],[-2.2508795,53.5311839],[-2.2508366,53.5311137],[-2.2506961,53.5308959]]]}},
{"type":"Feature","properties":{"highway":"cycleway","name":null,"category":"Dedicated cycleway"},"geometry":{"type":"MultiLineString","coordinates":[[[-2.250268,53.5322297],[-2.2501132,53.5320835]]]}},
{"type":"Feature","properties":{"highway":"cycleway","name":null,"category":"Dedicated cycleway"},"geometry":{"type":"MultiLineString","coordinates":[[[-2.2504661,53.5324584],[-2.2504021,53.5323891],[-2.250268,53.5322297]]]}},
{"type":"Feature","properties":{"highway":"path","name":null,"category":"Shared path"},"geometry":{"type":"MultiLineString","coordinates":[[[-2.2504128,53.5313066],[-2.2502908,53.5314485],[-2.2502626,53.531608],[-2.2503077,53.5318308],[-2.2502197,53.5320735]]]}},
{"type":"Feature","properties":{"highway":"path","name":null,"category":"Shared path"},"geometry":{"type":"MultiLineString","coordinates":[[[-2.2502572,53.5311775],[-2.2504128,53.5313066],[-2.2506086,53.5311871],[-2.2508366,53.5311137],[-2.2511228,53.530879],[-2.2512041,53.5308124],[-2.2514159,53.5306179],[-2.2515554,53.5304553],[-2.2517485,53.5302464],[-2.2519524,53.5300982],[-2.2521428,53.5300248],[-2.2520409,53.5302034],[-2.2517485,53.5302464]]]}},
{"type":"Feature","properties":{"highway":"path","name":null,"category":"Shared path"},"geometry":{"type":"MultiLineString","coordinates":[[[-2.2521428,53.5300248],[-2.2524432,53.5297474]]]}},
{"type":"Feature","properties":{"highway":"cycleway","name":null,"category":"Dedicated cycleway"},"geometry":{"type":"MultiLineString","coordinates":[[[-2.2502197,53.5320735],[-2.2502841,53.5321181],[-2.2502841,53.5321787],[-2.250268,53.5322297]]]}},
{"type":"Feature","properties":{"highway":"path","name":null,"category":"Shared path"},"geometry":{"type":"MultiLineString","coordinates":[[[-2.2507588,53.5308523],[-2.2511228,53.530879]]]}},
{"type":"Feature","properties":{"highway":"cycleway","name":null,"category":"Dedicated cycleway"},"geometry":{"type":"MultiLineString","coordinates":[[[-2.2607588,53.5362422],[-2.2606939,53.536292],[-2.2604791,53.536376],[-2.2604429,53.5364167],[-2.2602742,53.536578],[-2.2602669,53.5365756]]]}},
{"type":"Feature","properties":{"highway":"path","name":null,"category":"Shared path"},"geometry":{"type":"MultiLineString","coordinates":[[[-2.2625605,53.5366837],[-2.2629662,53.5367154],[-2.2636814,53.5370999],[-2.2649933,53.537857]]]}},
{"type":"Feature","properties":{"highway":"cycleway","name":null,"category":"Dedicated cycleway"},"geometry":{"type":"MultiLineString","coordinates":[[[-2.2634504,53.5343318],[-2.2637576,53.5341831],[-2.2640907,53.5339581]]]}},
{"type":"Feature","properties":{"highway":"cycleway","name":null,"category":"Dedicated cycleway"},"geometry":{"type":"MultiLineString","coordinates":[[[-2.2477049,53.53588],[-2.2489292,53.5357863],[-2.2495503,53.5357434],[-2.2499547,53.5357397],[-2.2504513,53.5357929],[-2.2507388,53.5358466],[-2.2509358,53.5358667]]]}},
{"type":"Feature","properties":{"highway":"path","name":null,"category":"Shared path"},"geometry":{"type":"MultiLineString","coordinates":[[[-2.2503769,53.541968],[-2.2507615,53.5420021],[-2.250909,53.5420212],[-2.2511156,53.5419367],[-2.2512363,53.5419001]]]}},
{"type":"Feature","properties":{"highway":"path","name":null,"category":"Shared path"},"geometry":{"type":"MultiLineString","coordinates":[[[-2.2507615,53.5420021],[-2.2506607,53.5418804]]]}},
{"type":"Feature","properties":{"highway":"cycleway","name":null,"category":"Dedicated cycleway"},"geometry":{"type":"MultiLineString","coordinates":[[[-2.2572956,53.536437],[-2.2573492,53.53637],[-2.2578374,53.5362393],[-2.2580627,53.5358982],[-2.2579701,53.5354828]]]}},
{"type":"Feature","properties":{"highway":"path","name":null,"category":"Shared path"},"geometry":{"type":"MultiLineString","coordinates":[[[-2.2620888,53.5345253],[-2.260738,53.5340474]]]}},
{"type":"Feature","properties":{"highway":"track","name":"Old Hall Lane","category":"Track"},"geometry":{"type":"MultiLineString","coordinates":[[[-2.2483932,53.5463335],[-2.2479206,53.5457738],[-2.2457969,53.5440918]]]}},
{"type":"Feature","properties":{"highway":"path","name":null,"category":"Shared path"},"geometry":{"type":"MultiLineString","coordinates":[[[-2.2403605,53.5283915],[-2.2401663,53.5279928],[-2.2402063,53.527881],[-2.2402364,53.5277786],[-2.2402664,53.5276977],[-2.2403485,53.5275966],[-2.2404528,53.5275359],[-2.2405578,53.5274911],[-2.2404988,53.5273524],[-2.240421,53.5273181],[-2.2403727,53.5272623],[-2.2401166,53.5271403],[-2.2398444,53.5270351],[-2.2395842,53.5270255],[-2.2392332,53.5268923],[-2.2389829,53.5266916],[-2.2385463,53.5265082],[-2.2383435,53.5263653],[-2.2387156,53.525692]]]}},
{"type":"Feature","properties":{"highway":"cycleway","name":null,"category":"Dedicated cycleway"},"geometry":{"type":"MultiLineString","coordinates":[[[-2.2589866,53.5278831],[-2.2587944,53.5279298],[-2.2582249,53.5280681],[-2.2577957,53.5281127],[-2.257506,53.5281956],[-2.2571842,53.5284762],[-2.2567872,53.5286357],[-2.2565415,53.528739],[-2.2563151,53.5288206],[-2.2557326,53.5291618],[-2.2553603,53.529452],[-2.2550491,53.5297644],[-2.2545878,53.5299877],[-2.254175,53.5301426],[-2.2537578,53.530272],[-2.2534019,53.5303481],[-2.2532427,53.5303761],[-2.2530214,53.5304468],[-2.2527102,53.5307657],[-2.2526244,53.5311228],[-2.2526734,53.5312718],[-2.2527746,53.5315883],[-2.2528282,53.531888],[-2.2528497,53.5321048],[-2.2528625,53.532337],[-2.2530429,53.532621],[-2.2530565,53.5326378],[-2.2530688,53.532653],[-2.2530951,53.5326857]]]}},
{"type":"Feature","properties":{"highway":"cycleway","name":null,"category":"Dedicated cycleway"},"geometry":{"type":"MultiLineString","coordinates":[[[-2.2565085,53.5272798],[-2.2568528,53.5274701],[-2.2582249,53.5280681]]]}},
{"type":"Feature","properties":{"highway":"cycleway","name":null,"category":"Dedicated cycleway"},"geometry":{"type":"MultiLineString","coordinates":[[[-2.2661378,53.5302948],[-2.2660038,53.5303002],[-2.2659992,53.5303005],[-2.2659314,53.5303048],[-2.2657721,53.5303094],[-2.2655267,53.5303316],[-2.2653066,53.5303527],[-2.2652212,53.5303606],[-2.2650612,53.5303755],[-2.2645457,53.5304234],[-2.264223,53.5304534],[-2.2638669,53.5305804],[-2.2632567,53.530517],[-2.2625808,53.5305807],[-2.2619799,53.5305744],[-2.261186,53.5304787],[-2.2597269,53.5303384],[-2.2580226,53.5301984]]]}},
{"type":"Feature","properties":{"highway":"cycleway","name":null,"category":"Dedicated cycleway"},"geometry":{"type":"MultiLineString","coordinates":[[[-2.2765328,53.5271515],[-2.2766262,53.5272028],[-2.2766794,53.527222],[-2.2768055,53.5273042],[-2.2769146,53.5273861],[-2.2770325,53.5274644],[-2.2772505,53.5275769],[-2.2774074,53.5276843],[-2.2777731,53.5280062],[-2.2779099,53.5281329],[-2.2779716,53.5282087],[-2.2780167,53.5282839],[-2.2781003,53.5284852],[-2.2781062,53.52854],[-2.2784027,53.5293136],[-2.2784328,53.5293371]]]}},
{"type":"Feature","properties":{"highway":"track","name":"Corday Lane","category":"Track"},"geometry":{"type":"MultiLineString","coordinates":[[[-2.2615962,53.544784],[-2.2616312,53.5462946]]]}},
{"type":"Feature","properties":{"highway":"path","name":null,"category":"Shared path"},"geometry":{"type":"MultiLineString","coordinates":[[[-2.2393015,53.5277441],[-2.2390853,53.5276525],[-2.238783,53.5275073],[-2.2385728,53.5274954],[-2.2382465,53.5273824],[-2.2380743,53.5273491],[-2.2379822,53.52733],[-2.2382347,53.5268859],[-2.2383621,53.5265662],[-2.2383435,53.5263653]]]}},
{"type":"Feature","properties":{"highway":"path","name":null,"category":"Shared path"},"geometry":{"type":"MultiLineString","coordinates":[[[-2.2406718,53.5272264],[-2.2405687,53.5272777],[-2.240421,53.5273181],[-2.2402424,53.527355],[-2.2399261,53.5274205],[-2.2393015,53.5277441],[-2.2394136,53.527975],[-2.2395137,53.5282237],[-2.2396098,53.5284426],[-2.2396358,53.5286081],[-2.2396378,53.5287437],[-2.2394236,53.5288841],[-2.2391954,53.5290757],[-2.2391213,53.5291804],[-2.2393876,53.5293565],[-2.2397499,53.5292887],[-2.2399761,53.5289496],[-2.2401543,53.5287699],[-2.2401543,53.5286902],[-2.2402364,53.5286045],[-2.2402604,53.5285402],[-2.2402304,53.5282772],[-2.2401163,53.5280095],[-2.2401683,53.5278274],[-2.2402023,53.5276799],[-2.2402304,53.5276608],[-2.2402664,53.5276977]]]}},
{"type":"Feature","properties":{"highway":"cycleway","name":null,"category":"Dedicated cycleway"},"geometry":{"type":"MultiLineString","coordinates":[[[-2.2572956,53.536437],[-2.2572736,53.536513],[-2.2572005,53.536766]]]}},
{"type":"Feature","properties":{"highway":"cycleway","name":null,"category":"Dedicated cycleway"},"geometry":{"type":"MultiLineString","coordinates":[[[-2.259531,53.5363451],[-2.2601019,53.5365218],[-2.2599946,53.5363889]]]}},
{"type":"Feature","properties":{"highway":"cycleway","name":null,"category":"Dedicated cycleway"},"geometry":{"type":"MultiLineString","coordinates":[[[-2.2601019,53.5365218],[-2.2601025,53.536782],[-2.2602554,53.5370897],[-2.2602286,53.5374069]]]}},
{"type":"Feature","properties":{"highway":"cycleway","name":null,"category":"Dedicated cycleway"},"geometry":{"type":"MultiLineString","coordinates":[[[-2.2602637,53.5370894],[-2.2603889,53.5370849]]]}},
{"type":"Feature","properties":{"highway":"cycleway","name":null,"category":"Dedicated cycleway"},"geometry":{"type":"MultiLineString","coordinates":[[[-2.2602742,53.536578],[-2.2602662,53.5367438],[-2.2604351,53.5370833],[-2.2605505,53.5371503],[-2.2609635,53.5373336],[-2.2611298,53.5373957],[-2.2613337,53.5374181],[-2.2618245,53.5374244],[-2.262141,53.5374196],[-2.2624495,53.5373798],[-2.2627579,53.5372985],[-2.2631308,53.5371805],[-2.2633802,53.53712],[-2.2636814,53.5370999],[-2.2648692,53.5370918]]]}},
{"type":"Feature","properties":{"highway":"path","name":null,"category":"Shared path"},"geometry":{"type":"MultiLineString","coordinates":[[[-2.2539083,53.5373251],[-2.2539677,53.5373826],[-2.2539912,53.5374054],[-2.2539956,53.5374884]]]}},
{"type":"Feature","properties":{"highway":"path","name":null,"category":"Shared path"},"geometry":{"type":"MultiLineString","coordinates":[[[-2.2532647,53.5400578],[-2.2531945,53.5401924],[-2.2523657,53.5409479],[-2.2520418,53.5412613],[-2.251046,53.5416939],[-2.2506607,53.5418804],[-2.2503769,53.541968],[-2.2501284,53.5419769],[-2.2499616,53.5421568],[-2.2499088,53.5423697],[-2.2506102,53.5428132],[-2.2507885,53.5432558],[-2.2506793,53.5435429],[-2.2502194,53.5439011],[-2.2499318,53.5440842],[-2.2495543,53.5443768],[-2.2495171,53.5444063]]]}},
{"type":"Feature","properties":{"highway":"track","name":null,"category":"Track"},"geometry":{"type":"MultiLineString","coordinates":[[[-2.274169,53.5437436],[-2.2741033,53.5437625],[-2.2740206,53.5437789],[-2.2737381,53.5437883],[-2.2734199,53.5438327],[-2.2730044,53.5439582],[-2.2720605,53.5442499],[-2.2719985,53.5442442],[-2.2719425,53.5442159],[-2.2717929,53.5440658],[-2.2716508,53.5439873]]]}},
{"type":"Feature","properties":{"highway":"cycleway","name":null,"category":"Dedicated cycleway"},"geometry":{"type":"MultiLineString","coordinates":[[[-2.260072,53.5351101],[-2.2599246,53.5350901]]]}},
{"type":"Feature","properties":{"highway":"cycleway","name":null,"category":"Dedicated cycleway"},"geometry":{"type":"MultiLineString","coordinates":[[[-2.2601667,53.535123],[-2.260072,53.5351101]]]}},
{"type":"Feature","properties":{"highway":"path","name":null,"category":"Shared path"},"geometry":{"type":"MultiLineString","coordinates":[[[-2.2764698,53.5272322],[-2.2765328,53.5271515]]]}},
{"type":"Feature","properties":{"highway":"cycleway","name":null,"category":"Dedicated cycleway"},"geometry":{"type":"MultiLineString","coordinates":[[[-2.2762952,53.5293421],[-2.2763821,53.5292919],[-2.276504,53.5291476],[-2.2766812,53.5289772],[-2.2776721,53.5280607],[-2.2777731,53.5280062]]]}},
{"type":"Feature","properties":{"highway":"cycleway","name":null,"category":"Dedicated cycleway"},"geometry":{"type":"MultiLineString","coordinates":[[[-2.2346675,53.5416086],[-2.2348535,53.5414485],[-2.23513,53.5412845],[-2.2351953,53.5412719],[-2.2352515,53.5412798]]]}},
{"type":"Feature","properties":{"highway":"path","name":null,"category":"Shared path"},"geometry":{"type":"MultiLineString","coordinates":[[[-2.2350791,53.5417421],[-2.2348143,53.5417099]]]}},
{"type":"Feature","properties":{"highway":"path","name":null,"category":"Shared path"},"geometry":{"type":"MultiLineString","coordinates":[[[-2.2356257,53.541396],[-2.235686,53.5414518]]]}},
{"type":"Feature","properties":{"highway":"cycleway","name":null,"category":"Dedicated cycleway"},"geometry":{"type":"MultiLineString","coordinates":[[[-2.2359541,53.5387283],[-2.2354305,53.5384733],[-2.2353962,53.5383559],[-2.2353704,53.5382794],[-2.2353447,53.5381978],[-2.2353275,53.5381162],[-2.2353103,53.5380346],[-2.2352932,53.5379173],[-2.2358784,53.5374576],[-2.2370731,53.5365045]]]}},
{"type":"Feature","properties":{"highway":"path","name":null,"category":"Shared path"},"geometry":{"type":"MultiLineString","coordinates":[[[-2.2333964,53.53857],[-2.2333277,53.53856],[-2.2331781,53.5385445],[-2.2331302,53.5385396],[-2.2329328,53.5385345],[-2.2326839,53.53856],[-2.232435,53.5386212],[-2.2322204,53.5386824],[-2.2320488,53.5387538],[-2.2318428,53.5388252],[-2.2316711,53.5389068],[-2.2314909,53.5389986],[-2.2313879,53.5390955],[-2.231345,53.5392129],[-2.231345,53.53932]]]}},
{"type":"Feature","properties":{"highway":"cycleway","name":null,"category":"Dedicated cycleway"},"geometry":{"type":"MultiLineString","coordinates":[[[-2.2345047,53.5385838],[-2.2342417,53.538494]]]}},
{"type":"Feature","properties":{"highway":"cycleway","name":null,"category":"Dedicated cycleway"},"geometry":{"type":"MultiLineString","coordinates":[[[-2.2602742,53.536578],[-2.2603925,53.5366996],[-2.2604982,53.5367763],[-2.2606173,53.5368503],[-2.2607073,53.5368798],[-2.2607888,53.5368839],[-2.2608768,53.5368755],[-2.2612255,53.5368068],[-2.2612808,53.5367986],[-2.2617569,53.5368042],[-2.261827,53.5367977],[-2.2625605,53.5366837]]]}},
{"type":"Feature","properties":{"highway":"cycleway","name":null,"category":"Dedicated cycleway"},"geometry":{"type":"MultiLineString","coordinates":[[[-2.2602554,53.5370897],[-2.2598462,53.5371047],[-2.2581831,53.5373848]]]}},
{"type":"Feature","properties":{"highway":"path","name":null,"category":"Shared path"},"geometry":{"type":"MultiLineString","coordinates":[[[-2.2615047,53.5189822],[-2.2612779,53.5186908]]]}},
{"type":"Feature","properties":{"highway":"cycleway","name":null,"category":"Dedicated cycleway"},"geometry":{"type":"MultiLineString","coordinates":[[[-2.2260654,53.5398206],[-2.2261557,53.5398021],[-2.2262281,53.5397878],[-2.227006,53.5395997],[-2.2279877,53.539402],[-2.2286421,53.5392044],[-2.2291276,53.5390306],[-2.2294977,53.5388075],[-2.229951,53.5385285],[-2.2303225,53.5383141],[-2.2304338,53.538244],[-2.2304834,53.5382201],[-2.2305612,53.5382081],[-2.2306256,53.5382018],[-2.2306766,53.5382472],[-2.2307597,53.5383644],[-2.2308294,53.5384775],[-2.2309019,53.5385309],[-2.2309434,53.5385891],[-2.2309797,53.5386019],[-2.231032,53.5385851],[-2.2310427,53.5385493],[-2.2310293,53.5383715],[-2.2310253,53.5383189],[-2.2310507,53.538303],[-2.2311392,53.5383054],[-2.2312063,53.5383309],[-2.2314571,53.538405],[-2.2317736,53.5384688],[-2.2320177,53.5385134],[-2.2322336,53.5384815],[-2.2324415,53.5384472],[-2.2326775,53.5384345],[-2.2329001,53.5384457],[-2.2330973,53.5384616],[-2.2332233,53.5384672],[-2.2333964,53.53857],[-2.2334359,53.5385751],[-2.2335226,53.5385843],[-2.2336435,53.538596],[-2.2339542,53.5385804],[-2.2341774,53.5385294],[-2.2342417,53.538494],[-2.2352932,53.5379173]]]}},
{"type":"Feature","properties":{"highway":"path","name":null,"category":"Shared path"},"geometry":{"type":"MultiLineString","coordinates":[[[-2.2395536,53.5367235],[-2.2396392,53.536756],[-2.2397223,53.5367816]]]}},
{"type":"Feature","properties":{"highway":"track","name":null,"category":"Track"},"geometry":{"type":"MultiLineString","coordinates":[[[-2.2403594,53.5469556],[-2.2404787,53.5469217],[-2.240556,53.5468897],[-2.2408373,53.5466868],[-2.2411474,53.5464944],[-2.2412855,53.5464078],[-2.2414387,53.5463317],[-2.2417038,53.5462008],[-2.2418223,53.5461482],[-2.2418454,53.5461438],[-2.2419107,53.5461313],[-2.2430797,53.5458902],[-2.2431855,53.5458664],[-2.2432512,53.5458305],[-2.2436356,53.5454977],[-2.2438998,53.5452558],[-2.2440979,53.5450955],[-2.24423,53.5449843],[-2.244274,53.544932],[-2.2442905,53.5448764],[-2.244274,53.5448176],[-2.2442024,53.5447816],[-2.2428706,53.5441406],[-2.2425294,53.5439673],[-2.2423643,53.5438267],[-2.2421716,53.5437089],[-2.24199,53.5436501],[-2.2418084,53.5435912],[-2.2415552,53.5435749],[-2.2413186,53.5435323],[-2.2411865,53.5434866],[-2.2409884,53.5433885],[-2.2409553,53.543359],[-2.2409664,53.543274],[-2.2408012,53.5431399]]]}},
{"type":"Feature","properties":{"highway":"cycleway","name":null,"category":"Dedicated cycleway"},"geometry":{"type":"MultiLineString","coordinates":[[[-2.2558958,53.5360639],[-2.2558133,53.5360013],[-2.2556656,53.5359141],[-2.255613,53.5358838]]]}},
{"type":"Feature","properties":{"highway":"path","name":null,"category":"Shared path"},"geometry":{"type":"MultiLineString","coordinates":[[[-2.2631006,53.5247518],[-2.2631031,53.5247447],[-2.2631031,53.5247116],[-2.2631468,53.5246444],[-2.2632839,53.5243161],[-2.2633267,53.5241731],[-2.2633515,53.5241305],[-2.2633806,53.5241056]]]}},
{"type":"Feature","properties":{"highway":"path","name":null,"category":"Shared path"},"geometry":{"type":"MultiLineString","coordinates":[[[-2.2473368,53.5272624],[-2.2474716,53.5272861],[-2.2475354,53.5272973],[-2.2476252,53.5273131]]]}},
{"type":"Feature","properties":{"highway":"track","name":null,"category":"Track"},"geometry":{"type":"MultiLineString","coordinates":[[[-2.2577422,53.5388291],[-2.2576869,53.538901],[-2.2574678,53.5390241],[-2.2573,53.5390983],[-2.2571671,53.5391471],[-2.2568563,53.5392458],[-2.2566929,53.5392751],[-2.2566068,53.5392905]]]}},
{"type":"Feature","properties":{"highway":"path","name":null,"category":"Shared path"},"geometry":{"type":"MultiLineString","coordinates":[[[-2.2594394,53.5387667],[-2.259941,53.5384861],[-2.2600443,53.5384836]]]}},
{"type":"Feature","properties":{"highway":"path","name":null,"category":"Shared path"},"geometry":{"type":"MultiLineString","coordinates":[[[-2.2584778,53.5376625],[-2.2584014,53.5376688],[-2.2582094,53.5376473],[-2.2579898,53.5375902],[-2.2578289,53.5375249],[-2.2575928,53.5373908],[-2.2574164,53.5375054],[-2.257265,53.5375851],[-2.2571379,53.5376036],[-2.256958,53.5376036],[-2.2567898,53.537583]]]}},
{"type":"Feature","properties":{"highway":"path","name":null,"category":"Shared path"},"geometry":{"type":"MultiLineString","coordinates":[[[-2.2693267,53.5417045],[-2.2692235,53.5416662],[-2.2691886,53.5416575]]]}},
{"type":"Feature","properties":{"highway":"path","name":null,"category":"Shared path"},"geometry":{"type":"MultiLineString","coordinates":[[[-2.2691628,53.5416868],[-2.2690774,53.5417396]]]}},
{"type":"Feature","properties":{"highway":"path","name":null,"category":"Shared path"},"geometry":{"type":"MultiLineString","coordinates":[[[-2.2688936,53.5421268],[-2.2687828,53.5420891],[-2.2687547,53.5420795],[-2.2687617,53.5420724]]]}},
{"type":"Feature","properties":{"highway":"path","name":null,"category":"Shared path"},"geometry":{"type":"MultiLineString","coordinates":[[[-2.2687617,53.5420724],[-2.2688214,53.5420032],[-2.2688418,53.5419572]]]}},
{"type":"Feature","properties":{"highway":"path","name":null,"category":"Shared path"},"geometry":{"type":"MultiLineString","coordinates":[[[-2.2738696,53.5405288],[-2.2729265,53.540838]]]}},
{"type":"Feature","properties":{"highway":"path","name":null,"category":"Shared path"},"geometry":{"type":"MultiLineString","coordinates":[[[-2.2781398,53.5389678],[-2.2779518,53.5388398],[-2.2777598,53.5387642],[-2.2776536,53.5387642],[-2.2772562,53.5386333]]]}},
{"type":"Feature","properties":{"highway":"path","name":null,"category":"Shared path"},"geometry":{"type":"MultiLineString","coordinates":[[[-2.2412654,53.5329541],[-2.2412243,53.5329381],[-2.2411358,53.5329373],[-2.2410433,53.5329859],[-2.240995,53.5330178]]]}},
{"type":"Feature","properties":{"highway":"path","name":null,"category":"Shared path"},"geometry":{"type":"MultiLineString","coordinates":[[[-2.2424368,53.5301206],[-2.2424295,53.5301623],[-2.2423564,53.530583],[-2.2424637,53.5307807]]]}},
{"type":"Feature","properties":{"highway":"cycleway","name":null,"category":"Dedicated cycleway"},"geometry":{"type":"MultiLineString","coordinates":[[[-2.2603889,53.5370849],[-2.2604351,53.5370833]]]}},
{"type":"Feature","properties":{"highway":"path","name":null,"category":"Shared path"},"geometry":{"type":"MultiLineString","coordinates":[[[-2.2581318,53.5291236],[-2.2573562,53.5289625]]]}},
{"type":"Feature","properties":{"highway":"cycleway","name":null,"category":"Dedicated cycleway"},"geometry":{"type":"MultiLineString","coordinates":[[[-2.2781135,53.5294864],[-2.2781652,53.5295808],[-2.278187,53.5296313],[-2.27819,53.5296577],[-2.2781659,53.5297007],[-2.2780926,53.5298061]]]}},
{"type":"Feature","properties":{"highway":"path","name":null,"category":"Shared path"},"geometry":{"type":"MultiLineString","coordinates":[[[-2.2760834,53.526722],[-2.2761078,53.5267518],[-2.276316,53.5269364],[-2.2764497,53.5270592],[-2.2765091,53.5271445],[-2.2765328,53.5271515]]]}},
{"type":"Feature","properties":{"highway":"path","name":null,"category":"Shared path"},"geometry":{"type":"MultiLineString","coordinates":[[[-2.2728765,53.5261519],[-2.2728529,53.5262021],[-2.2727564,53.5264069],[-2.2723251,53.5263305],[-2.2722307,53.5265234],[-2.2722225,53.5265336]]]}},
{"type":"Feature","properties":{"highway":"path","name":null,"category":"Shared path"},"geometry":{"type":"MultiLineString","coordinates":[[[-2.2717512,53.5276619],[-2.2712336,53.5275695],[-2.2712528,53.527523]]]}},
{"type":"Feature","properties":{"highway":"path","name":null,"category":"Shared path"},"geometry":{"type":"MultiLineString","coordinates":[[[-2.2720613,53.5277223],[-2.2719383,53.5276939],[-2.2718589,53.5276818]]]}},
{"type":"Feature","properties":{"highway":"path","name":null,"category":"Shared path"},"geometry":{"type":"MultiLineString","coordinates":[[[-2.2718589,53.5276818],[-2.2717512,53.5276619]]]}},
{"type":"Feature","properties":{"highway":"cycleway","name":null,"category":"Dedicated cycleway"},"geometry":{"type":"MultiLineString","coordinates":[[[-2.2363844,53.5409619],[-2.2356257,53.541396]]]}},
{"type":"Feature","properties":{"highway":"path","name":null,"category":"Shared path"},"geometry":{"type":"MultiLineString","coordinates":[[[-2.2652664,53.5379038],[-2.2652861,53.53788],[-2.2655042,53.5375694],[-2.2655085,53.5375632]]]}},
{"type":"Feature","properties":{"highway":"track","name":null,"category":"Track"},"geometry":{"type":"MultiLineString","coordinates":[[[-2.2765972,53.5369317],[-2.2766837,53.5369047],[-2.2768876,53.5369092],[-2.2769734,53.5369111],[-2.2775715,53.5369924],[-2.2780892,53.5370625]]]}},
{"type":"Feature","properties":{"highway":"track","name":null,"category":"Track"},"geometry":{"type":"MultiLineString","coordinates":[[[-2.2768876,53.5369092],[-2.2769734,53.5368792],[-2.2770083,53.5368457],[-2.2770351,53.5367182],[-2.2770673,53.5366767],[-2.2771182,53.5366496],[-2.2781214,53.5363962],[-2.2782609,53.5363898],[-2.2783038,53.5363515],[-2.2783145,53.5362957],[-2.2782877,53.53624],[-2.278057,53.5359259],[-2.2780087,53.5358924],[-2.2779739,53.5358797],[-2.2779444,53.5358797],[-2.2773194,53.5360519],[-2.276968,53.5361284],[-2.2768205,53.5361969],[-2.2766381,53.5363276],[-2.2765603,53.5363978],[-2.2765282,53.5364823],[-2.2765255,53.5366401],[-2.2765416,53.536868],[-2.2765972,53.5369317]]]}},
{"type":"Feature","properties":{"highway":"track","name":null,"category":"Track"},"geometry":{"type":"MultiLineString","coordinates":[[[-2.2779444,53.5358797],[-2.2787383,53.5356741],[-2.2787946,53.5356741],[-2.2788644,53.5356996],[-2.2791514,53.5361539],[-2.279154,53.5361889],[-2.2791245,53.5362071],[-2.2790816,53.5362336],[-2.2784298,53.5363946],[-2.2782609,53.5363898]]]}},
{"type":"Feature","properties":{"highway":"path","name":null,"category":"Shared path"},"geometry":{"type":"MultiLineString","coordinates":[[[-2.2600439,53.5234618],[-2.2599976,53.5234789]]]}},
{"type":"Feature","properties":{"highway":"path","name":null,"category":"Shared path"},"geometry":{"type":"MultiLineString","coordinates":[[[-2.2655042,53.5375694],[-2.2652473,53.5375455],[-2.2652545,53.5373567]]]}},
{"type":"Feature","properties":{"highway":"path","name":null,"category":"Shared path"},"geometry":{"type":"MultiLineString","coordinates":[[[-2.2652545,53.5373567],[-2.2651807,53.5373644],[-2.2650742,53.537005],[-2.2649683,53.5366477],[-2.2655908,53.5365825],[-2.2662169,53.536517],[-2.266323,53.5368746],[-2.2664294,53.5372337],[-2.2658022,53.5372993],[-2.2652545,53.5373567]]]}},
{"type":"Feature","properties":{"highway":"path","name":null,"category":"Shared path"},"geometry":{"type":"MultiLineString","coordinates":[[[-2.2658022,53.5372993],[-2.2656962,53.5369401],[-2.2655908,53.5365825]]]}},
{"type":"Feature","properties":{"highway":"path","name":null,"category":"Shared path"},"geometry":{"type":"MultiLineString","coordinates":[[[-2.266323,53.5368746],[-2.2656962,53.5369401],[-2.2650742,53.537005]]]}},
{"type":"Feature","properties":{"highway":"path","name":null,"category":"Shared path"},"geometry":{"type":"MultiLineString","coordinates":[[[-2.2656248,53.536346],[-2.2657212,53.5363971],[-2.2657603,53.5363955],[-2.2659014,53.5363833],[-2.2661255,53.5363603],[-2.2663612,53.5363374]]]}},
{"type":"Feature","properties":{"highway":"path","name":null,"category":"Shared path"},"geometry":{"type":"MultiLineString","coordinates":[[[-2.2397223,53.5367816],[-2.2397687,53.5368253],[-2.2399156,53.5368941],[-2.2399792,53.5369136],[-2.2400214,53.536928],[-2.2400589,53.536893],[-2.2401057,53.5368444],[-2.2401629,53.536808]]]}},
{"type":"Feature","properties":{"highway":"cycleway","name":null,"category":"Dedicated cycleway"},"geometry":{"type":"MultiLineString","coordinates":[[[-2.2582388,53.5362062],[-2.259531,53.5363451],[-2.2600116,53.5362157],[-2.260129,53.5360935]]]}},
{"type":"Feature","properties":{"highway":"cycleway","name":null,"category":"Dedicated cycleway"},"geometry":{"type":"MultiLineString","coordinates":[[[-2.260129,53.5360935],[-2.2601852,53.5360349]]]}},
{"type":"Feature","properties":{"highway":"path","name":null,"category":"Shared path"},"geometry":{"type":"MultiLineString","coordinates":[[[-2.2622949,53.5273284],[-2.2592946,53.5281214],[-2.2588892,53.5279822]]]}},
{"type":"Feature","properties":{"highway":"path","name":null,"category":"Shared path"},"geometry":{"type":"MultiLineString","coordinates":[[[-2.2441387,53.5283619],[-2.2442078,53.5283934],[-2.2442259,53.5284017]]]}},
{"type":"Feature","properties":{"highway":"path","name":null,"category":"Shared path"},"geometry":{"type":"MultiLineString","coordinates":[[[-2.2439671,53.528304],[-2.2439581,53.528287],[-2.2439539,53.5282781],[-2.2439481,53.5282702],[-2.2439397,53.5282632],[-2.2439239,53.5282558],[-2.2439005,53.5282513],[-2.2438771,53.5282483],[-2.2438513,53.5282454],[-2.2438296,53.5282404],[-2.243813,53.5282336],[-2.2438054,53.528229],[-2.2437954,53.528224],[-2.2437969,53.5282151]]]}},
{"type":"Feature","properties":{"highway":"path","name":null,"category":"Shared path"},"geometry":{"type":"MultiLineString","coordinates":[[[-2.2556654,53.5406581],[-2.255711,53.5408063],[-2.2561187,53.5411522],[-2.2565585,53.5416224],[-2.2568885,53.5418264],[-2.2569662,53.5418981]]]}},
{"type":"Feature","properties":{"highway":"path","name":null,"category":"Shared path"},"geometry":{"type":"MultiLineString","coordinates":[[[-2.2566929,53.5392751],[-2.256631,53.5394212],[-2.2561643,53.5397288],[-2.2557834,53.5399408],[-2.2555822,53.5400619],[-2.2555876,53.5402484],[-2.2557271,53.5404269],[-2.2556654,53.5406581],[-2.255424,53.5406102],[-2.2552282,53.5405497],[-2.2551168,53.5405533],[-2.2549975,53.5406262],[-2.2548527,53.5408748],[-2.254799,53.5413753],[-2.2547655,53.5419585]]]}},
{"type":"Feature","properties":{"highway":"track","name":null,"category":"Track"},"geometry":{"type":"MultiLineString","coordinates":[[[-2.2338104,53.5405893],[-2.233808,53.5405579],[-2.2337836,53.5404586],[-2.2337117,53.5403372],[-2.2336153,53.5402682],[-2.2332521,53.5401551],[-2.232977,53.5400765],[-2.2327473,53.5400331]]]}},
{"type":"Feature","properties":{"highway":"path","name":"Hanging Birch","category":"Shared path"},"geometry":{"type":"MultiLineString","coordinates":[[[-2.2333637,53.5429971],[-2.2338519,53.5429451],[-2.2339115,53.5429431],[-2.2340972,53.5429369]]]}},
{"type":"Feature","properties":{"highway":"cycleway","name":null,"category":"Dedicated cycleway"},"geometry":{"type":"MultiLineString","coordinates":[[[-2.2600642,53.5356954],[-2.260253,53.535561],[-2.2601731,53.5353616]]]}},
{"type":"Feature","properties":{"highway":"cycleway","name":null,"category":"Dedicated cycleway"},"geometry":{"type":"MultiLineString","coordinates":[[[-2.2535788,53.52996],[-2.2534763,53.530003],[-2.2533553,53.5300718],[-2.2533026,53.5301232],[-2.2532826,53.5301568],[-2.2532658,53.5301963],[-2.2532532,53.5302918],[-2.2532427,53.5303761]]]}},
{"type":"Feature","properties":{"highway":"path","name":null,"category":"Shared path"},"geometry":{"type":"MultiLineString","coordinates":[[[-2.2486569,53.5209738],[-2.2489489,53.5209647]]]}},
{"type":"Feature","properties":{"highway":"path","name":null,"category":"Shared path"},"geometry":{"type":"MultiLineString","coordinates":[[[-2.2383279,53.5346606],[-2.2384748,53.5349054]]]}},
{"type":"Feature","properties":{"highway":"path","name":null,"category":"Shared path"},"geometry":{"type":"MultiLineString","coordinates":[[[-2.237613,53.5348526],[-2.2377169,53.5350421]]]}},
{"type":"Feature","properties":{"highway":"path","name":null,"category":"Shared path"},"geometry":{"type":"MultiLineString","coordinates":[[[-2.2359862,53.5350731],[-2.2359661,53.5347735]]]}},
{"type":"Feature","properties":{"highway":"path","name":null,"category":"Shared path"},"geometry":{"type":"MultiLineString","coordinates":[[[-2.2352336,53.5351345],[-2.2352383,53.5348268]]]}},
{"type":"Feature","properties":{"highway":"path","name":null,"category":"Shared path"},"geometry":{"type":"MultiLineString","coordinates":[[[-2.2539632,53.5277868],[-2.2541152,53.5277682],[-2.2543946,53.5276936],[-2.2547026,53.5276317],[-2.2549535,53.5275733],[-2.2553177,53.5275084],[-2.2554838,53.5274775],[-2.2558331,53.527397],[-2.2565017,53.5272809],[-2.2565085,53.5272798],[-2.2566787,53.5272507],[-2.2572073,53.5271148],[-2.257722,53.5269343],[-2.2583763,53.5266835],[-2.2589124,53.5264792],[-2.2594042,53.5262775],[-2.2600429,53.5260284],[-2.2606886,53.5257691],[-2.2612418,53.5255547],[-2.2620159,53.5252614],[-2.2624903,53.5250723]]]}},
{"type":"Feature","properties":{"highway":"path","name":null,"category":"Shared path"},"geometry":{"type":"MultiLineString","coordinates":[[[-2.2392294,53.5389247],[-2.2394953,53.5390799]]]}},
{"type":"Feature","properties":{"highway":"cycleway","name":null,"category":"Dedicated cycleway"},"geometry":{"type":"MultiLineString","coordinates":[[[-2.2345403,53.5417366],[-2.2345847,53.5416799],[-2.2346675,53.5416086]]]}},
{"type":"Feature","properties":{"highway":"path","name":null,"category":"Shared path"},"geometry":{"type":"MultiLineString","coordinates":[[[-2.2728149,53.5228616],[-2.2727316,53.5228002],[-2.2726378,53.5227712]]]}},
{"type":"Feature","properties":{"highway":"path","name":null,"category":"Shared path"},"geometry":{"type":"MultiLineString","coordinates":[[[-2.2411876,53.5266737],[-2.2411311,53.5266529],[-2.24109,53.5266211]]]}},
{"type":"Feature","properties":{"highway":"path","name":null,"category":"Shared path"},"geometry":{"type":"MultiLineString","coordinates":[[[-2.2575852,53.5309669],[-2.2575305,53.5310054],[-2.2575223,53.5310242]]]}},
{"type":"Feature","properties":{"highway":"path","name":null,"category":"Shared path"},"geometry":{"type":"MultiLineString","coordinates":[[[-2.2575305,53.5310054],[-2.2575147,53.5309961]]]}},
{"type":"Feature","properties":{"highway":"path","name":null,"category":"Shared path"},"geometry":{"type":"MultiLineString","coordinates":[[[-2.2574862,53.5309695],[-2.2575205,53.5309417]]]}},
{"type":"Feature","properties":{"highway":"path","name":null,"category":"Shared path"},"geometry":{"type":"MultiLineString","coordinates":[[[-2.2728765,53.5261519],[-2.2730429,53.5258667]]]}},
{"type":"Feature","properties":{"highway":"cycle_lane_on_street","name":"Victoria Avenue","category":"Cycle lane on street"},"geometry":{"type":"MultiLineString","coordinates":[[[-2.2428857,53.532915],[-2.2426456,53.532904],[-2.2424405,53.5329026]]]}},
{"type":"Feature","properties":{"highway":"cycle_lane_on_street","name":"Victoria Avenue Bridge","category":"Cycle lane on street"},"geometry":{"type":"MultiLineString","coordinates":[[[-2.2424405,53.5329026],[-2.2422208,53.5329179],[-2.2419933,53.5329434]]]}},
{"type":"Feature","properties":{"highway":"cycle_lane_on_street","name":"Heywood Road","category":"Cycle lane on street"},"geometry":{"type":"MultiLineString","coordinates":[[[-2.2701985,53.5408429],[-2.2701852,53.5408572],[-2.2697295,53.5413039],[-2.2693267,53.5417045],[-2.2692856,53.5417443],[-2.2688936,53.5421268],[-2.2687723,53.5422451],[-2.2681415,53.5428512],[-2.267704,53.5432774],[-2.2670599,53.5438903],[-2.2669886,53.5439472],[-2.2666866,53.5442036],[-2.2660343,53.5445096],[-2.2656722,53.5446583],[-2.2653248,53.5447949],[-2.2643608,53.5452093],[-2.2642834,53.545244],[-2.2635478,53.5455233],[-2.2624452,53.5459588],[-2.2624207,53.5459713],[-2.2616312,53.5462946],[-2.2598533,53.5470785]]]}},
{"type":"Feature","properties":{"highway":"cycle_lane_on_street","name":"Heywood Old Road","category":"Cycle lane on street"},"geometry":{"type":"MultiLineString","coordinates":[[[-2.2372352,53.5535899],[-2.2365314,53.5519327],[-2.2363511,53.5515401],[-2.2362129,53.5512717],[-2.2361322,53.5510562],[-2.2357167,53.548598],[-2.2356646,53.5482896],[-2.2356054,53.5479392],[-2.2354842,53.5473942],[-2.2344898,53.545005],[-2.234402,53.5446671],[-2.2341728,53.5438327],[-2.2341583,53.5437799]]]}},
{"type":"Feature","properties":{"highway":"cycle_lane_on_street","name":"Victoria Avenue","category":"Cycle lane on street"},"geometry":{"type":"MultiLineString","coordinates":[[[-2.2286482,53.5331287],[-2.229098,53.5332134],[-2.2298658,53.5333653],[-2.2313401,53.5336504],[-2.2320424,53.5337836],[-2.2326314,53.5338997],[-2.2327227,53.5339181],[-2.2331769,53.534005],[-2.2336528,53.5341049],[-2.2338494,53.534142],[-2.2341708,53.534196],[-2.2344509,53.5342273],[-2.234722,53.5342506],[-2.2350186,53.5342615],[-2.2351875,53.5342635],[-2.2353565,53.5342599],[-2.235537,53.5342503],[-2.2357052,53.5342374],[-2.2358684,53.5342208],[-2.2360232,53.5341964],[-2.2363883,53.5341297],[-2.236921,53.5340201],[-2.2379383,53.5338064],[-2.2381203,53.5337621],[-2.2384051,53.5337032],[-2.2386371,53.5336553],[-2.2395469,53.5334614],[-2.2400082,53.5333632],[-2.2406942,53.5332165],[-2.2415781,53.5330287],[-2.2417996,53.5329817],[-2.2419933,53.5329434]]]}},
{"type":"Feature","properties":{"highway":"cycle_lane_on_street","name":"Heywood Road","category":"Cycle lane on street"},"geometry":{"type":"MultiLineString","coordinates":[[[-2.2706116,53.5404202],[-2.2701985,53.5408429]]]}}
]
}
