{
"type": "FeatureCollection",
"name": "LANCA_30_NACH_800m",
"crs": { "type": "name", "properties": { "name": "urn:ogc:def:crs:OGC:1.3:CRS84" } },
"features": [
{ "type": "Feature", "properties": { "id": 20717, "nach": 0.25492292543904282 }, "geometry": { "type": "LineString", "coordinates": [ [ -2.6833103, 54.0573429 ], [ -2.6831698, 54.0569562 ] ] } },
{ "type": "Feature", "properties": { "id": 40729, "nach": 0.19452471722883485 }, "geometry": { "type": "LineString", "coordinates": [ [ -2.6844401, 54.0569888 ], [ -2.6843973, 54.0569842 ], [ -2.6837425, 54.0569682 ], [ -2.6831698, 54.0569562 ] ] } },
{ "type": "Feature", "properties": { "id": 27295, "nach": 0.25492846240420403 }, "geometry": { "type": "LineString", "coordinates": [ [ -2.6790365, 54.0557914 ], [ -2.6808209, 54.0562867 ], [ -2.682379, 54.0567457 ], [ -2.683125300000011, 54.0569443 ], [ -2.6831698, 54.0569562 ] ] } },
{ "type": "Feature", "properties": { "id": 18387, "nach": 0.25515060185101557 }, "geometry": { "type": "LineString", "coordinates": [ [ -2.682714400000011, 54.0548582 ], [ -2.6826723, 54.054961 ], [ -2.6826595, 54.0556737 ], [ -2.6831962, 54.0566188 ], [ -2.6831698, 54.0569562 ] ] } },
{ "type": "Feature", "properties": { "id": 74521, "nach": 0.2669217187748692 }, "geometry": { "type": "LineString", "coordinates": [ [ -2.6849183, 54.0606326 ], [ -2.6845344, 54.0603069 ], [ -2.6843219, 54.0601108 ], [ -2.6841624, 54.0599292 ], [ -2.684097, 54.0598375 ], [ -2.68393510000001, 54.0595727 ], [ -2.6838571, 54.059436300000016 ], [ -2.6838123, 54.0593194 ], [ -2.6837701, 54.0591459 ], [ -2.6837323, 54.058973799999983 ], [ -2.6833103, 54.0573429 ] ] } },
{ "type": "Feature", "properties": { "id": 40730, "nach": 0.18583712421922008 }, "geometry": { "type": "LineString", "coordinates": [ [ -2.6844401, 54.0569888 ], [ -2.6842986, 54.0570745 ], [ -2.6841549, 54.0571481 ], [ -2.6840425, 54.0571895 ], [ -2.6837551, 54.0572601 ], [ -2.6833103, 54.0573429 ] ] } },
{ "type": "Feature", "properties": { "id": 40728, "nach": 0.0 }, "geometry": { "type": "LineString", "coordinates": [ [ -2.6844401, 54.0569888 ], [ -2.6848884, 54.0570376 ], [ -2.6855795, 54.0572458 ], [ -2.6862525, 54.0574379 ], [ -2.6867254, 54.0576141 ], [ -2.686937, 54.0577929 ], [ -2.6873958, 54.0583094 ], [ -2.6877175, 54.058655199999983 ], [ -2.687944, 54.058852499999986 ], [ -2.6882303, 54.0590401 ], [ -2.6885631, 54.0592276 ], [ -2.688667, 54.0593103 ], [ -2.6887524, 54.059393 ], [ -2.6887718, 54.0594922 ], [ -2.6887169, 54.0595997 ], [ -2.688335, 54.0599574 ], [ -2.6877166, 54.0606299 ], [ -2.6875171, 54.0609042 ], [ -2.6872983, 54.061233 ], [ -2.68717390000001, 54.061489800000011 ], [ -2.6870998, 54.0617443 ], [ -2.6870578, 54.061956599999988 ], [ -2.6870503, 54.0620809 ], [ -2.6870583, 54.062218899999984 ], [ -2.6870915, 54.0623301 ], [ -2.6871302, 54.062401199999989 ], [ -2.6871824, 54.0624671 ] ] } },
{ "type": "Feature", "properties": { "id": 27294, "nach": 0.21504265631741287 }, "geometry": { "type": "LineString", "coordinates": [ [ -2.6790365, 54.0557914 ], [ -2.678677800000012, 54.0557137 ], [ -2.6783942, 54.0556669 ], [ -2.6780399, 54.0555895 ], [ -2.6776577, 54.0554808 ], [ -2.67697680000001, 54.0553022 ], [ -2.6768657, 54.05527210000001 ], [ -2.6764106, 54.0551711 ] ] } },
{ "type": "Feature", "properties": { "id": 40727, "nach": 0.19429057458072316 }, "geometry": { "type": "LineString", "coordinates": [ [ -2.680432500000011, 54.0555336 ], [ -2.6800249, 54.055601100000011 ], [ -2.6792306, 54.0557529 ], [ -2.6790365, 54.0557914 ] ] } },
{ "type": "Feature", "properties": { "id": 44723, "nach": 0.23612782792258855 }, "geometry": { "type": "LineString", "coordinates": [ [ -2.6820481, 54.0541701 ], [ -2.6820332, 54.0541973 ], [ -2.6820995, 54.054374 ], [ -2.6821912, 54.0545237 ], [ -2.6822971, 54.0546479 ], [ -2.6825594, 54.0547264 ], [ -2.6826773, 54.0547887 ], [ -2.682714400000011, 54.0548582 ] ] } },
{ "type": "Feature", "properties": { "id": 18390, "nach": 0.19462606864497331 }, "geometry": { "type": "LineString", "coordinates": [ [ -2.6841439, 54.0559822 ], [ -2.6841344, 54.0558538 ], [ -2.6841688, 54.055669600000016 ], [ -2.6840725, 54.05552440000001 ], [ -2.6838014, 54.055337299999984 ], [ -2.6835874, 54.0552703 ], [ -2.6834638, 54.055186599999978 ], [ -2.6831689, 54.0549884 ], [ -2.6828645, 54.0548851 ], [ -2.6827799, 54.0548763 ], [ -2.682714400000011, 54.0548582 ] ] } },
{ "type": "Feature", "properties": { "id": 3523, "nach": 0.24023628689643006 }, "geometry": { "type": "LineString", "coordinates": [ [ -2.6877767, 54.0627466 ], [ -2.68773, 54.062754 ], [ -2.6875675, 54.0627843 ], [ -2.687161, 54.0628367 ], [ -2.6870224, 54.06287050000001 ], [ -2.6868483, 54.0629278 ], [ -2.6865319, 54.063046400000012 ], [ -2.6863393, 54.0631022 ], [ -2.6861601, 54.063151 ], [ -2.6859487, 54.06320130000001 ], [ -2.6857427, 54.0632343 ], [ -2.6854921, 54.0632416 ], [ -2.6852154, 54.0632343 ] ] } },
{ "type": "Feature", "properties": { "id": 27122, "nach": 0.075410718223679007 }, "geometry": { "type": "LineString", "coordinates": [ [ -2.6752311, 54.0617939 ], [ -2.6756668, 54.0618465 ], [ -2.6774319, 54.0620593 ], [ -2.6799274, 54.062360300000016 ], [ -2.681055, 54.062530600000024 ], [ -2.6832425, 54.0629096 ], [ -2.6852154, 54.0632343 ] ] } },
{ "type": "Feature", "properties": { "id": 75900, "nach": 0.22620948081529665 }, "geometry": { "type": "LineString", "coordinates": [ [ -2.6832677, 54.06364270000001 ], [ -2.6832264, 54.0635609 ], [ -2.6832316, 54.063494299999988 ], [ -2.683309, 54.0634488 ], [ -2.683407, 54.0634276 ], [ -2.6835773, 54.0634397 ], [ -2.6837786, 54.0634882 ], [ -2.683954, 54.0635851 ], [ -2.6840675, 54.0636366 ], [ -2.6841708, 54.0636487 ], [ -2.6844288, 54.0636487 ], [ -2.6846197, 54.0636608 ], [ -2.6850325, 54.0637153 ], [ -2.6853421, 54.0637123 ], [ -2.6854298, 54.063682 ], [ -2.6854866, 54.063597199999982 ], [ -2.6854866, 54.0635276 ], [ -2.6853834, 54.0633973 ], [ -2.6852935, 54.0633084 ], [ -2.6852154, 54.0632343 ] ] } },
{ "type": "Feature", "properties": { "id": 46235, "nach": 0.11068922632892855 }, "geometry": { "type": "LineString", "coordinates": [ [ -2.6958445, 54.06616180000001 ], [ -2.6877767, 54.0627466 ] ] } },
{ "type": "Feature", "properties": { "id": 12922, "nach": 0.25840312769063628 }, "geometry": { "type": "LineString", "coordinates": [ [ -2.6871824, 54.0624671 ], [ -2.6872372, 54.062508 ], [ -2.6873032, 54.0625463 ], [ -2.6877767, 54.0627466 ] ] } },
{ "type": "Feature", "properties": { "id": 75902, "nach": 0.17584720536275941 }, "geometry": { "type": "LineString", "coordinates": [ [ -2.684389, 54.0642566 ], [ -2.6843617, 54.0641908 ], [ -2.6842636, 54.0641635 ], [ -2.6840727, 54.0640787 ], [ -2.6837941, 54.0639818 ], [ -2.6836651, 54.0639092 ], [ -2.6833658, 54.0636972 ], [ -2.6832677, 54.06364270000001 ] ] } },
{ "type": "Feature", "properties": { "id": 75903, "nach": 0.16439435002782049 }, "geometry": { "type": "LineString", "coordinates": [ [ -2.6799652, 54.0635064 ], [ -2.6800529, 54.063482100000016 ], [ -2.68015610000001, 54.0634216 ], [ -2.6802645, 54.0633913 ], [ -2.6805586, 54.0634034 ], [ -2.6808837, 54.0633883 ], [ -2.681214, 54.0633701 ], [ -2.681394600000011, 54.0633973 ], [ -2.6816784, 54.0634549 ], [ -2.6819261, 54.0635245 ], [ -2.6820757, 54.0635367 ], [ -2.6822821, 54.0635215 ], [ -2.6824989, 54.0635124 ], [ -2.6827207, 54.0635276 ], [ -2.68288070000001, 54.0635579 ], [ -2.683082, 54.0636093 ], [ -2.6832677, 54.06364270000001 ] ] } },
{ "type": "Feature", "properties": { "id": 74524, "nach": 0.26123115887365445 }, "geometry": { "type": "LineString", "coordinates": [ [ -2.6854227, 54.0610821 ], [ -2.6857392, 54.0613703 ], [ -2.6858453, 54.0614425 ], [ -2.6859488, 54.0615498 ], [ -2.68602290000001, 54.0616457 ], [ -2.6861592, 54.0617874 ], [ -2.6864355, 54.0619823 ], [ -2.6868218, 54.06233490000001 ], [ -2.6869984, 54.0624175 ], [ -2.6871824, 54.0624671 ] ] } },
{ "type": "Feature", "properties": { "id": 75904, "nach": 0.0 }, "geometry": { "type": "LineString", "coordinates": [ [ -2.6857463, 54.06648460000001 ], [ -2.6869871, 54.0663824 ], [ -2.6870917, 54.0663664 ], [ -2.6872049, 54.06635630000001 ], [ -2.6872651, 54.0663689 ], [ -2.6873311, 54.0663958 ], [ -2.687784, 54.0666549 ], [ -2.6884548, 54.0670216 ], [ -2.6889379, 54.0672883 ], [ -2.6893407, 54.0675162 ], [ -2.6896216, 54.0676609 ], [ -2.6899757, 54.0678712 ], [ -2.6910292, 54.0684373 ], [ -2.6917244, 54.0688175 ], [ -2.6918806, 54.068904100000012 ], [ -2.69195950000001, 54.0689394 ], [ -2.6920455, 54.0689706 ], [ -2.692302, 54.0690387 ], [ -2.6932865, 54.0693067 ], [ -2.6936637, 54.0694054 ], [ -2.6941607, 54.0695439 ], [ -2.6947252, 54.0696809 ], [ -2.6960311, 54.070044 ] ] } },
{ "type": "Feature", "properties": { "id": 74525, "nach": 0.27225317213688227 }, "geometry": { "type": "LineString", "coordinates": [ [ -2.6854227, 54.0610821 ], [ -2.6851708, 54.060858199999984 ], [ -2.6849183, 54.0606326 ] ] } },
{ "type": "Feature", "properties": { "id": 74527, "nach": 0.21493113298544567 }, "geometry": { "type": "LineString", "coordinates": [ [ -2.6861533, 54.0607734 ], [ -2.6854837, 54.0610564 ], [ -2.6854227, 54.0610821 ] ] } },
{ "type": "Feature", "properties": { "id": 44724, "nach": 0.21577870680630087 }, "geometry": { "type": "LineString", "coordinates": [ [ -2.6820481, 54.0541701 ], [ -2.682064, 54.0541412 ], [ -2.68220630000001, 54.0540978 ], [ -2.6823584, 54.054052400000018 ], [ -2.6829589, 54.053887200000013 ], [ -2.6836656, 54.0537529 ], [ -2.6841583, 54.053730399999985 ], [ -2.6844289, 54.0537085 ], [ -2.6846151, 54.0537354 ], [ -2.6848055, 54.053838800000015 ], [ -2.6849429, 54.0539027 ], [ -2.6850661, 54.053938 ], [ -2.6851706, 54.0539355 ], [ -2.68523790000001, 54.0539195 ], [ -2.6853381, 54.0538699 ], [ -2.68547980000001, 54.05375810000001 ], [ -2.68583920000001, 54.053474 ], [ -2.6862401, 54.053161399999986 ], [ -2.6864244, 54.0530556 ], [ -2.6866127, 54.0529938 ], [ -2.6867202, 54.0529807 ], [ -2.6868252, 54.0529901 ], [ -2.6869245, 54.0530022 ], [ -2.6871778, 54.05304 ], [ -2.6873654, 54.05306550000001 ], [ -2.6874435, 54.0530723 ], [ -2.6875153, 54.053072 ] ] } },
{ "type": "Feature", "properties": { "id": 57017, "nach": 0.13384962791538035 }, "geometry": { "type": "LineString", "coordinates": [ [ -2.6797695, 54.049626 ], [ -2.6798866, 54.0497365 ], [ -2.6800067, 54.049815500000015 ], [ -2.6801075, 54.049911799999975 ], [ -2.6801276, 54.0500035 ], [ -2.68011020000001, 54.05009290000001 ], [ -2.6800482, 54.050184499999979 ], [ -2.6800155, 54.0502475 ], [ -2.6800015, 54.0503161 ], [ -2.6799735, 54.0504011 ], [ -2.67999680000001, 54.0504477 ], [ -2.680062200000011, 54.0505189 ], [ -2.680151, 54.0506204 ], [ -2.6801977, 54.0506451 ], [ -2.6802677, 54.0506917 ], [ -2.6803471, 54.0507163 ], [ -2.6804171, 54.0507465 ], [ -2.6804592, 54.0507575 ], [ -2.6805432, 54.0507739 ], [ -2.6806506, 54.0507986 ], [ -2.6807114, 54.0507986 ], [ -2.680790700000011, 54.0507821 ], [ -2.6808982, 54.0507191 ], [ -2.6809449, 54.0506807 ], [ -2.6809747, 54.0506604 ], [ -2.681063400000011, 54.05057 ], [ -2.6811288, 54.0505316 ], [ -2.6812035, 54.0505206 ], [ -2.6813436, 54.05056720000001 ], [ -2.6813903, 54.0506577 ], [ -2.6814464, 54.0508688 ], [ -2.6814708, 54.051055 ], [ -2.6814667, 54.0512005 ], [ -2.6814667, 54.0513318 ], [ -2.681495200000011, 54.0515204 ], [ -2.6814789, 54.051685 ], [ -2.6814911, 54.0518879 ], [ -2.6815114, 54.0520932 ], [ -2.6815114, 54.0521939 ], [ -2.6815521, 54.0523133 ], [ -2.6815927, 54.0524445 ], [ -2.681674, 54.0526402 ], [ -2.681755400000011, 54.0528049 ], [ -2.6817554, 54.0528932 ], [ -2.6817269, 54.053024500000014 ], [ -2.6817472, 54.0531128 ], [ -2.6817797, 54.0531868 ], [ -2.6818367, 54.0532941 ], [ -2.681857, 54.0533824 ], [ -2.6818936, 54.0534898 ], [ -2.6819934, 54.0536314 ], [ -2.6820242, 54.0538138 ], [ -2.682008, 54.053945 ], [ -2.6820042, 54.054097300000016 ], [ -2.6820481, 54.0541701 ] ] } },
{ "type": "Feature", "properties": { "id": 74523, "nach": 0.20175615329309374 }, "geometry": { "type": "LineString", "coordinates": [ [ -2.6838175, 54.0616975 ], [ -2.6848701, 54.0606792 ], [ -2.6849183, 54.0606326 ] ] } },
{ "type": "Feature", "properties": { "id": 50813, "nach": 0.26504499691786393 }, "geometry": { "type": "LineString", "coordinates": [ [ -2.6884719, 54.0534806 ], [ -2.6884289, 54.0534646 ], [ -2.6876102, 54.0532282 ], [ -2.687538100000011, 54.053187699999988 ], [ -2.6875153, 54.053072 ] ] } },
{ "type": "Feature", "properties": { "id": 39811, "nach": 0.23651757810019924 }, "geometry": { "type": "LineString", "coordinates": [ [ -2.6909285, 54.050347 ], [ -2.6908542, 54.05039 ], [ -2.6907833, 54.0504555 ], [ -2.6907075, 54.0505464 ], [ -2.6905934, 54.050702800000018 ], [ -2.6904726, 54.0508342 ], [ -2.6903988, 54.0509147 ], [ -2.6903135, 54.0509765 ], [ -2.6902282, 54.0510143 ], [ -2.6900884, 54.0510748 ], [ -2.6898968, 54.0511821 ], [ -2.6897277, 54.0512619 ], [ -2.6895642, 54.051326 ], [ -2.6894555, 54.0513735 ], [ -2.6893387, 54.0514043 ], [ -2.6892021, 54.0514283 ], [ -2.689059, 54.051457400000011 ], [ -2.6889549, 54.0514903 ], [ -2.6888544, 54.051557400000021 ], [ -2.6887703, 54.051639 ], [ -2.6887041, 54.0517375 ], [ -2.6886666, 54.051823 ], [ -2.6886544, 54.051890300000011 ], [ -2.6886758, 54.0519527 ], [ -2.6886916, 54.0520638 ], [ -2.6887034, 54.0521136 ], [ -2.6886916, 54.0522606 ], [ -2.6886515, 54.052422900000018 ], [ -2.6886048, 54.0525188 ], [ -2.6885042, 54.0526034 ], [ -2.688368, 54.0526927 ], [ -2.6880881, 54.0528419 ], [ -2.6877882, 54.0530063 ], [ -2.6877151, 54.0530381 ], [ -2.6876292, 54.05306250000001 ], [ -2.6875153, 54.053072 ] ] } },
{ "type": "Feature", "properties": { "id": 50812, "nach": 0.24483305344849635 }, "geometry": { "type": "LineString", "coordinates": [ [ -2.6884719, 54.0534806 ], [ -2.6887508, 54.0535846 ], [ -2.6891374, 54.0538279 ], [ -2.6893211, 54.0539944 ], [ -2.689460800000011, 54.0540695 ], [ -2.6895783, 54.0540859 ], [ -2.6897562, 54.0540954 ], [ -2.6898517, 54.0541066 ], [ -2.68992670000001, 54.0541334 ], [ -2.6900281, 54.05423170000001 ], [ -2.6900766, 54.0543249 ], [ -2.6901237, 54.0543853 ], [ -2.6902486, 54.0544285 ], [ -2.6903618, 54.0544259 ], [ -2.6904941, 54.0543879 ], [ -2.690597, 54.054356 ], [ -2.6907939, 54.0542222 ], [ -2.6910548, 54.0542757 ] ] } },
{ "type": "Feature", "properties": { "id": 50817, "nach": 0.22143763343948622 }, "geometry": { "type": "LineString", "coordinates": [ [ -2.6888108, 54.0531924 ], [ -2.6887594, 54.0532473 ], [ -2.688666, 54.05335010000001 ], [ -2.6884719, 54.0534806 ] ] } },
{ "type": "Feature", "properties": { "id": 33232, "nach": 0.221853108258701 }, "geometry": { "type": "LineString", "coordinates": [ [ -2.6910548, 54.0542757 ], [ -2.6913435, 54.0540807 ], [ -2.6916282, 54.0538974 ], [ -2.692276700000011, 54.0535004 ], [ -2.6924348, 54.0534377 ], [ -2.6926721, 54.0534076 ], [ -2.692858, 54.0533844 ], [ -2.693024, 54.0533286 ], [ -2.693546, 54.0531638 ], [ -2.6939691, 54.0530524 ], [ -2.6945861, 54.0528991 ], [ -2.6950407, 54.0527855 ], [ -2.6951615, 54.0527666 ], [ -2.6954523, 54.0528264 ], [ -2.6956443, 54.0528642 ], [ -2.6959554, 54.05288310000001 ], [ -2.696508, 54.0529398 ], [ -2.6968674, 54.052965 ], [ -2.6972, 54.053009099999983 ], [ -2.6976452, 54.0530815 ] ] } },
{ "type": "Feature", "properties": { "id": 50809, "nach": 0.24086516958766654 }, "geometry": { "type": "LineString", "coordinates": [ [ -2.6912635, 54.054397 ], [ -2.691221, 54.054386700000016 ], [ -2.6910548, 54.0542757 ] ] } },
{ "type": "Feature", "properties": { "id": 50808, "nach": 0.0 }, "geometry": { "type": "LineString", "coordinates": [ [ -2.6912635, 54.054397 ], [ -2.6913327, 54.054413800000013 ], [ -2.69301110000001, 54.0542345 ], [ -2.6937231, 54.0542174 ], [ -2.6948798, 54.0542097 ], [ -2.6950033, 54.0542051 ], [ -2.696576, 54.0542595 ], [ -2.6971272, 54.054306900000014 ], [ -2.6982996, 54.0544828 ], [ -2.6989053, 54.0546319 ], [ -2.699472, 54.0548743 ], [ -2.6998655, 54.054904800000017 ], [ -2.700341, 54.0549441 ], [ -2.7010983, 54.0549852 ], [ -2.7050203, 54.056003300000022 ], [ -2.7060862, 54.05585 ] ] } },
{ "type": "Feature", "properties": { "id": 50811, "nach": 0.19504092469021531 }, "geometry": { "type": "LineString", "coordinates": [ [ -2.6913234, 54.0552847 ], [ -2.6912987, 54.055212 ], [ -2.6913252, 54.0551309 ], [ -2.6913677, 54.0550821 ], [ -2.6914349, 54.054971 ], [ -2.6914261, 54.05490660000001 ], [ -2.6913075, 54.0547788 ], [ -2.6912757, 54.0546541 ], [ -2.6912845, 54.0544942 ], [ -2.6912635, 54.054397 ] ] } },
{ "type": "Feature", "properties": { "id": 74385, "nach": 0.25545888231165148 }, "geometry": { "type": "LineString", "coordinates": [ [ -2.6974318, 54.0631884 ], [ -2.69751980000001, 54.06352050000001 ], [ -2.69760640000001, 54.063744 ], [ -2.6976504, 54.0638721 ], [ -2.6978793, 54.0645386 ], [ -2.698035, 54.0648548 ], [ -2.6980458, 54.0648974 ] ] } },
{ "type": "Feature", "properties": { "id": 74386, "nach": 0.20919078000773847 }, "geometry": { "type": "LineString", "coordinates": [ [ -2.6975639, 54.0630867 ], [ -2.6974318, 54.0631884 ] ] } },
{ "type": "Feature", "properties": { "id": 74387, "nach": 0.15097248668294846 }, "geometry": { "type": "LineString", "coordinates": [ [ -2.6953173, 54.061668800000014 ], [ -2.6953414, 54.0617066 ], [ -2.6962496, 54.0628868 ], [ -2.696271, 54.0629127 ], [ -2.6963287, 54.0629356 ], [ -2.696405200000011, 54.062949 ], [ -2.6968356, 54.0629033 ], [ -2.6969161, 54.0628939 ], [ -2.6969818, 54.0629065 ], [ -2.6970341, 54.0629293 ], [ -2.6971495, 54.0630119 ], [ -2.6972849, 54.0631158 ], [ -2.6974318, 54.0631884 ] ] } },
{ "type": "Feature", "properties": { "id": 50816, "nach": 0.0 }, "geometry": { "type": "LineString", "coordinates": [ [ -2.6888108, 54.0531924 ], [ -2.688666, 54.053165 ], [ -2.68850730000001, 54.0530992 ], [ -2.6884862, 54.0530403 ], [ -2.6885423, 54.0530033 ], [ -2.688659, 54.053021100000016 ], [ -2.6887746, 54.0530615 ], [ -2.6888505, 54.0531171 ], [ -2.6888108, 54.0531924 ] ] } }
]
}
