{
"type": "FeatureCollection",
"name": "FYLDE_70_NACH",
"crs": { "type": "name", "properties": { "name": "urn:ogc:def:crs:OGC:1.3:CRS84" } },
"features": [
{"type":"Feature","properties":{"id":12548,"nach":0.66784627556419385},"geometry":{"type":"LineString","coordinates":[[-2.8928467,53.7497198],[-2.8931222,53.749992],[-2.8932744,53.7501423]]}},
{"type":"Feature","properties":{"id":37427,"nach":0.56837603554802563},"geometry":{"type":"LineString","coordinates":[[-2.8935201,53.7503621],[-2.893484,53.7503298],[-2.8932744,53.7501423]]}},
{"type":"Feature","properties":{"id":14128,"nach":0.68496052529304174},"geometry":{"type":"LineString","coordinates":[[-2.8925083,53.7503158],[-2.8929471,53.750222],[-2.8932744,53.7501423]]}},
{"type":"Feature","properties":{"id":12557,"nach":0.66597310118934261},"geometry":{"type":"LineString","coordinates":[[-2.89441130000001,53.7497785],[-2.8935577,53.7500658],[-2.8932744,53.7501423]]}},
{"type":"Feature","properties":{"id":37171,"nach":0.66170688935527067},"geometry":{"type":"LineString","coordinates":[[-2.8928033,53.7496743],[-2.8928467,53.7497198]]}},
{"type":"Feature","properties":{"id":37169,"nach":0.47156737523972336},"geometry":{"type":"LineString","coordinates":[[-2.8925696,53.7497818],[-2.8926682,53.7497607],[-2.8928467,53.7497198]]}},
{"type":"Feature","properties":{"id":37428,"nach":0.62612552240733721},"geometry":{"type":"LineString","coordinates":[[-2.8935201,53.7503621],[-2.893354,53.7503023],[-2.8932038,53.7502777],[-2.893016,53.75029510000001],[-2.8926828,53.750380100000015]]}},
{"type":"Feature","properties":{"id":37426,"nach":0.67512701538327502},"geometry":{"type":"LineString","coordinates":[[-2.8935201,53.7503621],[-2.8936936,53.7505173]]}},
{"type":"Feature","properties":{"id":37439,"nach":0.58944841640023538},"geometry":{"type":"LineString","coordinates":[[-2.8945308,53.749855],[-2.8936077,53.7501524],[-2.8935199,53.7502732],[-2.8935201,53.7503621]]}},
{"type":"Feature","properties":{"id":37431,"nach":0.56286956399630395},"geometry":{"type":"LineString","coordinates":[[-2.8925485,53.7504012],[-2.8925083,53.7503158]]}},
{"type":"Feature","properties":{"id":20880,"nach":0.67416097488169657},"geometry":{"type":"LineString","coordinates":[[-2.8923099,53.7503531],[-2.8925083,53.7503158]]}},
{"type":"Feature","properties":{"id":37442,"nach":0.66757840481625075},"geometry":{"type":"LineString","coordinates":[[-2.8944385,53.7497699],[-2.89441130000001,53.7497785]]}},
{"type":"Feature","properties":{"id":37167,"nach":0.44413355011687466},"geometry":{"type":"LineString","coordinates":[[-2.8946492,53.748915],[-2.8936731,53.7490608],[-2.8938474,53.7494112],[-2.8938997,53.7494995],[-2.8939744,53.7495938],[-2.8940292,53.7496158],[-2.8941636,53.7496423],[-2.8942881,53.7496718],[-2.8943478,53.7497037],[-2.89441130000001,53.7497785]]}},
{"type":"Feature","properties":{"id":3149,"nach":0.68155914658997307},"geometry":{"type":"LineString","coordinates":[[-2.8983816,53.7485766],[-2.897968,53.7486778]]}},
{"type":"Feature","properties":{"id":37475,"nach":0.58724747833823487},"geometry":{"type":"LineString","coordinates":[[-2.8980177,53.7487407],[-2.8980083,53.7487288],[-2.897968,53.7486778]]}},
{"type":"Feature","properties":{"id":13259,"nach":0.67832233525294217},"geometry":{"type":"LineString","coordinates":[[-2.89651190000001,53.7491074],[-2.8967636,53.749027],[-2.897968,53.7486778]]}},
{"type":"Feature","properties":{"id":3179,"nach":0.64427591211933855},"geometry":{"type":"LineString","coordinates":[[-2.8983591,53.7484586],[-2.8983714,53.7485231],[-2.8983816,53.7485766]]}},
{"type":"Feature","properties":{"id":17330,"nach":0.65288171083245494},"geometry":{"type":"LineString","coordinates":[[-2.8998375,53.7482745],[-2.89914,53.7484192],[-2.8983816,53.7485766]]}},
{"type":"Feature","properties":{"id":37474,"nach":0.61437520888115249},"geometry":{"type":"LineString","coordinates":[[-2.8980177,53.7487407],[-2.8983971,53.7492207]]}},
{"type":"Feature","properties":{"id":37480,"nach":0.55538091305439197},"geometry":{"type":"LineString","coordinates":[[-2.8998759,53.7483304],[-2.8986806,53.7485728],[-2.8980177,53.7487407]]}},
{"type":"Feature","properties":{"id":13258,"nach":0.62931528730802733},"geometry":{"type":"LineString","coordinates":[[-2.89651190000001,53.7491074],[-2.896422,53.7490064],[-2.8957449,53.748298499999983]]}},
{"type":"Feature","properties":{"id":18579,"nach":0.68618784475411798},"geometry":{"type":"LineString","coordinates":[[-2.8954634,53.7494461],[-2.89651190000001,53.7491074]]}},
{"type":"Feature","properties":{"id":3061,"nach":0.62794056591082736},"geometry":{"type":"LineString","coordinates":[[-2.8978971,53.7533165],[-2.8966632,53.7527834]]}},
{"type":"Feature","properties":{"id":3091,"nach":0.60507933441091655},"geometry":{"type":"LineString","coordinates":[[-2.89588920000001,53.753358],[-2.8966632,53.7527834]]}},
{"type":"Feature","properties":{"id":27251,"nach":0.62306305970873876},"geometry":{"type":"LineString","coordinates":[[-2.8952264,53.75189670000001],[-2.895671,53.7522355],[-2.8957469,53.752277399999983],[-2.8966632,53.7527834]]}},
{"type":"Feature","properties":{"id":23383,"nach":0.63633984580306435},"geometry":{"type":"LineString","coordinates":[[-2.8982843,53.7534869],[-2.8978971,53.7533165]]}},
{"type":"Feature","properties":{"id":3065,"nach":0.56995878305520187},"geometry":{"type":"LineString","coordinates":[[-2.89889,53.752659],[-2.8980992,53.7531569],[-2.8978971,53.7533165]]}},
{"type":"Feature","properties":{"id":3097,"nach":0.58260804465935767},"geometry":{"type":"LineString","coordinates":[[-2.8960794,53.7534829],[-2.89588920000001,53.753358]]}},
{"type":"Feature","properties":{"id":3094,"nach":0.57723863270690867},"geometry":{"type":"LineString","coordinates":[[-2.8944898,53.75307],[-2.8950185,53.7529786],[-2.8953761,53.7530621],[-2.89588920000001,53.753358]]}},
{"type":"Feature","properties":{"id":27250,"nach":0.62763981591271489},"geometry":{"type":"LineString","coordinates":[[-2.8952264,53.75189670000001],[-2.8948395,53.75160180000001]]}},
{"type":"Feature","properties":{"id":27253,"nach":0.45791855560785233},"geometry":{"type":"LineString","coordinates":[[-2.8945525,53.7521807],[-2.8945738,53.7521331],[-2.894592,53.752122300000011],[-2.8948459,53.752080099999986],[-2.8949158,53.7520648],[-2.8949781,53.7520369],[-2.8952264,53.75189670000001]]}},
{"type":"Feature","properties":{"id":437,"nach":0.64555256944725992},"geometry":{"type":"LineString","coordinates":[[-2.8943601,53.7511391],[-2.8948395,53.75160180000001]]}},
{"type":"Feature","properties":{"id":3050,"nach":0.57193821146452106},"geometry":{"type":"LineString","coordinates":[[-2.8959723,53.7508347],[-2.8948395,53.75160180000001]]}},
{"type":"Feature","properties":{"id":14143,"nach":0.64967966597140625},"geometry":{"type":"LineString","coordinates":[[-2.894271,53.7510542],[-2.8943601,53.7511391]]}},
{"type":"Feature","properties":{"id":3085,"nach":0.46290653062947024},"geometry":{"type":"LineString","coordinates":[[-2.893758,53.7512727],[-2.8943601,53.7511391]]}},
{"type":"Feature","properties":{"id":3054,"nach":0.56302013722266386},"geometry":{"type":"LineString","coordinates":[[-2.8973427,53.7505012],[-2.8972039,53.750545200000012],[-2.8961663,53.750695400000012],[-2.8959723,53.7508347]]}},
{"type":"Feature","properties":{"id":3056,"nach":0.4324815931410449},"geometry":{"type":"LineString","coordinates":[[-2.8960832,53.7518178],[-2.8967898,53.75130990000001],[-2.8959723,53.7508347]]}},
{"type":"Feature","properties":{"id":14142,"nach":0.64842417529896867},"geometry":{"type":"LineString","coordinates":[[-2.894271,53.7510542],[-2.8939217,53.75072140000001]]}},
{"type":"Feature","properties":{"id":14150,"nach":0.5118029947386088},"geometry":{"type":"LineString","coordinates":[[-2.8938117,53.7511592],[-2.8941225,53.7510867],[-2.8942324,53.7510627],[-2.894271,53.7510542]]}},
{"type":"Feature","properties":{"id":25292,"nach":0.50096167980621875},"geometry":{"type":"LineString","coordinates":[[-2.8977792,53.75685390000001],[-2.8958978,53.7573424]]}},
{"type":"Feature","properties":{"id":24701,"nach":0.50496312775537999},"geometry":{"type":"LineString","coordinates":[[-2.8955849,53.7569228],[-2.8958978,53.7573424]]}},
{"type":"Feature","properties":{"id":16230,"nach":0.14376649464304475},"geometry":{"type":"LineString","coordinates":[[-2.8870007,53.7604438],[-2.8871488,53.760404200000018],[-2.8877291,53.7602258],[-2.88839640000001,53.7600445],[-2.889317,53.7597945],[-2.890304,53.7593886],[-2.8908619,53.758931900000015],[-2.8917631,53.7586021],[-2.8935656,53.7579424],[-2.8944081,53.757691],[-2.8952914,53.7574977],[-2.8958978,53.7573424]]}},
{"type":"Feature","properties":{"id":28431,"nach":0.50746001355752812},"geometry":{"type":"LineString","coordinates":[[-2.9002289,53.7562191],[-2.8990334,53.7565516],[-2.8977792,53.75685390000001]]}},
{"type":"Feature","properties":{"id":25295,"nach":0.39702857589644769},"geometry":{"type":"LineString","coordinates":[[-2.8977284,53.7566433],[-2.897681,53.7566836],[-2.897681,53.756729],[-2.8977018,53.756764],[-2.8977792,53.75685390000001]]}},
{"type":"Feature","properties":{"id":29223,"nach":0.51252615670095292},"geometry":{"type":"LineString","coordinates":[[-2.8948528,53.7559614],[-2.8949675,53.7560926],[-2.8952184,53.7564314],[-2.8955849,53.7569228]]}},
{"type":"Feature","properties":{"id":24704,"nach":0.39210753704021756},"geometry":{"type":"LineString","coordinates":[[-2.8965842,53.756849899999985],[-2.8961325,53.7567794],[-2.896029,53.756793899999984],[-2.8955849,53.7569228]]}},
{"type":"Feature","properties":{"id":3118,"nach":0.61172168861407183},"geometry":{"type":"LineString","coordinates":[[-2.8937334,53.7544791],[-2.8939532,53.7548499]]}},
{"type":"Feature","properties":{"id":16512,"nach":0.59737768192339635},"geometry":{"type":"LineString","coordinates":[[-2.8942221,53.755185400000016],[-2.8939532,53.7548499]]}},
{"type":"Feature","properties":{"id":3107,"nach":0.52230087092241217},"geometry":{"type":"LineString","coordinates":[[-2.8929102,53.755275],[-2.8934368,53.7549801],[-2.8939532,53.7548499]]}},
{"type":"Feature","properties":{"id":3117,"nach":0.6056619251379457},"geometry":{"type":"LineString","coordinates":[[-2.8937334,53.7544791],[-2.8936682,53.7543933]]}},
{"type":"Feature","properties":{"id":3134,"nach":0.46491322694567272},"geometry":{"type":"LineString","coordinates":[[-2.8923422,53.7539151],[-2.89268850000001,53.754603200000012],[-2.8937334,53.7544791]]}},
{"type":"Feature","properties":{"id":23070,"nach":0.53518672297256353},"geometry":{"type":"LineString","coordinates":[[-2.8944472,53.755465],[-2.8944372,53.7554538],[-2.8942221,53.755185400000016]]}},
{"type":"Feature","properties":{"id":24274,"nach":0.55384216011473242},"geometry":{"type":"LineString","coordinates":[[-2.8943949,53.755175800000011],[-2.8942916,53.755181500000013],[-2.8942221,53.755185400000016]]}},
{"type":"Feature","properties":{"id":3109,"nach":0.49176592131737812},"geometry":{"type":"LineString","coordinates":[[-2.8919681,53.7555535],[-2.8923699,53.75535690000001],[-2.8929102,53.755275]]}},
{"type":"Feature","properties":{"id":3115,"nach":0.38752629017901075},"geometry":{"type":"LineString","coordinates":[[-2.8936862,53.75594670000001],[-2.8934645,53.755692800000013],[-2.8931596,53.7556191],[-2.8929102,53.755275]]}},
{"type":"Feature","properties":{"id":448,"nach":0.60899431504976598},"geometry":{"type":"LineString","coordinates":[[-2.8933796,53.753825],[-2.8936682,53.7543933]]}},
{"type":"Feature","properties":{"id":3103,"nach":0.0},"geometry":{"type":"LineString","coordinates":[[-2.8946011,53.7534878],[-2.8948419,53.7536677],[-2.8949889,53.753978800000013],[-2.89523,53.7539442],[-2.8953211,53.7539643],[-2.8955428,53.75436280000001],[-2.894813,53.7545237],[-2.8946753,53.7543046],[-2.8942707,53.7542538],[-2.8936682,53.7543933]]}},
{"type":"Feature","properties":{"id":452,"nach":0.61340542149109611},"geometry":{"type":"LineString","coordinates":[[-2.8931701,53.7534305],[-2.8933796,53.753825]]}},
{"type":"Feature","properties":{"id":3104,"nach":0.5781526242234033},"geometry":{"type":"LineString","coordinates":[[-2.8946011,53.7534878],[-2.8942131,53.7536432],[-2.8933796,53.753825]]}},
{"type":"Feature","properties":{"id":3102,"nach":0.57585982140858727},"geometry":{"type":"LineString","coordinates":[[-2.8946011,53.7534878],[-2.8944898,53.75307]]}},
{"type":"Feature","properties":{"id":3122,"nach":0.44624231347713283},"geometry":{"type":"LineString","coordinates":[[-2.8921872,53.7536042],[-2.8931701,53.7534305]]}},
{"type":"Feature","properties":{"id":17702,"nach":0.60709677716456623},"geometry":{"type":"LineString","coordinates":[[-2.8927685,53.7526972],[-2.8928726,53.752887200000011],[-2.8931701,53.7534305]]}},
{"type":"Feature","properties":{"id":3123,"nach":0.51925450637460202},"geometry":{"type":"LineString","coordinates":[[-2.8920047,53.7531694],[-2.8921872,53.7536042]]}},
{"type":"Feature","properties":{"id":3132,"nach":0.52444201739673146},"geometry":{"type":"LineString","coordinates":[[-2.8923422,53.7539151],[-2.8921872,53.7536042]]}},
{"type":"Feature","properties":{"id":17700,"nach":0.63294910220049427},"geometry":{"type":"LineString","coordinates":[[-2.8927685,53.7526972],[-2.8925748,53.752295100000012]]}},
{"type":"Feature","properties":{"id":17701,"nach":0.53957183148261267},"geometry":{"type":"LineString","coordinates":[[-2.8927685,53.7526972],[-2.8924162,53.7527494],[-2.8923114,53.7528588],[-2.8923114,53.75297530000001],[-2.892105,53.75301],[-2.8920557,53.7530537],[-2.8920047,53.7531694]]}},
{"type":"Feature","properties":{"id":3136,"nach":0.43292604714067179},"geometry":{"type":"LineString","coordinates":[[-2.890624,53.7526781],[-2.8925748,53.752295100000012]]}},
{"type":"Feature","properties":{"id":14132,"nach":0.63682208791718298},"geometry":{"type":"LineString","coordinates":[[-2.8924419,53.7519418],[-2.8925748,53.752295100000012]]}},
{"type":"Feature","properties":{"id":14131,"nach":0.64198616921745111},"geometry":{"type":"LineString","coordinates":[[-2.8924419,53.7519418],[-2.892358,53.7517187]]}},
{"type":"Feature","properties":{"id":14130,"nach":0.44889033606737427},"geometry":{"type":"LineString","coordinates":[[-2.8924419,53.7519418],[-2.8931942,53.7518094]]}},
{"type":"Feature","properties":{"id":3105,"nach":0.45056030509545331},"geometry":{"type":"LineString","coordinates":[[-2.8931874,53.7515639],[-2.892358,53.7517187]]}},
{"type":"Feature","properties":{"id":462,"nach":0.64719374570127708},"geometry":{"type":"LineString","coordinates":[[-2.892228,53.751404],[-2.892358,53.7517187]]}},
{"type":"Feature","properties":{"id":12780,"nach":0.61665343897455771},"geometry":{"type":"LineString","coordinates":[[-2.891805,53.7514579],[-2.892228,53.751404]]}},
{"type":"Feature","properties":{"id":12762,"nach":0.63145867766939057},"geometry":{"type":"LineString","coordinates":[[-2.892151,53.7511882],[-2.892228,53.751404]]}},
{"type":"Feature","properties":{"id":12783,"nach":0.60583466312707912},"geometry":{"type":"LineString","coordinates":[[-2.8917142,53.751469499999985],[-2.891805,53.7514579]]}},
{"type":"Feature","properties":{"id":12786,"nach":0.53491354838405836},"geometry":{"type":"LineString","coordinates":[[-2.8919414,53.7518863],[-2.891805,53.7514579]]}},
{"type":"Feature","properties":{"id":12760,"nach":0.5389093225702194},"geometry":{"type":"LineString","coordinates":[[-2.892151,53.7511882],[-2.8926293,53.7511312]]}},
{"type":"Feature","properties":{"id":37419,"nach":0.64263148569856721},"geometry":{"type":"LineString","coordinates":[[-2.891905,53.7504991],[-2.892151,53.7511882]]}},
{"type":"Feature","properties":{"id":31398,"nach":0.63995288941463491},"geometry":{"type":"LineString","coordinates":[[-2.8905953,53.7505765],[-2.8918763,53.7504188]]}},
{"type":"Feature","properties":{"id":37422,"nach":0.6421850657606254},"geometry":{"type":"LineString","coordinates":[[-2.891905,53.7504991],[-2.891893,53.7504657],[-2.8918763,53.7504188]]}},
{"type":"Feature","properties":{"id":20882,"nach":0.67291764148724831},"geometry":{"type":"LineString","coordinates":[[-2.8923099,53.7503531],[-2.8922486,53.7503631],[-2.892087,53.7503895],[-2.8918763,53.7504188]]}},
{"type":"Feature","properties":{"id":31397,"nach":0.65235340289726085},"geometry":{"type":"LineString","coordinates":[[-2.8905953,53.7505765],[-2.889981700000011,53.7506473]]}},
{"type":"Feature","properties":{"id":37415,"nach":0.52847552797368602},"geometry":{"type":"LineString","coordinates":[[-2.8906364,53.7506652],[-2.8905953,53.7505765]]}},
{"type":"Feature","properties":{"id":37421,"nach":0.61596787272876141},"geometry":{"type":"LineString","coordinates":[[-2.891905,53.7504991],[-2.8906364,53.7506652]]}},
{"type":"Feature","properties":{"id":37423,"nach":0.6395882569714666},"geometry":{"type":"LineString","coordinates":[[-2.8924233,53.75041490000001],[-2.891905,53.7504991]]}},
{"type":"Feature","properties":{"id":20881,"nach":0.4754276822818459},"geometry":{"type":"LineString","coordinates":[[-2.8923099,53.7503531],[-2.8922657,53.7502863],[-2.8922893,53.7502384],[-2.8922951,53.7502266],[-2.8923317,53.7501524]]}},
{"type":"Feature","properties":{"id":36503,"nach":0.56117444831533481},"geometry":{"type":"LineString","coordinates":[[-2.8877048,53.7509939],[-2.887676,53.7509211]]}},
{"type":"Feature","properties":{"id":36520,"nach":0.59128894978378654},"geometry":{"type":"LineString","coordinates":[[-2.8881348,53.7508681],[-2.887676,53.7509211]]}},
{"type":"Feature","properties":{"id":36516,"nach":0.62710922659293289},"geometry":{"type":"LineString","coordinates":[[-2.886893,53.7510109],[-2.886965,53.7510026],[-2.8872242,53.7509729],[-2.887676,53.7509211]]}},
{"type":"Feature","properties":{"id":36504,"nach":0.45683536550986209},"geometry":{"type":"LineString","coordinates":[[-2.8877048,53.7509939],[-2.8878184,53.751280400000013],[-2.8879967,53.7512542]]}},
{"type":"Feature","properties":{"id":36512,"nach":0.62921615614012105},"geometry":{"type":"LineString","coordinates":[[-2.8869275,53.7510893],[-2.8876478,53.7510009],[-2.8877048,53.7509939]]}},
{"type":"Feature","properties":{"id":36518,"nach":0.65197553997572377},"geometry":{"type":"LineString","coordinates":[[-2.888061,53.7509481],[-2.8877741,53.7509848],[-2.8877048,53.7509939]]}},
{"type":"Feature","properties":{"id":36521,"nach":0.62282837701977334},"geometry":{"type":"LineString","coordinates":[[-2.8881348,53.7508681],[-2.889152,53.7507508],[-2.8894232,53.7507176]]}},
{"type":"Feature","properties":{"id":36522,"nach":0.54946231182951633},"geometry":{"type":"LineString","coordinates":[[-2.8881348,53.7508681],[-2.8881495,53.7509101],[-2.888061,53.7509481]]}},
{"type":"Feature","properties":{"id":36514,"nach":0.62803166329674553},"geometry":{"type":"LineString","coordinates":[[-2.886893,53.7510109],[-2.8867763,53.7510243]]}},
{"type":"Feature","properties":{"id":36515,"nach":0.21237242710754325},"geometry":{"type":"LineString","coordinates":[[-2.886893,53.7510109],[-2.8869132,53.751056700000014],[-2.8869275,53.7510893]]}},
{"type":"Feature","properties":{"id":36507,"nach":0.51676209655823591},"geometry":{"type":"LineString","coordinates":[[-2.8868232,53.7511041],[-2.8867763,53.7510243]]}},
{"type":"Feature","properties":{"id":33206,"nach":0.6311948478500905},"geometry":{"type":"LineString","coordinates":[[-2.8865552,53.7506771],[-2.8866943,53.7508955],[-2.8867763,53.7510243]]}},
{"type":"Feature","properties":{"id":20606,"nach":0.60477706985809221},"geometry":{"type":"LineString","coordinates":[[-2.8856816,53.7511698],[-2.8864253,53.7510709],[-2.8867763,53.7510243]]}},
{"type":"Feature","properties":{"id":36508,"nach":0.58317716184427149},"geometry":{"type":"LineString","coordinates":[[-2.8868232,53.7511041],[-2.8868491,53.7511481],[-2.8869815,53.7513733]]}},
{"type":"Feature","properties":{"id":36511,"nach":0.63037569363558199},"geometry":{"type":"LineString","coordinates":[[-2.8869275,53.7510893],[-2.8868754,53.7510967],[-2.8868232,53.7511041]]}},
{"type":"Feature","properties":{"id":37414,"nach":0.6263924688090925},"geometry":{"type":"LineString","coordinates":[[-2.8857126,53.7512459],[-2.8864701,53.7511555],[-2.8868232,53.7511041]]}},
{"type":"Feature","properties":{"id":33207,"nach":0.48144686180166507},"geometry":{"type":"LineString","coordinates":[[-2.8865552,53.7506771],[-2.8871822,53.7505121],[-2.8874068,53.7502962],[-2.8874943,53.7501573],[-2.8874464,53.7495501]]}},
{"type":"Feature","properties":{"id":33205,"nach":0.61897751468527062},"geometry":{"type":"LineString","coordinates":[[-2.8865552,53.7506771],[-2.8864941,53.7505812]]}},
{"type":"Feature","properties":{"id":37411,"nach":0.48773394969808281},"geometry":{"type":"LineString","coordinates":[[-2.8857126,53.7512459],[-2.8856816,53.7511698]]}},
{"type":"Feature","properties":{"id":33212,"nach":0.58596804831791571},"geometry":{"type":"LineString","coordinates":[[-2.8850254,53.7512533],[-2.8856816,53.7511698]]}},
{"type":"Feature","properties":{"id":17703,"nach":0.66290615858006652},"geometry":{"type":"LineString","coordinates":[[-2.8848637,53.7512726],[-2.884948,53.7512621]]}},
{"type":"Feature","properties":{"id":36499,"nach":0.62022087585462293},"geometry":{"type":"LineString","coordinates":[[-2.8849697,53.751324],[-2.884948,53.7512621]]}},
{"type":"Feature","properties":{"id":33211,"nach":0.62102613635192616},"geometry":{"type":"LineString","coordinates":[[-2.8850254,53.7512533],[-2.884948,53.7512621]]}},
{"type":"Feature","properties":{"id":17705,"nach":0.66065825921145471},"geometry":{"type":"LineString","coordinates":[[-2.8848637,53.7512726],[-2.884733,53.7512898],[-2.8844885,53.751322]]}},
{"type":"Feature","properties":{"id":17706,"nach":0.45199591843062975},"geometry":{"type":"LineString","coordinates":[[-2.8843259,53.7510938],[-2.8845754,53.7510624],[-2.8847733,53.7510391],[-2.8847948,53.751090700000013],[-2.8848637,53.7512726]]}},
{"type":"Feature","properties":{"id":36501,"nach":0.50306223568394293},"geometry":{"type":"LineString","coordinates":[[-2.8849697,53.751324],[-2.883453,53.7515],[-2.8832652,53.7515294],[-2.8830158,53.751583300000014],[-2.8828357,53.75163950000001]]}},
{"type":"Feature","properties":{"id":37412,"nach":0.62423083051763006},"geometry":{"type":"LineString","coordinates":[[-2.8857126,53.7512459],[-2.8849697,53.751324]]}},
{"type":"Feature","properties":{"id":33213,"nach":0.55619778418892196},"geometry":{"type":"LineString","coordinates":[[-2.8850254,53.7512533],[-2.8849862,53.751101100000021],[-2.8858518,53.750987099999989],[-2.8859365,53.750920299999983],[-2.8859144,53.7505928]]}},
{"type":"Feature","properties":{"id":3047,"nach":0.51781146069987416},"geometry":{"type":"LineString","coordinates":[[-2.8987435,53.75044960000001],[-2.8980171,53.7500361]]}},
{"type":"Feature","properties":{"id":3055,"nach":0.57694879068874017},"geometry":{"type":"LineString","coordinates":[[-2.8973427,53.7505012],[-2.8978112,53.7501682],[-2.8980171,53.7500361]]}},
{"type":"Feature","properties":{"id":3037,"nach":0.59543254872230833},"geometry":{"type":"LineString","coordinates":[[-2.8983971,53.7492207],[-2.8985447,53.749403],[-2.898634,53.7495196],[-2.8986275,53.749614300000012],[-2.8980171,53.7500361]]}},
{"type":"Feature","properties":{"id":3048,"nach":0.45104584524942398},"geometry":{"type":"LineString","coordinates":[[-2.8987435,53.75044960000001],[-2.8996302,53.7509494],[-2.900176,53.7516405]]}},
{"type":"Feature","properties":{"id":3049,"nach":0.43612213090970919},"geometry":{"type":"LineString","coordinates":[[-2.8987435,53.75044960000001],[-2.8992977,53.7500564],[-2.8998242,53.749892500000016]]}},
{"type":"Feature","properties":{"id":3074,"nach":0.57053587724555066},"geometry":{"type":"LineString","coordinates":[[-2.8980052,53.751069],[-2.8973427,53.7505012]]}},
{"type":"Feature","properties":{"id":3036,"nach":0.47403110391375325},"geometry":{"type":"LineString","coordinates":[[-2.8983971,53.7492207],[-2.898979,53.7490322]]}},
{"type":"Feature","properties":{"id":3041,"nach":0.34356120474446505},"geometry":{"type":"LineString","coordinates":[[-2.9009344,53.7524141],[-2.9010497,53.7526573],[-2.9008873,53.7528271],[-2.8995877,53.7532735]]}},
{"type":"Feature","properties":{"id":3042,"nach":0.46412626664734941},"geometry":{"type":"LineString","coordinates":[[-2.900176,53.7516405],[-2.9009344,53.7524141]]}},
{"type":"Feature","properties":{"id":3045,"nach":0.38894435964835422},"geometry":{"type":"LineString","coordinates":[[-2.9014815,53.7522285],[-2.9009344,53.7524141]]}},
{"type":"Feature","properties":{"id":3067,"nach":0.479402397473841},"geometry":{"type":"LineString","coordinates":[[-2.8991213,53.7519945],[-2.900176,53.7516405]]}},
{"type":"Feature","properties":{"id":3069,"nach":0.53626916944837899},"geometry":{"type":"LineString","coordinates":[[-2.8991213,53.7519945],[-2.899464,53.7523258]]}},
{"type":"Feature","properties":{"id":3073,"nach":0.52294527254497836},"geometry":{"type":"LineString","coordinates":[[-2.8984213,53.75138650000001],[-2.8991213,53.7519945]]}},
{"type":"Feature","properties":{"id":3075,"nach":0.54220786513433838},"geometry":{"type":"LineString","coordinates":[[-2.8980052,53.751069],[-2.8984213,53.75138650000001]]}},
{"type":"Feature","properties":{"id":3078,"nach":0.46373658612640895},"geometry":{"type":"LineString","coordinates":[[-2.8971289,53.7515285],[-2.8974921,53.7512836],[-2.8980052,53.751069]]}},
{"type":"Feature","properties":{"id":3058,"nach":0.43222087521942609},"geometry":{"type":"LineString","coordinates":[[-2.899464,53.7523258],[-2.8997679,53.7525686]]}},
{"type":"Feature","properties":{"id":3064,"nach":0.55183004459598572},"geometry":{"type":"LineString","coordinates":[[-2.89889,53.752659],[-2.899464,53.7523258]]}},
{"type":"Feature","properties":{"id":3079,"nach":0.40798781117912236},"geometry":{"type":"LineString","coordinates":[[-2.8971289,53.7515285],[-2.8980091,53.7521701],[-2.89889,53.752659]]}},
{"type":"Feature","properties":{"id":28475,"nach":0.63353430105568564},"geometry":{"type":"LineString","coordinates":[[-2.899212300000011,53.7539568],[-2.8987372,53.7536768],[-2.8982843,53.7534869]]}},
{"type":"Feature","properties":{"id":23386,"nach":0.44731894253506888},"geometry":{"type":"LineString","coordinates":[[-2.8977788,53.7537158],[-2.897774,53.7536865],[-2.8977884,53.7536713],[-2.8982843,53.7534869]]}},
{"type":"Feature","properties":{"id":3144,"nach":0.43264876681207226},"geometry":{"type":"LineString","coordinates":[[-2.8964497,53.752025],[-2.8971289,53.7515285]]}},
{"type":"Feature","properties":{"id":3071,"nach":0.44627179784696552},"geometry":{"type":"LineString","coordinates":[[-2.8984213,53.75138650000001],[-2.8988592,53.7512063]]}},
{"type":"Feature","properties":{"id":3083,"nach":0.45558860447686766},"geometry":{"type":"LineString","coordinates":[[-2.8939217,53.75072140000001],[-2.8943341,53.750591],[-2.8946477,53.7505971],[-2.8951344,53.750404600000017]]}},
{"type":"Feature","properties":{"id":33025,"nach":0.67001966588310191},"geometry":{"type":"LineString","coordinates":[[-2.8936936,53.7505173],[-2.8939217,53.75072140000001]]}},
{"type":"Feature","properties":{"id":14138,"nach":0.56180154630671764},"geometry":{"type":"LineString","coordinates":[[-2.893694,53.7509325],[-2.8936646,53.7508802],[-2.8936508,53.7508562],[-2.8936501,53.7508305],[-2.8936658,53.7508097],[-2.8936973,53.7507882],[-2.8938825,53.750733099999984],[-2.8939217,53.75072140000001]]}},
{"type":"Feature","properties":{"id":33027,"nach":0.47213021840371688},"geometry":{"type":"LineString","coordinates":[[-2.8933022,53.7506166],[-2.8934588,53.7505912],[-2.8936936,53.7505173]]}},
{"type":"Feature","properties":{"id":14139,"nach":0.48890287446255404},"geometry":{"type":"LineString","coordinates":[[-2.8932635,53.7510244],[-2.893694,53.7509325]]}},
{"type":"Feature","properties":{"id":14146,"nach":0.48951276138964411},"geometry":{"type":"LineString","coordinates":[[-2.8936482,53.7511473],[-2.8938135,53.7511144],[-2.8938454,53.7511057],[-2.8938544,53.7510854],[-2.8937791,53.7509605],[-2.8937431,53.7509354],[-2.893694,53.7509325]]}},
{"type":"Feature","properties":{"id":27256,"nach":0.43545703209126335},"geometry":{"type":"LineString","coordinates":[[-2.8967424,53.7539392],[-2.8967132,53.7539582],[-2.8966249,53.7539851],[-2.8963282,53.754057]]}},
{"type":"Feature","properties":{"id":27255,"nach":0.51698817643285433},"geometry":{"type":"LineString","coordinates":[[-2.8967424,53.7539392],[-2.896757,53.753915800000016],[-2.8967538,53.7538762],[-2.8967017,53.753831100000014],[-2.8966109,53.7537762]]}},
{"type":"Feature","properties":{"id":27257,"nach":0.43545703209126335},"geometry":{"type":"LineString","coordinates":[[-2.8967424,53.7539392],[-2.8968916,53.754021],[-2.8969442,53.75404240000001],[-2.8969892,53.7540462],[-2.8971241,53.7540158]]}},
{"type":"Feature","properties":{"id":3098,"nach":0.55605007477956969},"geometry":{"type":"LineString","coordinates":[[-2.8960794,53.7534829],[-2.8966109,53.7537762]]}},
{"type":"Feature","properties":{"id":3100,"nach":0.44090523110120022},"geometry":{"type":"LineString","coordinates":[[-2.8969012,53.7536477],[-2.8966109,53.7537762]]}},
{"type":"Feature","properties":{"id":3099,"nach":0.44477920302789226},"geometry":{"type":"LineString","coordinates":[[-2.8960794,53.7534829],[-2.8955428,53.7537267]]}},
{"type":"Feature","properties":{"id":3101,"nach":0.42398358645818474},"geometry":{"type":"LineString","coordinates":[[-2.8936307,53.7519817],[-2.8938515,53.7522177],[-2.8938757,53.7523631],[-2.8939324,53.7524899],[-2.8941957,53.752546700000011],[-2.8942169,53.7525845],[-2.8944898,53.75307]]}},
{"type":"Feature","properties":{"id":3116,"nach":0.38096134938075715},"geometry":{"type":"LineString","coordinates":[[-2.8923996,53.7560974],[-2.8924151,53.7559837],[-2.8923975,53.75587010000001],[-2.8921726,53.7556859],[-2.8921063,53.755611199999983],[-2.8919681,53.7555535]]}},
{"type":"Feature","properties":{"id":3112,"nach":0.44884724171211743},"geometry":{"type":"LineString","coordinates":[[-2.8911336,53.755961],[-2.8914831,53.7555945],[-2.8919681,53.7555535]]}},
{"type":"Feature","properties":{"id":3227,"nach":0.36469556499685174},"geometry":{"type":"LineString","coordinates":[[-2.8904409,53.75566760000001],[-2.890751,53.7559761],[-2.8911336,53.755961]]}},
{"type":"Feature","properties":{"id":21287,"nach":0.36662631606259266},"geometry":{"type":"LineString","coordinates":[[-2.8917969,53.7561229],[-2.8916647,53.7560803],[-2.891479,53.7560953],[-2.8912466,53.7560858],[-2.8912063,53.7560683],[-2.8911431,53.7560409],[-2.8911336,53.755961]]}},
{"type":"Feature","properties":{"id":3133,"nach":0.52285375864329497},"geometry":{"type":"LineString","coordinates":[[-2.8923422,53.7539151],[-2.8916445,53.7540153]]}},
{"type":"Feature","properties":{"id":3127,"nach":0.4108181839974267},"geometry":{"type":"LineString","coordinates":[[-2.8913079,53.7540256],[-2.8910401,53.7533343],[-2.8911653,53.7532267],[-2.8914179,53.7531539],[-2.8916213,53.7531211],[-2.8917846,53.753112],[-2.8920047,53.7531694]]}},
{"type":"Feature","properties":{"id":3131,"nach":0.39612844381624918},"geometry":{"type":"LineString","coordinates":[[-2.8916445,53.7540153],[-2.8913079,53.7540256]]}},
{"type":"Feature","properties":{"id":26505,"nach":0.38010464973590885},"geometry":{"type":"LineString","coordinates":[[-2.8891513,53.7548349],[-2.8889321,53.754594],[-2.8892794,53.7544758],[-2.8897086,53.754307700000012],[-2.8901002,53.7542125],[-2.89054,53.754093200000014],[-2.8913079,53.7540256]]}},
{"type":"Feature","properties":{"id":23972,"nach":0.48346349631774632},"geometry":{"type":"LineString","coordinates":[[-2.8918204,53.7548159],[-2.8916445,53.7540153]]}},
{"type":"Feature","properties":{"id":23973,"nach":0.40678288942949248},"geometry":{"type":"LineString","coordinates":[[-2.8918204,53.7548159],[-2.8918295,53.7548572]]}},
{"type":"Feature","properties":{"id":23974,"nach":0.39623838800154293},"geometry":{"type":"LineString","coordinates":[[-2.8918204,53.7548159],[-2.8920216,53.754861200000015],[-2.8921595,53.7548896],[-2.8924022,53.7549357]]}},
{"type":"Feature","properties":{"id":12782,"nach":0.49644912451084794},"geometry":{"type":"LineString","coordinates":[[-2.8917142,53.751469499999985],[-2.8915524,53.7514901]]}},
{"type":"Feature","properties":{"id":3142,"nach":0.0},"geometry":{"type":"LineString","coordinates":[[-2.8868969,53.7520063],[-2.8871186,53.75238310000001],[-2.8873818,53.7524405],[-2.8891265,53.7520691],[-2.8913168,53.751867],[-2.8914692,53.7517359],[-2.8915524,53.7514901]]}},
{"type":"Feature","properties":{"id":24926,"nach":0.43037903362290164},"geometry":{"type":"LineString","coordinates":[[-2.8872217,53.7518875],[-2.8891572,53.7515022],[-2.8912891,53.7511952],[-2.8914,53.7512607],[-2.8915524,53.7514901]]}},
{"type":"Feature","properties":{"id":31391,"nach":0.59277077339270734},"geometry":{"type":"LineString","coordinates":[[-2.8915247,53.7509651],[-2.8917142,53.751469499999985]]}},
{"type":"Feature","properties":{"id":3143,"nach":0.44745299939471755},"geometry":{"type":"LineString","coordinates":[[-2.8863704,53.7521128],[-2.8868969,53.7520063]]}},
{"type":"Feature","properties":{"id":24927,"nach":0.49892764223048386},"geometry":{"type":"LineString","coordinates":[[-2.8872217,53.7518875],[-2.8871601,53.7518998],[-2.8868969,53.7520063]]}},
{"type":"Feature","properties":{"id":24928,"nach":0.5292297160793562},"geometry":{"type":"LineString","coordinates":[[-2.8872217,53.7518875],[-2.8871015,53.7517096],[-2.8870983,53.7516191],[-2.8871441,53.7516097],[-2.8870557,53.7514221],[-2.8869815,53.7513733]]}},
{"type":"Feature","properties":{"id":14183,"nach":0.53082403437982018},"geometry":{"type":"LineString","coordinates":[[-2.8863377,53.751538100000019],[-2.8868906,53.7514596],[-2.886955,53.7514258],[-2.8869815,53.7513733]]}},
{"type":"Feature","properties":{"id":14181,"nach":0.45130652956275052},"geometry":{"type":"LineString","coordinates":[[-2.8863377,53.751538100000019],[-2.8862258,53.7515539]]}},
{"type":"Feature","properties":{"id":14184,"nach":0.45130652956275052},"geometry":{"type":"LineString","coordinates":[[-2.8863646,53.751624],[-2.8863377,53.751538100000019]]}},
{"type":"Feature","properties":{"id":3177,"nach":0.63136838201818968},"geometry":{"type":"LineString","coordinates":[[-2.8983591,53.7484586],[-2.8993275,53.7482599]]}},
{"type":"Feature","properties":{"id":12525,"nach":0.66980016966396316},"geometry":{"type":"LineString","coordinates":[[-2.8975231,53.7476198],[-2.8977887,53.7477728],[-2.8982194,53.7480696],[-2.8983591,53.7484586]]}},
{"type":"Feature","properties":{"id":31931,"nach":0.60969815254950765},"geometry":{"type":"LineString","coordinates":[[-2.88991980000001,53.7504072],[-2.889981700000011,53.7506473]]}},
{"type":"Feature","properties":{"id":31927,"nach":0.6247549606204813},"geometry":{"type":"LineString","coordinates":[[-2.8894232,53.7507176],[-2.889981700000011,53.7506473]]}},
{"type":"Feature","properties":{"id":31937,"nach":0.5434610376359571},"geometry":{"type":"LineString","coordinates":[[-2.8896374,53.7504379],[-2.88991980000001,53.7504072]]}},
{"type":"Feature","properties":{"id":31940,"nach":0.567528358185177},"geometry":{"type":"LineString","coordinates":[[-2.8895912,53.749537],[-2.8896193,53.7495487],[-2.8896573,53.7495855],[-2.8897348,53.7497106],[-2.88991980000001,53.7504072]]}},
{"type":"Feature","properties":{"id":31930,"nach":0.45907814987989642},"geometry":{"type":"LineString","coordinates":[[-2.8888347,53.7505472],[-2.8892125,53.750500300000013],[-2.889295,53.7505126],[-2.8893715,53.7505419],[-2.8894052,53.750620300000016],[-2.8894232,53.7507176]]}},
{"type":"Feature","properties":{"id":3190,"nach":0.54540779143451878},"geometry":{"type":"LineString","coordinates":[[-2.8874464,53.7495501],[-2.886286,53.749558]]}},
{"type":"Feature","properties":{"id":33209,"nach":0.61978178406221951},"geometry":{"type":"LineString","coordinates":[[-2.8862599,53.750003],[-2.886255,53.7499825],[-2.886286,53.749558]]}},
{"type":"Feature","properties":{"id":24319,"nach":0.62959985888272274},"geometry":{"type":"LineString","coordinates":[[-2.8863801,53.7489942],[-2.8863421,53.7492219],[-2.886286,53.749558]]}},
{"type":"Feature","properties":{"id":3191,"nach":0.56680306044562745},"geometry":{"type":"LineString","coordinates":[[-2.8874464,53.7495501],[-2.8887362,53.7495304],[-2.8888066,53.7495301]]}},
{"type":"Feature","properties":{"id":33208,"nach":0.63626452781814291},"geometry":{"type":"LineString","coordinates":[[-2.8862599,53.750003],[-2.8863065,53.7501989],[-2.8864941,53.7505812]]}},
{"type":"Feature","properties":{"id":33210,"nach":0.61970782284631898},"geometry":{"type":"LineString","coordinates":[[-2.8862599,53.750003],[-2.8861586,53.7500092],[-2.8858276,53.7500611],[-2.8856865,53.750008800000018],[-2.8853853,53.7499677],[-2.8853555,53.749932199999989],[-2.8853195,53.7499266]]}},
{"type":"Feature","properties":{"id":31944,"nach":0.4563958846356177},"geometry":{"type":"LineString","coordinates":[[-2.8888135,53.749485500000013],[-2.8888066,53.7495301]]}},
{"type":"Feature","properties":{"id":31943,"nach":0.45614152870610075},"geometry":{"type":"LineString","coordinates":[[-2.8887979,53.7495981],[-2.8888066,53.7495301]]}},
{"type":"Feature","properties":{"id":31941,"nach":0.56318530629843577},"geometry":{"type":"LineString","coordinates":[[-2.8895912,53.749537],[-2.88942,53.7495149],[-2.8893587,53.7495286],[-2.8888976,53.749519],[-2.8888066,53.7495301]]}},
{"type":"Feature","properties":{"id":31942,"nach":0.45540266507008831},"geometry":{"type":"LineString","coordinates":[[-2.8896578,53.749473300000012],[-2.8895912,53.749537]]}},
{"type":"Feature","properties":{"id":3195,"nach":0.44669381097365823},"geometry":{"type":"LineString","coordinates":[[-2.8859144,53.7505928],[-2.8858238,53.75043],[-2.8846506,53.7505202]]}},
{"type":"Feature","properties":{"id":3198,"nach":0.569273263714278},"geometry":{"type":"LineString","coordinates":[[-2.8864941,53.7505812],[-2.8859144,53.7505928]]}},
{"type":"Feature","properties":{"id":13287,"nach":0.45854379680133878},"geometry":{"type":"LineString","coordinates":[[-2.8952945,53.7490215],[-2.8950209,53.748469700000015],[-2.8950322,53.7484314],[-2.8950719,53.7484095],[-2.8957331,53.748276]]}},
{"type":"Feature","properties":{"id":37172,"nach":0.46798003404378574},"geometry":{"type":"LineString","coordinates":[[-2.8928033,53.7496743],[-2.8932059,53.7495378]]}},
{"type":"Feature","properties":{"id":37176,"nach":0.65535653496239943},"geometry":{"type":"LineString","coordinates":[[-2.8925809,53.7494348],[-2.8925944,53.749451],[-2.8926513,53.749515],[-2.8928033,53.7496743]]}},
{"type":"Feature","properties":{"id":37168,"nach":0.0},"geometry":{"type":"LineString","coordinates":[[-2.8925696,53.7497818],[-2.8920072,53.7499022],[-2.891929,53.7497806],[-2.8924904,53.749648],[-2.8925696,53.7497818]]}},
{"type":"Feature","properties":{"id":37443,"nach":0.6816671128485926},"geometry":{"type":"LineString","coordinates":[[-2.8944385,53.7497699],[-2.8945562,53.7497325]]}},
{"type":"Feature","properties":{"id":37444,"nach":0.59458498872433418},"geometry":{"type":"LineString","coordinates":[[-2.8944385,53.7497699],[-2.8945308,53.749855]]}},
{"type":"Feature","properties":{"id":12773,"nach":0.45773307842445843},"geometry":{"type":"LineString","coordinates":[[-2.8927179,53.7513691],[-2.8926293,53.7511312]]}},
{"type":"Feature","properties":{"id":12772,"nach":0.45901075991503176},"geometry":{"type":"LineString","coordinates":[[-2.892568,53.7509672],[-2.8926293,53.7511312]]}},
{"type":"Feature","properties":{"id":12776,"nach":0.46186878697049771},"geometry":{"type":"LineString","coordinates":[[-2.8914858,53.7508633],[-2.8916158,53.7508464]]}},
{"type":"Feature","properties":{"id":31392,"nach":0.54113366585788825},"geometry":{"type":"LineString","coordinates":[[-2.8915247,53.7509651],[-2.8914858,53.7508633]]}},
{"type":"Feature","properties":{"id":12778,"nach":0.460412949149752},"geometry":{"type":"LineString","coordinates":[[-2.8912284,53.750897],[-2.8914858,53.7508633]]}},
{"type":"Feature","properties":{"id":31395,"nach":0.6146583373771628},"geometry":{"type":"LineString","coordinates":[[-2.891007,53.7509331],[-2.8910781,53.7509579],[-2.8911397,53.751008400000011],[-2.8915247,53.7509651]]}},
{"type":"Feature","properties":{"id":12788,"nach":0.45484883279994154},"geometry":{"type":"LineString","coordinates":[[-2.8917134,53.751911700000015],[-2.8919414,53.7518863]]}},
{"type":"Feature","properties":{"id":12789,"nach":0.45564939020141487},"geometry":{"type":"LineString","coordinates":[[-2.8919578,53.7519378],[-2.8919414,53.7518863]]}},
{"type":"Feature","properties":{"id":31402,"nach":0.68507299136903432},"geometry":{"type":"LineString","coordinates":[[-2.8953215,53.7494908],[-2.8954634,53.7494461]]}},
{"type":"Feature","properties":{"id":18581,"nach":0.46382584442288455},"geometry":{"type":"LineString","coordinates":[[-2.8957213,53.7502309],[-2.8960764,53.7500855],[-2.8954634,53.7494461]]}},
{"type":"Feature","properties":{"id":13416,"nach":0.63857846968135779},"geometry":{"type":"LineString","coordinates":[[-2.892401,53.7492273],[-2.8922967,53.7491159]]}},
{"type":"Feature","properties":{"id":13265,"nach":0.54894709559090837},"geometry":{"type":"LineString","coordinates":[[-2.8907937,53.7495293],[-2.8908527,53.7494976],[-2.8910931,53.7494606],[-2.891268,53.7494105],[-2.8915292,53.7493357],[-2.8920671,53.7491816],[-2.8922967,53.7491159]]}},
{"type":"Feature","properties":{"id":13270,"nach":0.61571069433275472},"geometry":{"type":"LineString","coordinates":[[-2.8918362,53.7485975],[-2.8922038,53.7490113],[-2.8922967,53.7491159]]}},
{"type":"Feature","properties":{"id":13418,"nach":0.50497146556029093},"geometry":{"type":"LineString","coordinates":[[-2.892401,53.7492273],[-2.8925015,53.74919890000001],[-2.892865,53.7490964],[-2.892953,53.7490707],[-2.8930576,53.748971],[-2.8933743,53.7488887],[-2.8931005,53.7484984],[-2.8931016,53.7484621],[-2.89325790000001,53.7484222],[-2.8931553,53.748281500000012],[-2.8932417,53.7482592],[-2.8934502,53.7482212]]}},
{"type":"Feature","properties":{"id":14110,"nach":0.64435120236353749},"geometry":{"type":"LineString","coordinates":[[-2.8924179,53.74925],[-2.892401,53.7492273]]}},
{"type":"Feature","properties":{"id":13264,"nach":0.44273101203278464},"geometry":{"type":"LineString","coordinates":[[-2.8907937,53.7495293],[-2.8907766,53.7496351],[-2.8907401,53.749707],[-2.8905631,53.7497799],[-2.8905148,53.7498434],[-2.8905309,53.749925800000014]]}},
{"type":"Feature","properties":{"id":13272,"nach":0.53140643612389971},"geometry":{"type":"LineString","coordinates":[[-2.8900992,53.74864680000001],[-2.8901326,53.748779100000014],[-2.8903807,53.7487965],[-2.8903861,53.7488283],[-2.8905095,53.7494024],[-2.8907937,53.7495293]]}},
{"type":"Feature","properties":{"id":14113,"nach":0.64630804262917274},"geometry":{"type":"LineString","coordinates":[[-2.892571,53.749422899999985],[-2.8924813,53.7493919],[-2.8924414,53.7493446],[-2.8924141,53.7493111],[-2.8924179,53.74925]]}},
{"type":"Feature","properties":{"id":37174,"nach":0.64964914091437298},"geometry":{"type":"LineString","coordinates":[[-2.8925809,53.7494348],[-2.892571,53.749422899999985]]}},
{"type":"Feature","properties":{"id":37177,"nach":0.4647463342918991},"geometry":{"type":"LineString","coordinates":[[-2.8929459,53.7493489],[-2.8925809,53.7494348]]}},
{"type":"Feature","properties":{"id":28432,"nach":0.44635290234268782},"geometry":{"type":"LineString","coordinates":[[-2.9002289,53.7562191],[-2.9003016,53.7561989],[-2.9012478,53.7559442],[-2.901852,53.7557584],[-2.9020333,53.7556941],[-2.9022025,53.7556548],[-2.9026315,53.7555441],[-2.9028068,53.755474]]}},
{"type":"Feature","properties":{"id":28454,"nach":0.52450026377401937},"geometry":{"type":"LineString","coordinates":[[-2.9000869,53.7560132],[-2.9001385,53.756091700000013],[-2.9002289,53.7562191]]}},
{"type":"Feature","properties":{"id":28472,"nach":0.47008108125113601},"geometry":{"type":"LineString","coordinates":[[-2.901944,53.754867300000015],[-2.9017049,53.754988],[-2.9017586,53.7550698]]}},
{"type":"Feature","properties":{"id":28473,"nach":0.51266515704898263},"geometry":{"type":"LineString","coordinates":[[-2.901944,53.754867300000015],[-2.9015934,53.7545999],[-2.9011868,53.75440420000001],[-2.9006949,53.7542954],[-2.9003745,53.7542477]]}},
{"type":"Feature","properties":{"id":37433,"nach":0.62352016207544747},"geometry":{"type":"LineString","coordinates":[[-2.8925485,53.7504012],[-2.8926828,53.750380100000015]]}},
{"type":"Feature","properties":{"id":37430,"nach":0.5321422903046451},"geometry":{"type":"LineString","coordinates":[[-2.8925485,53.7504012],[-2.8925841,53.750476800000015]]}},
{"type":"Feature","properties":{"id":37432,"nach":0.62574543238869584},"geometry":{"type":"LineString","coordinates":[[-2.8925485,53.7504012],[-2.8924233,53.75041490000001]]}},
{"type":"Feature","properties":{"id":17719,"nach":0.46858024976626517},"geometry":{"type":"LineString","coordinates":[[-2.8927743,53.7507058],[-2.8927674,53.75077]]}},
{"type":"Feature","properties":{"id":17723,"nach":0.51900561284963476},"geometry":{"type":"LineString","coordinates":[[-2.8925405,53.7505856],[-2.892569,53.7506289],[-2.8926198,53.7506325],[-2.8926503,53.7506661],[-2.8927743,53.7507058]]}},
{"type":"Feature","properties":{"id":17727,"nach":0.0},"geometry":{"type":"LineString","coordinates":[[-2.8925904,53.750574],[-2.892692,53.7505831],[-2.8927738,53.75057],[-2.8928454,53.750592800000014],[-2.8928402,53.750641],[-2.8928862,53.750714100000017],[-2.8927743,53.7507058]]}},
{"type":"Feature","properties":{"id":14153,"nach":0.40294783167464987},"geometry":{"type":"LineString","coordinates":[[-2.8936122,53.7512034],[-2.8935917,53.7512185],[-2.893496,53.7512373],[-2.8934567,53.751202499999984],[-2.8933437,53.7511657],[-2.8932635,53.7510244]]}},
{"type":"Feature","properties":{"id":14154,"nach":0.45450300573731978},"geometry":{"type":"LineString","coordinates":[[-2.8930516,53.7512262],[-2.8929875,53.75111540000001],[-2.8929902,53.7510917],[-2.8930262,53.7510738],[-2.8931719,53.751043099999983],[-2.8932635,53.7510244]]}},
{"type":"Feature","properties":{"id":14148,"nach":0.36889723493688931},"geometry":{"type":"LineString","coordinates":[[-2.8938117,53.7511592],[-2.8936482,53.7511473]]}},
{"type":"Feature","properties":{"id":14152,"nach":0.43944216296715555},"geometry":{"type":"LineString","coordinates":[[-2.8936122,53.7512034],[-2.8936187,53.7511536],[-2.8936482,53.7511473]]}},
{"type":"Feature","properties":{"id":14151,"nach":0.43621529336213344},"geometry":{"type":"LineString","coordinates":[[-2.8936122,53.7512034],[-2.8938117,53.7511592]]}},
{"type":"Feature","properties":{"id":15984,"nach":0.5327316545773112},"geometry":{"type":"LineString","coordinates":[[-2.8844885,53.751322],[-2.88443330000001,53.751164]]}},
{"type":"Feature","properties":{"id":15988,"nach":0.45339498896637703},"geometry":{"type":"LineString","coordinates":[[-2.8846787,53.7511328],[-2.88443330000001,53.751164]]}},
{"type":"Feature","properties":{"id":15987,"nach":0.45339498896637703},"geometry":{"type":"LineString","coordinates":[[-2.884269,53.7511852],[-2.88443330000001,53.751164]]}},
{"type":"Feature","properties":{"id":21947,"nach":0.6578146080491728},"geometry":{"type":"LineString","coordinates":[[-2.8842031,53.7513565],[-2.8844885,53.751322]]}},
{"type":"Feature","properties":{"id":36496,"nach":0.47034952510283101},"geometry":{"type":"LineString","coordinates":[[-2.8841813,53.7512964],[-2.8842031,53.7513565]]}},
{"type":"Feature","properties":{"id":36463,"nach":0.6540322150189336},"geometry":{"type":"LineString","coordinates":[[-2.882988,53.7515092],[-2.8830778,53.7514953],[-2.8833626,53.7514582],[-2.8842031,53.7513565]]}},
{"type":"Feature","properties":{"id":16489,"nach":0.36200457944181319},"geometry":{"type":"LineString","coordinates":[[-2.8971242,53.7549901],[-2.8973675,53.7551208],[-2.8974695,53.755139800000016],[-2.89757,53.7551945]]}},
{"type":"Feature","properties":{"id":16488,"nach":0.35549802063090513},"geometry":{"type":"LineString","coordinates":[[-2.8971242,53.7549901],[-2.8963711,53.754561699999989]]}},
{"type":"Feature","properties":{"id":16491,"nach":0.44262765573484686},"geometry":{"type":"LineString","coordinates":[[-2.8959285,53.7553745],[-2.896178,53.7553571],[-2.8963764,53.7552872],[-2.8967547,53.755166],[-2.8969252,53.7550899],[-2.8971242,53.7549901]]}},
{"type":"Feature","properties":{"id":16496,"nach":0.51160020209892132},"geometry":{"type":"LineString","coordinates":[[-2.8950353,53.7556441],[-2.8955517,53.7555196],[-2.8956858,53.7554942],[-2.8958293,53.7554459],[-2.8959285,53.7553745]]}},
{"type":"Feature","properties":{"id":16502,"nach":0.45419222309365742},"geometry":{"type":"LineString","coordinates":[[-2.8956335,53.754904300000014],[-2.8956389,53.75503830000001],[-2.8959285,53.7553745]]}},
{"type":"Feature","properties":{"id":16509,"nach":0.51805652614304587},"geometry":{"type":"LineString","coordinates":[[-2.8950192,53.755537500000017],[-2.8950353,53.7556441]]}},
{"type":"Feature","properties":{"id":16499,"nach":0.4361582793313733},"geometry":{"type":"LineString","coordinates":[[-2.8946662,53.7557291],[-2.894729,53.755699900000025],[-2.8950353,53.7556441]]}},
{"type":"Feature","properties":{"id":16503,"nach":0.37079320367174901},"geometry":{"type":"LineString","coordinates":[[-2.8962061,53.7547442],[-2.8956335,53.754904300000014]]}},
{"type":"Feature","properties":{"id":16504,"nach":0.37438413636757578},"geometry":{"type":"LineString","coordinates":[[-2.895317,53.754926500000018],[-2.8954833,53.7548805],[-2.8956335,53.754904300000014]]}},
{"type":"Feature","properties":{"id":16510,"nach":0.34094262211234005},"geometry":{"type":"LineString","coordinates":[[-2.8950192,53.755537500000017],[-2.8949925,53.7554847],[-2.8947859,53.755246],[-2.8947806,53.7551509],[-2.8947162,53.7550922]]}},
{"type":"Feature","properties":{"id":24275,"nach":0.51899343299096989},"geometry":{"type":"LineString","coordinates":[[-2.8943949,53.755175800000011],[-2.8944517,53.7552127],[-2.8945077,53.7552939],[-2.894772,53.7554017],[-2.8950192,53.755537500000017]]}},
{"type":"Feature","properties":{"id":23069,"nach":0.51979590148258947},"geometry":{"type":"LineString","coordinates":[[-2.8944472,53.755465],[-2.8946662,53.7557291]]}},
{"type":"Feature","properties":{"id":29222,"nach":0.5287356962879417},"geometry":{"type":"LineString","coordinates":[[-2.8948528,53.7559614],[-2.8947404,53.7558328],[-2.8946662,53.7557291]]}},
{"type":"Feature","properties":{"id":23072,"nach":0.40051190711835938},"geometry":{"type":"LineString","coordinates":[[-2.89376,53.7556897],[-2.8936814,53.7556035],[-2.8940349,53.755494],[-2.8941443,53.7554974],[-2.8942256,53.7555338],[-2.8944472,53.755465]]}},
{"type":"Feature","properties":{"id":29224,"nach":0.40159849750439985},"geometry":{"type":"LineString","coordinates":[[-2.8948528,53.7559614],[-2.8945152,53.7560655],[-2.8942591,53.7560497]]}},
{"type":"Feature","properties":{"id":16508,"nach":0.40424098436739753},"geometry":{"type":"LineString","coordinates":[[-2.8952151,53.7549551],[-2.8947162,53.7550922]]}},
{"type":"Feature","properties":{"id":24276,"nach":0.44512131988818976},"geometry":{"type":"LineString","coordinates":[[-2.8943949,53.755175800000011],[-2.8945914,53.7551215],[-2.8947162,53.7550922]]}},
{"type":"Feature","properties":{"id":18065,"nach":0.4643103272449155},"geometry":{"type":"LineString","coordinates":[[-2.8925841,53.750476800000015],[-2.8927162,53.7504562],[-2.8926828,53.750380100000015]]}},
{"type":"Feature","properties":{"id":18064,"nach":0.52683974758945329},"geometry":{"type":"LineString","coordinates":[[-2.8925841,53.750476800000015],[-2.8925981,53.7505117],[-2.8926082,53.7505427],[-2.8925904,53.750574]]}},
{"type":"Feature","properties":{"id":17725,"nach":0.52362081268650029},"geometry":{"type":"LineString","coordinates":[[-2.8925904,53.750574],[-2.8925405,53.7505856]]}},
{"type":"Feature","properties":{"id":37425,"nach":0.51620357191047372},"geometry":{"type":"LineString","coordinates":[[-2.8924233,53.75041490000001],[-2.8924567,53.7504812],[-2.8924902,53.7505554],[-2.8925405,53.7505856]]}},
{"type":"Feature","properties":{"id":37435,"nach":0.55269503834903477},"geometry":{"type":"LineString","coordinates":[[-2.8947045,53.74976430000001],[-2.8946825,53.749760100000017],[-2.8945562,53.7497325]]}},
{"type":"Feature","properties":{"id":31403,"nach":0.66827223576405537},"geometry":{"type":"LineString","coordinates":[[-2.8953215,53.7494908],[-2.8947575,53.7496682],[-2.8945562,53.7497325]]}},
{"type":"Feature","properties":{"id":37434,"nach":0.57271109968891587},"geometry":{"type":"LineString","coordinates":[[-2.8947045,53.74976430000001],[-2.8947943,53.7497812]]}},
{"type":"Feature","properties":{"id":37440,"nach":0.47850903939458911},"geometry":{"type":"LineString","coordinates":[[-2.8945308,53.749855],[-2.8945455,53.7498503],[-2.8947045,53.74976430000001]]}},
{"type":"Feature","properties":{"id":31405,"nach":0.56564950768662747},"geometry":{"type":"LineString","coordinates":[[-2.8954088,53.7495882],[-2.8953215,53.7494908]]}},
{"type":"Feature","properties":{"id":31411,"nach":0.4703682792660227},"geometry":{"type":"LineString","coordinates":[[-2.8949003,53.749894500000011],[-2.8948764,53.74996010000001],[-2.8951317,53.7502259]]}},
{"type":"Feature","properties":{"id":31416,"nach":0.48354975799892236},"geometry":{"type":"LineString","coordinates":[[-2.8948463,53.74983790000001],[-2.8949003,53.749894500000011]]}},
{"type":"Feature","properties":{"id":31414,"nach":0.46445611161780592},"geometry":{"type":"LineString","coordinates":[[-2.8954566,53.7496434],[-2.8955054,53.7496983],[-2.895398,53.7497331],[-2.8950296,53.7498526],[-2.8949003,53.749894500000011]]}},
{"type":"Feature","properties":{"id":37413,"nach":0.57194486611058615},"geometry":{"type":"LineString","coordinates":[[-2.8857126,53.7512459],[-2.8859696,53.751875800000015],[-2.88596930000001,53.7519548]]}},
{"type":"Feature","properties":{"id":20611,"nach":0.55753656178988309},"geometry":{"type":"LineString","coordinates":[[-2.8854344,53.7520534],[-2.88596930000001,53.7519548]]}},
{"type":"Feature","properties":{"id":20621,"nach":0.0},"geometry":{"type":"LineString","coordinates":[[-2.8855778,53.7522643],[-2.8859298,53.752848400000012],[-2.885942,53.752872099999983],[-2.8863354,53.7527987],[-2.8863626,53.7527837],[-2.8863768,53.7527669],[-2.8863819,53.7527493],[-2.88596930000001,53.7519548]]}},
{"type":"Feature","properties":{"id":20623,"nach":0.50186482806719768},"geometry":{"type":"LineString","coordinates":[[-2.8847001,53.7521898],[-2.8854344,53.7520534]]}},
{"type":"Feature","properties":{"id":20620,"nach":0.48050090551029451},"geometry":{"type":"LineString","coordinates":[[-2.8855778,53.7522643],[-2.8854344,53.7520534]]}},
{"type":"Feature","properties":{"id":20622,"nach":0.41868526597912781},"geometry":{"type":"LineString","coordinates":[[-2.8855778,53.7522643],[-2.885244,53.75239280000001],[-2.88527380000001,53.752466],[-2.8855829,53.753073800000017]]}},
{"type":"Feature","properties":{"id":23526,"nach":0.39759742167629042},"geometry":{"type":"LineString","coordinates":[[-2.9002343,53.7543449],[-2.9003957,53.7543672],[-2.9004884,53.7543997],[-2.9007035,53.7544419]]}},
{"type":"Feature","properties":{"id":21805,"nach":0.47735192595424819},"geometry":{"type":"LineString","coordinates":[[-2.900393,53.7549841],[-2.9004887,53.7549004],[-2.9007035,53.7544419]]}},
{"type":"Feature","properties":{"id":23527,"nach":0.3902067940428533},"geometry":{"type":"LineString","coordinates":[[-2.9014771,53.7547229],[-2.9011321,53.754521200000021],[-2.9008359,53.7544611],[-2.9007035,53.7544419]]}},
{"type":"Feature","properties":{"id":21807,"nach":0.54072486995658309},"geometry":{"type":"LineString","coordinates":[[-2.8994917,53.7548447],[-2.900393,53.7549841]]}},
{"type":"Feature","properties":{"id":23525,"nach":0.50206579550235242},"geometry":{"type":"LineString","coordinates":[[-2.9006739,53.7553087],[-2.9005837,53.755175100000017],[-2.9004922,53.7550518],[-2.900393,53.7549841]]}},
{"type":"Feature","properties":{"id":27916,"nach":0.60200538035851203},"geometry":{"type":"LineString","coordinates":[[-2.89953940000001,53.7546656],[-2.8994917,53.7548447]]}},
{"type":"Feature","properties":{"id":28445,"nach":0.57307097188572453},"geometry":{"type":"LineString","coordinates":[[-2.8994017,53.7551562],[-2.8994052,53.7551159],[-2.8994917,53.7548447]]}},
{"type":"Feature","properties":{"id":28436,"nach":0.45613987097995357},"geometry":{"type":"LineString","coordinates":[[-2.9002458,53.7554066],[-2.9006739,53.7553087]]}},
{"type":"Feature","properties":{"id":23528,"nach":0.44113214660183242},"geometry":{"type":"LineString","coordinates":[[-2.9017586,53.7550698],[-2.9006739,53.7553087]]}},
{"type":"Feature","properties":{"id":27917,"nach":0.60269979417896891},"geometry":{"type":"LineString","coordinates":[[-2.89953940000001,53.7546656],[-2.8996021,53.754398],[-2.8997166,53.75415850000001]]}},
{"type":"Feature","properties":{"id":27920,"nach":0.46539147745407528},"geometry":{"type":"LineString","coordinates":[[-2.8987809,53.7546184],[-2.8991031,53.754624699999987],[-2.8993406,53.7546587],[-2.89953940000001,53.7546656]]}},
{"type":"Feature","properties":{"id":28446,"nach":0.48927257409812602},"geometry":{"type":"LineString","coordinates":[[-2.8994017,53.7551562],[-2.8990173,53.755137],[-2.8984112,53.7552639]]}},
{"type":"Feature","properties":{"id":28457,"nach":0.55479760379060827},"geometry":{"type":"LineString","coordinates":[[-2.8996182,53.7555272],[-2.8993982,53.7551973],[-2.8994017,53.7551562]]}},
{"type":"Feature","properties":{"id":28477,"nach":0.62123102273855968},"geometry":{"type":"LineString","coordinates":[[-2.899212300000011,53.7539568],[-2.8994304,53.754073],[-2.8997166,53.75415850000001]]}},
{"type":"Feature","properties":{"id":28476,"nach":0.5779674786086656},"geometry":{"type":"LineString","coordinates":[[-2.899212300000011,53.7539568],[-2.8989905,53.7539968],[-2.8989476,53.753973]]}},
{"type":"Feature","properties":{"id":28438,"nach":0.0},"geometry":{"type":"LineString","coordinates":[[-2.9002458,53.7554066],[-2.9002057,53.755525100000014],[-2.9001975,53.755669899999987],[-2.9002726,53.7558189],[-2.9003638,53.755901399999985],[-2.9004657,53.7559204],[-2.9016191,53.755654],[-2.9017854,53.7555969],[-2.9019141,53.7554605],[-2.9019195,53.7553147],[-2.9017586,53.7550698]]}},
{"type":"Feature","properties":{"id":28437,"nach":0.40481190270344758},"geometry":{"type":"LineString","coordinates":[[-2.9002458,53.7554066],[-2.90016,53.7553622]]}},
{"type":"Feature","properties":{"id":24611,"nach":0.60696071556850362},"geometry":{"type":"LineString","coordinates":[[-2.9003745,53.7542477],[-2.8997166,53.75415850000001]]}},
{"type":"Feature","properties":{"id":24612,"nach":0.59886444707077058},"geometry":{"type":"LineString","coordinates":[[-2.9003745,53.7542477],[-2.9004647,53.75408],[-2.900442,53.7538433],[-2.9004889,53.753725100000011],[-2.90064,53.7536156],[-2.9009271,53.75351],[-2.90106650000001,53.7534624],[-2.901209,53.7534122]]}},
{"type":"Feature","properties":{"id":29179,"nach":0.58799154539264531},"geometry":{"type":"LineString","coordinates":[[-2.9016989,53.7532402],[-2.901209,53.7534122]]}},
{"type":"Feature","properties":{"id":28312,"nach":0.42705720266285746},"geometry":{"type":"LineString","coordinates":[[-2.9020309,53.754001799999983],[-2.9013682,53.7535822],[-2.901209,53.7534122]]}},
{"type":"Feature","properties":{"id":29181,"nach":0.40128161237652921},"geometry":{"type":"LineString","coordinates":[[-2.9016989,53.7532402],[-2.9018846,53.7534051],[-2.9020084,53.7534155],[-2.9021428,53.7534009],[-2.9023587,53.753283700000019]]}},
{"type":"Feature","properties":{"id":29186,"nach":0.58210115960908926},"geometry":{"type":"LineString","coordinates":[[-2.9023534,53.7529916],[-2.9021506,53.7530816],[-2.9016989,53.7532402]]}},
{"type":"Feature","properties":{"id":27923,"nach":0.46423872928711979},"geometry":{"type":"LineString","coordinates":[[-2.8980167,53.7547618],[-2.8980947,53.754766],[-2.8983362,53.7547123],[-2.8987809,53.7546184]]}},
{"type":"Feature","properties":{"id":28468,"nach":0.44358094201621678},"geometry":{"type":"LineString","coordinates":[[-2.89836150000001,53.7540959],[-2.8985238,53.7543378],[-2.89863650000001,53.7544234],[-2.8987809,53.7546184]]}},
{"type":"Feature","properties":{"id":28470,"nach":0.34418120749456083},"geometry":{"type":"LineString","coordinates":[[-2.897467,53.7542839],[-2.8975743,53.7544805],[-2.8977099,53.754571],[-2.8979504,53.7547374],[-2.8980167,53.7547618]]}},
{"type":"Feature","properties":{"id":28434,"nach":0.38900702914142571},"geometry":{"type":"LineString","coordinates":[[-2.8986043,53.7556699],[-2.8982314,53.7550815],[-2.8981791,53.7550205],[-2.89810540000001,53.7549571],[-2.8980169,53.7548278],[-2.8980167,53.7547618]]}},
{"type":"Feature","properties":{"id":28466,"nach":0.51748278563822869},"geometry":{"type":"LineString","coordinates":[[-2.89836150000001,53.7540959],[-2.89877860000001,53.7540071]]}},
{"type":"Feature","properties":{"id":28469,"nach":0.45285732728882783},"geometry":{"type":"LineString","coordinates":[[-2.897467,53.7542839],[-2.89836150000001,53.7540959]]}},
{"type":"Feature","properties":{"id":28478,"nach":0.4099495443555593},"geometry":{"type":"LineString","coordinates":[[-2.8970325,53.7543378],[-2.8972786,53.7543073],[-2.897467,53.7542839]]}},
{"type":"Feature","properties":{"id":28453,"nach":0.40306081561515722},"geometry":{"type":"LineString","coordinates":[[-2.9000869,53.7560132],[-2.8989422,53.7562756]]}},
{"type":"Feature","properties":{"id":28456,"nach":0.53377949796853852},"geometry":{"type":"LineString","coordinates":[[-2.8996182,53.7555272],[-2.8998488,53.755650799999984],[-2.9000869,53.7560132]]}},
{"type":"Feature","properties":{"id":28441,"nach":0.4094721909500888},"geometry":{"type":"LineString","coordinates":[[-2.8984112,53.7552639],[-2.8983629,53.7552005]]}},
{"type":"Feature","properties":{"id":28442,"nach":0.4094721909500888},"geometry":{"type":"LineString","coordinates":[[-2.8984112,53.7552639],[-2.8984541,53.7553273]]}},
{"type":"Feature","properties":{"id":28458,"nach":0.48611960838739726},"geometry":{"type":"LineString","coordinates":[[-2.8996182,53.7555272],[-2.8993768,53.7556191],[-2.8987229,53.7557604]]}},
{"type":"Feature","properties":{"id":28448,"nach":0.40492588618032094},"geometry":{"type":"LineString","coordinates":[[-2.8987229,53.7557604],[-2.8986579,53.7556604]]}},
{"type":"Feature","properties":{"id":28451,"nach":0.40608454660633697},"geometry":{"type":"LineString","coordinates":[[-2.8985989,53.755787200000022],[-2.8987229,53.7557604]]}},
{"type":"Feature","properties":{"id":28465,"nach":0.55347650911723723},"geometry":{"type":"LineString","coordinates":[[-2.89877860000001,53.7540071],[-2.8989476,53.753973]]}},
{"type":"Feature","properties":{"id":29220,"nach":0.43606806081726834},"geometry":{"type":"LineString","coordinates":[[-2.8993687,53.7541881],[-2.8990106,53.7540398],[-2.8989476,53.753973]]}},
{"type":"Feature","properties":{"id":28463,"nach":0.43548015355167652},"geometry":{"type":"LineString","coordinates":[[-2.89877860000001,53.7540071],[-2.8986472,53.7537922]]}},
{"type":"Feature","properties":{"id":37418,"nach":0.62545082135997998},"geometry":{"type":"LineString","coordinates":[[-2.8906364,53.7506652],[-2.8906446,53.7506829],[-2.8906912,53.7507621],[-2.8907312,53.7508288],[-2.8907806,53.7508771],[-2.8908385,53.7509055],[-2.8909011,53.750922],[-2.891007,53.7509331]]}},
{"type":"Feature","properties":{"id":31400,"nach":0.46799153485585193},"geometry":{"type":"LineString","coordinates":[[-2.8910366,53.7508248],[-2.8910487,53.75086],[-2.8910346,53.7509059],[-2.891007,53.7509331]]}},
{"type":"Feature","properties":{"id":37417,"nach":0.63216206859624713},"geometry":{"type":"LineString","coordinates":[[-2.8906364,53.7506652],[-2.888061,53.7509481]]}},
{"type":"Feature","properties":{"id":31413,"nach":0.53988477717388239},"geometry":{"type":"LineString","coordinates":[[-2.8954566,53.7496434],[-2.8954088,53.7495882]]}},
{"type":"Feature","properties":{"id":31409,"nach":0.52618540266828429},"geometry":{"type":"LineString","coordinates":[[-2.8947943,53.7497812],[-2.8949243,53.7497414],[-2.8953005,53.7496222],[-2.8954088,53.7495882]]}},
{"type":"Feature","properties":{"id":31418,"nach":0.42184013577791662},"geometry":{"type":"LineString","coordinates":[[-2.8948463,53.74983790000001],[-2.8949796,53.749795399999989],[-2.8953482,53.749678],[-2.8954566,53.7496434]]}},
{"type":"Feature","properties":{"id":31417,"nach":0.51393569739221445},"geometry":{"type":"LineString","coordinates":[[-2.8948463,53.74983790000001],[-2.8947943,53.7497812]]}},
{"type":"Feature","properties":{"id":31936,"nach":0.46399897408792495},"geometry":{"type":"LineString","coordinates":[[-2.8896374,53.7504379],[-2.8894897,53.7504539]]}},
{"type":"Feature","properties":{"id":31938,"nach":0.46376966389400948},"geometry":{"type":"LineString","coordinates":[[-2.8896374,53.7504379],[-2.8896694,53.7505452]]}},
{"type":"Feature","properties":{"id":37441,"nach":0.47269250101807803},"geometry":{"type":"LineString","coordinates":[[-2.8945308,53.749855],[-2.8946881,53.7499575],[-2.8948235,53.7500954]]}},
{"type":"Feature","properties":{"id":38002,"nach":0.24233336613383513},"geometry":{"type":"LineString","coordinates":[[-2.887514,53.7529727],[-2.8884494,53.7527646],[-2.8891146,53.7526345],[-2.8893077,53.752615500000012],[-2.8893668,53.7526314],[-2.8896618,53.75311030000001],[-2.8896833,53.753234],[-2.8897315,53.7533545],[-2.8898013,53.7534782],[-2.8897584,53.753592400000016]]}},
{"type":"Feature","properties":{"id":38001,"nach":0.34785134952339208},"geometry":{"type":"LineString","coordinates":[[-2.887514,53.7529727],[-2.8867153,53.75315040000001]]}},
{"type":"Feature","properties":{"id":38004,"nach":0.2770826430293945},"geometry":{"type":"LineString","coordinates":[[-2.8878232,53.7536311],[-2.8877503,53.7534293],[-2.8876427,53.753185100000017],[-2.887514,53.7529727]]}}
]
}
