{
"type": "FeatureCollection",
"name": "FYLDE_32_NACH",
"crs": { "type": "name", "properties": { "name": "urn:ogc:def:crs:OGC:1.3:CRS84" } },
"features": [
{ "type": "Feature", "properties": { "id": 14943, "nach": 0.48689866437109836 }, "geometry": { "type": "LineString", "coordinates": [ [ -2.8844009, 53.7792145 ], [ -2.8844457, 53.7791043 ] ] } },
{ "type": "Feature", "properties": { "id": 24956, "nach": 0.41957951727580911 }, "geometry": { "type": "LineString", "coordinates": [ [ -2.8785283, 53.7782175 ], [ -2.879077, 53.7782358 ], [ -2.8798297, 53.7782803 ], [ -2.8805899, 53.778353 ], [ -2.881341, 53.778443500000016 ], [ -2.8820889, 53.7785581 ], [ -2.8827577, 53.778684 ], [ -2.8833475, 53.7788108 ], [ -2.8838836, 53.7789478 ], [ -2.8844457, 53.7791043 ] ] } },
{ "type": "Feature", "properties": { "id": 10450, "nach": 0.45444090007983817 }, "geometry": { "type": "LineString", "coordinates": [ [ -2.8869255, 53.779975400000012 ], [ -2.886201, 53.77970590000001 ], [ -2.8854042, 53.7794108 ], [ -2.884891, 53.7792408 ], [ -2.8844457, 53.7791043 ] ] } },
{ "type": "Feature", "properties": { "id": 36974, "nach": 0.0 }, "geometry": { "type": "LineString", "coordinates": [ [ -2.8914629, 53.7742601 ], [ -2.8914122, 53.7745112 ], [ -2.8911252, 53.7754298 ], [ -2.8910827, 53.7757916 ], [ -2.8909607, 53.7761259 ], [ -2.8907038, 53.7764096 ], [ -2.89038720000001, 53.7765798 ], [ -2.8897126, 53.7769018 ], [ -2.8892299, 53.7770767 ], [ -2.8891988, 53.7771288 ], [ -2.889178, 53.7771625 ], [ -2.8890768, 53.7771871 ], [ -2.8860018, 53.7777452 ], [ -2.8850107, 53.7779196 ], [ -2.8849317, 53.7780739 ], [ -2.8845354, 53.77888560000001 ], [ -2.8844457, 53.7791043 ] ] } },
{ "type": "Feature", "properties": { "id": 14940, "nach": 0.49953238202611377 }, "geometry": { "type": "LineString", "coordinates": [ [ -2.8844009, 53.7792145 ], [ -2.8839722, 53.7801282 ] ] } },
{ "type": "Feature", "properties": { "id": 32929, "nach": 0.41615523123720433 }, "geometry": { "type": "LineString", "coordinates": [ [ -2.8845409, 53.779249 ], [ -2.8844009, 53.7792145 ] ] } },
{ "type": "Feature", "properties": { "id": 32930, "nach": 0.41615523123720433 }, "geometry": { "type": "LineString", "coordinates": [ [ -2.8842706, 53.7791823 ], [ -2.8844009, 53.7792145 ] ] } },
{ "type": "Feature", "properties": { "id": 24957, "nach": 0.47769367218950315 }, "geometry": { "type": "LineString", "coordinates": [ [ -2.8785283, 53.7782175 ], [ -2.8788928, 53.7785094 ], [ -2.8790142, 53.778636699999986 ], [ -2.87917, 53.7788534 ], [ -2.8791815, 53.7788859 ], [ -2.879177, 53.7789659 ] ] } },
{ "type": "Feature", "properties": { "id": 32922, "nach": 0.36695810303827187 }, "geometry": { "type": "LineString", "coordinates": [ [ -2.870607, 53.7781914 ], [ -2.8716322, 53.7781971 ], [ -2.873063, 53.7782078 ], [ -2.8735285, 53.7782077 ], [ -2.8741627, 53.7782043 ], [ -2.874956, 53.778204099999989 ], [ -2.8756385, 53.7782097 ], [ -2.8769274, 53.7782098 ], [ -2.8785283, 53.7782175 ] ] } },
{ "type": "Feature", "properties": { "id": 10449, "nach": 0.38332338114821574 }, "geometry": { "type": "LineString", "coordinates": [ [ -2.8869255, 53.779975400000012 ], [ -2.8872816, 53.7800335 ], [ -2.8878884, 53.7801802 ], [ -2.8883054, 53.7802736 ], [ -2.8886219, 53.7803388 ], [ -2.8888877, 53.7803935 ], [ -2.8895035, 53.7805166 ] ] } },
{ "type": "Feature", "properties": { "id": 32933, "nach": 0.42281611671820246 }, "geometry": { "type": "LineString", "coordinates": [ [ -2.8889322, 53.780576099999983 ], [ -2.8887777, 53.7805448 ], [ -2.8884012, 53.7804646 ], [ -2.8880416, 53.7803791 ], [ -2.8876035, 53.7802572 ], [ -2.8872164, 53.780133900000017 ], [ -2.8869255, 53.779975400000012 ] ] } },
{ "type": "Feature", "properties": { "id": 2270, "nach": 0.59303124769693139 }, "geometry": { "type": "LineString", "coordinates": [ [ -2.882469, 53.7854737 ], [ -2.8834226, 53.7863898 ], [ -2.8835406, 53.7865108 ], [ -2.8836147, 53.7866149 ], [ -2.8836491, 53.7867136 ], [ -2.8836501, 53.7868159 ] ] } },
{ "type": "Feature", "properties": { "id": 2268, "nach": 0.39361482904380141 }, "geometry": { "type": "LineString", "coordinates": [ [ -2.882469, 53.7854737 ], [ -2.8827916, 53.785356500000013 ] ] } },
{ "type": "Feature", "properties": { "id": 17136, "nach": 0.59418409743155798 }, "geometry": { "type": "LineString", "coordinates": [ [ -2.8823286, 53.7853351 ], [ -2.882469, 53.7854737 ] ] } },
{ "type": "Feature", "properties": { "id": 36432, "nach": 0.67815520026504483 }, "geometry": { "type": "LineString", "coordinates": [ [ -2.8763595, 53.7819001 ], [ -2.8765574, 53.7818726 ] ] } },
{ "type": "Feature", "properties": { "id": 1805, "nach": 0.59369281151667019 }, "geometry": { "type": "LineString", "coordinates": [ [ -2.8768821, 53.7818072 ], [ -2.8765574, 53.7818726 ] ] } },
{ "type": "Feature", "properties": { "id": 36440, "nach": 0.64618811870830462 }, "geometry": { "type": "LineString", "coordinates": [ [ -2.8765711, 53.7817411 ], [ -2.8765574, 53.7818726 ] ] } },
{ "type": "Feature", "properties": { "id": 36436, "nach": 0.65067267101155279 }, "geometry": { "type": "LineString", "coordinates": [ [ -2.8766534, 53.7819206 ], [ -2.8765574, 53.7818726 ] ] } },
{ "type": "Feature", "properties": { "id": 36433, "nach": 0.67711372484240839 }, "geometry": { "type": "LineString", "coordinates": [ [ -2.8763595, 53.7819001 ], [ -2.8762917, 53.7819095 ], [ -2.8755369, 53.7820144 ] ] } },
{ "type": "Feature", "properties": { "id": 36443, "nach": 0.0 }, "geometry": { "type": "LineString", "coordinates": [ [ -2.8765711, 53.7817411 ], [ -2.8764853, 53.7817578 ], [ -2.8764733, 53.7817927 ], [ -2.8764518, 53.7818085 ], [ -2.8764062, 53.7818244 ], [ -2.8763325, 53.7818323 ], [ -2.8763595, 53.7819001 ] ] } },
{ "type": "Feature", "properties": { "id": 36438, "nach": 0.0 }, "geometry": { "type": "LineString", "coordinates": [ [ -2.8766534, 53.7819206 ], [ -2.87659530000001, 53.78198840000001 ], [ -2.8765457, 53.7819678 ], [ -2.8764907, 53.7819551 ], [ -2.87642360000001, 53.78195430000001 ], [ -2.8763874, 53.7819551 ], [ -2.8763595, 53.7819001 ] ] } },
{ "type": "Feature", "properties": { "id": 1806, "nach": 0.62544268493713906 }, "geometry": { "type": "LineString", "coordinates": [ [ -2.8768821, 53.7818072 ], [ -2.8769555, 53.7817964 ], [ -2.8778761, 53.7816543 ], [ -2.8797083, 53.7814711 ] ] } },
{ "type": "Feature", "properties": { "id": 36439, "nach": 0.52209326873159345 }, "geometry": { "type": "LineString", "coordinates": [ [ -2.8766534, 53.7819206 ], [ -2.876826, 53.7819052 ], [ -2.8768229, 53.7818926 ], [ -2.87683, 53.781879100000012 ], [ -2.8768582, 53.7818648 ], [ -2.8769024, 53.7818561 ], [ -2.8768821, 53.7818072 ] ] } },
{ "type": "Feature", "properties": { "id": 36442, "nach": 0.4974929002197811 }, "geometry": { "type": "LineString", "coordinates": [ [ -2.8765711, 53.7817411 ], [ -2.8766744, 53.7817237 ], [ -2.8766865, 53.78175310000001 ], [ -2.876708, 53.781764900000013 ], [ -2.8767294, 53.7817697 ], [ -2.8767629, 53.78176890000001 ], [ -2.8768555, 53.7817531 ], [ -2.8768821, 53.7818072 ] ] } },
{ "type": "Feature", "properties": { "id": 36441, "nach": 0.65269723411862446 }, "geometry": { "type": "LineString", "coordinates": [ [ -2.8765711, 53.7817411 ], [ -2.8765785, 53.7816942 ], [ -2.8766169, 53.7813694 ] ] } },
{ "type": "Feature", "properties": { "id": 36437, "nach": 0.66011403040106298 }, "geometry": { "type": "LineString", "coordinates": [ [ -2.8766534, 53.7819206 ], [ -2.8767029, 53.7819454 ], [ -2.8772864, 53.7822376 ], [ -2.8776994, 53.7825229 ], [ -2.8779728, 53.7828099 ] ] } },
{ "type": "Feature", "properties": { "id": 33246, "nach": 0.63732019329503786 }, "geometry": { "type": "LineString", "coordinates": [ [ -2.8722072, 53.7824386 ], [ -2.8720597, 53.782448 ], [ -2.8717477, 53.7824678 ], [ -2.8715707, 53.7824712 ], [ -2.8712801, 53.7824768 ] ] } },
{ "type": "Feature", "properties": { "id": 825, "nach": 0.6270980396419098 }, "geometry": { "type": "LineString", "coordinates": [ [ -2.869946, 53.7823537 ], [ -2.8704296, 53.7824039 ], [ -2.8712801, 53.7824768 ] ] } },
{ "type": "Feature", "properties": { "id": 831, "nach": 0.6045572329412694 }, "geometry": { "type": "LineString", "coordinates": [ [ -2.8707223, 53.7813794 ], [ -2.871007, 53.7817215 ], [ -2.8711681, 53.7819194 ], [ -2.8712675, 53.7821528 ], [ -2.8713064, 53.7823269 ], [ -2.8712801, 53.7824768 ] ] } },
{ "type": "Feature", "properties": { "id": 2051, "nach": 0.59159654525282201 }, "geometry": { "type": "LineString", "coordinates": [ [ -2.8711057, 53.7830438 ], [ -2.8711719, 53.7827909 ], [ -2.8712, 53.7826836 ], [ -2.871246, 53.7825648 ], [ -2.8712801, 53.7824768 ] ] } },
{ "type": "Feature", "properties": { "id": 33247, "nach": 0.64455178057286577 }, "geometry": { "type": "LineString", "coordinates": [ [ -2.8722072, 53.7824386 ], [ -2.8722944, 53.7824331 ], [ -2.8727739, 53.782379 ] ] } },
{ "type": "Feature", "properties": { "id": 33248, "nach": 0.46104685750849733 }, "geometry": { "type": "LineString", "coordinates": [ [ -2.8722072, 53.7824386 ], [ -2.8722569, 53.7825469 ], [ -2.8723075, 53.7826654 ], [ -2.8723561, 53.7829431 ], [ -2.8722428, 53.7829471 ], [ -2.8722004, 53.7829661 ], [ -2.8721739, 53.7829928 ], [ -2.8721633, 53.783000199999989 ], [ -2.8721457, 53.7830126 ], [ -2.8721015, 53.7830289 ], [ -2.871995200000011, 53.783037100000016 ] ] } },
{ "type": "Feature", "properties": { "id": 22048, "nach": 0.61903407116658515 }, "geometry": { "type": "LineString", "coordinates": [ [ -2.8694838, 53.7822606 ], [ -2.869946, 53.7823537 ] ] } },
{ "type": "Feature", "properties": { "id": 22050, "nach": 0.45090603453131822 }, "geometry": { "type": "LineString", "coordinates": [ [ -2.8696243, 53.7829669 ], [ -2.8697343, 53.782707 ], [ -2.8697933, 53.782695900000014 ], [ -2.869946, 53.7823537 ] ] } },
{ "type": "Feature", "properties": { "id": 1987, "nach": 0.59971750521965428 }, "geometry": { "type": "LineString", "coordinates": [ [ -2.8703702, 53.7806139 ], [ -2.870437, 53.7808353 ], [ -2.8705249, 53.7810787 ], [ -2.8707223, 53.7813794 ] ] } },
{ "type": "Feature", "properties": { "id": 11054, "nach": 0.43547292337244747 }, "geometry": { "type": "LineString", "coordinates": [ [ -2.8698243, 53.7811045 ], [ -2.8697921, 53.7813389 ], [ -2.8698457, 53.7814085 ], [ -2.869953, 53.7814782 ], [ -2.8701567, 53.7814846 ], [ -2.8707223, 53.7813794 ] ] } },
{ "type": "Feature", "properties": { "id": 24959, "nach": 0.58267472981264579 }, "geometry": { "type": "LineString", "coordinates": [ [ -2.8710974, 53.7834149 ], [ -2.871077, 53.7833053 ], [ -2.8711057, 53.7830438 ] ] } },
{ "type": "Feature", "properties": { "id": 27289, "nach": 0.45289536001445008 }, "geometry": { "type": "LineString", "coordinates": [ [ -2.871995200000011, 53.783037100000016 ], [ -2.8719512, 53.7830404 ], [ -2.8716576, 53.7830603 ], [ -2.8711057, 53.7830438 ] ] } },
{ "type": "Feature", "properties": { "id": 22047, "nach": 0.57730907096921158 }, "geometry": { "type": "LineString", "coordinates": [ [ -2.8694838, 53.7822606 ], [ -2.8689343, 53.7821499 ] ] } },
{ "type": "Feature", "properties": { "id": 22049, "nach": 0.56800736544257868 }, "geometry": { "type": "LineString", "coordinates": [ [ -2.8694838, 53.7822606 ], [ -2.8692596, 53.7826444 ] ] } },
{ "type": "Feature", "properties": { "id": 1986, "nach": 0.59723744191958017 }, "geometry": { "type": "LineString", "coordinates": [ [ -2.8703702, 53.7806139 ], [ -2.8702686, 53.7802978 ] ] } },
{ "type": "Feature", "properties": { "id": 11048, "nach": 0.52675661692375841 }, "geometry": { "type": "LineString", "coordinates": [ [ -2.8691728, 53.7806543 ], [ -2.8696223, 53.7806745 ], [ -2.8703702, 53.7806139 ] ] } },
{ "type": "Feature", "properties": { "id": 1993, "nach": 0.63783349352778973 }, "geometry": { "type": "LineString", "coordinates": [ [ -2.8700601, 53.7797402 ], [ -2.8702686, 53.7802978 ] ] } },
{ "type": "Feature", "properties": { "id": 1802, "nach": 0.62457372944497591 }, "geometry": { "type": "LineString", "coordinates": [ [ -2.8711857, 53.7801962 ], [ -2.8702686, 53.7802978 ] ] } },
{ "type": "Feature", "properties": { "id": 2063, "nach": 0.634795092733346 }, "geometry": { "type": "LineString", "coordinates": [ [ -2.8699756, 53.7792933 ], [ -2.8700601, 53.7797402 ] ] } },
{ "type": "Feature", "properties": { "id": 1998, "nach": 0.52177117188176803 }, "geometry": { "type": "LineString", "coordinates": [ [ -2.8693862, 53.7797553 ], [ -2.8700601, 53.7797402 ] ] } },
{ "type": "Feature", "properties": { "id": 2102, "nach": 0.62904570018638972 }, "geometry": { "type": "LineString", "coordinates": [ [ -2.8713911, 53.78046590000001 ], [ -2.8711857, 53.7801962 ] ] } },
{ "type": "Feature", "properties": { "id": 1832, "nach": 0.48445170438028773 }, "geometry": { "type": "LineString", "coordinates": [ [ -2.8711441, 53.7789535 ], [ -2.8709323, 53.7790687 ], [ -2.8709752, 53.7794237 ], [ -2.8711857, 53.7801962 ] ] } },
{ "type": "Feature", "properties": { "id": 1984, "nach": 0.25289750420480089 }, "geometry": { "type": "LineString", "coordinates": [ [ -2.8708539, 53.78384290000001 ], [ -2.8703217, 53.7839646 ], [ -2.8699935, 53.7840862 ], [ -2.8698153, 53.7841522 ], [ -2.8695363, 53.7842315 ], [ -2.8692359, 53.7842632 ], [ -2.8689999, 53.7841744 ], [ -2.8687638, 53.7841618 ], [ -2.8686442, 53.7841985 ], [ -2.8679699, 53.784542100000017 ], [ -2.8672618, 53.7849224 ], [ -2.8671009, 53.7849668 ], [ -2.866831, 53.7849275 ], [ -2.8659191, 53.7846676 ], [ -2.8654256, 53.7845155 ], [ -2.8651053, 53.7842822 ], [ -2.8648622, 53.783997499999984 ] ] } },
{ "type": "Feature", "properties": { "id": 26452, "nach": 0.52746719417131227 }, "geometry": { "type": "LineString", "coordinates": [ [ -2.8711314, 53.7838192 ], [ -2.8708539, 53.78384290000001 ] ] } },
{ "type": "Feature", "properties": { "id": 24962, "nach": 0.51030152771978587 }, "geometry": { "type": "LineString", "coordinates": [ [ -2.8706344, 53.7834817 ], [ -2.8706994, 53.78354370000001 ], [ -2.8708539, 53.78384290000001 ] ] } },
{ "type": "Feature", "properties": { "id": 11040, "nach": 0.56085392276087553 }, "geometry": { "type": "LineString", "coordinates": [ [ -2.8689343, 53.7821499 ], [ -2.8682333, 53.7820255 ], [ -2.8676918, 53.7819321 ], [ -2.8672763, 53.7818375 ], [ -2.8665306, 53.7815818 ] ] } },
{ "type": "Feature", "properties": { "id": 959, "nach": 0.51158949995382164 }, "geometry": { "type": "LineString", "coordinates": [ [ -2.8895035, 53.7805166 ], [ -2.8895241, 53.7805198 ], [ -2.8897279, 53.7805638 ] ] } },
{ "type": "Feature", "properties": { "id": 10429, "nach": 0.49421871476941021 }, "geometry": { "type": "LineString", "coordinates": [ [ -2.8892808, 53.7806326 ], [ -2.8893203, 53.7806014 ], [ -2.8893817, 53.7805625 ], [ -2.8894504, 53.78053220000001 ], [ -2.8895035, 53.7805166 ] ] } },
{ "type": "Feature", "properties": { "id": 10436, "nach": 0.59938759362809491 }, "geometry": { "type": "LineString", "coordinates": [ [ -2.879806, 53.7816746 ], [ -2.8797083, 53.7814711 ] ] } },
{ "type": "Feature", "properties": { "id": 2017, "nach": 0.63109460858865996 }, "geometry": { "type": "LineString", "coordinates": [ [ -2.87992810000001, 53.7814149 ], [ -2.8797083, 53.7814711 ] ] } },
{ "type": "Feature", "properties": { "id": 10447, "nach": 0.57286542392031026 }, "geometry": { "type": "LineString", "coordinates": [ [ -2.8799216, 53.7819002 ], [ -2.879806, 53.7816746 ] ] } },
{ "type": "Feature", "properties": { "id": 10451, "nach": 0.46047485792420645 }, "geometry": { "type": "LineString", "coordinates": [ [ -2.8800749, 53.7816144 ], [ -2.879806, 53.7816746 ] ] } },
{ "type": "Feature", "properties": { "id": 2047, "nach": 0.56005129435143786 }, "geometry": { "type": "LineString", "coordinates": [ [ -2.8796476, 53.780842100000015 ], [ -2.87992810000001, 53.7814149 ] ] } },
{ "type": "Feature", "properties": { "id": 26258, "nach": 0.63846252158570005 }, "geometry": { "type": "LineString", "coordinates": [ [ -2.8804186, 53.78129040000001 ], [ -2.87992810000001, 53.7814149 ] ] } },
{ "type": "Feature", "properties": { "id": 15618, "nach": 0.42597107916392135 }, "geometry": { "type": "LineString", "coordinates": [ [ -2.8711193, 53.773458700000013 ], [ -2.870963, 53.7735285 ], [ -2.8697293, 53.7739105 ], [ -2.8695935, 53.7739652 ], [ -2.8694816, 53.774031799999989 ], [ -2.8694192, 53.7741127 ], [ -2.8693882, 53.7741993 ], [ -2.8694004, 53.774287 ], [ -2.8694462, 53.774377 ], [ -2.8695447, 53.7744886 ], [ -2.8700947, 53.7750519 ], [ -2.8701734, 53.7751771 ], [ -2.8702002, 53.7752768 ], [ -2.8702242, 53.7759671 ], [ -2.8702212, 53.7764803 ] ] } },
{ "type": "Feature", "properties": { "id": 2101, "nach": 0.59066084827632459 }, "geometry": { "type": "LineString", "coordinates": [ [ -2.8713911, 53.78046590000001 ], [ -2.8715331, 53.7809959 ] ] } },
{ "type": "Feature", "properties": { "id": 10364, "nach": 0.57029777091289724 }, "geometry": { "type": "LineString", "coordinates": [ [ -2.8720558, 53.7804358 ], [ -2.8713911, 53.78046590000001 ] ] } },
{ "type": "Feature", "properties": { "id": 10426, "nach": 0.53039416135243733 }, "geometry": { "type": "LineString", "coordinates": [ [ -2.8714824, 53.77892820000001 ], [ -2.8711441, 53.7789535 ] ] } },
{ "type": "Feature", "properties": { "id": 10412, "nach": 0.50005649404233721 }, "geometry": { "type": "LineString", "coordinates": [ [ -2.8699572, 53.779071100000017 ], [ -2.8710061, 53.7788847 ], [ -2.8711441, 53.7789535 ] ] } },
{ "type": "Feature", "properties": { "id": 33265, "nach": 0.61349421705951523 }, "geometry": { "type": "LineString", "coordinates": [ [ -2.8744685, 53.7815635 ], [ -2.8745688, 53.78155 ] ] } },
{ "type": "Feature", "properties": { "id": 10386, "nach": 0.51789098965269043 }, "geometry": { "type": "LineString", "coordinates": [ [ -2.8749318, 53.7815076 ], [ -2.874816, 53.7815246 ], [ -2.8745688, 53.78155 ] ] } },
{ "type": "Feature", "properties": { "id": 10401, "nach": 0.59281727148212882 }, "geometry": { "type": "LineString", "coordinates": [ [ -2.8748574, 53.7820964 ], [ -2.8748237, 53.7820303 ], [ -2.8747227, 53.78180840000001 ], [ -2.8745688, 53.78155 ] ] } },
{ "type": "Feature", "properties": { "id": 33266, "nach": 0.61201345553642972 }, "geometry": { "type": "LineString", "coordinates": [ [ -2.8744685, 53.7815635 ], [ -2.8740958, 53.7816136 ] ] } },
{ "type": "Feature", "properties": { "id": 33267, "nach": 0.0 }, "geometry": { "type": "LineString", "coordinates": [ [ -2.8744685, 53.7815635 ], [ -2.8744894, 53.7816239 ], [ -2.8745395, 53.781769599999976 ], [ -2.8741737, 53.7818119 ] ] } },
{ "type": "Feature", "properties": { "id": 10385, "nach": 0.50983249108430817 }, "geometry": { "type": "LineString", "coordinates": [ [ -2.8749318, 53.7815076 ], [ -2.8759432, 53.7813596 ], [ -2.8766169, 53.7813694 ] ] } },
{ "type": "Feature", "properties": { "id": 10418, "nach": 0.4028215754536022 }, "geometry": { "type": "LineString", "coordinates": [ [ -2.875169, 53.7820588 ], [ -2.8749318, 53.7815076 ] ] } },
{ "type": "Feature", "properties": { "id": 10399, "nach": 0.60186294342359781 }, "geometry": { "type": "LineString", "coordinates": [ [ -2.8748574, 53.7820964 ], [ -2.8740328, 53.7822144 ] ] } },
{ "type": "Feature", "properties": { "id": 10416, "nach": 0.64318688740520891 }, "geometry": { "type": "LineString", "coordinates": [ [ -2.875169, 53.7820588 ], [ -2.8748574, 53.7820964 ] ] } },
{ "type": "Feature", "properties": { "id": 26254, "nach": 0.65843833208354097 }, "geometry": { "type": "LineString", "coordinates": [ [ -2.8766582, 53.7812897 ], [ -2.8766169, 53.7813694 ] ] } },
{ "type": "Feature", "properties": { "id": 26255, "nach": 0.65500229426818457 }, "geometry": { "type": "LineString", "coordinates": [ [ -2.8766582, 53.7812897 ], [ -2.8767001, 53.7812089 ], [ -2.8767166, 53.7811743 ] ] } },
{ "type": "Feature", "properties": { "id": 26257, "nach": 0.45627507552692448 }, "geometry": { "type": "LineString", "coordinates": [ [ -2.8772232, 53.7814694 ], [ -2.8772232, 53.78134270000001 ], [ -2.8771986, 53.7813116 ], [ -2.87713, 53.7812949 ], [ -2.8766582, 53.7812897 ] ] } },
{ "type": "Feature", "properties": { "id": 10407, "nach": 0.55718770331931666 }, "geometry": { "type": "LineString", "coordinates": [ [ -2.8783288, 53.778961 ], [ -2.8790539, 53.7789866 ] ] } },
{ "type": "Feature", "properties": { "id": 24953, "nach": 0.58579997169139364 }, "geometry": { "type": "LineString", "coordinates": [ [ -2.879177, 53.7789659 ], [ -2.8790539, 53.7789866 ] ] } },
{ "type": "Feature", "properties": { "id": 2001, "nach": 0.59672467075224778 }, "geometry": { "type": "LineString", "coordinates": [ [ -2.878319, 53.7797295 ], [ -2.8790539, 53.7789866 ] ] } },
{ "type": "Feature", "properties": { "id": 10408, "nach": 0.53801113159955005 }, "geometry": { "type": "LineString", "coordinates": [ [ -2.8783288, 53.778961 ], [ -2.8773155, 53.7789252 ] ] } },
{ "type": "Feature", "properties": { "id": 10409, "nach": 0.43783568594112465 }, "geometry": { "type": "LineString", "coordinates": [ [ -2.8783288, 53.778961 ], [ -2.8782597, 53.7786663 ] ] } },
{ "type": "Feature", "properties": { "id": 24952, "nach": 0.57090919690628161 }, "geometry": { "type": "LineString", "coordinates": [ [ -2.879177, 53.7789659 ], [ -2.8794009, 53.7789281 ] ] } },
{ "type": "Feature", "properties": { "id": 2056, "nach": 0.62330983007732177 }, "geometry": { "type": "LineString", "coordinates": [ [ -2.8780718, 53.7798781 ], [ -2.878319, 53.7797295 ] ] } },
{ "type": "Feature", "properties": { "id": 2026, "nach": 0.53802756614311908 }, "geometry": { "type": "LineString", "coordinates": [ [ -2.878921, 53.7797223 ], [ -2.878319, 53.7797295 ] ] } },
{ "type": "Feature", "properties": { "id": 1822, "nach": 0.52713425640640776 }, "geometry": { "type": "LineString", "coordinates": [ [ -2.8773155, 53.7789252 ], [ -2.8769694, 53.7789282 ], [ -2.8766238, 53.7789311 ], [ -2.876234, 53.7788064 ] ] } },
{ "type": "Feature", "properties": { "id": 10367, "nach": 0.48078737775494007 }, "geometry": { "type": "LineString", "coordinates": [ [ -2.8734747, 53.7785444 ], [ -2.8736627, 53.7784878 ], [ -2.8751577, 53.7783495 ], [ -2.875662, 53.7783738 ], [ -2.876234, 53.7788064 ] ] } },
{ "type": "Feature", "properties": { "id": 33761, "nach": 0.47076514225178495 }, "geometry": { "type": "LineString", "coordinates": [ [ -2.8749745, 53.7788795 ], [ -2.8752774, 53.7789298 ], [ -2.8755668, 53.778943 ], [ -2.8760002, 53.7789228 ], [ -2.876234, 53.7788064 ] ] } },
{ "type": "Feature", "properties": { "id": 10379, "nach": 0.43120504215372868 }, "geometry": { "type": "LineString", "coordinates": [ [ -2.8772584, 53.778388800000016 ], [ -2.8773382, 53.7784464 ], [ -2.8773155, 53.7789252 ] ] } },
{ "type": "Feature", "properties": { "id": 10427, "nach": 0.49535173609878991 }, "geometry": { "type": "LineString", "coordinates": [ [ -2.8714824, 53.77892820000001 ], [ -2.8716459, 53.7789159 ], [ -2.8720684, 53.778803 ], [ -2.87245730000001, 53.778702200000012 ], [ -2.8730292, 53.778672800000017 ], [ -2.8734747, 53.7785444 ] ] } },
{ "type": "Feature", "properties": { "id": 33760, "nach": 0.37226093544853567 }, "geometry": { "type": "LineString", "coordinates": [ [ -2.8749745, 53.7788795 ], [ -2.8749208, 53.7788697 ], [ -2.874683, 53.7789184 ], [ -2.8745475, 53.7788947 ], [ -2.8744322, 53.7788503 ], [ -2.8742445, 53.778752 ], [ -2.8741398, 53.77871480000001 ], [ -2.8739963, 53.778713200000013 ], [ -2.8738435, 53.7787211 ], [ -2.8736629, 53.7787401 ], [ -2.8735337, 53.7786133 ], [ -2.8734747, 53.7785444 ] ] } },
{ "type": "Feature", "properties": { "id": 33762, "nach": 0.48362577285706576 }, "geometry": { "type": "LineString", "coordinates": [ [ -2.8749745, 53.7788795 ], [ -2.8749204, 53.7789588 ], [ -2.8748707, 53.7790262 ], [ -2.8747246, 53.7791237 ], [ -2.8743276, 53.7791387 ], [ -2.8742297, 53.779092 ], [ -2.8740875, 53.779176 ], [ -2.8739829, 53.7791847 ], [ -2.8740084, 53.779335300000014 ], [ -2.8739911, 53.7793668 ], [ -2.8729885, 53.77941 ] ] } },
{ "type": "Feature", "properties": { "id": 1828, "nach": 0.51433691101338508 }, "geometry": { "type": "LineString", "coordinates": [ [ -2.8798885, 53.7786859 ], [ -2.8798378, 53.7788981 ] ] } },
{ "type": "Feature", "properties": { "id": 10357, "nach": 0.51584987245671299 }, "geometry": { "type": "LineString", "coordinates": [ [ -2.8801855, 53.7789592 ], [ -2.8800805, 53.778941500000016 ], [ -2.879966, 53.7789097 ], [ -2.8798378, 53.7788981 ] ] } },
{ "type": "Feature", "properties": { "id": 10348, "nach": 0.56068969399786084 }, "geometry": { "type": "LineString", "coordinates": [ [ -2.8794009, 53.7789281 ], [ -2.8794619, 53.7789178 ], [ -2.8798378, 53.7788981 ] ] } },
{ "type": "Feature", "properties": { "id": 1830, "nach": 0.43261703850543515 }, "geometry": { "type": "LineString", "coordinates": [ [ -2.8795182, 53.778686299999983 ], [ -2.8798885, 53.7786859 ] ] } },
{ "type": "Feature", "properties": { "id": 10343, "nach": 0.43136121686105083 }, "geometry": { "type": "LineString", "coordinates": [ [ -2.8803906, 53.7787169 ], [ -2.8798885, 53.7786859 ] ] } },
{ "type": "Feature", "properties": { "id": 10358, "nach": 0.50007799155855037 }, "geometry": { "type": "LineString", "coordinates": [ [ -2.8801855, 53.7789592 ], [ -2.8802655, 53.7789563 ], [ -2.8803956, 53.7789297 ], [ -2.8805806, 53.778909 ], [ -2.8807532, 53.7788945 ], [ -2.8807907, 53.7791011 ] ] } },
{ "type": "Feature", "properties": { "id": 10359, "nach": 0.0 }, "geometry": { "type": "LineString", "coordinates": [ [ -2.8801855, 53.7789592 ], [ -2.8800555, 53.7789888 ], [ -2.8798304, 53.7789799 ], [ -2.8795853, 53.7789858 ], [ -2.8794009, 53.7789281 ] ] } },
{ "type": "Feature", "properties": { "id": 10428, "nach": 0.43147037109626435 }, "geometry": { "type": "LineString", "coordinates": [ [ -2.8714824, 53.77892820000001 ], [ -2.8715167, 53.7785982 ], [ -2.8714192, 53.7785773 ] ] } },
{ "type": "Feature", "properties": { "id": 10410, "nach": 0.60722249034555809 }, "geometry": { "type": "LineString", "coordinates": [ [ -2.8699572, 53.779071100000017 ], [ -2.8699756, 53.7792933 ] ] } },
{ "type": "Feature", "properties": { "id": 18105, "nach": 0.60088594271432949 }, "geometry": { "type": "LineString", "coordinates": [ [ -2.8698894, 53.7786951 ], [ -2.8699278, 53.778888 ], [ -2.8699572, 53.779071100000017 ] ] } },
{ "type": "Feature", "properties": { "id": 10376, "nach": 0.59582715276402454 }, "geometry": { "type": "LineString", "coordinates": [ [ -2.8716169, 53.7811221 ], [ -2.8715331, 53.7809959 ] ] } },
{ "type": "Feature", "properties": { "id": 10392, "nach": 0.39444836723909638 }, "geometry": { "type": "LineString", "coordinates": [ [ -2.8730385, 53.7810313 ], [ -2.87222, 53.7811309 ], [ -2.8721901, 53.7809491 ], [ -2.8715331, 53.7809959 ] ] } },
{ "type": "Feature", "properties": { "id": 10406, "nach": 0.44564583320907664 }, "geometry": { "type": "LineString", "coordinates": [ [ -2.8711179, 53.7811951 ], [ -2.8716169, 53.7811221 ] ] } },
{ "type": "Feature", "properties": { "id": 15366, "nach": 0.59733028847404912 }, "geometry": { "type": "LineString", "coordinates": [ [ -2.872421, 53.7818263 ], [ -2.8722621, 53.781809900000013 ], [ -2.87215440000001, 53.7817436 ], [ -2.871911, 53.7815078 ], [ -2.8716169, 53.7811221 ] ] } },
{ "type": "Feature", "properties": { "id": 10391, "nach": 0.56586610390119019 }, "geometry": { "type": "LineString", "coordinates": [ [ -2.8730385, 53.7810313 ], [ -2.8730459, 53.7811188 ] ] } },
{ "type": "Feature", "properties": { "id": 10405, "nach": 0.55143305346281013 }, "geometry": { "type": "LineString", "coordinates": [ [ -2.8730213, 53.7808303 ], [ -2.8730385, 53.7810313 ] ] } },
{ "type": "Feature", "properties": { "id": 10345, "nach": 0.64285633846065104 }, "geometry": { "type": "LineString", "coordinates": [ [ -2.8779998, 53.7799361 ], [ -2.8773754, 53.7804402 ] ] } },
{ "type": "Feature", "properties": { "id": 2019, "nach": 0.65163917882138078 }, "geometry": { "type": "LineString", "coordinates": [ [ -2.8771566, 53.7806268 ], [ -2.8773754, 53.7804402 ] ] } },
{ "type": "Feature", "properties": { "id": 15693, "nach": 0.45628751962294573 }, "geometry": { "type": "LineString", "coordinates": [ [ -2.8750978, 53.7798266 ], [ -2.8749503, 53.77992960000001 ], [ -2.8749529, 53.7801943 ], [ -2.8764872, 53.7802212 ], [ -2.8767403, 53.7802606 ], [ -2.8771195, 53.7803099 ], [ -2.8773754, 53.7804402 ] ] } },
{ "type": "Feature", "properties": { "id": 10344, "nach": 0.62923163721663589 }, "geometry": { "type": "LineString", "coordinates": [ [ -2.8779998, 53.7799361 ], [ -2.8780718, 53.7798781 ] ] } },
{ "type": "Feature", "properties": { "id": 10355, "nach": 0.49615030515371539 }, "geometry": { "type": "LineString", "coordinates": [ [ -2.8789551, 53.7799121 ], [ -2.8779998, 53.7799361 ] ] } },
{ "type": "Feature", "properties": { "id": 10395, "nach": 0.64900083439804856 }, "geometry": { "type": "LineString", "coordinates": [ [ -2.8768005, 53.7809989 ], [ -2.8769232, 53.7807424 ], [ -2.8771566, 53.7806268 ] ] } },
{ "type": "Feature", "properties": { "id": 2048, "nach": 0.54530838067497356 }, "geometry": { "type": "LineString", "coordinates": [ [ -2.8796476, 53.780842100000015 ], [ -2.8794724, 53.78057 ], [ -2.8780819, 53.7805801 ], [ -2.8775412, 53.7806207 ], [ -2.8771566, 53.7806268 ] ] } },
{ "type": "Feature", "properties": { "id": 15694, "nach": 0.36433304147990442 }, "geometry": { "type": "LineString", "coordinates": [ [ -2.8750978, 53.7798266 ], [ -2.8762994, 53.7798519 ], [ -2.8764845, 53.7798218 ], [ -2.8773183, 53.779847 ] ] } },
{ "type": "Feature", "properties": { "id": 15695, "nach": 0.42202771235376874 }, "geometry": { "type": "LineString", "coordinates": [ [ -2.8751139, 53.779432 ], [ -2.8750978, 53.7798266 ] ] } },
{ "type": "Feature", "properties": { "id": 1852, "nach": 0.61838684548195244 }, "geometry": { "type": "LineString", "coordinates": [ [ -2.8729004, 53.7817787 ], [ -2.8732439, 53.7817281 ] ] } },
{ "type": "Feature", "properties": { "id": 33259, "nach": 0.60912207853966982 }, "geometry": { "type": "LineString", "coordinates": [ [ -2.8740958, 53.7816136 ], [ -2.8732439, 53.7817281 ] ] } },
{ "type": "Feature", "properties": { "id": 10382, "nach": 0.57604039974363874 }, "geometry": { "type": "LineString", "coordinates": [ [ -2.8730459, 53.7811188 ], [ -2.873068, 53.7811967 ], [ -2.8732439, 53.7817281 ] ] } },
{ "type": "Feature", "properties": { "id": 1851, "nach": 0.60845044009665405 }, "geometry": { "type": "LineString", "coordinates": [ [ -2.8734264, 53.7822936 ], [ -2.8732439, 53.7817281 ] ] } },
{ "type": "Feature", "properties": { "id": 15365, "nach": 0.60803498190691463 }, "geometry": { "type": "LineString", "coordinates": [ [ -2.872421, 53.7818263 ], [ -2.8726352, 53.7818179 ], [ -2.8729004, 53.7817787 ] ] } },
{ "type": "Feature", "properties": { "id": 33285, "nach": 0.45445349819106057 }, "geometry": { "type": "LineString", "coordinates": [ [ -2.8729543, 53.782104 ], [ -2.8728926, 53.7819281 ], [ -2.8729436, 53.7819233 ], [ -2.8729004, 53.7817787 ] ] } },
{ "type": "Feature", "properties": { "id": 33262, "nach": 0.50901444354654324 }, "geometry": { "type": "LineString", "coordinates": [ [ -2.8741737, 53.7818119 ], [ -2.8741149, 53.7816704 ], [ -2.8740958, 53.7816136 ] ] } },
{ "type": "Feature", "properties": { "id": 10414, "nach": 0.49773542568303697 }, "geometry": { "type": "LineString", "coordinates": [ [ -2.8746534, 53.7809962 ], [ -2.8730459, 53.7811188 ] ] } },
{ "type": "Feature", "properties": { "id": 11433, "nach": 0.64125571344179244 }, "geometry": { "type": "LineString", "coordinates": [ [ -2.8733195, 53.78231 ], [ -2.8734264, 53.7822936 ] ] } },
{ "type": "Feature", "properties": { "id": 2059, "nach": 0.63783039270431918 }, "geometry": { "type": "LineString", "coordinates": [ [ -2.8740328, 53.7822144 ], [ -2.8734264, 53.7822936 ] ] } },
{ "type": "Feature", "properties": { "id": 11432, "nach": 0.63984746262173964 }, "geometry": { "type": "LineString", "coordinates": [ [ -2.8733195, 53.78231 ], [ -2.8727739, 53.782379 ] ] } },
{ "type": "Feature", "properties": { "id": 17139, "nach": 0.0 }, "geometry": { "type": "LineString", "coordinates": [ [ -2.8741726, 53.782636 ], [ -2.873386, 53.7827543 ], [ -2.8733732, 53.7826959 ], [ -2.873348, 53.7824917 ], [ -2.8732917, 53.782371 ], [ -2.8733445, 53.7823631 ], [ -2.8733195, 53.78231 ] ] } },
{ "type": "Feature", "properties": { "id": 17140, "nach": 0.59590181736297521 }, "geometry": { "type": "LineString", "coordinates": [ [ -2.8741726, 53.782636 ], [ -2.8741506, 53.7825773 ], [ -2.8740859, 53.7823658 ], [ -2.8740544, 53.7822748 ], [ -2.8740328, 53.7822144 ] ] } },
{ "type": "Feature", "properties": { "id": 33284, "nach": 0.45359937622590979 }, "geometry": { "type": "LineString", "coordinates": [ [ -2.8724393, 53.7820105 ], [ -2.872421, 53.7818263 ] ] } },
{ "type": "Feature", "properties": { "id": 10417, "nach": 0.64560295124485834 }, "geometry": { "type": "LineString", "coordinates": [ [ -2.875169, 53.7820588 ], [ -2.8755369, 53.7820144 ] ] } },
{ "type": "Feature", "properties": { "id": 1858, "nach": 0.63505403588698572 }, "geometry": { "type": "LineString", "coordinates": [ [ -2.87566, 53.7822819 ], [ -2.8755369, 53.7820144 ] ] } },
{ "type": "Feature", "properties": { "id": 1863, "nach": 0.62459617315707849 }, "geometry": { "type": "LineString", "coordinates": [ [ -2.8756368, 53.7824515 ], [ -2.8756683, 53.78237870000001 ], [ -2.87566, 53.7822819 ] ] } },
{ "type": "Feature", "properties": { "id": 24579, "nach": 0.45472338039633697 }, "geometry": { "type": "LineString", "coordinates": [ [ -2.8764418, 53.7822015 ], [ -2.8758826, 53.7822736 ], [ -2.8757719, 53.7822736 ], [ -2.87566, 53.7822819 ] ] } },
{ "type": "Feature", "properties": { "id": 15337, "nach": 0.60908372075929307 }, "geometry": { "type": "LineString", "coordinates": [ [ -2.875698, 53.782600799999983 ], [ -2.8756368, 53.7824515 ] ] } },
{ "type": "Feature", "properties": { "id": 15340, "nach": 0.58443403990182619 }, "geometry": { "type": "LineString", "coordinates": [ [ -2.874652, 53.7825837 ], [ -2.8747627, 53.7825661 ], [ -2.8749207, 53.7825758 ], [ -2.8753891, 53.7825123 ], [ -2.8756368, 53.7824515 ] ] } },
{ "type": "Feature", "properties": { "id": 15338, "nach": 0.0 }, "geometry": { "type": "LineString", "coordinates": [ [ -2.875698, 53.782600799999983 ], [ -2.8750758, 53.782694300000017 ], [ -2.8751438, 53.7828356 ] ] } },
{ "type": "Feature", "properties": { "id": 15336, "nach": 0.59920766810905524 }, "geometry": { "type": "LineString", "coordinates": [ [ -2.875698, 53.782600799999983 ], [ -2.8757553, 53.7827405 ] ] } },
{ "type": "Feature", "properties": { "id": 17268, "nach": 0.51031478232098881 }, "geometry": { "type": "LineString", "coordinates": [ [ -2.8741778, 53.7826499 ], [ -2.874652, 53.7825837 ] ] } },
{ "type": "Feature", "properties": { "id": 17273, "nach": 0.55217743665331198 }, "geometry": { "type": "LineString", "coordinates": [ [ -2.8742332, 53.7827973 ], [ -2.874711, 53.782726 ], [ -2.874652, 53.7825837 ] ] } },
{ "type": "Feature", "properties": { "id": 11046, "nach": 0.45008549518550461 }, "geometry": { "type": "LineString", "coordinates": [ [ -2.8688272, 53.7823588 ], [ -2.8689343, 53.7821499 ] ] } },
{ "type": "Feature", "properties": { "id": 24961, "nach": 0.52951803578366075 }, "geometry": { "type": "LineString", "coordinates": [ [ -2.8706344, 53.7834817 ], [ -2.8705878, 53.7834372 ], [ -2.870296, 53.78344220000001 ], [ -2.8699462, 53.783532 ], [ -2.8695221, 53.7831305 ] ] } },
{ "type": "Feature", "properties": { "id": 22046, "nach": 0.5514184403525878 }, "geometry": { "type": "LineString", "coordinates": [ [ -2.8692596, 53.7826444 ], [ -2.869374, 53.7826687 ], [ -2.8693518, 53.7827919 ], [ -2.8695427, 53.7828225 ], [ -2.8694983, 53.7829457 ], [ -2.8695221, 53.7831305 ] ] } },
{ "type": "Feature", "properties": { "id": 24963, "nach": 0.46627314893613908 }, "geometry": { "type": "LineString", "coordinates": [ [ -2.8706344, 53.7834817 ], [ -2.8708588, 53.78343 ], [ -2.8710171, 53.7834187 ], [ -2.8710974, 53.7834149 ] ] } },
{ "type": "Feature", "properties": { "id": 22044, "nach": 0.45075061354337864 }, "geometry": { "type": "LineString", "coordinates": [ [ -2.8692596, 53.7826444 ], [ -2.8689753, 53.7826032 ] ] } },
{ "type": "Feature", "properties": { "id": 1980, "nach": 0.56457321887327372 }, "geometry": { "type": "LineString", "coordinates": [ [ -2.8714992, 53.7842607 ], [ -2.8711918, 53.783814 ] ] } },
{ "type": "Feature", "properties": { "id": 26453, "nach": 0.55533063663093885 }, "geometry": { "type": "LineString", "coordinates": [ [ -2.8711314, 53.7838192 ], [ -2.8711918, 53.783814 ] ] } },
{ "type": "Feature", "properties": { "id": 24958, "nach": 0.56024018066687398 }, "geometry": { "type": "LineString", "coordinates": [ [ -2.8710974, 53.7834149 ], [ -2.8711441, 53.7836661 ], [ -2.8711918, 53.783814 ] ] } },
{ "type": "Feature", "properties": { "id": 17143, "nach": 0.54824938084678476 }, "geometry": { "type": "LineString", "coordinates": [ [ -2.873784, 53.7836365 ], [ -2.8723365, 53.7840285 ], [ -2.8714992, 53.7842607 ] ] } },
{ "type": "Feature", "properties": { "id": 23967, "nach": 0.54134976962925607 }, "geometry": { "type": "LineString", "coordinates": [ [ -2.8715882, 53.7845983 ], [ -2.871583, 53.7845784 ], [ -2.8714992, 53.7842607 ] ] } },
{ "type": "Feature", "properties": { "id": 26455, "nach": 0.44919578868139848 }, "geometry": { "type": "LineString", "coordinates": [ [ -2.8711324, 53.7842248 ], [ -2.8711314, 53.7838192 ] ] } },
{ "type": "Feature", "properties": { "id": 17144, "nach": 0.51788762281284217 }, "geometry": { "type": "LineString", "coordinates": [ [ -2.873784, 53.7836365 ], [ -2.8744604, 53.783463 ], [ -2.8745181, 53.78345 ], [ -2.874709, 53.7833978 ] ] } },
{ "type": "Feature", "properties": { "id": 17146, "nach": 0.51069782304940836 }, "geometry": { "type": "LineString", "coordinates": [ [ -2.8743173, 53.7830301 ], [ -2.8741692, 53.7830934 ], [ -2.8736167, 53.783304200000011 ], [ -2.8736019, 53.7834104 ], [ -2.873784, 53.7836365 ] ] } },
{ "type": "Feature", "properties": { "id": 33764, "nach": 0.44600827530590476 }, "geometry": { "type": "LineString", "coordinates": [ [ -2.8736758, 53.7839439 ], [ -2.8737, 53.7839249 ], [ -2.8737549, 53.7838758 ], [ -2.8738086, 53.7838037 ], [ -2.8738421, 53.7837435 ], [ -2.8738233, 53.7836856 ], [ -2.873784, 53.7836365 ] ] } },
{ "type": "Feature", "properties": { "id": 23966, "nach": 0.49220528675675168 }, "geometry": { "type": "LineString", "coordinates": [ [ -2.8715882, 53.7845983 ], [ -2.8716498, 53.7848318 ], [ -2.8717207, 53.785100399999983 ] ] } },
{ "type": "Feature", "properties": { "id": 23969, "nach": 0.43559048601342054 }, "geometry": { "type": "LineString", "coordinates": [ [ -2.8707555, 53.785024 ], [ -2.8709618, 53.784897 ], [ -2.871469, 53.7846684 ], [ -2.8715882, 53.7845983 ] ] } },
{ "type": "Feature", "properties": { "id": 11047, "nach": 0.47992485405783314 }, "geometry": { "type": "LineString", "coordinates": [ [ -2.8691728, 53.7806543 ], [ -2.86903, 53.7806479 ], [ -2.868751, 53.7806073 ], [ -2.8685279, 53.7805262 ] ] } },
{ "type": "Feature", "properties": { "id": 11049, "nach": 0.41889640457362198 }, "geometry": { "type": "LineString", "coordinates": [ [ -2.8691728, 53.7806543 ], [ -2.8689987, 53.7810284 ], [ -2.868988, 53.7812185 ], [ -2.868988, 53.7814022 ], [ -2.869181, 53.7814085 ] ] } },
{ "type": "Feature", "properties": { "id": 22365, "nach": 0.47303565449563234 }, "geometry": { "type": "LineString", "coordinates": [ [ -2.8684771, 53.7804713 ], [ -2.8685279, 53.7805262 ] ] } },
{ "type": "Feature", "properties": { "id": 1996, "nach": 0.41694759733897135 }, "geometry": { "type": "LineString", "coordinates": [ [ -2.8685021, 53.7797705 ], [ -2.8684678, 53.7798973 ], [ -2.8684506, 53.780150899999988 ], [ -2.8684678, 53.780394300000012 ], [ -2.8685279, 53.7805262 ] ] } },
{ "type": "Feature", "properties": { "id": 22366, "nach": 0.0 }, "geometry": { "type": "LineString", "coordinates": [ [ -2.8684771, 53.7804713 ], [ -2.868356, 53.7803407 ], [ -2.8680878, 53.779973 ], [ -2.8680717, 53.7798843 ], [ -2.8681066, 53.77980980000001 ], [ -2.8681869, 53.7797785 ], [ -2.8683105, 53.779767 ], [ -2.8685021, 53.7797705 ] ] } },
{ "type": "Feature", "properties": { "id": 22368, "nach": 0.41784441379092574 }, "geometry": { "type": "LineString", "coordinates": [ [ -2.8680126, 53.7808736 ], [ -2.8682589, 53.7806041 ], [ -2.8683626, 53.780515200000011 ], [ -2.8684771, 53.7804713 ] ] } },
{ "type": "Feature", "properties": { "id": 1999, "nach": 0.46856436926312633 }, "geometry": { "type": "LineString", "coordinates": [ [ -2.8693862, 53.7797553 ], [ -2.8685021, 53.7797705 ] ] } },
{ "type": "Feature", "properties": { "id": 11024, "nach": 0.60114286150934437 }, "geometry": { "type": "LineString", "coordinates": [ [ -2.868942, 53.7792903 ], [ -2.8699756, 53.7792933 ] ] } },
{ "type": "Feature", "properties": { "id": 11037, "nach": 0.42194371610626302 }, "geometry": { "type": "LineString", "coordinates": [ [ -2.8691596, 53.780344200000016 ], [ -2.8693418, 53.78014790000001 ], [ -2.8693862, 53.7797553 ] ] } },
{ "type": "Feature", "properties": { "id": 15690, "nach": 0.49337492895180801 }, "geometry": { "type": "LineString", "coordinates": [ [ -2.8773183, 53.779847 ], [ -2.8774226, 53.779850100000012 ], [ -2.8780718, 53.7798781 ] ] } },
{ "type": "Feature", "properties": { "id": 2028, "nach": 0.52013806033963761 }, "geometry": { "type": "LineString", "coordinates": [ [ -2.878921, 53.7797223 ], [ -2.879821, 53.77952530000001 ], [ -2.8803643, 53.7794005 ] ] } },
{ "type": "Feature", "properties": { "id": 10354, "nach": 0.31210789175441733 }, "geometry": { "type": "LineString", "coordinates": [ [ -2.8789551, 53.7799121 ], [ -2.878921, 53.7797223 ] ] } },
{ "type": "Feature", "properties": { "id": 2007, "nach": 0.45991374661489465 }, "geometry": { "type": "LineString", "coordinates": [ [ -2.8807348, 53.7798198 ], [ -2.8803643, 53.7794005 ] ] } },
{ "type": "Feature", "properties": { "id": 10340, "nach": 0.50492639261496719 }, "geometry": { "type": "LineString", "coordinates": [ [ -2.8807907, 53.7791011 ], [ -2.88063440000001, 53.779317200000015 ], [ -2.8803643, 53.7794005 ] ] } },
{ "type": "Feature", "properties": { "id": 10356, "nach": 0.47201896573964608 }, "geometry": { "type": "LineString", "coordinates": [ [ -2.8789551, 53.7799121 ], [ -2.8789994, 53.780091400000011 ], [ -2.879082, 53.780156399999989 ], [ -2.8792992, 53.78014 ], [ -2.8803378, 53.780043600000013 ], [ -2.8806671, 53.7800093 ], [ -2.880733, 53.7799675 ], [ -2.8807451, 53.7799052 ], [ -2.8807348, 53.7798198 ] ] } },
{ "type": "Feature", "properties": { "id": 10353, "nach": 0.50935543394306071 }, "geometry": { "type": "LineString", "coordinates": [ [ -2.8821836, 53.7797617 ], [ -2.8811622, 53.7797591 ], [ -2.8807348, 53.7798198 ] ] } },
{ "type": "Feature", "properties": { "id": 10341, "nach": 0.52183716904215049 }, "geometry": { "type": "LineString", "coordinates": [ [ -2.8807907, 53.7791011 ], [ -2.8811941, 53.7790758 ], [ -2.8813442, 53.7790737 ] ] } },
{ "type": "Feature", "properties": { "id": 10352, "nach": 0.51162125759205712 }, "geometry": { "type": "LineString", "coordinates": [ [ -2.8821836, 53.7797617 ], [ -2.882462, 53.7797607 ], [ -2.883214, 53.779775 ] ] } },
{ "type": "Feature", "properties": { "id": 10360, "nach": 0.48741759717196592 }, "geometry": { "type": "LineString", "coordinates": [ [ -2.8818266, 53.7804019 ], [ -2.8821836, 53.7797617 ] ] } },
{ "type": "Feature", "properties": { "id": 2014, "nach": 0.57082809699956516 }, "geometry": { "type": "LineString", "coordinates": [ [ -2.8826271, 53.7810884 ], [ -2.8825983, 53.7809034 ], [ -2.8826401, 53.7807814 ], [ -2.883214, 53.779775 ] ] } },
{ "type": "Feature", "properties": { "id": 3352, "nach": 0.52029445904829708 }, "geometry": { "type": "LineString", "coordinates": [ [ -2.883418, 53.779335499999988 ], [ -2.8833648, 53.7794653 ], [ -2.883214, 53.779775 ] ] } },
{ "type": "Feature", "properties": { "id": 2030, "nach": 0.62813289634611258 }, "geometry": { "type": "LineString", "coordinates": [ [ -2.8823397, 53.781108500000016 ], [ -2.8826271, 53.7810884 ] ] } },
{ "type": "Feature", "properties": { "id": 2635, "nach": 0.6353327986927082 }, "geometry": { "type": "LineString", "coordinates": [ [ -2.8834677, 53.7810632 ], [ -2.8832311, 53.781072 ], [ -2.8826271, 53.7810884 ] ] } },
{ "type": "Feature", "properties": { "id": 3353, "nach": 0.50427650604967533 }, "geometry": { "type": "LineString", "coordinates": [ [ -2.883418, 53.779335499999988 ], [ -2.8830844, 53.7791916 ], [ -2.8827496, 53.7791003 ], [ -2.8822861, 53.77908 ], [ -2.8816338, 53.7790749 ], [ -2.8813442, 53.7790737 ] ] } },
{ "type": "Feature", "properties": { "id": 3351, "nach": 0.42238599880208694 }, "geometry": { "type": "LineString", "coordinates": [ [ -2.883418, 53.779335499999988 ], [ -2.8834675, 53.779255 ] ] } },
{ "type": "Feature", "properties": { "id": 2032, "nach": 0.54167482996150984 }, "geometry": { "type": "LineString", "coordinates": [ [ -2.8825344, 53.7820775 ], [ -2.8823397, 53.781108500000016 ] ] } },
{ "type": "Feature", "properties": { "id": 2037, "nach": 0.60335081208530894 }, "geometry": { "type": "LineString", "coordinates": [ [ -2.8805236, 53.7812637 ], [ -2.8810074, 53.7811337 ], [ -2.8823397, 53.781108500000016 ] ] } },
{ "type": "Feature", "properties": { "id": 26296, "nach": 0.56890384852146969 }, "geometry": { "type": "LineString", "coordinates": [ [ -2.8836365, 53.7807504 ], [ -2.8834677, 53.7810632 ] ] } },
{ "type": "Feature", "properties": { "id": 10461, "nach": 0.61230031826652309 }, "geometry": { "type": "LineString", "coordinates": [ [ -2.8840903, 53.7810402 ], [ -2.8834677, 53.7810632 ] ] } },
{ "type": "Feature", "properties": { "id": 23434, "nach": 0.41114494614501079 }, "geometry": { "type": "LineString", "coordinates": [ [ -2.883481, 53.7825402 ], [ -2.8834257, 53.7824365 ], [ -2.883403, 53.7823443 ], [ -2.883416, 53.7822387 ], [ -2.88355580000001, 53.7821791 ], [ -2.8836208, 53.7821061 ], [ -2.8836151, 53.7820264 ], [ -2.8834677, 53.7810632 ] ] } },
{ "type": "Feature", "properties": { "id": 10342, "nach": 0.43989853203061713 }, "geometry": { "type": "LineString", "coordinates": [ [ -2.8773771, 53.7811833 ], [ -2.8778824, 53.781112899999982 ], [ -2.8796476, 53.780842100000015 ] ] } },
{ "type": "Feature", "properties": { "id": 26259, "nach": 0.63784980350655318 }, "geometry": { "type": "LineString", "coordinates": [ [ -2.8804186, 53.78129040000001 ], [ -2.8805236, 53.7812637 ] ] } },
{ "type": "Feature", "properties": { "id": 26261, "nach": 0.45403194180709078 }, "geometry": { "type": "LineString", "coordinates": [ [ -2.8806904, 53.7805417 ], [ -2.8806904, 53.7806406 ], [ -2.8806024, 53.78065620000001 ], [ -2.8805715, 53.7807095 ], [ -2.8805693, 53.780749900000011 ], [ -2.8805649, 53.7808279 ], [ -2.8805209, 53.7808696 ], [ -2.8804196, 53.7809307 ], [ -2.8803183, 53.7809632 ], [ -2.8802682, 53.7810015 ], [ -2.8804186, 53.78129040000001 ] ] } },
{ "type": "Feature", "properties": { "id": 26250, "nach": 0.65186884686736513 }, "geometry": { "type": "LineString", "coordinates": [ [ -2.8767166, 53.7811743 ], [ -2.8768005, 53.7809989 ] ] } },
{ "type": "Feature", "properties": { "id": 10419, "nach": 0.59563725164762471 }, "geometry": { "type": "LineString", "coordinates": [ [ -2.8760445, 53.7809909 ], [ -2.8768005, 53.7809989 ] ] } },
{ "type": "Feature", "properties": { "id": 2025, "nach": 0.43173312830369964 }, "geometry": { "type": "LineString", "coordinates": [ [ -2.8813677, 53.7791865 ], [ -2.8813442, 53.7790737 ] ] } },
{ "type": "Feature", "properties": { "id": 2038, "nach": 0.5486705900912362 }, "geometry": { "type": "LineString", "coordinates": [ [ -2.8809397, 53.78219330000001 ], [ -2.8825344, 53.7820775 ] ] } },
{ "type": "Feature", "properties": { "id": 10441, "nach": 0.0 }, "geometry": { "type": "LineString", "coordinates": [ [ -2.881158100000011, 53.7827793 ], [ -2.8818956, 53.7827284 ], [ -2.8827614, 53.782684500000016 ], [ -2.8825344, 53.7820775 ] ] } },
{ "type": "Feature", "properties": { "id": 2040, "nach": 0.56515498532005781 }, "geometry": { "type": "LineString", "coordinates": [ [ -2.8809397, 53.78219330000001 ], [ -2.8805236, 53.7812637 ] ] } },
{ "type": "Feature", "properties": { "id": 10439, "nach": 0.60047444551140183 }, "geometry": { "type": "LineString", "coordinates": [ [ -2.881158100000011, 53.7827793 ], [ -2.8809397, 53.78219330000001 ] ] } },
{ "type": "Feature", "properties": { "id": 10440, "nach": 0.59857030474141071 }, "geometry": { "type": "LineString", "coordinates": [ [ -2.881158100000011, 53.7827793 ], [ -2.8813146, 53.7835217 ], [ -2.8812358, 53.783831 ] ] } },
{ "type": "Feature", "properties": { "id": 10458, "nach": 0.52649856073116275 }, "geometry": { "type": "LineString", "coordinates": [ [ -2.8804995, 53.7828688 ], [ -2.8806544, 53.7828393 ], [ -2.881158100000011, 53.7827793 ] ] } },
{ "type": "Feature", "properties": { "id": 2045, "nach": 0.58526158529802441 }, "geometry": { "type": "LineString", "coordinates": [ [ -2.8810254, 53.784198900000014 ], [ -2.8810829, 53.7841137 ], [ -2.8812358, 53.783831 ] ] } },
{ "type": "Feature", "properties": { "id": 10454, "nach": 0.54024375232061927 }, "geometry": { "type": "LineString", "coordinates": [ [ -2.8819829, 53.7838884 ], [ -2.8817819, 53.7838981 ], [ -2.8812358, 53.783831 ] ] } },
{ "type": "Feature", "properties": { "id": 2335, "nach": 0.6550225248326943 }, "geometry": { "type": "LineString", "coordinates": [ [ -2.8813586, 53.7844106 ], [ -2.8810254, 53.784198900000014 ] ] } },
{ "type": "Feature", "properties": { "id": 24488, "nach": 0.64514252441919251 }, "geometry": { "type": "LineString", "coordinates": [ [ -2.8797465, 53.7837181 ], [ -2.8797897, 53.7837373 ], [ -2.8810254, 53.784198900000014 ] ] } },
{ "type": "Feature", "properties": { "id": 10455, "nach": 0.5343089760389893 }, "geometry": { "type": "LineString", "coordinates": [ [ -2.8819829, 53.7838884 ], [ -2.8820223, 53.78397420000001 ], [ -2.8822985, 53.7844247 ] ] } },
{ "type": "Feature", "properties": { "id": 25342, "nach": 0.4409104171027271 }, "geometry": { "type": "LineString", "coordinates": [ [ -2.883725, 53.7838038 ], [ -2.8833887, 53.7838613 ], [ -2.8832458, 53.7838203 ], [ -2.8831396, 53.7838002 ], [ -2.8830318, 53.78379 ], [ -2.8827393, 53.7838134 ], [ -2.8824154, 53.7838429 ], [ -2.8819829, 53.7838884 ] ] } },
{ "type": "Feature", "properties": { "id": 2336, "nach": 0.65631365089621629 }, "geometry": { "type": "LineString", "coordinates": [ [ -2.8813586, 53.7844106 ], [ -2.88152, 53.7845367 ] ] } },
{ "type": "Feature", "properties": { "id": 2337, "nach": 0.57738878453235765 }, "geometry": { "type": "LineString", "coordinates": [ [ -2.881173, 53.7845187 ], [ -2.8813586, 53.7844106 ] ] } },
{ "type": "Feature", "properties": { "id": 24487, "nach": 0.64438095605772994 }, "geometry": { "type": "LineString", "coordinates": [ [ -2.8797465, 53.7837181 ], [ -2.8788672, 53.78332850000001 ] ] } },
{ "type": "Feature", "properties": { "id": 24490, "nach": 0.46082656146170065 }, "geometry": { "type": "LineString", "coordinates": [ [ -2.8793393, 53.7840844 ], [ -2.8796497, 53.7838113 ], [ -2.8797465, 53.7837181 ] ] } },
{ "type": "Feature", "properties": { "id": 27287, "nach": 0.45562562816246083 }, "geometry": { "type": "LineString", "coordinates": [ [ -2.871995200000011, 53.783037100000016 ], [ -2.8720404, 53.7832533 ] ] } },
{ "type": "Feature", "properties": { "id": 15691, "nach": 0.41860039438586438 }, "geometry": { "type": "LineString", "coordinates": [ [ -2.8758756, 53.7793242 ], [ -2.8773455, 53.77934 ], [ -2.8773183, 53.779847 ] ] } },
{ "type": "Feature", "properties": { "id": 17266, "nach": 0.59121388300565536 }, "geometry": { "type": "LineString", "coordinates": [ [ -2.8741778, 53.7826499 ], [ -2.8741726, 53.782636 ] ] } },
{ "type": "Feature", "properties": { "id": 11057, "nach": 0.49561731064297249 }, "geometry": { "type": "LineString", "coordinates": [ [ -2.8689335, 53.7789846 ], [ -2.868942, 53.7792903 ] ] } },
{ "type": "Feature", "properties": { "id": 22371, "nach": 0.57626190137993116 }, "geometry": { "type": "LineString", "coordinates": [ [ -2.8681398, 53.7792993 ], [ -2.8683879, 53.7792907 ], [ -2.868942, 53.7792903 ] ] } },
{ "type": "Feature", "properties": { "id": 2072, "nach": 0.56594868778555307 }, "geometry": { "type": "LineString", "coordinates": [ [ -2.8786214, 53.783387200000014 ], [ -2.8788672, 53.78332850000001 ] ] } },
{ "type": "Feature", "properties": { "id": 2079, "nach": 0.65662616002002838 }, "geometry": { "type": "LineString", "coordinates": [ [ -2.8780315, 53.7828715 ], [ -2.8784608, 53.7831494 ], [ -2.8788672, 53.78332850000001 ] ] } },
{ "type": "Feature", "properties": { "id": 2071, "nach": 0.54606252147798429 }, "geometry": { "type": "LineString", "coordinates": [ [ -2.8786214, 53.783387200000014 ], [ -2.8774747, 53.7836609 ] ] } },
{ "type": "Feature", "properties": { "id": 2076, "nach": 0.0 }, "geometry": { "type": "LineString", "coordinates": [ [ -2.8776296, 53.7837878 ], [ -2.878704, 53.7836216 ], [ -2.8786214, 53.783387200000014 ] ] } },
{ "type": "Feature", "properties": { "id": 22313, "nach": 0.65473359284899701 }, "geometry": { "type": "LineString", "coordinates": [ [ -2.8779728, 53.7828099 ], [ -2.8780315, 53.7828715 ] ] } },
{ "type": "Feature", "properties": { "id": 11021, "nach": 0.59377898787729388 }, "geometry": { "type": "LineString", "coordinates": [ [ -2.8766237, 53.7832123 ], [ -2.8771604, 53.7831349 ], [ -2.8780315, 53.7828715 ] ] } },
{ "type": "Feature", "properties": { "id": 2074, "nach": 0.50393105439258801 }, "geometry": { "type": "LineString", "coordinates": [ [ -2.8776296, 53.7837878 ], [ -2.8774747, 53.7836609 ] ] } },
{ "type": "Feature", "properties": { "id": 33257, "nach": 0.43056128018591977 }, "geometry": { "type": "LineString", "coordinates": [ [ -2.8771472, 53.7842234 ], [ -2.8770752, 53.7841383 ], [ -2.876792, 53.7838239 ], [ -2.8774747, 53.7836609 ] ] } },
{ "type": "Feature", "properties": { "id": 2349, "nach": 0.46348541598574622 }, "geometry": { "type": "LineString", "coordinates": [ [ -2.8783328, 53.7846431 ], [ -2.8782097, 53.7843762 ], [ -2.8778163, 53.7841123 ], [ -2.8776296, 53.7837878 ] ] } },
{ "type": "Feature", "properties": { "id": 33256, "nach": 0.0 }, "geometry": { "type": "LineString", "coordinates": [ [ -2.8771472, 53.7842234 ], [ -2.8772807, 53.7843813 ], [ -2.8767832, 53.7845081 ], [ -2.8766651, 53.7843544 ], [ -2.8771472, 53.7842234 ] ] } },
{ "type": "Feature", "properties": { "id": 2350, "nach": 0.39234083612900927 }, "geometry": { "type": "LineString", "coordinates": [ [ -2.8783328, 53.7846431 ], [ -2.8787921, 53.7846407 ], [ -2.878976, 53.7846398 ], [ -2.8790594, 53.7845537 ], [ -2.880304, 53.7850253 ] ] } },
{ "type": "Feature", "properties": { "id": 2352, "nach": 0.42443786570834435 }, "geometry": { "type": "LineString", "coordinates": [ [ -2.8789732, 53.7858371 ], [ -2.8788277, 53.7858417 ], [ -2.8785959, 53.78577580000001 ], [ -2.8784843, 53.785573 ], [ -2.8783328, 53.7846431 ] ] } },
{ "type": "Feature", "properties": { "id": 22317, "nach": 0.62167807167600075 }, "geometry": { "type": "LineString", "coordinates": [ [ -2.8785271, 53.7825974 ], [ -2.8783259, 53.7826985 ], [ -2.8780819, 53.782774400000015 ], [ -2.8779728, 53.7828099 ] ] } },
{ "type": "Feature", "properties": { "id": 11020, "nach": 0.58974472674185507 }, "geometry": { "type": "LineString", "coordinates": [ [ -2.8766237, 53.7832123 ], [ -2.876423, 53.7832328 ], [ -2.8757631, 53.7832541 ] ] } },
{ "type": "Feature", "properties": { "id": 11022, "nach": 0.45143852510538257 }, "geometry": { "type": "LineString", "coordinates": [ [ -2.8766237, 53.7832123 ], [ -2.8765592, 53.7830206 ], [ -2.8764724, 53.78277880000001 ] ] } },
{ "type": "Feature", "properties": { "id": 2091, "nach": 0.45005473662318457 }, "geometry": { "type": "LineString", "coordinates": [ [ -2.874709, 53.7833978 ], [ -2.8747817, 53.783515500000014 ] ] } },
{ "type": "Feature", "properties": { "id": 11429, "nach": 0.55249044429756555 }, "geometry": { "type": "LineString", "coordinates": [ [ -2.8750163, 53.7833188 ], [ -2.874709, 53.7833978 ] ] } },
{ "type": "Feature", "properties": { "id": 2093, "nach": 0.54737394318251464 }, "geometry": { "type": "LineString", "coordinates": [ [ -2.8758219, 53.7838744 ], [ -2.8757631, 53.7832541 ] ] } },
{ "type": "Feature", "properties": { "id": 11430, "nach": 0.59116063588357681 }, "geometry": { "type": "LineString", "coordinates": [ [ -2.8750163, 53.7833188 ], [ -2.8752213, 53.7832857 ], [ -2.8757631, 53.7832541 ] ] } },
{ "type": "Feature", "properties": { "id": 2094, "nach": 0.52751967047916992 }, "geometry": { "type": "LineString", "coordinates": [ [ -2.8758219, 53.7838744 ], [ -2.8758736, 53.784402 ], [ -2.8759852, 53.7845136 ] ] } },
{ "type": "Feature", "properties": { "id": 2095, "nach": 0.0 }, "geometry": { "type": "LineString", "coordinates": [ [ -2.8758219, 53.7838744 ], [ -2.8752299, 53.7839254 ], [ -2.8750153, 53.7840369 ], [ -2.8749466, 53.7841941 ], [ -2.8751011, 53.7847519 ] ] } },
{ "type": "Feature", "properties": { "id": 17148, "nach": 0.57781584299756172 }, "geometry": { "type": "LineString", "coordinates": [ [ -2.8743173, 53.7830301 ], [ -2.8743948, 53.783035 ], [ -2.8747461, 53.78320140000001 ], [ -2.8749795, 53.7832775 ], [ -2.8750163, 53.7833188 ] ] } },
{ "type": "Feature", "properties": { "id": 2088, "nach": 0.47241956377016936 }, "geometry": { "type": "LineString", "coordinates": [ [ -2.8751011, 53.7847519 ], [ -2.8759852, 53.7845136 ] ] } },
{ "type": "Feature", "properties": { "id": 2096, "nach": 0.43100642303551234 }, "geometry": { "type": "LineString", "coordinates": [ [ -2.8762255, 53.7844781 ], [ -2.8759852, 53.7845136 ] ] } },
{ "type": "Feature", "properties": { "id": 2097, "nach": 0.42049159449149687 }, "geometry": { "type": "LineString", "coordinates": [ [ -2.874835, 53.784767199999983 ], [ -2.8751011, 53.7847519 ] ] } },
{ "type": "Feature", "properties": { "id": 17147, "nach": 0.45378535994491032 }, "geometry": { "type": "LineString", "coordinates": [ [ -2.8743173, 53.7830301 ], [ -2.8742446, 53.7830255 ], [ -2.8740543, 53.783058 ], [ -2.8735678, 53.783158 ], [ -2.8730162, 53.7832029 ], [ -2.872949, 53.7831665 ], [ -2.8727739, 53.782379 ] ] } },
{ "type": "Feature", "properties": { "id": 17272, "nach": 0.59613757370409304 }, "geometry": { "type": "LineString", "coordinates": [ [ -2.8742332, 53.7827973 ], [ -2.874239, 53.7828129 ], [ -2.874424, 53.7829809 ], [ -2.8743173, 53.7830301 ] ] } },
{ "type": "Feature", "properties": { "id": 10363, "nach": 0.5754447167743354 }, "geometry": { "type": "LineString", "coordinates": [ [ -2.8720558, 53.7804358 ], [ -2.87298410000001, 53.7803937 ] ] } },
{ "type": "Feature", "properties": { "id": 10402, "nach": 0.44476562875901648 }, "geometry": { "type": "LineString", "coordinates": [ [ -2.8720483, 53.7801271 ], [ -2.8720558, 53.7804358 ] ] } },
{ "type": "Feature", "properties": { "id": 10388, "nach": 0.53902535432833343 }, "geometry": { "type": "LineString", "coordinates": [ [ -2.874466, 53.7803357 ], [ -2.87298410000001, 53.7803937 ] ] } },
{ "type": "Feature", "properties": { "id": 10371, "nach": 0.52811944572625347 }, "geometry": { "type": "LineString", "coordinates": [ [ -2.8729853, 53.7801374 ], [ -2.87298410000001, 53.7803937 ] ] } },
{ "type": "Feature", "properties": { "id": 10424, "nach": 0.54536418665525321 }, "geometry": { "type": "LineString", "coordinates": [ [ -2.87300350000001, 53.7806208 ], [ -2.87298410000001, 53.7803937 ] ] } },
{ "type": "Feature", "properties": { "id": 10389, "nach": 0.4186317079058412 }, "geometry": { "type": "LineString", "coordinates": [ [ -2.874466, 53.7803357 ], [ -2.8743964, 53.7800904 ], [ -2.8729853, 53.7801374 ] ] } },
{ "type": "Feature", "properties": { "id": 10397, "nach": 0.55082041113525326 }, "geometry": { "type": "LineString", "coordinates": [ [ -2.8745354, 53.78058020000001 ], [ -2.874466, 53.7803357 ] ] } },
{ "type": "Feature", "properties": { "id": 10370, "nach": 0.52458906048810061 }, "geometry": { "type": "LineString", "coordinates": [ [ -2.8729853, 53.7801374 ], [ -2.8729885, 53.77941 ] ] } },
{ "type": "Feature", "properties": { "id": 10423, "nach": 0.37571004998458796 }, "geometry": { "type": "LineString", "coordinates": [ [ -2.87300350000001, 53.7806208 ], [ -2.8745354, 53.78058020000001 ] ] } },
{ "type": "Feature", "properties": { "id": 10425, "nach": 0.54833206583081329 }, "geometry": { "type": "LineString", "coordinates": [ [ -2.87300350000001, 53.7806208 ], [ -2.8730213, 53.7808303 ] ] } },
{ "type": "Feature", "properties": { "id": 2111, "nach": 0.4313014784620739 }, "geometry": { "type": "LineString", "coordinates": [ [ -2.8716651, 53.7795062 ], [ -2.8729885, 53.77941 ] ] } },
{ "type": "Feature", "properties": { "id": 2252, "nach": 0.61681364687117968 }, "geometry": { "type": "LineString", "coordinates": [ [ -2.881931, 53.784497600000016 ], [ -2.88152, 53.7845367 ] ] } },
{ "type": "Feature", "properties": { "id": 17135, "nach": 0.59098774805279775 }, "geometry": { "type": "LineString", "coordinates": [ [ -2.8823286, 53.7853351 ], [ -2.88152, 53.7845367 ] ] } },
{ "type": "Feature", "properties": { "id": 2253, "nach": 0.54093391744998887 }, "geometry": { "type": "LineString", "coordinates": [ [ -2.881931, 53.784497600000016 ], [ -2.8822985, 53.7844247 ] ] } },
{ "type": "Feature", "properties": { "id": 2328, "nach": 0.46148947432259962 }, "geometry": { "type": "LineString", "coordinates": [ [ -2.8814915, 53.7843551 ], [ -2.881931, 53.784497600000016 ] ] } },
{ "type": "Feature", "properties": { "id": 2258, "nach": 0.60326960437847565 }, "geometry": { "type": "LineString", "coordinates": [ [ -2.8826415, 53.7849788 ], [ -2.8823381, 53.7847058 ], [ -2.881931, 53.784497600000016 ] ] } },
{ "type": "Feature", "properties": { "id": 17137, "nach": 0.26546476557388343 }, "geometry": { "type": "LineString", "coordinates": [ [ -2.8823286, 53.7853351 ], [ -2.8820147, 53.7855006 ], [ -2.882063, 53.7860045 ], [ -2.8822507, 53.7864134 ], [ -2.8820871, 53.7866067 ], [ -2.8815721, 53.7867176 ], [ -2.8808131, 53.786659 ], [ -2.88057, 53.7865567 ], [ -2.8789822, 53.7865669 ], [ -2.8789732, 53.7858371 ] ] } },
{ "type": "Feature", "properties": { "id": 10444, "nach": 0.56023991056889066 }, "geometry": { "type": "LineString", "coordinates": [ [ -2.8822985, 53.7844247 ], [ -2.8824607, 53.7843992 ] ] } },
{ "type": "Feature", "properties": { "id": 10498, "nach": 0.57378779465583019 }, "geometry": { "type": "LineString", "coordinates": [ [ -2.8830034, 53.784927 ], [ -2.8826415, 53.7849788 ] ] } },
{ "type": "Feature", "properties": { "id": 2261, "nach": 0.57789220857634949 }, "geometry": { "type": "LineString", "coordinates": [ [ -2.8827916, 53.785356500000013 ], [ -2.8827322, 53.7851729 ], [ -2.8826415, 53.7849788 ] ] } },
{ "type": "Feature", "properties": { "id": 10499, "nach": 0.57803550263354408 }, "geometry": { "type": "LineString", "coordinates": [ [ -2.8830034, 53.784927 ], [ -2.883623, 53.784821900000011 ] ] } },
{ "type": "Feature", "properties": { "id": 10500, "nach": 0.52786357481915169 }, "geometry": { "type": "LineString", "coordinates": [ [ -2.8830034, 53.784927 ], [ -2.8828097, 53.784681900000017 ] ] } },
{ "type": "Feature", "properties": { "id": 10493, "nach": 0.45505989678808417 }, "geometry": { "type": "LineString", "coordinates": [ [ -2.8835211, 53.7846113 ], [ -2.8833509, 53.7842596 ] ] } },
{ "type": "Feature", "properties": { "id": 2333, "nach": 0.4520687474704998 }, "geometry": { "type": "LineString", "coordinates": [ [ -2.883247900000011, 53.7840648 ], [ -2.8833509, 53.7842596 ] ] } },
{ "type": "Feature", "properties": { "id": 10483, "nach": 0.45318773357279396 }, "geometry": { "type": "LineString", "coordinates": [ [ -2.8824607, 53.7843992 ], [ -2.8833509, 53.7842596 ] ] } },
{ "type": "Feature", "properties": { "id": 10492, "nach": 0.48694215412916853 }, "geometry": { "type": "LineString", "coordinates": [ [ -2.8835211, 53.7846113 ], [ -2.883623, 53.784821900000011 ] ] } },
{ "type": "Feature", "properties": { "id": 10494, "nach": 0.40178103280060923 }, "geometry": { "type": "LineString", "coordinates": [ [ -2.8835211, 53.7846113 ], [ -2.8831692, 53.7846859 ], [ -2.8828097, 53.784681900000017 ] ] } },
{ "type": "Feature", "properties": { "id": 25349, "nach": 0.42765368739697074 }, "geometry": { "type": "LineString", "coordinates": [ [ -2.8838353, 53.784204 ], [ -2.8843396, 53.7841279 ], [ -2.8846151, 53.784644299999989 ] ] } },
{ "type": "Feature", "properties": { "id": 2317, "nach": 0.54412187260458245 }, "geometry": { "type": "LineString", "coordinates": [ [ -2.886664, 53.783062800000017 ], [ -2.8869885, 53.7833075 ] ] } },
{ "type": "Feature", "properties": { "id": 2320, "nach": 0.51841888980605666 }, "geometry": { "type": "LineString", "coordinates": [ [ -2.8863352, 53.7829288 ], [ -2.886664, 53.783062800000017 ] ] } },
{ "type": "Feature", "properties": { "id": 10487, "nach": 0.40796652963515578 }, "geometry": { "type": "LineString", "coordinates": [ [ -2.8869305, 53.7828884 ], [ -2.886664, 53.783062800000017 ] ] } },
{ "type": "Feature", "properties": { "id": 10502, "nach": 0.40245532920882066 }, "geometry": { "type": "LineString", "coordinates": [ [ -2.8861383, 53.782849 ], [ -2.8863352, 53.7829288 ] ] } },
{ "type": "Feature", "properties": { "id": 2324, "nach": 0.48216801032449363 }, "geometry": { "type": "LineString", "coordinates": [ [ -2.885761, 53.7832335 ], [ -2.8860138, 53.7831451 ], [ -2.8861653, 53.7830951 ], [ -2.8863352, 53.7829288 ] ] } },
{ "type": "Feature", "properties": { "id": 2325, "nach": 0.43963863357869454 }, "geometry": { "type": "LineString", "coordinates": [ [ -2.8857971, 53.7833823 ], [ -2.885761, 53.7832335 ] ] } },
{ "type": "Feature", "properties": { "id": 10503, "nach": 0.37002247880371741 }, "geometry": { "type": "LineString", "coordinates": [ [ -2.8854793, 53.782967 ], [ -2.8855325, 53.7830614 ], [ -2.885761, 53.7832335 ] ] } },
{ "type": "Feature", "properties": { "id": 10476, "nach": 0.35146724581477806 }, "geometry": { "type": "LineString", "coordinates": [ [ -2.8847669, 53.7834115 ], [ -2.8850798, 53.7833446 ], [ -2.8851534, 53.783433 ], [ -2.8852736, 53.7835192 ], [ -2.8856855, 53.783433 ], [ -2.8857971, 53.7833823 ] ] } },
{ "type": "Feature", "properties": { "id": 10471, "nach": 0.35146724581477806 }, "geometry": { "type": "LineString", "coordinates": [ [ -2.8863514, 53.7839818 ], [ -2.8863114, 53.7839307 ], [ -2.8862692, 53.783752500000013 ], [ -2.8860975, 53.7835344 ], [ -2.8859001, 53.7834431 ], [ -2.8857971, 53.7833823 ] ] } },
{ "type": "Feature", "properties": { "id": 2343, "nach": 0.44776439190708445 }, "geometry": { "type": "LineString", "coordinates": [ [ -2.8819176, 53.7854361 ], [ -2.881173, 53.7845187 ] ] } },
{ "type": "Feature", "properties": { "id": 2340, "nach": 0.54208258778571028 }, "geometry": { "type": "LineString", "coordinates": [ [ -2.880304, 53.7850253 ], [ -2.880407, 53.7849239 ], [ -2.8807331, 53.78465 ], [ -2.881173, 53.7845187 ] ] } },
{ "type": "Feature", "properties": { "id": 2347, "nach": 0.50608776684633194 }, "geometry": { "type": "LineString", "coordinates": [ [ -2.8809908, 53.7857324 ], [ -2.8807674, 53.7852535 ], [ -2.8805958, 53.785147 ], [ -2.880304, 53.7850253 ] ] } },
{ "type": "Feature", "properties": { "id": 32924, "nach": 0.50843085403036581 }, "geometry": { "type": "LineString", "coordinates": [ [ -2.8699077, 53.77815 ], [ -2.8699228, 53.778010300000012 ], [ -2.8699357, 53.777548 ], [ -2.8699914, 53.7773004 ], [ -2.8700761, 53.7771086 ], [ -2.8701954, 53.7768195 ], [ -2.8702212, 53.7764803 ] ] } },
{ "type": "Feature", "properties": { "id": 18122, "nach": 0.49752402788862349 }, "geometry": { "type": "LineString", "coordinates": [ [ -2.8716067, 53.7771621 ], [ -2.8715411, 53.7770793 ], [ -2.8714913, 53.7769836 ], [ -2.8714453, 53.7768334 ], [ -2.8713613, 53.7767227 ], [ -2.8711633, 53.776638 ], [ -2.8706961, 53.7765251 ], [ -2.8704394, 53.7764868 ], [ -2.8702212, 53.7764803 ] ] } },
{ "type": "Feature", "properties": { "id": 32919, "nach": 0.25407796760399892 }, "geometry": { "type": "LineString", "coordinates": [ [ -2.8692262, 53.778201899999985 ], [ -2.8695172, 53.7781565 ], [ -2.8695648, 53.7781557 ], [ -2.8699077, 53.77815 ] ] } },
{ "type": "Feature", "properties": { "id": 32926, "nach": 0.51987558869868389 }, "geometry": { "type": "LineString", "coordinates": [ [ -2.8698988, 53.7782328 ], [ -2.8699077, 53.77815 ] ] } },
{ "type": "Feature", "properties": { "id": 32925, "nach": 0.30204253674678944 }, "geometry": { "type": "LineString", "coordinates": [ [ -2.8699077, 53.77815 ], [ -2.8701294, 53.7781464 ], [ -2.87030720000001, 53.7781434 ], [ -2.870607, 53.7781914 ] ] } },
{ "type": "Feature", "properties": { "id": 24376, "nach": 0.35960258974926373 }, "geometry": { "type": "LineString", "coordinates": [ [ -2.8724984, 53.777157 ], [ -2.8716067, 53.7771621 ] ] } },
{ "type": "Feature", "properties": { "id": 22716, "nach": 0.47023251751913037 }, "geometry": { "type": "LineString", "coordinates": [ [ -2.8715788, 53.7773244 ], [ -2.87158, 53.7772562 ], [ -2.8716067, 53.7771621 ] ] } },
{ "type": "Feature", "properties": { "id": 26295, "nach": 0.54470095151750086 }, "geometry": { "type": "LineString", "coordinates": [ [ -2.8836365, 53.7807504 ], [ -2.8839722, 53.7801282 ] ] } },
{ "type": "Feature", "properties": { "id": 26298, "nach": 0.42357040329618656 }, "geometry": { "type": "LineString", "coordinates": [ [ -2.8849699, 53.780667 ], [ -2.8847058, 53.7806832 ], [ -2.8842563, 53.7807399 ], [ -2.8836365, 53.7807504 ] ] } },
{ "type": "Feature", "properties": { "id": 10462, "nach": 0.41487840697393852 }, "geometry": { "type": "LineString", "coordinates": [ [ -2.8840903, 53.7810402 ], [ -2.8843914, 53.7818932 ], [ -2.8846626, 53.78194890000001 ] ] } },
{ "type": "Feature", "properties": { "id": 22600, "nach": 0.60468582996702069 }, "geometry": { "type": "LineString", "coordinates": [ [ -2.8849264, 53.781009600000012 ], [ -2.8846044, 53.7810212 ], [ -2.8840903, 53.7810402 ] ] } },
{ "type": "Feature", "properties": { "id": 2641, "nach": 0.48866348282677252 }, "geometry": { "type": "LineString", "coordinates": [ [ -2.8848076, 53.7797899 ], [ -2.8847764, 53.7798589 ], [ -2.8847228, 53.7799401 ], [ -2.8847218, 53.7800231 ], [ -2.8846679, 53.78009620000001 ], [ -2.8845822, 53.7801427 ], [ -2.8844696, 53.7801642 ], [ -2.8841602, 53.7801487 ], [ -2.8839722, 53.7801282 ] ] } },
{ "type": "Feature", "properties": { "id": 2642, "nach": 0.40694404509600496 }, "geometry": { "type": "LineString", "coordinates": [ [ -2.8849096, 53.779729 ], [ -2.8848076, 53.7797899 ] ] } },
{ "type": "Feature", "properties": { "id": 17965, "nach": 0.40813063676940287 }, "geometry": { "type": "LineString", "coordinates": [ [ -2.8847296, 53.7797653 ], [ -2.8848076, 53.7797899 ] ] } },
{ "type": "Feature", "properties": { "id": 10362, "nach": 0.40550894893998685 }, "geometry": { "type": "LineString", "coordinates": [ [ -2.8818266, 53.7804019 ], [ -2.8818007, 53.7804841 ], [ -2.8817522, 53.7806397 ], [ -2.8817331, 53.7806955 ], [ -2.881727, 53.780764400000017 ] ] } },
{ "type": "Feature", "properties": { "id": 10361, "nach": 0.40067498680686409 }, "geometry": { "type": "LineString", "coordinates": [ [ -2.8818266, 53.7804019 ], [ -2.8809826, 53.7803921 ] ] } },
{ "type": "Feature", "properties": { "id": 10398, "nach": 0.56522141445458129 }, "geometry": { "type": "LineString", "coordinates": [ [ -2.8745354, 53.78058020000001 ], [ -2.874597, 53.7807975 ] ] } },
{ "type": "Feature", "properties": { "id": 10413, "nach": 0.57803495646782599 }, "geometry": { "type": "LineString", "coordinates": [ [ -2.8746534, 53.7809962 ], [ -2.874597, 53.7807975 ] ] } },
{ "type": "Feature", "properties": { "id": 10403, "nach": 0.37754677712925605 }, "geometry": { "type": "LineString", "coordinates": [ [ -2.8730213, 53.7808303 ], [ -2.874597, 53.7807975 ] ] } },
{ "type": "Feature", "properties": { "id": 10421, "nach": 0.58794148868823382 }, "geometry": { "type": "LineString", "coordinates": [ [ -2.8760445, 53.7809909 ], [ -2.87584960000001, 53.7809386 ], [ -2.8746534, 53.7809962 ] ] } },
{ "type": "Feature", "properties": { "id": 10420, "nach": 0.45328374860000165 }, "geometry": { "type": "LineString", "coordinates": [ [ -2.8760445, 53.7809909 ], [ -2.875947, 53.7807082 ], [ -2.875823, 53.7806925 ], [ -2.8753534, 53.7806873 ] ] } },
{ "type": "Feature", "properties": { "id": 26253, "nach": 0.46139563361211117 }, "geometry": { "type": "LineString", "coordinates": [ [ -2.877167, 53.7811953 ], [ -2.8767166, 53.7811743 ] ] } },
{ "type": "Feature", "properties": { "id": 32927, "nach": 0.55534637339221404 }, "geometry": { "type": "LineString", "coordinates": [ [ -2.8698988, 53.7782328 ], [ -2.8698825, 53.778385 ], [ -2.8698776, 53.7785631 ], [ -2.8698894, 53.7786951 ] ] } },
{ "type": "Feature", "properties": { "id": 18109, "nach": 0.55306876900827318 }, "geometry": { "type": "LineString", "coordinates": [ [ -2.8694457, 53.7786393 ], [ -2.8694707, 53.77867220000001 ], [ -2.8698894, 53.7786951 ] ] } },
{ "type": "Feature", "properties": { "id": 10430, "nach": 0.42239322183545663 }, "geometry": { "type": "LineString", "coordinates": [ [ -2.8892808, 53.7806326 ], [ -2.8891273, 53.7806033 ], [ -2.8889322, 53.780576099999983 ] ] } },
{ "type": "Feature", "properties": { "id": 32931, "nach": 0.49058346702219657 }, "geometry": { "type": "LineString", "coordinates": [ [ -2.8891487, 53.78076990000001 ], [ -2.8892808, 53.7806326 ] ] } },
{ "type": "Feature", "properties": { "id": 32935, "nach": 0.42219510650077563 }, "geometry": { "type": "LineString", "coordinates": [ [ -2.8896023, 53.7807097 ], [ -2.8894697, 53.7806695 ], [ -2.8892808, 53.7806326 ] ] } },
{ "type": "Feature", "properties": { "id": 32932, "nach": 0.40185226613665853 }, "geometry": { "type": "LineString", "coordinates": [ [ -2.8891487, 53.78076990000001 ], [ -2.8891471, 53.7807448 ], [ -2.8891355, 53.780717 ], [ -2.8891105, 53.78068360000001 ], [ -2.8890816, 53.7806534 ], [ -2.8890436, 53.7806254 ], [ -2.8889919, 53.7805979 ], [ -2.8889322, 53.780576099999983 ] ] } },
{ "type": "Feature", "properties": { "id": 20319, "nach": 0.5738344733267855 }, "geometry": { "type": "LineString", "coordinates": [ [ -2.8890746, 53.7808281 ], [ -2.889123, 53.7807982 ] ] } },
{ "type": "Feature", "properties": { "id": 32937, "nach": 0.53415689253395304 }, "geometry": { "type": "LineString", "coordinates": [ [ -2.8891322, 53.780789 ], [ -2.889123, 53.7807982 ] ] } },
{ "type": "Feature", "properties": { "id": 15348, "nach": 0.51437593958665706 }, "geometry": { "type": "LineString", "coordinates": [ [ -2.8899344, 53.7808681 ], [ -2.8898239, 53.7808574 ], [ -2.889557, 53.7808618 ], [ -2.889407, 53.7808689 ], [ -2.8893453, 53.7808627 ], [ -2.8892928, 53.7808486 ], [ -2.889123, 53.7807982 ] ] } },
{ "type": "Feature", "properties": { "id": 20320, "nach": 0.56396736237644629 }, "geometry": { "type": "LineString", "coordinates": [ [ -2.8890746, 53.7808281 ], [ -2.8889721, 53.7808578 ], [ -2.8887993, 53.780882899999988 ], [ -2.8880413, 53.7809047 ] ] } },
{ "type": "Feature", "properties": { "id": 20321, "nach": 0.40145358832167882 }, "geometry": { "type": "LineString", "coordinates": [ [ -2.8890746, 53.7808281 ], [ -2.8890847, 53.780965300000013 ], [ -2.8890792, 53.7811903 ] ] } },
{ "type": "Feature", "properties": { "id": 32934, "nach": 0.4567378709889891 }, "geometry": { "type": "LineString", "coordinates": [ [ -2.8896023, 53.7807097 ], [ -2.8895041, 53.78070610000001 ], [ -2.8894298, 53.7807082 ], [ -2.8893612, 53.78071760000001 ], [ -2.8892869, 53.780736500000017 ], [ -2.8891322, 53.780789 ] ] } },
{ "type": "Feature", "properties": { "id": 32936, "nach": 0.51857964256680011 }, "geometry": { "type": "LineString", "coordinates": [ [ -2.8891322, 53.780789 ], [ -2.8891487, 53.78076990000001 ] ] } },
{ "type": "Feature", "properties": { "id": 15350, "nach": 0.32712127134750812 }, "geometry": { "type": "LineString", "coordinates": [ [ -2.8899344, 53.7808681 ], [ -2.8899595, 53.7808238 ], [ -2.8899847, 53.7807795 ] ] } },
{ "type": "Feature", "properties": { "id": 19445, "nach": 0.51523186332019044 }, "geometry": { "type": "LineString", "coordinates": [ [ -2.8910177, 53.7810133 ], [ -2.8909002, 53.781061900000019 ], [ -2.8907552, 53.78102530000001 ], [ -2.8907272, 53.7810025 ], [ -2.8906229, 53.7809784 ], [ -2.8902265, 53.7808965 ], [ -2.8899344, 53.7808681 ] ] } },
{ "type": "Feature", "properties": { "id": 10457, "nach": 0.43468220848513911 }, "geometry": { "type": "LineString", "coordinates": [ [ -2.8804995, 53.7828688 ], [ -2.8803226, 53.7823879 ], [ -2.8800749, 53.782374 ], [ -2.8800395, 53.782297300000018 ], [ -2.8798744, 53.7822486 ], [ -2.8798272, 53.782165 ] ] } },
{ "type": "Feature", "properties": { "id": 10459, "nach": 0.44002806998086696 }, "geometry": { "type": "LineString", "coordinates": [ [ -2.8804995, 53.7828688 ], [ -2.8803462, 53.783049899999988 ], [ -2.8799806, 53.7831335 ], [ -2.8797329, 53.78311260000001 ], [ -2.8795088, 53.7829802 ] ] } },
{ "type": "Feature", "properties": { "id": 10465, "nach": 0.53417028497838914 }, "geometry": { "type": "LineString", "coordinates": [ [ -2.880181, 53.7819141 ], [ -2.8799216, 53.7819002 ] ] } },
{ "type": "Feature", "properties": { "id": 10460, "nach": 0.45590443557919519 }, "geometry": { "type": "LineString", "coordinates": [ [ -2.8796621, 53.7818792 ], [ -2.8799216, 53.7819002 ] ] } },
{ "type": "Feature", "properties": { "id": 10466, "nach": 0.4532405247730561 }, "geometry": { "type": "LineString", "coordinates": [ [ -2.880181, 53.7819141 ], [ -2.8801928, 53.7818026 ] ] } },
{ "type": "Feature", "properties": { "id": 10464, "nach": 0.45294338083809343 }, "geometry": { "type": "LineString", "coordinates": [ [ -2.880181, 53.7819141 ], [ -2.88024, 53.782060400000013 ] ] } },
{ "type": "Feature", "properties": { "id": 10484, "nach": 0.53888553852464982 }, "geometry": { "type": "LineString", "coordinates": [ [ -2.8824607, 53.7843992 ], [ -2.8828097, 53.784681900000017 ] ] } },
{ "type": "Feature", "properties": { "id": 22601, "nach": 0.58909781710791032 }, "geometry": { "type": "LineString", "coordinates": [ [ -2.8849264, 53.781009600000012 ], [ -2.8856258, 53.780984300000014 ], [ -2.8866879, 53.7809459 ] ] } },
{ "type": "Feature", "properties": { "id": 22602, "nach": 0.52617972644321542 }, "geometry": { "type": "LineString", "coordinates": [ [ -2.8849731, 53.7816143 ], [ -2.8849264, 53.781009600000012 ] ] } },
{ "type": "Feature", "properties": { "id": 22583, "nach": 0.58590893132307209 }, "geometry": { "type": "LineString", "coordinates": [ [ -2.886756, 53.7809439 ], [ -2.8866879, 53.7809459 ] ] } },
{ "type": "Feature", "properties": { "id": 10708, "nach": 0.39370633230032825 }, "geometry": { "type": "LineString", "coordinates": [ [ -2.8867528, 53.7816022 ], [ -2.8867172, 53.7812234 ], [ -2.8866879, 53.7809459 ] ] } },
{ "type": "Feature", "properties": { "id": 22584, "nach": 0.57074520731302636 }, "geometry": { "type": "LineString", "coordinates": [ [ -2.886756, 53.7809439 ], [ -2.8880413, 53.7809047 ] ] } },
{ "type": "Feature", "properties": { "id": 22586, "nach": 0.53859443768230786 }, "geometry": { "type": "LineString", "coordinates": [ [ -2.8867375, 53.780780900000011 ], [ -2.886756, 53.7809439 ] ] } },
{ "type": "Feature", "properties": { "id": 11055, "nach": 0.41499961292893806 }, "geometry": { "type": "LineString", "coordinates": [ [ -2.8689335, 53.7789846 ], [ -2.8690782, 53.7789632 ] ] } },
{ "type": "Feature", "properties": { "id": 11056, "nach": 0.41499961292893806 }, "geometry": { "type": "LineString", "coordinates": [ [ -2.8689335, 53.7789846 ], [ -2.8688098, 53.7789655 ] ] } },
{ "type": "Feature", "properties": { "id": 22381, "nach": 0.56081309833679838 }, "geometry": { "type": "LineString", "coordinates": [ [ -2.8680575, 53.7792285 ], [ -2.8681398, 53.7792993 ] ] } },
{ "type": "Feature", "properties": { "id": 22372, "nach": 0.40676280840610618 }, "geometry": { "type": "LineString", "coordinates": [ [ -2.8678114, 53.779478100000013 ], [ -2.8679499, 53.7793548 ], [ -2.868076, 53.7793179 ], [ -2.8681398, 53.7792993 ] ] } },
{ "type": "Feature", "properties": { "id": 32920, "nach": 0.0 }, "geometry": { "type": "LineString", "coordinates": [ [ -2.8692262, 53.778201899999985 ], [ -2.8684113, 53.7781985 ], [ -2.867704, 53.7781954 ], [ -2.8655103, 53.7781861 ], [ -2.8648602, 53.7781855 ], [ -2.8600506, 53.7781736 ], [ -2.8559867, 53.77816390000001 ], [ -2.8553444, 53.7781609 ], [ -2.8547396, 53.7781477 ], [ -2.8542288, 53.778121 ], [ -2.853781, 53.7780903 ], [ -2.8533782, 53.7780464 ] ] } },
{ "type": "Feature", "properties": { "id": 32928, "nach": 0.40823221372530366 }, "geometry": { "type": "LineString", "coordinates": [ [ -2.8698988, 53.7782328 ], [ -2.8696419, 53.778235 ], [ -2.869517, 53.778236 ], [ -2.8692262, 53.778201899999985 ] ] } },
{ "type": "Feature", "properties": { "id": 11639, "nach": 0.35146195635174804 }, "geometry": { "type": "LineString", "coordinates": [ [ -2.8712723, 53.7778438 ], [ -2.8715774, 53.7778381 ] ] } },
{ "type": "Feature", "properties": { "id": 11635, "nach": 0.35146195635174804 }, "geometry": { "type": "LineString", "coordinates": [ [ -2.8718306, 53.777848400000011 ], [ -2.8715774, 53.7778381 ] ] } },
{ "type": "Feature", "properties": { "id": 22715, "nach": 0.43080342043900111 }, "geometry": { "type": "LineString", "coordinates": [ [ -2.8715788, 53.7773244 ], [ -2.8715766, 53.7774491 ], [ -2.8715774, 53.7778381 ] ] } },
{ "type": "Feature", "properties": { "id": 22717, "nach": 0.35073457427931037 }, "geometry": { "type": "LineString", "coordinates": [ [ -2.8728249, 53.7773039 ], [ -2.8715788, 53.7773244 ] ] } },
{ "type": "Feature", "properties": { "id": 15309, "nach": 0.44606168058770262 }, "geometry": { "type": "LineString", "coordinates": [ [ -2.8757553, 53.7827405 ], [ -2.8751438, 53.7828356 ] ] } },
{ "type": "Feature", "properties": { "id": 15315, "nach": 0.1876316673423209 }, "geometry": { "type": "LineString", "coordinates": [ [ -2.8752101, 53.7829736 ], [ -2.8751438, 53.7828356 ] ] } },
{ "type": "Feature", "properties": { "id": 15332, "nach": 0.57696659519919158 }, "geometry": { "type": "LineString", "coordinates": [ [ -2.8758134, 53.782882499999985 ], [ -2.8757553, 53.7827405 ] ] } },
{ "type": "Feature", "properties": { "id": 15317, "nach": 0.1605162006353347 }, "geometry": { "type": "LineString", "coordinates": [ [ -2.8752101, 53.7829736 ], [ -2.875277, 53.7831127 ], [ -2.8759019, 53.7830984 ] ] } },
{ "type": "Feature", "properties": { "id": 15330, "nach": 0.4451267137206486 }, "geometry": { "type": "LineString", "coordinates": [ [ -2.8758134, 53.782882499999985 ], [ -2.8752101, 53.7829736 ] ] } },
{ "type": "Feature", "properties": { "id": 15331, "nach": 0.54696851987201811 }, "geometry": { "type": "LineString", "coordinates": [ [ -2.8758134, 53.782882499999985 ], [ -2.8758506, 53.7829732 ] ] } },
{ "type": "Feature", "properties": { "id": 15327, "nach": 0.49522187352635844 }, "geometry": { "type": "LineString", "coordinates": [ [ -2.8758506, 53.7829732 ], [ -2.8759019, 53.7830984 ] ] } },
{ "type": "Feature", "properties": { "id": 15323, "nach": 0.44424424207855057 }, "geometry": { "type": "LineString", "coordinates": [ [ -2.8761539, 53.7830918 ], [ -2.8759019, 53.7830984 ] ] } },
{ "type": "Feature", "properties": { "id": 15329, "nach": 0.44652436363882875 }, "geometry": { "type": "LineString", "coordinates": [ [ -2.8758506, 53.7829732 ], [ -2.8760917, 53.782939900000017 ] ] } },
{ "type": "Feature", "properties": { "id": 15325, "nach": 0.0 }, "geometry": { "type": "LineString", "coordinates": [ [ -2.8760917, 53.782939900000017 ], [ -2.8763204, 53.7829082 ], [ -2.8763901, 53.7830857 ], [ -2.8761539, 53.7830918 ] ] } },
{ "type": "Feature", "properties": { "id": 17271, "nach": 0.50852281350938477 }, "geometry": { "type": "LineString", "coordinates": [ [ -2.8742332, 53.7827973 ], [ -2.8739359, 53.7828417 ] ] } },
{ "type": "Feature", "properties": { "id": 15333, "nach": 0.45580335987179232 }, "geometry": { "type": "LineString", "coordinates": [ [ -2.8736328, 53.7828829 ], [ -2.8739359, 53.7828417 ] ] } },
{ "type": "Feature", "properties": { "id": 17269, "nach": 0.0 }, "geometry": { "type": "LineString", "coordinates": [ [ -2.8741778, 53.7826499 ], [ -2.8738687, 53.7826931 ], [ -2.8739359, 53.7828417 ] ] } },
{ "type": "Feature", "properties": { "id": 17270, "nach": 0.56445262881802871 }, "geometry": { "type": "LineString", "coordinates": [ [ -2.8742332, 53.7827973 ], [ -2.8741778, 53.7826499 ] ] } },
{ "type": "Feature", "properties": { "id": 15335, "nach": 0.0 }, "geometry": { "type": "LineString", "coordinates": [ [ -2.8736328, 53.7828829 ], [ -2.8736462, 53.7829146 ], [ -2.8734343, 53.7829447 ], [ -2.8733592, 53.7827735 ], [ -2.8735706, 53.782743600000011 ], [ -2.8736328, 53.7828829 ] ] } },
{ "type": "Feature", "properties": { "id": 15347, "nach": 0.46354797816772936 }, "geometry": { "type": "LineString", "coordinates": [ [ -2.8899847, 53.7807795 ], [ -2.8900049, 53.780743900000012 ], [ -2.8900398, 53.7806824 ], [ -2.8900656, 53.780636800000018 ] ] } },
{ "type": "Feature", "properties": { "id": 15345, "nach": 0.49628616777072815 }, "geometry": { "type": "LineString", "coordinates": [ [ -2.8899847, 53.7807795 ], [ -2.8896023, 53.7807097 ] ] } },
{ "type": "Feature", "properties": { "id": 19444, "nach": 0.50098779956075112 }, "geometry": { "type": "LineString", "coordinates": [ [ -2.8910177, 53.7810133 ], [ -2.890701, 53.7809246 ], [ -2.8899847, 53.7807795 ] ] } },
{ "type": "Feature", "properties": { "id": 15605, "nach": 0.2820237913114349 }, "geometry": { "type": "LineString", "coordinates": [ [ -2.8764588, 53.777409499999983 ], [ -2.8738852, 53.7773977 ], [ -2.8738155, 53.7773533 ], [ -2.8738141, 53.7766597 ] ] } },
{ "type": "Feature", "properties": { "id": 32921, "nach": 0.42176204267895784 }, "geometry": { "type": "LineString", "coordinates": [ [ -2.870607, 53.7781914 ], [ -2.8703066, 53.7782294 ], [ -2.8702514, 53.7782299 ], [ -2.8698988, 53.7782328 ] ] } },
{ "type": "Feature", "properties": { "id": 18110, "nach": 0.52464491365131327 }, "geometry": { "type": "LineString", "coordinates": [ [ -2.8691995, 53.77862 ], [ -2.8694457, 53.7786393 ] ] } },
{ "type": "Feature", "properties": { "id": 18119, "nach": 0.41950283887773593 }, "geometry": { "type": "LineString", "coordinates": [ [ -2.8694438, 53.7785359 ], [ -2.8694457, 53.7786393 ] ] } },
{ "type": "Feature", "properties": { "id": 18118, "nach": 0.4131594964211443 }, "geometry": { "type": "LineString", "coordinates": [ [ -2.8687284, 53.7786302 ], [ -2.8691995, 53.77862 ] ] } },
{ "type": "Feature", "properties": { "id": 18115, "nach": 0.48177248492148778 }, "geometry": { "type": "LineString", "coordinates": [ [ -2.8683803, 53.7783563 ], [ -2.8691207, 53.7783461 ], [ -2.8691918, 53.7783904 ], [ -2.8691995, 53.77862 ] ] } },
{ "type": "Feature", "properties": { "id": 18116, "nach": 0.40152418301950715 }, "geometry": { "type": "LineString", "coordinates": [ [ -2.8683841, 53.7784256 ], [ -2.8683803, 53.7783563 ] ] } },
{ "type": "Feature", "properties": { "id": 18117, "nach": 0.40152418301950715 }, "geometry": { "type": "LineString", "coordinates": [ [ -2.8683784, 53.7783041 ], [ -2.8683803, 53.7783563 ] ] } },
{ "type": "Feature", "properties": { "id": 20317, "nach": 0.3923647137694482 }, "geometry": { "type": "LineString", "coordinates": [ [ -2.8890792, 53.7811903 ], [ -2.8880992, 53.781221 ], [ -2.8880413, 53.7809047 ] ] } },
{ "type": "Feature", "properties": { "id": 20322, "nach": 0.39277496988469485 }, "geometry": { "type": "LineString", "coordinates": [ [ -2.8892834, 53.7814877 ], [ -2.8892111, 53.7814424 ], [ -2.8891434, 53.7814122 ], [ -2.8891229, 53.7813388 ], [ -2.8891034, 53.7812471 ], [ -2.8890792, 53.7811903 ] ] } },
{ "type": "Feature", "properties": { "id": 22319, "nach": 0.4549497910730656 }, "geometry": { "type": "LineString", "coordinates": [ [ -2.8787347, 53.7825974 ], [ -2.8785271, 53.7825974 ] ] } },
{ "type": "Feature", "properties": { "id": 22326, "nach": 0.60506177246388215 }, "geometry": { "type": "LineString", "coordinates": [ [ -2.8784505, 53.7822652 ], [ -2.8785347, 53.7824623 ], [ -2.8785544, 53.7825157 ], [ -2.8785271, 53.7825974 ] ] } },
{ "type": "Feature", "properties": { "id": 22324, "nach": 0.52900324429205348 }, "geometry": { "type": "LineString", "coordinates": [ [ -2.8784505, 53.7822652 ], [ -2.8784146, 53.7821812 ] ] } },
{ "type": "Feature", "properties": { "id": 22332, "nach": 0.55932552888344611 }, "geometry": { "type": "LineString", "coordinates": [ [ -2.8790193, 53.7821792 ], [ -2.8784505, 53.7822652 ] ] } },
{ "type": "Feature", "properties": { "id": 22323, "nach": 0.44853346414609124 }, "geometry": { "type": "LineString", "coordinates": [ [ -2.878749, 53.7821244 ], [ -2.8784146, 53.7821812 ] ] } },
{ "type": "Feature", "properties": { "id": 22336, "nach": 0.44725973943380926 }, "geometry": { "type": "LineString", "coordinates": [ [ -2.8779284, 53.78219940000001 ], [ -2.8783929, 53.7821399 ], [ -2.8784146, 53.7821812 ] ] } },
{ "type": "Feature", "properties": { "id": 22334, "nach": 0.52163711390807377 }, "geometry": { "type": "LineString", "coordinates": [ [ -2.8790193, 53.7821792 ], [ -2.8790873, 53.782169 ], [ -2.8792739, 53.7821421 ], [ -2.8794085, 53.7821278 ] ] } },
{ "type": "Feature", "properties": { "id": 22335, "nach": 0.43839106410284623 }, "geometry": { "type": "LineString", "coordinates": [ [ -2.8788175, 53.78166 ], [ -2.8790193, 53.7821792 ] ] } },
{ "type": "Feature", "properties": { "id": 22329, "nach": 0.43817278626766043 }, "geometry": { "type": "LineString", "coordinates": [ [ -2.8794085, 53.7821278 ], [ -2.8796535, 53.7821019 ], [ -2.8796226, 53.7819849 ] ] } },
{ "type": "Feature", "properties": { "id": 22331, "nach": 0.44203328564219896 }, "geometry": { "type": "LineString", "coordinates": [ [ -2.8793761, 53.782014600000011 ], [ -2.8794085, 53.7821278 ] ] } },
{ "type": "Feature", "properties": { "id": 22382, "nach": 0.52979537534642052 }, "geometry": { "type": "LineString", "coordinates": [ [ -2.8680575, 53.7792285 ], [ -2.8680523, 53.7791854 ], [ -2.8680611, 53.7791487 ], [ -2.8680902, 53.7790335 ] ] } },
{ "type": "Feature", "properties": { "id": 22386, "nach": 0.44958140499598465 }, "geometry": { "type": "LineString", "coordinates": [ [ -2.8675852, 53.7790556 ], [ -2.8677549, 53.7791123 ], [ -2.8680575, 53.7792285 ] ] } },
{ "type": "Feature", "properties": { "id": 22379, "nach": 0.48009817516916897 }, "geometry": { "type": "LineString", "coordinates": [ [ -2.8683002, 53.7790415 ], [ -2.8680902, 53.7790335 ] ] } },
{ "type": "Feature", "properties": { "id": 22388, "nach": 0.45390850708142272 }, "geometry": { "type": "LineString", "coordinates": [ [ -2.8678581, 53.77901760000001 ], [ -2.8680902, 53.7790335 ] ] } },
{ "type": "Feature", "properties": { "id": 22378, "nach": 0.39964183723693314 }, "geometry": { "type": "LineString", "coordinates": [ [ -2.8683002, 53.7790415 ], [ -2.8683108, 53.7792336 ] ] } },
{ "type": "Feature", "properties": { "id": 22380, "nach": 0.39838515345330339 }, "geometry": { "type": "LineString", "coordinates": [ [ -2.8683002, 53.7790415 ], [ -2.8682903, 53.7788637 ], [ -2.8682715, 53.7788212 ] ] } },
{ "type": "Feature", "properties": { "id": 22390, "nach": 0.23594789031293567 }, "geometry": { "type": "LineString", "coordinates": [ [ -2.8678581, 53.77901760000001 ], [ -2.8676951, 53.779019300000016 ], [ -2.8676386, 53.7790244 ], [ -2.8676164, 53.7790345 ], [ -2.8675852, 53.7790556 ] ] } },
{ "type": "Feature", "properties": { "id": 22391, "nach": 0.40087737863319417 }, "geometry": { "type": "LineString", "coordinates": [ [ -2.8678157, 53.7790921 ], [ -2.8678581, 53.77901760000001 ] ] } },
{ "type": "Feature", "properties": { "id": 22385, "nach": 0.40143190623704222 }, "geometry": { "type": "LineString", "coordinates": [ [ -2.8675852, 53.7790556 ], [ -2.8674522, 53.7790112 ] ] } },
{ "type": "Feature", "properties": { "id": 22592, "nach": 0.49674247145236827 }, "geometry": { "type": "LineString", "coordinates": [ [ -2.8867117, 53.7806123 ], [ -2.8867375, 53.780780900000011 ] ] } },
{ "type": "Feature", "properties": { "id": 22588, "nach": 0.44625212339455006 }, "geometry": { "type": "LineString", "coordinates": [ [ -2.8867375, 53.780780900000011 ], [ -2.8862685, 53.78079060000001 ] ] } },
{ "type": "Feature", "properties": { "id": 22595, "nach": 0.39982474450777805 }, "geometry": { "type": "LineString", "coordinates": [ [ -2.8866973, 53.780467799999983 ], [ -2.886703, 53.7805249 ], [ -2.8867117, 53.7806123 ] ] } },
{ "type": "Feature", "properties": { "id": 22596, "nach": 0.44145407337621151 }, "geometry": { "type": "LineString", "coordinates": [ [ -2.8862599, 53.780631700000022 ], [ -2.8867117, 53.7806123 ] ] } },
{ "type": "Feature", "properties": { "id": 22590, "nach": 0.39324200125283287 }, "geometry": { "type": "LineString", "coordinates": [ [ -2.8862685, 53.78079060000001 ], [ -2.8859497, 53.7808021 ] ] } },
{ "type": "Feature", "properties": { "id": 22591, "nach": 0.1611628673376935 }, "geometry": { "type": "LineString", "coordinates": [ [ -2.8862685, 53.78079060000001 ], [ -2.8862201, 53.7807777 ], [ -2.8861811, 53.780763699999987 ], [ -2.8861595, 53.7807403 ], [ -2.8861538, 53.780687100000016 ], [ -2.8861785, 53.780655799999984 ], [ -2.8862168, 53.780641 ], [ -2.8862599, 53.780631700000022 ] ] } },
{ "type": "Feature", "properties": { "id": 22598, "nach": 0.39060068916871737 }, "geometry": { "type": "LineString", "coordinates": [ [ -2.8859562, 53.7806457 ], [ -2.8862599, 53.780631700000022 ] ] } },
{ "type": "Feature", "properties": { "id": 22594, "nach": 0.0 }, "geometry": { "type": "LineString", "coordinates": [ [ -2.8866973, 53.780467799999983 ], [ -2.8866575, 53.7801872 ], [ -2.8873392, 53.7804389 ], [ -2.8866973, 53.780467799999983 ] ] } },
{ "type": "Feature", "properties": { "id": 22603, "nach": 0.4862321163797676 }, "geometry": { "type": "LineString", "coordinates": [ [ -2.8849731, 53.7816143 ], [ -2.8850528, 53.781614699999984 ], [ -2.8851282, 53.78163 ], [ -2.8851915, 53.7816586 ], [ -2.8852364, 53.7816976 ], [ -2.8852581, 53.7817429 ] ] } },
{ "type": "Feature", "properties": { "id": 22604, "nach": 0.40781623047794069 }, "geometry": { "type": "LineString", "coordinates": [ [ -2.8849462, 53.781902100000011 ], [ -2.8848694, 53.7818811 ], [ -2.8848088, 53.781846200000018 ], [ -2.8847715, 53.7818014 ], [ -2.8847618, 53.7817517 ], [ -2.8847807, 53.781703 ], [ -2.8848261, 53.7816608 ], [ -2.8848929, 53.78163 ], [ -2.8849731, 53.7816143 ] ] } },
{ "type": "Feature", "properties": { "id": 22605, "nach": 0.4077999004868289 }, "geometry": { "type": "LineString", "coordinates": [ [ -2.8852581, 53.7817429 ], [ -2.8852545, 53.7817899 ], [ -2.8852259, 53.7818339 ], [ -2.8851753, 53.7818703 ] ] } },
{ "type": "Feature", "properties": { "id": 22609, "nach": 0.39812170838313421 }, "geometry": { "type": "LineString", "coordinates": [ [ -2.8857707, 53.7815315 ], [ -2.8856773, 53.7815381 ], [ -2.8855985, 53.7815468 ], [ -2.8855315, 53.7815621 ], [ -2.885487, 53.781578 ], [ -2.8854482, 53.781599300000018 ], [ -2.8854105, 53.7816219 ], [ -2.8852581, 53.7817429 ] ] } },
{ "type": "Feature", "properties": { "id": 22608, "nach": 0.080624042582112546 }, "geometry": { "type": "LineString", "coordinates": [ [ -2.8851753, 53.7818703 ], [ -2.8851058, 53.7820853 ], [ -2.8848964, 53.782069300000011 ], [ -2.8849462, 53.781902100000011 ] ] } },
{ "type": "Feature", "properties": { "id": 33264, "nach": 0.45729962668260632 }, "geometry": { "type": "LineString", "coordinates": [ [ -2.8739709, 53.7818354 ], [ -2.8741737, 53.7818119 ] ] } }
]
}
