{
"type": "FeatureCollection",
"name": "FYLDE_5_NACH",
"crs": { "type": "name", "properties": { "name": "urn:ogc:def:crs:OGC:1.3:CRS84" } },
"features": [
{"type":"Feature","properties":{"id":421,"nach":0.57941959645719854},"geometry":{"type":"LineString","coordinates":[[-2.9160054,53.7762204],[-2.9161841,53.7766632]]}},
{"type":"Feature","properties":{"id":10755,"nach":0.58898675367325581},"geometry":{"type":"LineString","coordinates":[[-2.9176938,53.7763152],[-2.9161841,53.7766632]]}},
{"type":"Feature","properties":{"id":14499,"nach":0.52773451840981478},"geometry":{"type":"LineString","coordinates":[[-2.9155326,53.7768615],[-2.9161841,53.7766632]]}},
{"type":"Feature","properties":{"id":10800,"nach":0.5737639337274667},"geometry":{"type":"LineString","coordinates":[[-2.9163224,53.7770372],[-2.9161841,53.7766632]]}},
{"type":"Feature","properties":{"id":14487,"nach":0.6241780426615251},"geometry":{"type":"LineString","coordinates":[[-2.9156802,53.7754882],[-2.9160054,53.7762204]]}},
{"type":"Feature","properties":{"id":10849,"nach":0.58082347799876677},"geometry":{"type":"LineString","coordinates":[[-2.9157567,53.7764049],[-2.9158614,53.7762905],[-2.9159094,53.776244],[-2.9160054,53.7762204]]}},
{"type":"Feature","properties":{"id":10756,"nach":0.53978998621011987},"geometry":{"type":"LineString","coordinates":[[-2.9176938,53.7763152],[-2.9181117,53.7762066],[-2.9183484,53.7760889]]}},
{"type":"Feature","properties":{"id":10846,"nach":0.56082597672769219},"geometry":{"type":"LineString","coordinates":[[-2.918947,53.7767646],[-2.918249,53.7768183],[-2.9181876,53.776807499999983],[-2.9180971,53.7767641],[-2.9179259,53.7766013],[-2.9176938,53.7763152]]}},
{"type":"Feature","properties":{"id":14498,"nach":0.60872618154709268},"geometry":{"type":"LineString","coordinates":[[-2.9155326,53.7768615],[-2.9153837,53.7769069]]}},
{"type":"Feature","properties":{"id":14500,"nach":0.58347946422003538},"geometry":{"type":"LineString","coordinates":[[-2.9155326,53.7768615],[-2.9154912,53.77682020000001],[-2.9154853,53.77676970000001],[-2.9156286,53.7765543]]}},
{"type":"Feature","properties":{"id":10799,"nach":0.55417255628519058},"geometry":{"type":"LineString","coordinates":[[-2.9163224,53.7770372],[-2.9160485,53.7769992]]}},
{"type":"Feature","properties":{"id":25752,"nach":0.60499516938416142},"geometry":{"type":"LineString","coordinates":[[-2.9164852,53.777343],[-2.9164462,53.7772637],[-2.9163224,53.7770372]]}},
{"type":"Feature","properties":{"id":14486,"nach":0.60125846874641919},"geometry":{"type":"LineString","coordinates":[[-2.9156802,53.7754882],[-2.9155676,53.7752348]]}},
{"type":"Feature","properties":{"id":14488,"nach":0.5929397296580986},"geometry":{"type":"LineString","coordinates":[[-2.9156802,53.7754882],[-2.9155931,53.7754934],[-2.9146677,53.7754656]]}},
{"type":"Feature","properties":{"id":10847,"nach":0.57639391297816256},"geometry":{"type":"LineString","coordinates":[[-2.9157567,53.7764049],[-2.9156286,53.7765543]]}},
{"type":"Feature","properties":{"id":10856,"nach":0.4280701705126092},"geometry":{"type":"LineString","coordinates":[[-2.9153199,53.776388600000011],[-2.9157567,53.7764049]]}},
{"type":"Feature","properties":{"id":21392,"nach":0.25882994100638829},"geometry":{"type":"LineString","coordinates":[[-2.913741,53.7715409],[-2.9137694,53.7711341],[-2.9137763,53.7709915],[-2.9137709,53.7708554],[-2.9137607,53.770757300000014],[-2.9137384,53.7706629],[-2.9136651,53.7704038],[-2.9136114,53.7702515],[-2.9134413,53.7698247],[-2.9133196,53.7695642],[-2.913151,53.7692273],[-2.9130939,53.7691004],[-2.913059,53.7690132],[-2.9130261,53.7689178],[-2.9129971,53.7688235],[-2.9129436,53.7686242],[-2.9128553,53.7683098],[-2.9128315,53.7682397],[-2.9127666,53.768074],[-2.9126838,53.7678684],[-2.9125373,53.7675336],[-2.9124646,53.767359200000016],[-2.9124254,53.767256]]}},
{"type":"Feature","properties":{"id":21394,"nach":0.45458012356790356},"geometry":{"type":"LineString","coordinates":[[-2.913741,53.7715409],[-2.9144661,53.771526],[-2.914624,53.7715077],[-2.914689,53.771452800000013],[-2.9147881,53.7712863],[-2.9149987,53.771246]]}},
{"type":"Feature","properties":{"id":21921,"nach":0.47767738823566996},"geometry":{"type":"LineString","coordinates":[[-2.9137455,53.7723498],[-2.913722,53.7721618],[-2.913741,53.7715409]]}},
{"type":"Feature","properties":{"id":10842,"nach":0.62900574474961313},"geometry":{"type":"LineString","coordinates":[[-2.9145767,53.7771915],[-2.9150907,53.7770072]]}},
{"type":"Feature","properties":{"id":3282,"nach":0.6325589360002023},"geometry":{"type":"LineString","coordinates":[[-2.9153837,53.7769069],[-2.9150907,53.7770072]]}},
{"type":"Feature","properties":{"id":36305,"nach":0.50196064544476471},"geometry":{"type":"LineString","coordinates":[[-2.9143425,53.776362700000014],[-2.9143509,53.77648580000001],[-2.9143697,53.7765291],[-2.9144459,53.776594],[-2.914557,53.7766322],[-2.9147006,53.776638],[-2.9148097,53.7766454],[-2.9148795,53.7766882],[-2.9149255,53.7767415],[-2.9150907,53.7770072]]}},
{"type":"Feature","properties":{"id":10843,"nach":0.42865812565067901},"geometry":{"type":"LineString","coordinates":[[-2.9145767,53.7771915],[-2.9149522,53.777594200000024]]}},
{"type":"Feature","properties":{"id":10861,"nach":0.62787625688683202},"geometry":{"type":"LineString","coordinates":[[-2.9138391,53.777455500000016],[-2.9145767,53.7771915]]}},
{"type":"Feature","properties":{"id":25754,"nach":0.55206153500072586},"geometry":{"type":"LineString","coordinates":[[-2.9160485,53.7769992],[-2.9157212,53.7769538],[-2.9153837,53.7769069]]}},
{"type":"Feature","properties":{"id":36306,"nach":0.42151506896388719},"geometry":{"type":"LineString","coordinates":[[-2.9141138,53.776254800000011],[-2.9143425,53.776362700000014]]}},
{"type":"Feature","properties":{"id":36307,"nach":0.41901963292826688},"geometry":{"type":"LineString","coordinates":[[-2.9146815,53.776222],[-2.9146796,53.7762698],[-2.9145177,53.77627],[-2.9144183,53.776290900000014],[-2.9143609,53.7763237],[-2.9143425,53.776362700000014]]}},
{"type":"Feature","properties":{"id":25597,"nach":0.58776447294897993},"geometry":{"type":"LineString","coordinates":[[-2.910511,53.7780035],[-2.9113037,53.7779385]]}},
{"type":"Feature","properties":{"id":10862,"nach":0.58137196948525782},"geometry":{"type":"LineString","coordinates":[[-2.9138391,53.777455500000016],[-2.9133474,53.7776338],[-2.9132237,53.7776695],[-2.9131042,53.7776937],[-2.9124673,53.777804],[-2.9113037,53.7779385]]}},
{"type":"Feature","properties":{"id":17336,"nach":0.57679132964888113},"geometry":{"type":"LineString","coordinates":[[-2.9114586,53.7785123],[-2.9114655,53.7784643],[-2.9115123,53.7783798],[-2.9115395,53.7782881],[-2.9115131,53.778226399999987],[-2.9114723,53.7781775],[-2.9113841,53.7780963],[-2.9113354,53.778034],[-2.9113037,53.7779385]]}},
{"type":"Feature","properties":{"id":25596,"nach":0.58670429287043258},"geometry":{"type":"LineString","coordinates":[[-2.910511,53.7780035],[-2.9101195,53.778022]]}},
{"type":"Feature","properties":{"id":25600,"nach":0.30123851152014175},"geometry":{"type":"LineString","coordinates":[[-2.9085933,53.7822291],[-2.9087613,53.7819481],[-2.9091438,53.781328699999989],[-2.9097166,53.7804676],[-2.9097388,53.7804533],[-2.9103856,53.780373800000014],[-2.9104532,53.7803282],[-2.9104774,53.7802368],[-2.910511,53.7780035]]}},
{"type":"Feature","properties":{"id":10864,"nach":0.57304116072820444},"geometry":{"type":"LineString","coordinates":[[-2.9138391,53.777455500000016],[-2.9136451,53.7772388],[-2.9133524,53.7767727]]}},
{"type":"Feature","properties":{"id":10863,"nach":0.41746602423182572},"geometry":{"type":"LineString","coordinates":[[-2.9138391,53.777455500000016],[-2.9144003,53.7781814],[-2.9144454,53.778206],[-2.9145178,53.7782058],[-2.9156972,53.7779917]]}},
{"type":"Feature","properties":{"id":17338,"nach":0.55884186765649824},"geometry":{"type":"LineString","coordinates":[[-2.9118667,53.7792667],[-2.9120578,53.7791122],[-2.9121093,53.7790339],[-2.9121092,53.7789652],[-2.9120825,53.778902],[-2.9120348,53.7788523],[-2.9119605,53.7788101],[-2.9115977,53.7786481],[-2.9115154,53.7785976],[-2.9114816,53.7785602],[-2.9114586,53.7785123]]}},
{"type":"Feature","properties":{"id":17341,"nach":0.41638067371559134},"geometry":{"type":"LineString","coordinates":[[-2.9107204,53.7785749],[-2.91105960000001,53.7785554],[-2.9114586,53.7785123]]}},
{"type":"Feature","properties":{"id":22808,"nach":0.59068289840102139},"geometry":{"type":"LineString","coordinates":[[-2.9090787,53.7780562],[-2.9101195,53.778022]]}},
{"type":"Feature","properties":{"id":10809,"nach":0.57506306169347909},"geometry":{"type":"LineString","coordinates":[[-2.9100603,53.777188],[-2.9101195,53.778022]]}},
{"type":"Feature","properties":{"id":22807,"nach":0.55907289026621942},"geometry":{"type":"LineString","coordinates":[[-2.9090787,53.7780562],[-2.909009,53.778058199999982]]}},
{"type":"Feature","properties":{"id":27279,"nach":0.5179107022306193},"geometry":{"type":"LineString","coordinates":[[-2.9090669,53.777823],[-2.9090787,53.7780562]]}},
{"type":"Feature","properties":{"id":10808,"nach":0.59510686697580251},"geometry":{"type":"LineString","coordinates":[[-2.9100603,53.777188],[-2.9100333,53.776628]]}},
{"type":"Feature","properties":{"id":10820,"nach":0.53937233817781483},"geometry":{"type":"LineString","coordinates":[[-2.9110745,53.7771113],[-2.9100603,53.777188]]}},
{"type":"Feature","properties":{"id":21420,"nach":0.52532993618729529},"geometry":{"type":"LineString","coordinates":[[-2.9077332,53.7780602],[-2.9078712,53.778059],[-2.9083451,53.77806],[-2.909009,53.778058199999982]]}},
{"type":"Feature","properties":{"id":10853,"nach":0.47295963249359774},"geometry":{"type":"LineString","coordinates":[[-2.9092332,53.779336],[-2.9090324,53.7786307],[-2.909009,53.778058199999982]]}},
{"type":"Feature","properties":{"id":21419,"nach":0.47628779968450419},"geometry":{"type":"LineString","coordinates":[[-2.9077332,53.7780602],[-2.9066252,53.778058],[-2.90618340000001,53.7780597]]}},
{"type":"Feature","properties":{"id":21421,"nach":0.45859719863901066},"geometry":{"type":"LineString","coordinates":[[-2.9077332,53.7780602],[-2.907722,53.777925],[-2.9076501,53.7776431],[-2.9075422,53.777536499999989],[-2.9074949,53.7774611],[-2.9074146,53.7768331]]}},
{"type":"Feature","properties":{"id":10852,"nach":0.39110994239749208},"geometry":{"type":"LineString","coordinates":[[-2.9092332,53.779336],[-2.9094487,53.7793012]]}},
{"type":"Feature","properties":{"id":10851,"nach":0.39259801128335159},"geometry":{"type":"LineString","coordinates":[[-2.9092332,53.779336],[-2.9090667,53.7793591]]}},
{"type":"Feature","properties":{"id":16218,"nach":0.23282127863858965},"geometry":{"type":"LineString","coordinates":[[-2.9238334,53.7692865],[-2.9232674,53.7700024],[-2.923018,53.7704152],[-2.9226746,53.7711888],[-2.9222482,53.7717842],[-2.9221597,53.7721653],[-2.922239,53.7724113]]}},
{"type":"Feature","properties":{"id":2699,"nach":0.36705813952316896},"geometry":{"type":"LineString","coordinates":[[-2.91784340000001,53.7746028],[-2.9179413,53.7744382],[-2.9180606,53.7742779],[-2.9182524,53.7741047],[-2.9185718,53.7739751],[-2.9193472,53.7738187],[-2.9199223,53.7736329],[-2.9202862,53.7735154],[-2.920532,53.7733548],[-2.9212016,53.7729171],[-2.9214767,53.7726743],[-2.9216087,53.7725579],[-2.922239,53.7724113]]}},
{"type":"Feature","properties":{"id":16208,"nach":0.33654929993856375},"geometry":{"type":"LineString","coordinates":[[-2.9234181,53.7723189],[-2.9226172,53.7723817],[-2.922239,53.7724113]]}},
{"type":"Feature","properties":{"id":16217,"nach":0.14441269102979784},"geometry":{"type":"LineString","coordinates":[[-2.9238334,53.7692865],[-2.9231172,53.7670918]]}},
{"type":"Feature","properties":{"id":25309,"nach":0.081668232073867364},"geometry":{"type":"LineString","coordinates":[[-2.9257064,53.7635554],[-2.9260373,53.765307],[-2.9256284,53.766549299999987],[-2.9251554,53.7676422],[-2.9240796,53.768841],[-2.9238334,53.7692865]]}},
{"type":"Feature","properties":{"id":20849,"nach":0.49256436975871087},"geometry":{"type":"LineString","coordinates":[[-2.9181945,53.7752743],[-2.9179262,53.7750553],[-2.9178336,53.7749205],[-2.917817,53.77477540000001],[-2.91784340000001,53.7746028]]}},
{"type":"Feature","properties":{"id":20853,"nach":0.5104152639733216},"geometry":{"type":"LineString","coordinates":[[-2.9170564,53.7748316],[-2.9174782,53.774702],[-2.91784340000001,53.7746028]]}},
{"type":"Feature","properties":{"id":16209,"nach":0.21879712863482009},"geometry":{"type":"LineString","coordinates":[[-2.9234181,53.7723189],[-2.9251851,53.7721804],[-2.9258355,53.7720512],[-2.9261959,53.7719796],[-2.9267487,53.7717158],[-2.9269352,53.7716052],[-2.9272931,53.771393],[-2.927945,53.77123],[-2.9286294,53.7711214],[-2.9291661,53.7709469],[-2.929455,53.770828],[-2.929644,53.7706229]]}},
{"type":"Feature","properties":{"id":24272,"nach":0.32234988994871094},"geometry":{"type":"LineString","coordinates":[[-2.9221564,53.7736253],[-2.9220443,53.7734011],[-2.922055,53.7732362],[-2.9221623,53.7731094],[-2.9222053,53.772906500000012],[-2.922334,53.77274160000001],[-2.9226022,53.7726402],[-2.9230743,53.7726021],[-2.9232567,53.77245],[-2.9234181,53.7723189]]}},
{"type":"Feature","properties":{"id":32943,"nach":0.58685754149534763},"geometry":{"type":"LineString","coordinates":[[-2.9155047,53.775108],[-2.9155676,53.7752348]]}},
{"type":"Feature","properties":{"id":20852,"nach":0.54009875691509945},"geometry":{"type":"LineString","coordinates":[[-2.9170564,53.7748316],[-2.9169844,53.774853700000016],[-2.9155676,53.7752348]]}},
{"type":"Feature","properties":{"id":32944,"nach":0.57782483725170497},"geometry":{"type":"LineString","coordinates":[[-2.9155047,53.775108],[-2.915467,53.7750319],[-2.9153835,53.774926300000011],[-2.9146822,53.7744933]]}},
{"type":"Feature","properties":{"id":32946,"nach":0.41870388032294242},"geometry":{"type":"LineString","coordinates":[[-2.9147169,53.7751972],[-2.9149687,53.7751533],[-2.9155047,53.775108]]}},
{"type":"Feature","properties":{"id":27635,"nach":0.4854303445359921},"geometry":{"type":"LineString","coordinates":[[-2.9169666,53.7743123],[-2.9169396,53.774556],[-2.9170221,53.7747599],[-2.9170564,53.7748316]]}},
{"type":"Feature","properties":{"id":20848,"nach":0.50255963952998117},"geometry":{"type":"LineString","coordinates":[[-2.9181945,53.7752743],[-2.9184114,53.7754776],[-2.9185239,53.7756514]]}},
{"type":"Feature","properties":{"id":20851,"nach":0.40219404585531476},"geometry":{"type":"LineString","coordinates":[[-2.919213,53.7750655],[-2.9190905,53.7750901],[-2.918854,53.775149500000012],[-2.9185942,53.7751995],[-2.9183234,53.7752545],[-2.9181945,53.7752743]]}},
{"type":"Feature","properties":{"id":10805,"nach":0.48886425034680087},"geometry":{"type":"LineString","coordinates":[[-2.9185239,53.7756514],[-2.9185062,53.775805099999985],[-2.9184541,53.7759469],[-2.9183484,53.7760889]]}},
{"type":"Feature","properties":{"id":10826,"nach":0.46567481635033026},"geometry":{"type":"LineString","coordinates":[[-2.9206907,53.77561510000001],[-2.9205604,53.7757171],[-2.9205758,53.7758981],[-2.92055,53.7759586],[-2.9204634,53.7759941],[-2.9193143,53.7760993],[-2.9192453,53.7761358],[-2.9190012,53.776161700000017],[-2.9183484,53.7760889]]}},
{"type":"Feature","properties":{"id":10807,"nach":0.47866328280408205},"geometry":{"type":"LineString","coordinates":[[-2.9185239,53.7756514],[-2.9201619,53.7753547],[-2.9202062,53.7753727]]}},
{"type":"Feature","properties":{"id":10825,"nach":0.43474500202936511},"geometry":{"type":"LineString","coordinates":[[-2.9206907,53.77561510000001],[-2.9204459,53.7754704],[-2.9202062,53.7753727]]}},
{"type":"Feature","properties":{"id":33606,"nach":0.48865959248898982},"geometry":{"type":"LineString","coordinates":[[-2.9225589,53.7754645],[-2.9221008,53.77553990000002],[-2.9211118,53.7756325],[-2.9207638,53.7756181],[-2.9206907,53.77561510000001]]}},
{"type":"Feature","properties":{"id":25593,"nach":0.21900058418932622},"geometry":{"type":"LineString","coordinates":[[-2.932042,53.7724949],[-2.929888,53.7706983],[-2.929644,53.7706229]]}},
{"type":"Feature","properties":{"id":4139,"nach":0.2262825634173227},"geometry":{"type":"LineString","coordinates":[[-2.9318724,53.7670908],[-2.9316667,53.7671628],[-2.9310801,53.7673263],[-2.9307731,53.7674118],[-2.9302651,53.7676603],[-2.9300007,53.767912200000012],[-2.9299816,53.7679324],[-2.9298674,53.7680531],[-2.9295854,53.768351100000011],[-2.92932,53.768819],[-2.9293901,53.7694921],[-2.9294681,53.7697335],[-2.9296172,53.7701951],[-2.929644,53.7706229]]}},
{"type":"Feature","properties":{"id":10859,"nach":0.57461782624688018},"geometry":{"type":"LineString","coordinates":[[-2.9146677,53.7754656],[-2.9138728,53.7754262]]}},
{"type":"Feature","properties":{"id":10759,"nach":0.48480771209658829},"geometry":{"type":"LineString","coordinates":[[-2.9138869,53.775105799999984],[-2.9138728,53.7754262]]}},
{"type":"Feature","properties":{"id":10813,"nach":0.55368083678588986},"geometry":{"type":"LineString","coordinates":[[-2.9135454,53.7756689],[-2.9136809,53.7756005],[-2.9137861,53.7755214],[-2.9138728,53.7754262]]}},
{"type":"Feature","properties":{"id":10858,"nach":0.49091376459214586},"geometry":{"type":"LineString","coordinates":[[-2.9146677,53.7754656],[-2.9145744,53.775865]]}},
{"type":"Feature","properties":{"id":10758,"nach":0.40561885096554717},"geometry":{"type":"LineString","coordinates":[[-2.9138869,53.775105799999984],[-2.9138848,53.775048]]}},
{"type":"Feature","properties":{"id":10760,"nach":0.40195220733898956},"geometry":{"type":"LineString","coordinates":[[-2.9138869,53.775105799999984],[-2.9135224,53.77511160000001],[-2.9133364,53.7751753]]}},
{"type":"Feature","properties":{"id":10812,"nach":0.54070351625796331},"geometry":{"type":"LineString","coordinates":[[-2.9135454,53.7756689],[-2.9128428,53.7758804]]}},
{"type":"Feature","properties":{"id":10835,"nach":0.408062494549991},"geometry":{"type":"LineString","coordinates":[[-2.9137101,53.7758254],[-2.9135454,53.7756689]]}},
{"type":"Feature","properties":{"id":10766,"nach":0.40416002171187698},"geometry":{"type":"LineString","coordinates":[[-2.9130438,53.7761701],[-2.9128428,53.7758804]]}},
{"type":"Feature","properties":{"id":10777,"nach":0.53055162552040125},"geometry":{"type":"LineString","coordinates":[[-2.9125587,53.7755803],[-2.9128428,53.7758804]]}},
{"type":"Feature","properties":{"id":10776,"nach":0.50703378910237951},"geometry":{"type":"LineString","coordinates":[[-2.9125587,53.7755803],[-2.9121733,53.7751447]]}},
{"type":"Feature","properties":{"id":14493,"nach":0.47892824829570008},"geometry":{"type":"LineString","coordinates":[[-2.9121683,53.7757778],[-2.91216150000001,53.775746400000017],[-2.9121873,53.7756978],[-2.9125587,53.7755803]]}},
{"type":"Feature","properties":{"id":10855,"nach":0.39428908532666096},"geometry":{"type":"LineString","coordinates":[[-2.9119076,53.77486360000001],[-2.9121733,53.7751447]]}},
{"type":"Feature","properties":{"id":3296,"nach":0.4940681282931717},"geometry":{"type":"LineString","coordinates":[[-2.9122331,53.7734041],[-2.912502,53.774116800000016],[-2.9126979,53.7746193],[-2.9127929,53.7747902],[-2.9127925,53.7748501],[-2.9127562,53.7749117],[-2.912667,53.7749875],[-2.9121733,53.7751447]]}},
{"type":"Feature","properties":{"id":3297,"nach":0.53367465098406586},"geometry":{"type":"LineString","coordinates":[[-2.9122331,53.7734041],[-2.91304,53.7733584],[-2.9131455,53.7733645],[-2.9134067,53.773437800000018],[-2.9134973,53.7734424],[-2.9141182,53.7734011]]}},
{"type":"Feature","properties":{"id":3300,"nach":0.55036959073721403},"geometry":{"type":"LineString","coordinates":[[-2.9120864,53.7727194],[-2.9121335,53.7731234],[-2.9122331,53.7734041]]}},
{"type":"Feature","properties":{"id":10791,"nach":0.54514181233423598},"geometry":{"type":"LineString","coordinates":[[-2.914008,53.773015],[-2.9140534,53.773186199999984],[-2.9141182,53.7734011]]}},
{"type":"Feature","properties":{"id":10784,"nach":0.56108253338813796},"geometry":{"type":"LineString","coordinates":[[-2.9146822,53.7744933],[-2.9145343,53.7743404],[-2.9144138,53.774129600000016],[-2.9142654,53.7737675],[-2.9141182,53.7734011]]}},
{"type":"Feature","properties":{"id":10814,"nach":0.52684656068323954},"geometry":{"type":"LineString","coordinates":[[-2.9137953,53.77249710000001],[-2.914008,53.773015]]}},
{"type":"Feature","properties":{"id":10857,"nach":0.39590432290350197},"geometry":{"type":"LineString","coordinates":[[-2.91423860000001,53.7733408],[-2.9142227,53.7731841],[-2.9142246,53.7730252],[-2.914008,53.773015]]}},
{"type":"Feature","properties":{"id":10819,"nach":0.49191251444784528},"geometry":{"type":"LineString","coordinates":[[-2.9143254,53.7747123],[-2.9146822,53.7744933]]}},
{"type":"Feature","properties":{"id":14473,"nach":0.45748534632767285},"geometry":{"type":"LineString","coordinates":[[-2.9127591,53.7726961],[-2.9120864,53.7727194]]}},
{"type":"Feature","properties":{"id":18587,"nach":0.53014796912445095},"geometry":{"type":"LineString","coordinates":[[-2.9104023,53.7728909],[-2.9104852,53.7728954],[-2.9109633,53.7728123],[-2.9116597,53.7727356],[-2.9120864,53.7727194]]}},
{"type":"Feature","properties":{"id":14474,"nach":0.3775888904789273},"geometry":{"type":"LineString","coordinates":[[-2.9127591,53.7726961],[-2.9129609,53.7726891]]}},
{"type":"Feature","properties":{"id":14476,"nach":0.3775888904789273},"geometry":{"type":"LineString","coordinates":[[-2.9127568,53.7728012],[-2.9127591,53.7726961]]}},
{"type":"Feature","properties":{"id":18588,"nach":0.35457827578825174},"geometry":{"type":"LineString","coordinates":[[-2.9104023,53.7728909],[-2.9103247,53.7728867],[-2.9101352,53.7728393],[-2.9098581,53.7728436],[-2.9096102,53.7729083],[-2.9092398,53.772971],[-2.9091171,53.772998]]}},
{"type":"Feature","properties":{"id":18589,"nach":0.52037005268684644},"geometry":{"type":"LineString","coordinates":[[-2.910404,53.7732993],[-2.9104023,53.7728909]]}},
{"type":"Feature","properties":{"id":10738,"nach":0.4700950842554848},"geometry":{"type":"LineString","coordinates":[[-2.915091,53.7789655],[-2.9153838,53.7788896],[-2.9156779,53.7788022],[-2.9157743,53.778762900000011],[-2.9159587,53.77867770000001],[-2.9161271,53.7786554],[-2.9161846,53.778614100000013],[-2.9161998,53.7785641],[-2.9161869,53.7784803],[-2.9162058,53.7784226],[-2.9162298,53.7783852],[-2.9162747,53.7783509],[-2.9163393,53.7783093],[-2.9163938,53.778284],[-2.9168914,53.7781787]]}},
{"type":"Feature","properties":{"id":3412,"nach":0.51760780120482264},"geometry":{"type":"LineString","coordinates":[[-2.9167355,53.7778309],[-2.9168295,53.7780516],[-2.9168914,53.7781787]]}},
{"type":"Feature","properties":{"id":24024,"nach":0.42774992199138301},"geometry":{"type":"LineString","coordinates":[[-2.9208081,53.7809219],[-2.9200714,53.7806192],[-2.9195162,53.7802937],[-2.9192476,53.7801363],[-2.9185347,53.779630699999984],[-2.9181604,53.7793653],[-2.9181294,53.779345],[-2.9180628,53.779301500000017],[-2.9179369,53.7792192],[-2.9178278,53.7791479],[-2.9174455,53.778894],[-2.9172899,53.7787671],[-2.9171679,53.7786324],[-2.9168914,53.7781787]]}},
{"type":"Feature","properties":{"id":10836,"nach":0.38849915375676142},"geometry":{"type":"LineString","coordinates":[[-2.914913,53.7787052],[-2.915091,53.7789655]]}},
{"type":"Feature","properties":{"id":10823,"nach":0.38607718657315554},"geometry":{"type":"LineString","coordinates":[[-2.9142563,53.778945],[-2.9143649,53.7790111],[-2.914519,53.7790569],[-2.9147581,53.779033],[-2.915091,53.7789655]]}},
{"type":"Feature","properties":{"id":3410,"nach":0.49275313096901618},"geometry":{"type":"LineString","coordinates":[[-2.9167355,53.7778309],[-2.9168317,53.777823]]}},
{"type":"Feature","properties":{"id":24120,"nach":0.56299068237460492},"geometry":{"type":"LineString","coordinates":[[-2.9166304,53.7776292],[-2.9167355,53.7778309]]}},
{"type":"Feature","properties":{"id":24023,"nach":0.40024893563862562},"geometry":{"type":"LineString","coordinates":[[-2.9208081,53.7809219],[-2.9209229,53.7809691]]}},
{"type":"Feature","properties":{"id":32688,"nach":0.34091766686946989},"geometry":{"type":"LineString","coordinates":[[-2.9213052,53.78099670000001],[-2.9212886,53.7809415],[-2.921267,53.7808637],[-2.9211915,53.78082040000001],[-2.9210211,53.7807962],[-2.9208982,53.780852300000014],[-2.9208081,53.7809219]]}},
{"type":"Feature","properties":{"id":3409,"nach":0.40789544546024736},"geometry":{"type":"LineString","coordinates":[[-2.9181211,53.7776791],[-2.9178914,53.77775780000001],[-2.9172959,53.7779632],[-2.9172543,53.7779738],[-2.9172108,53.7779774],[-2.9171652,53.777975],[-2.9171222,53.7779611],[-2.9170907,53.777946100000015],[-2.9170645,53.7779087],[-2.9170324,53.7778708],[-2.9170056,53.7778454],[-2.9169613,53.7778359],[-2.916901,53.7778264],[-2.9168317,53.777823]]}},
{"type":"Feature","properties":{"id":21470,"nach":0.40480558812011053},"geometry":{"type":"LineString","coordinates":[[-2.917594,53.7787419],[-2.9174044,53.7786122],[-2.9173355,53.778553],[-2.9171572,53.7783121],[-2.9169573,53.778014099999986],[-2.9168317,53.777823]]}},
{"type":"Feature","properties":{"id":21469,"nach":0.0},"geometry":{"type":"LineString","coordinates":[[-2.917594,53.7787419],[-2.9177033,53.7788248],[-2.9178181,53.7788952],[-2.9179602,53.778949800000014],[-2.9180813,53.778974500000011],[-2.9182057,53.77897140000001],[-2.9183162,53.7789463],[-2.9186696,53.7788063],[-2.9193758,53.778550200000012],[-2.919901,53.778350700000011],[-2.9199506,53.7783214],[-2.9199877,53.7782802],[-2.9200187,53.7782152],[-2.9200249,53.77816570000001],[-2.9199908,53.7781108],[-2.9198173,53.7779689],[-2.9197662,53.7779433],[-2.9196996,53.777935],[-2.9196329,53.7779443],[-2.9186679,53.778308300000013],[-2.9183487,53.7784136],[-2.917594,53.7787419]]}},
{"type":"Feature","properties":{"id":24119,"nach":0.58973608805143729},"geometry":{"type":"LineString","coordinates":[[-2.9166304,53.7776292],[-2.9165499,53.77747440000001]]}},
{"type":"Feature","properties":{"id":24126,"nach":0.49500399050175603},"geometry":{"type":"LineString","coordinates":[[-2.9159508,53.777763899999989],[-2.9161914,53.7777244],[-2.9166304,53.7776292]]}},
{"type":"Feature","properties":{"id":14497,"nach":0.41029260329810519},"geometry":{"type":"LineString","coordinates":[[-2.9146375,53.7759278],[-2.9145744,53.775865]]}},
{"type":"Feature","properties":{"id":14496,"nach":0.4097254182973924},"geometry":{"type":"LineString","coordinates":[[-2.9144413,53.7758806],[-2.9145744,53.775865]]}},
{"type":"Feature","properties":{"id":10748,"nach":0.40405723472418253},"geometry":{"type":"LineString","coordinates":[[-2.9110874,53.776004],[-2.9112449,53.7760088]]}},
{"type":"Feature","properties":{"id":10752,"nach":0.51902359977570334},"geometry":{"type":"LineString","coordinates":[[-2.9110423,53.7764787],[-2.9110874,53.776004]]}},
{"type":"Feature","properties":{"id":10796,"nach":0.47978039893664481},"geometry":{"type":"LineString","coordinates":[[-2.9111368,53.7756778],[-2.9110874,53.776004]]}},
{"type":"Feature","properties":{"id":10829,"nach":0.48258955814851412},"geometry":{"type":"LineString","coordinates":[[-2.9095715,53.775386100000013],[-2.9096915,53.775374899999989],[-2.9101084,53.775381400000015],[-2.9108821,53.7751158]]}},
{"type":"Feature","properties":{"id":14479,"nach":0.44044578481222968},"geometry":{"type":"LineString","coordinates":[[-2.910728,53.774801],[-2.9107662,53.7749708],[-2.9108821,53.7751158]]}},
{"type":"Feature","properties":{"id":10763,"nach":0.37153325965515055},"geometry":{"type":"LineString","coordinates":[[-2.9111048,53.7752331],[-2.9110087,53.7751601],[-2.9108821,53.7751158]]}},
{"type":"Feature","properties":{"id":14485,"nach":0.46322189312383932},"geometry":{"type":"LineString","coordinates":[[-2.9093952,53.7748846],[-2.9094408,53.774989600000012],[-2.9094665,53.7751867],[-2.9094915,53.7753091],[-2.9095715,53.775386100000013]]}},
{"type":"Feature","properties":{"id":21405,"nach":0.53145522775390641},"geometry":{"type":"LineString","coordinates":[[-2.9100282,53.7765069],[-2.9100068,53.775997],[-2.909901200000011,53.7759055],[-2.9096348,53.7757848],[-2.9095208,53.7756827],[-2.9094957,53.7755387],[-2.9095715,53.775386100000013]]}},
{"type":"Feature","properties":{"id":14480,"nach":0.35747547730762125},"geometry":{"type":"LineString","coordinates":[[-2.910728,53.774801],[-2.9108049,53.7747278],[-2.9109756,53.7747009],[-2.9113684,53.7746841]]}},
{"type":"Feature","properties":{"id":27310,"nach":0.35747547730762125},"geometry":{"type":"LineString","coordinates":[[-2.9101736,53.7747998],[-2.9101779,53.7747591],[-2.9101886,53.77474380000001],[-2.9102349,53.774730500000011],[-2.910336,53.7747241],[-2.9104458,53.7747235],[-2.9105695,53.7747317],[-2.9106513,53.7747438],[-2.910728,53.774801]]}},
{"type":"Feature","properties":{"id":10793,"nach":0.56537556541171818},"geometry":{"type":"LineString","coordinates":[[-2.9123731,53.77696060000001],[-2.9133524,53.7767727]]}},
{"type":"Feature","properties":{"id":10761,"nach":0.4253015880623463},"geometry":{"type":"LineString","coordinates":[[-2.91308160000001,53.7762484],[-2.9133524,53.7767727]]}},
{"type":"Feature","properties":{"id":10794,"nach":0.42368036179491719},"geometry":{"type":"LineString","coordinates":[[-2.9123731,53.77696060000001],[-2.9120821,53.7764451]]}},
{"type":"Feature","properties":{"id":10822,"nach":0.56363763438248604},"geometry":{"type":"LineString","coordinates":[[-2.9110745,53.7771113],[-2.9118949,53.7770407],[-2.91204750000001,53.777022],[-2.9123731,53.77696060000001]]}},
{"type":"Feature","properties":{"id":10821,"nach":0.47030414695551281},"geometry":{"type":"LineString","coordinates":[[-2.9110745,53.7771113],[-2.9110155,53.7768072],[-2.9110423,53.7764787]]}},
{"type":"Feature","properties":{"id":10804,"nach":0.49464720374744392},"geometry":{"type":"LineString","coordinates":[[-2.9100333,53.776628],[-2.9104769,53.7766162],[-2.910565,53.7765699],[-2.9105944,53.7764947],[-2.9107217,53.7764716],[-2.9110423,53.7764787]]}},
{"type":"Feature","properties":{"id":14489,"nach":0.3996488147465736},"geometry":{"type":"LineString","coordinates":[[-2.9110226,53.7756736],[-2.9111368,53.7756778]]}},
{"type":"Feature","properties":{"id":14490,"nach":0.39833911513131748},"geometry":{"type":"LineString","coordinates":[[-2.9112805,53.775690200000014],[-2.9111368,53.7756778]]}},
{"type":"Feature","properties":{"id":21404,"nach":0.59032820953051757},"geometry":{"type":"LineString","coordinates":[[-2.9100282,53.7765069],[-2.9100333,53.776628]]}},
{"type":"Feature","properties":{"id":10845,"nach":0.5003300476875624},"geometry":{"type":"LineString","coordinates":[[-2.918947,53.7767646],[-2.9207244,53.7766061]]}},
{"type":"Feature","properties":{"id":10844,"nach":0.50896911784855958},"geometry":{"type":"LineString","coordinates":[[-2.918947,53.7767646],[-2.9190727,53.7772429]]}},
{"type":"Feature","properties":{"id":10780,"nach":0.38358456887584352},"geometry":{"type":"LineString","coordinates":[[-2.9202062,53.7753727],[-2.9202318,53.7751419],[-2.9197911,53.774320100000011],[-2.9199576,53.7742854]]}},
{"type":"Feature","properties":{"id":10789,"nach":0.38522505706835952},"geometry":{"type":"LineString","coordinates":[[-2.9212134,53.7765586],[-2.9207244,53.7766061]]}},
{"type":"Feature","properties":{"id":10830,"nach":0.46191259196701512},"geometry":{"type":"LineString","coordinates":[[-2.9207992,53.7769064],[-2.9207244,53.7766061]]}},
{"type":"Feature","properties":{"id":14502,"nach":0.38054435334763742},"geometry":{"type":"LineString","coordinates":[[-2.9206221,53.7769231],[-2.9207992,53.7769064]]}},
{"type":"Feature","properties":{"id":14501,"nach":0.38220952175270456},"geometry":{"type":"LineString","coordinates":[[-2.9209359,53.7768963],[-2.9207992,53.7769064]]}},
{"type":"Feature","properties":{"id":10839,"nach":0.42758902210646388},"geometry":{"type":"LineString","coordinates":[[-2.9156286,53.7765543],[-2.9150352,53.7765245]]}},
{"type":"Feature","properties":{"id":25751,"nach":0.59972763712474031},"geometry":{"type":"LineString","coordinates":[[-2.9164852,53.777343],[-2.9165499,53.77747440000001]]}},
{"type":"Feature","properties":{"id":10834,"nach":0.41151238312988581},"geometry":{"type":"LineString","coordinates":[[-2.9180662,53.7771081],[-2.9165499,53.77747440000001]]}},
{"type":"Feature","properties":{"id":25755,"nach":0.0},"geometry":{"type":"LineString","coordinates":[[-2.9160485,53.7769992],[-2.9158838,53.7771544],[-2.9159823,53.7772632],[-2.91603,53.7773411],[-2.9160749,53.777397],[-2.9161882,53.7774138],[-2.9162979,53.777386600000014],[-2.9164852,53.777343]]}},
{"type":"Feature","properties":{"id":10867,"nach":0.38775799131215333},"geometry":{"type":"LineString","coordinates":[[-2.9197123,53.7771801],[-2.9197523,53.777325]]}},
{"type":"Feature","properties":{"id":10865,"nach":0.46839217907577052},"geometry":{"type":"LineString","coordinates":[[-2.9197123,53.7771801],[-2.9190727,53.7772429]]}},
{"type":"Feature","properties":{"id":10866,"nach":0.38851759150276349},"geometry":{"type":"LineString","coordinates":[[-2.9197123,53.7771801],[-2.9198826,53.7771649]]}},
{"type":"Feature","properties":{"id":14495,"nach":0.39888354427775935},"geometry":{"type":"LineString","coordinates":[[-2.9121836,53.775848600000018],[-2.9121683,53.7757778]]}},
{"type":"Feature","properties":{"id":14494,"nach":0.39823960244694806},"geometry":{"type":"LineString","coordinates":[[-2.9120203,53.7757933],[-2.9121683,53.7757778]]}},
{"type":"Feature","properties":{"id":10817,"nach":0.41129813318328723},"geometry":{"type":"LineString","coordinates":[[-2.9143254,53.7747123],[-2.9139141,53.7747644]]}},
{"type":"Feature","properties":{"id":10833,"nach":0.41017700264503459},"geometry":{"type":"LineString","coordinates":[[-2.914296,53.7750075],[-2.9143254,53.7747123]]}},
{"type":"Feature","properties":{"id":14503,"nach":0.39699808489748784},"geometry":{"type":"LineString","coordinates":[[-2.9190896,53.7773068],[-2.9190727,53.7772429]]}},
{"type":"Feature","properties":{"id":21922,"nach":0.50847879479178582},"geometry":{"type":"LineString","coordinates":[[-2.9137455,53.7723498],[-2.9137652,53.7724227],[-2.9137953,53.77249710000001]]}},
{"type":"Feature","properties":{"id":28046,"nach":0.3679012487151595},"geometry":{"type":"LineString","coordinates":[[-2.9160926,53.7718237],[-2.9161294,53.7719671],[-2.9161413,53.7720587],[-2.9161424,53.7721298],[-2.9161294,53.7721772],[-2.9161175,53.7722122],[-2.9137953,53.77249710000001]]}},
{"type":"Feature","properties":{"id":34238,"nach":0.56792387092994212},"geometry":{"type":"LineString","coordinates":[[-2.9089016,53.7764889],[-2.9091005,53.7765068],[-2.9100282,53.7765069]]}},
{"type":"Feature","properties":{"id":21924,"nach":0.38836078938512802},"geometry":{"type":"LineString","coordinates":[[-2.912703,53.7722499],[-2.9127396,53.7721906],[-2.9128136,53.7721696],[-2.9129438,53.7721885],[-2.9134755,53.7721816],[-2.9135275,53.7722056],[-2.9136238,53.7723547],[-2.9137455,53.7723498]]}},
{"type":"Feature","properties":{"id":33605,"nach":0.26353313225695146},"geometry":{"type":"LineString","coordinates":[[-2.9225589,53.7754645],[-2.9234718,53.7753142],[-2.9244609,53.7751298],[-2.9257912,53.77458450000001],[-2.9277224,53.774166],[-2.9298664,53.773395]]}},
{"type":"Feature","properties":{"id":33607,"nach":0.47640513813900381},"geometry":{"type":"LineString","coordinates":[[-2.9225589,53.7754645],[-2.9225545,53.7753864],[-2.9225679,53.7753278],[-2.9227074,53.77526910000001],[-2.9227879,53.775199400000012],[-2.9227798,53.7751297],[-2.922778,53.7750661]]}},
{"type":"Feature","properties":{"id":14484,"nach":0.38295677608395179},"geometry":{"type":"LineString","coordinates":[[-2.9093952,53.7748846],[-2.9093816,53.7748535],[-2.9093595,53.7748026]]}},
{"type":"Feature","properties":{"id":14483,"nach":0.38213824737430069},"geometry":{"type":"LineString","coordinates":[[-2.9093952,53.7748846],[-2.9095691,53.774865800000015]]}},
{"type":"Feature","properties":{"id":14843,"nach":0.39723316835085476},"geometry":{"type":"LineString","coordinates":[[-2.9050436,53.7780941],[-2.9036689,53.778279],[-2.9029334,53.7783756],[-2.901561,53.7785913]]}},
{"type":"Feature","properties":{"id":36969,"nach":0.33645485171878836},"geometry":{"type":"LineString","coordinates":[[-2.9052527,53.7796356],[-2.905214,53.7791853],[-2.9051723,53.7788262],[-2.9050436,53.7780941]]}},
{"type":"Feature","properties":{"id":14845,"nach":0.43547388566651352},"geometry":{"type":"LineString","coordinates":[[-2.90618340000001,53.7780597],[-2.9054777,53.7780714],[-2.9050436,53.7780941]]}},
{"type":"Feature","properties":{"id":16245,"nach":0.38525545083537865},"geometry":{"type":"LineString","coordinates":[[-2.905609,53.776181900000012],[-2.9057363,53.7765667],[-2.9059593,53.7772717],[-2.90618340000001,53.7780597]]}},
{"type":"Feature","properties":{"id":25605,"nach":0.1640940590132913},"geometry":{"type":"LineString","coordinates":[[-2.9116637,53.7822053],[-2.911685,53.7822013],[-2.9117662,53.7822417],[-2.9120131,53.7821227],[-2.9120529,53.7821544],[-2.9121083,53.7821986],[-2.914108,53.7821162],[-2.9157925,53.7820193],[-2.9163367,53.7819546],[-2.9169164,53.7818076],[-2.9186612,53.7813471],[-2.9188827,53.7813212],[-2.9191294,53.781207],[-2.9209229,53.7809691]]}},
{"type":"Feature","properties":{"id":32689,"nach":0.37511351913318308},"geometry":{"type":"LineString","coordinates":[[-2.9213445,53.7811602],[-2.9211082,53.7810453],[-2.9209229,53.7809691]]}},
{"type":"Feature","properties":{"id":32691,"nach":0.26591379199604515},"geometry":{"type":"LineString","coordinates":[[-2.9213445,53.7811602],[-2.9213834,53.781128900000013],[-2.9214383,53.7810954],[-2.9215037,53.7810682],[-2.921609,53.7810338],[-2.9217252,53.781011800000016],[-2.9219243,53.7809941],[-2.9220017,53.7809904],[-2.9235085,53.780917400000014],[-2.9251221,53.7807399],[-2.9253909,53.7807103]]}},
{"type":"Feature","properties":{"id":32690,"nach":0.30263110528313719},"geometry":{"type":"LineString","coordinates":[[-2.9213445,53.7811602],[-2.9215208,53.7812515],[-2.9216588,53.781336700000011],[-2.9219017,53.78153720000001],[-2.923338,53.782991],[-2.9237641,53.7834881],[-2.9238447,53.7837567],[-2.9238531,53.7837847],[-2.9238588,53.7838037]]}},
{"type":"Feature","properties":{"id":16154,"nach":0.23274244291485593},"geometry":{"type":"LineString","coordinates":[[-2.9298664,53.773395],[-2.9299676,53.7733642],[-2.9302419,53.7733068],[-2.930587,53.7732593],[-2.9326668,53.773145900000024],[-2.9327312,53.7730698]]}},
{"type":"Feature","properties":{"id":25595,"nach":0.22562674108400052},"geometry":{"type":"LineString","coordinates":[[-2.9296839,53.7741392],[-2.9296777,53.7736982],[-2.9297137,53.7735796],[-2.9297734,53.7734838],[-2.9298664,53.773395]]}},
{"type":"Feature","properties":{"id":26033,"nach":0.41865044038452431},"geometry":{"type":"LineString","coordinates":[[-2.9227794,53.774129800000011],[-2.9226666,53.7740478],[-2.9224869,53.773927]]}},
{"type":"Feature","properties":{"id":24271,"nach":0.38007488351165108},"geometry":{"type":"LineString","coordinates":[[-2.9221564,53.7736253],[-2.9221838,53.77368],[-2.9224869,53.773927]]}},
{"type":"Feature","properties":{"id":33602,"nach":0.44402297918769368},"geometry":{"type":"LineString","coordinates":[[-2.922778,53.7750661],[-2.9227294,53.77504050000001],[-2.9226573,53.7749629],[-2.9224271,53.7746863],[-2.9221549,53.7743404],[-2.9221837,53.774267],[-2.9223214,53.774090400000013],[-2.9224869,53.773927]]}},
{"type":"Feature","properties":{"id":26034,"nach":0.0},"geometry":{"type":"LineString","coordinates":[[-2.9227794,53.774129800000011],[-2.9232074,53.7740583],[-2.9232801,53.7742025]]}},
{"type":"Feature","properties":{"id":26035,"nach":0.39801898660794249},"geometry":{"type":"LineString","coordinates":[[-2.9228704,53.7742631],[-2.9227794,53.774129800000011]]}},
{"type":"Feature","properties":{"id":24273,"nach":0.27142400140530498},"geometry":{"type":"LineString","coordinates":[[-2.9221564,53.7736253],[-2.9222068,53.773613],[-2.9222356,53.773611900000013],[-2.9222807,53.7736151],[-2.9223618,53.7736257],[-2.9226267,53.7736726],[-2.9228989,53.7737099],[-2.9231404,53.7737504],[-2.9233333,53.7737962],[-2.9234054,53.7738249],[-2.9234612,53.773860100000014],[-2.9236505,53.7740412],[-2.9237298,53.7741104],[-2.9238163,53.7741988],[-2.9238848,53.774283],[-2.9239569,53.7743809],[-2.9240092,53.774453400000013],[-2.9240705,53.774561]]}},
{"type":"Feature","properties":{"id":33603,"nach":0.36592259525646897},"geometry":{"type":"LineString","coordinates":[[-2.922778,53.7750661],[-2.9228488,53.7751034],[-2.9230462,53.7751426],[-2.9232001,53.7751662],[-2.9237415,53.7750876]]}},
{"type":"Feature","properties":{"id":26037,"nach":0.28392090499375938},"geometry":{"type":"LineString","coordinates":[[-2.9228704,53.7742631],[-2.9228812,53.7742887],[-2.9230206,53.7746057],[-2.9229563,53.774770599999989],[-2.9230314,53.7749862]]}},
{"type":"Feature","properties":{"id":26036,"nach":0.34756069543390872},"geometry":{"type":"LineString","coordinates":[[-2.9228704,53.7742631],[-2.9232801,53.7742025]]}},
{"type":"Feature","properties":{"id":26354,"nach":0.39101681103608943},"geometry":{"type":"LineString","coordinates":[[-2.9108731,53.7792227],[-2.9112175,53.7792375],[-2.9114614,53.7791775],[-2.9115485,53.7791679],[-2.9116561,53.7792031],[-2.9117719,53.779244],[-2.9118667,53.7792667]]}},
{"type":"Feature","properties":{"id":20838,"nach":0.54258178742510654},"geometry":{"type":"LineString","coordinates":[[-2.9118974,53.779449],[-2.9118546,53.7793979],[-2.9118484,53.7793208],[-2.9118667,53.7792667]]}},
{"type":"Feature","properties":{"id":20841,"nach":0.50141350804674201},"geometry":{"type":"LineString","coordinates":[[-2.91153,53.7796715],[-2.9115581,53.7795886],[-2.9116355,53.779531500000012],[-2.9117018,53.7794972],[-2.9118092,53.7794601],[-2.9118974,53.779449]]}},
{"type":"Feature","properties":{"id":34482,"nach":0.4605397755541854},"geometry":{"type":"LineString","coordinates":[[-2.9128938,53.779509],[-2.9126208,53.779575600000015],[-2.9124229,53.7795801],[-2.9122795,53.7795712],[-2.9121736,53.779565600000012],[-2.9120382,53.7795378],[-2.9119417,53.7794951],[-2.9118974,53.779449]]}},
{"type":"Feature","properties":{"id":18596,"nach":0.46391716274078099},"geometry":{"type":"LineString","coordinates":[[-2.9106325,53.7733932],[-2.910404,53.7732993]]}},
{"type":"Feature","properties":{"id":18602,"nach":0.47418338766636514},"geometry":{"type":"LineString","coordinates":[[-2.9099674,53.7734848],[-2.9100322,53.7734216],[-2.9102092,53.77334560000002],[-2.910404,53.7732993]]}},
{"type":"Feature","properties":{"id":18598,"nach":0.45436805498190186},"geometry":{"type":"LineString","coordinates":[[-2.9107291,53.7734767],[-2.9106325,53.7733932]]}},
{"type":"Feature","properties":{"id":18606,"nach":0.28500327385570495},"geometry":{"type":"LineString","coordinates":[[-2.9102625,53.7737331],[-2.9106239,53.7737122],[-2.91063,53.7736769],[-2.9105946,53.773457700000016],[-2.9106325,53.7733932]]}},
{"type":"Feature","properties":{"id":18601,"nach":0.41342340610041883},"geometry":{"type":"LineString","coordinates":[[-2.9099674,53.7734848],[-2.90974770000001,53.773572600000016],[-2.9096295,53.7736618],[-2.909568,53.7736978],[-2.9094848,53.77372050000001],[-2.909226,53.7737629]]}},
{"type":"Feature","properties":{"id":18605,"nach":0.41890611042500414},"geometry":{"type":"LineString","coordinates":[[-2.9102625,53.7737331],[-2.9101345,53.77359460000001],[-2.9099674,53.7734848]]}},
{"type":"Feature","properties":{"id":19622,"nach":0.33303176248613608},"geometry":{"type":"LineString","coordinates":[[-2.9093808,53.774168],[-2.9093455,53.7740781],[-2.9093137,53.773982],[-2.909226,53.7737629]]}},
{"type":"Feature","properties":{"id":21865,"nach":0.33303176248613608},"geometry":{"type":"LineString","coordinates":[[-2.9092981,53.7733777],[-2.909105,53.773426599999986],[-2.9091096,53.77353380000001],[-2.909226,53.7737629]]}},
{"type":"Feature","properties":{"id":19616,"nach":0.41234157614065714},"geometry":{"type":"LineString","coordinates":[[-2.9111692,53.7740514],[-2.9110102,53.774020900000011],[-2.9110339,53.7739752],[-2.9110488,53.7739082],[-2.9110021,53.773847900000014],[-2.9108658,53.7736746],[-2.9107291,53.7734767]]}},
{"type":"Feature","properties":{"id":19619,"nach":0.34441515171796522},"geometry":{"type":"LineString","coordinates":[[-2.9114233,53.7733731],[-2.9110477,53.7734152],[-2.9108987,53.7734306],[-2.9107291,53.7734767]]}},
{"type":"Feature","properties":{"id":18608,"nach":0.40466551509411069},"geometry":{"type":"LineString","coordinates":[[-2.9104094,53.7743552],[-2.9103548,53.774212100000014],[-2.9102793,53.7741142],[-2.9103546,53.7739608],[-2.9103337,53.7738321],[-2.9102625,53.7737331]]}},
{"type":"Feature","properties":{"id":19620,"nach":0.33258700344780379},"geometry":{"type":"LineString","coordinates":[[-2.9113586,53.7743892],[-2.91133730000001,53.774313],[-2.9112649,53.7742513],[-2.91115,53.7741166],[-2.9111692,53.7740514]]}},
{"type":"Feature","properties":{"id":19621,"nach":0.33258700344780379},"geometry":{"type":"LineString","coordinates":[[-2.9115768,53.7738909],[-2.9114252,53.7739832],[-2.9111692,53.7740514]]}},
{"type":"Feature","properties":{"id":19623,"nach":0.32616247000773924},"geometry":{"type":"LineString","coordinates":[[-2.9097128,53.7744734],[-2.9098709,53.774505],[-2.9100022,53.774536700000013],[-2.9100933,53.7745209],[-2.9102588,53.7744377],[-2.9104094,53.7743552]]}},
{"type":"Feature","properties":{"id":24370,"nach":0.324463931791863},"geometry":{"type":"LineString","coordinates":[[-2.9112013,53.7743858],[-2.9111966,53.7744093],[-2.9111756,53.7744286],[-2.9111452,53.7744466],[-2.9111148,53.7744576],[-2.9109417,53.774477],[-2.9108783,53.7744758],[-2.9108331,53.7744678],[-2.910776,53.7744555],[-2.9106493,53.7744272],[-2.9105437,53.7743915],[-2.9104094,53.7743552]]}},
{"type":"Feature","properties":{"id":20842,"nach":0.38979054656819895},"geometry":{"type":"LineString","coordinates":[[-2.9112926,53.7796702],[-2.91153,53.7796715]]}},
{"type":"Feature","properties":{"id":20844,"nach":0.46011444985036815},"geometry":{"type":"LineString","coordinates":[[-2.9115347,53.780068],[-2.9115593,53.7799589],[-2.9115392,53.7798408],[-2.911554,53.7797362],[-2.91153,53.7796715]]}},
{"type":"Feature","properties":{"id":34485,"nach":0.37760134629673797},"geometry":{"type":"LineString","coordinates":[[-2.9134802,53.7794131],[-2.9133696,53.7793942],[-2.9131197,53.779440200000018],[-2.9128938,53.779509]]}},
{"type":"Feature","properties":{"id":36971,"nach":0.37581267270342122},"geometry":{"type":"LineString","coordinates":[[-2.9130319,53.7799597],[-2.9129621,53.7799399],[-2.9129729,53.7798385],[-2.9129849,53.7797267],[-2.9129742,53.7796562],[-2.912942,53.7795881],[-2.9128938,53.779509]]}},
{"type":"Feature","properties":{"id":20846,"nach":0.37702833854516132},"geometry":{"type":"LineString","coordinates":[[-2.9120338,53.7801015],[-2.9119482,53.7801434],[-2.9117993,53.7801644],[-2.9116543,53.7801436],[-2.9115347,53.780068]]}},
{"type":"Feature","properties":{"id":20847,"nach":0.37702833854516132},"geometry":{"type":"LineString","coordinates":[[-2.9110679,53.7800893],[-2.9111264,53.7801477],[-2.9112709,53.7801383],[-2.9115347,53.780068]]}},
{"type":"Feature","properties":{"id":27633,"nach":0.40346958122056509},"geometry":{"type":"LineString","coordinates":[[-2.9169666,53.7743123],[-2.9169885,53.7741154]]}},
{"type":"Feature","properties":{"id":27636,"nach":0.40346958122056509},"geometry":{"type":"LineString","coordinates":[[-2.9172981,53.7742671],[-2.9169666,53.7743123]]}},
{"type":"Feature","properties":{"id":21390,"nach":0.34056444452141632},"geometry":{"type":"LineString","coordinates":[[-2.9149987,53.771246],[-2.9151256,53.7712625],[-2.9152588,53.7713156],[-2.9154105,53.7713247],[-2.9155622,53.7713009],[-2.9160515,53.7713028]]}},
{"type":"Feature","properties":{"id":34335,"nach":0.40715050347105269},"geometry":{"type":"LineString","coordinates":[[-2.9150655,53.7707936],[-2.9150509,53.7708289],[-2.9150291,53.7708702],[-2.9149999,53.7709297],[-2.9149976,53.7709802],[-2.915016,53.7710417],[-2.9150299,53.7710772],[-2.9150438,53.771114],[-2.9150392,53.7711618],[-2.9149987,53.771246]]}},
{"type":"Feature","properties":{"id":34334,"nach":0.31197265353754999},"geometry":{"type":"LineString","coordinates":[[-2.9150655,53.7707936],[-2.9150669,53.7707197],[-2.9150646,53.7706416],[-2.9150507,53.7705816],[-2.9150276,53.770516],[-2.9149921,53.7704287],[-2.9149916,53.77038790000001],[-2.9150099,53.7703553],[-2.9150374,53.7703315],[-2.9150924,53.7703066],[-2.91516390000001,53.7702957],[-2.9152281,53.7702957]]}},
{"type":"Feature","properties":{"id":34333,"nach":0.31612478696437835},"geometry":{"type":"LineString","coordinates":[[-2.9150655,53.7707936],[-2.915947,53.770785]]}},
{"type":"Feature","properties":{"id":25236,"nach":0.4120212553263507},"geometry":{"type":"LineString","coordinates":[[-2.9089174,53.7737293],[-2.9087787,53.77373510000001],[-2.908663,53.7737449],[-2.9085276,53.7737449],[-2.908369,53.7737371],[-2.9082005,53.7737312],[-2.9080948,53.773739],[-2.9079298,53.773761]]}},
{"type":"Feature","properties":{"id":34236,"nach":0.48875494646010426},"geometry":{"type":"LineString","coordinates":[[-2.9083447,53.7747889],[-2.9083302,53.7747003],[-2.9082937,53.774626500000011],[-2.9080983,53.7745081],[-2.9079781,53.7743598],[-2.9079415,53.7739068]]}},
{"type":"Feature","properties":{"id":25240,"nach":0.3292254680828689},"geometry":{"type":"LineString","coordinates":[[-2.9088084,53.7732861],[-2.908815,53.7734032],[-2.9088348,53.7734618],[-2.9089009,53.7735125],[-2.9089207,53.773575],[-2.9089207,53.77365120000001],[-2.9089174,53.7737293]]}},
{"type":"Feature","properties":{"id":25239,"nach":0.33245000638236266},"geometry":{"type":"LineString","coordinates":[[-2.9088414,53.7740261],[-2.9089174,53.773987],[-2.9089373,53.773949900000012],[-2.9089472,53.773895200000013],[-2.9089439,53.7738191],[-2.9089174,53.7737293]]}},
{"type":"Feature","properties":{"id":21408,"nach":0.55164078003429251},"geometry":{"type":"LineString","coordinates":[[-2.9084312,53.7760984],[-2.9084601,53.7762385]]}},
{"type":"Feature","properties":{"id":34239,"nach":0.56199452808547046},"geometry":{"type":"LineString","coordinates":[[-2.9089016,53.7764889],[-2.9087903,53.7764643],[-2.9086305,53.7764001],[-2.9085305,53.7763305],[-2.9084601,53.7762385]]}},
{"type":"Feature","properties":{"id":21422,"nach":0.38614402333730247},"geometry":{"type":"LineString","coordinates":[[-2.907805,53.7765805],[-2.9077415,53.776388200000014],[-2.9077812,53.7763342],[-2.9080551,53.7762709],[-2.9082735,53.7762497],[-2.9083876,53.7762429],[-2.9084601,53.7762385]]}},
{"type":"Feature","properties":{"id":21410,"nach":0.3863451907756022},"geometry":{"type":"LineString","coordinates":[[-2.9084312,53.7760984],[-2.9085201,53.7760954],[-2.9088442,53.7760818],[-2.9090456,53.7760621],[-2.9091743,53.776059]]}},
{"type":"Feature","properties":{"id":21413,"nach":0.53935276161512147},"geometry":{"type":"LineString","coordinates":[[-2.9083337,53.7755523],[-2.9083618,53.7758304],[-2.9084149,53.7759603],[-2.9084298,53.7760593],[-2.9084312,53.7760984]]}},
{"type":"Feature","properties":{"id":34240,"nach":0.0},"geometry":{"type":"LineString","coordinates":[[-2.9089016,53.7764889],[-2.9089138,53.7764471],[-2.9089126,53.7764204],[-2.9088772,53.7763051],[-2.9089029,53.7762488],[-2.9089334,53.776173900000018],[-2.9089346,53.7761479],[-2.908987,53.7761342],[-2.909081,53.7761162],[-2.9093128,53.7761104],[-2.9093567,53.7761018],[-2.9093738,53.7760773],[-2.9093835,53.7760542],[-2.9093518,53.7758148],[-2.9093225,53.775582],[-2.909292,53.7753527],[-2.9092798,53.7750564],[-2.909274,53.7749687],[-2.9092259,53.7749434],[-2.9090959,53.7749372],[-2.9089022,53.774928],[-2.9087853,53.7749234],[-2.9086098,53.7748988],[-2.9085656,53.7748811],[-2.9085383,53.774848900000016],[-2.908498,53.7748051],[-2.9084344,53.7747836],[-2.908398,53.774785100000017],[-2.9083447,53.7747889]]}},
{"type":"Feature","properties":{"id":21412,"nach":0.37138579190467647},"geometry":{"type":"LineString","coordinates":[[-2.9083337,53.7755523],[-2.9091634,53.775529200000015]]}},
{"type":"Feature","properties":{"id":27311,"nach":0.52720256272280674},"geometry":{"type":"LineString","coordinates":[[-2.9083437,53.7751988],[-2.9083174,53.7752667],[-2.9083337,53.7755523]]}},
{"type":"Feature","properties":{"id":34233,"nach":0.51371261385130151},"geometry":{"type":"LineString","coordinates":[[-2.9083548,53.7749495],[-2.908359,53.7750547],[-2.9083437,53.7751988]]}},
{"type":"Feature","properties":{"id":27314,"nach":0.3694904451125901},"geometry":{"type":"LineString","coordinates":[[-2.9078224,53.7752118],[-2.908263600000011,53.775206800000014],[-2.9083437,53.7751988]]}},
{"type":"Feature","properties":{"id":21416,"nach":0.3629298020799},"geometry":{"type":"LineString","coordinates":[[-2.9074146,53.7768331],[-2.9060916,53.7768583]]}},
{"type":"Feature","properties":{"id":36970,"nach":0.38543768979045956},"geometry":{"type":"LineString","coordinates":[[-2.9075025,53.7768318],[-2.9074146,53.7768331]]}},
{"type":"Feature","properties":{"id":27280,"nach":0.47520655189966221},"geometry":{"type":"LineString","coordinates":[[-2.9090669,53.777823],[-2.9090656,53.7777975],[-2.9090218,53.7776053],[-2.9089862,53.7775242],[-2.9089511,53.7774386],[-2.9089288,53.7773482],[-2.908907,53.7772582]]}},
{"type":"Feature","properties":{"id":27281,"nach":0.40567599350121292},"geometry":{"type":"LineString","coordinates":[[-2.9090669,53.777823],[-2.9094944,53.77779790000001],[-2.90952220000001,53.77778880000001],[-2.9095448,53.77776770000002]]}},
{"type":"Feature","properties":{"id":23288,"nach":0.39719709016337379},"geometry":{"type":"LineString","coordinates":[[-2.90852090000001,53.777170400000024],[-2.9086169,53.777153],[-2.9087797,53.7771428],[-2.9088343,53.777149600000016],[-2.9089008,53.777184],[-2.908907,53.7772582]]}},
{"type":"Feature","properties":{"id":23287,"nach":0.38766467798614229},"geometry":{"type":"LineString","coordinates":[[-2.9079649,53.7769414],[-2.9082268,53.7769418],[-2.9082762,53.7769661],[-2.9082887,53.7769989],[-2.9082746,53.7771083],[-2.9082802,53.7772043],[-2.9082905,53.7772459],[-2.9083263,53.7772832],[-2.9083913,53.777301],[-2.9084511,53.7772965],[-2.908907,53.7772582]]}},
{"type":"Feature","properties":{"id":24124,"nach":0.4136118617798073},"geometry":{"type":"LineString","coordinates":[[-2.9159508,53.777763899999989],[-2.9156616,53.7778219]]}},
{"type":"Feature","properties":{"id":24125,"nach":0.41135989119336902},"geometry":{"type":"LineString","coordinates":[[-2.9159508,53.777763899999989],[-2.9157026,53.7773871]]}},
{"type":"Feature","properties":{"id":34235,"nach":0.49903809804941984},"geometry":{"type":"LineString","coordinates":[[-2.9083447,53.7747889],[-2.9083548,53.7749495]]}},
{"type":"Feature","properties":{"id":26038,"nach":0.29278069045572463},"geometry":{"type":"LineString","coordinates":[[-2.9233824,53.7743748],[-2.9232801,53.7742025]]}},
{"type":"Feature","properties":{"id":34234,"nach":0.36190304734739331},"geometry":{"type":"LineString","coordinates":[[-2.9083548,53.7749495],[-2.9084487,53.774948],[-2.9086293,53.7749487],[-2.9087307,53.7749741],[-2.9088659,53.774981],[-2.9089828,53.7749841],[-2.9091271,53.7749818]]}}
]
}
