{
"type": "FeatureCollection",
"name": "CHEWE_219_cycling",
"crs": { "type": "name", "properties": { "name": "urn:ogc:def:crs:OGC:1.3:CRS84" } },
"features": [
{"type":"Feature","properties":{"highway":"cycleway","name":"Queen Street","category":"Dedicated cycleway"},"geometry":{"type":"MultiLineString","coordinates":[[[-2.8858347,53.1913601],[-2.8859064,53.1915164]]]}},
{"type":"Feature","properties":{"highway":"path","name":"The Groves","category":"Shared path"},"geometry":{"type":"MultiLineString","coordinates":[[[-2.8885362,53.1864483],[-2.8883382,53.1864801],[-2.8882977,53.1864996],[-2.8881985,53.1865817],[-2.888077,53.1866813],[-2.8879659,53.186966]]]}},
{"type":"Feature","properties":{"highway":"cycleway","name":"Cambrian Road","category":"Dedicated cycleway"},"geometry":{"type":"MultiLineString","coordinates":[[[-2.9010012,53.1962448],[-2.9006093,53.19632]]]}},
{"type":"Feature","properties":{"highway":"cycleway","name":"The Headlands","category":"Dedicated cycleway"},"geometry":{"type":"MultiLineString","coordinates":[[[-2.8812749,53.1913489],[-2.8815003,53.19123]]]}},
{"type":"Feature","properties":{"highway":"cycleway","name":"Bedward Row","category":"Dedicated cycleway"},"geometry":{"type":"MultiLineString","coordinates":[[[-2.8970662,53.1912671],[-2.8969669,53.1912803]]]}},
{"type":"Feature","properties":{"highway":"path","name":"The Groves","category":"Shared path"},"geometry":{"type":"MultiLineString","coordinates":[[[-2.8892622,53.1861853],[-2.8891774,53.186216],[-2.8885362,53.1864483]]]}},
{"type":"Feature","properties":{"highway":"cycleway","name":null,"category":"Dedicated cycleway"},"geometry":{"type":"MultiLineString","coordinates":[[[-2.9039563,53.1868922],[-2.9035791,53.1871633],[-2.9028817,53.1876757],[-2.9020826,53.1882839],[-2.9016031,53.1886647],[-2.901016,53.1891857],[-2.9006135,53.1895721],[-2.900432,53.1897549],[-2.8999411,53.1902857]]]}},
{"type":"Feature","properties":{"highway":"cycleway","name":null,"category":"Dedicated cycleway"},"geometry":{"type":"MultiLineString","coordinates":[[[-2.8996319,53.1947557],[-2.8998169,53.194709]]]}},
{"type":"Feature","properties":{"highway":"cycleway","name":null,"category":"Dedicated cycleway"},"geometry":{"type":"MultiLineString","coordinates":[[[-2.8996027,53.1947899],[-2.8996291,53.1947677],[-2.8996427,53.1947451],[-2.8996268,53.1947195]]]}},
{"type":"Feature","properties":{"highway":"cycleway","name":null,"category":"Dedicated cycleway"},"geometry":{"type":"MultiLineString","coordinates":[[[-2.8813287,53.1935428],[-2.8811262,53.1935444]]]}},
{"type":"Feature","properties":{"highway":"cycleway","name":null,"category":"Dedicated cycleway"},"geometry":{"type":"MultiLineString","coordinates":[[[-2.8957036,53.1933372],[-2.8957472,53.1934199],[-2.8957768,53.1934871],[-2.8961165,53.1934727],[-2.8961527,53.1934783]]]}},
{"type":"Feature","properties":{"highway":"cycleway","name":"Walls Avenue","category":"Dedicated cycleway"},"geometry":{"type":"MultiLineString","coordinates":[[[-2.9004227,53.1916169],[-2.9004674,53.1915701]]]}},
{"type":"Feature","properties":{"highway":"cycleway","name":null,"category":"Dedicated cycleway"},"geometry":{"type":"MultiLineString","coordinates":[[[-2.8982063,53.1931184],[-2.898171,53.1931354],[-2.8980749,53.1931661],[-2.897638,53.1932358],[-2.8971658,53.1933184],[-2.8968359,53.1933771],[-2.8965968,53.1934214],[-2.8962681,53.1934617],[-2.8961527,53.1934783],[-2.8957868,53.1935455]]]}},
{"type":"Feature","properties":{"highway":"cycleway","name":null,"category":"Dedicated cycleway"},"geometry":{"type":"MultiLineString","coordinates":[[[-2.8998169,53.194709],[-2.8997739,53.1946544],[-2.8997472,53.1945944],[-2.8997301,53.1945319],[-2.8997363,53.1944414],[-2.8997473,53.1943379],[-2.8997366,53.1942329],[-2.8997337,53.1941899],[-2.8997233,53.194125],[-2.8996702,53.1939604],[-2.899553,53.1936946],[-2.8994409,53.1934876],[-2.8993999,53.1934237],[-2.8992395,53.1933082],[-2.8990214,53.1931825]]]}},
{"type":"Feature","properties":{"highway":"cycleway","name":null,"category":"Dedicated cycleway"},"geometry":{"type":"MultiLineString","coordinates":[[[-2.8881967,53.1933811],[-2.8882594,53.1933236],[-2.8883247,53.1931952],[-2.8884146,53.193148]]]}},
{"type":"Feature","properties":{"highway":"cycleway","name":null,"category":"Dedicated cycleway"},"geometry":{"type":"MultiLineString","coordinates":[[[-2.8788329,53.1935898],[-2.8785065,53.193597],[-2.8783873,53.1935995],[-2.8780826,53.1936063],[-2.8764113,53.1936481],[-2.8761023,53.1936565],[-2.8757518,53.1936661],[-2.8749632,53.1936877],[-2.8745903,53.1937025]]]}},
{"type":"Feature","properties":{"highway":"cycleway","name":null,"category":"Dedicated cycleway"},"geometry":{"type":"MultiLineString","coordinates":[[[-2.8807047,53.1921634],[-2.88097,53.1921339]]]}},
{"type":"Feature","properties":{"highway":"cycleway","name":null,"category":"Dedicated cycleway"},"geometry":{"type":"MultiLineString","coordinates":[[[-2.8811117,53.1935089],[-2.8811262,53.1935444]]]}},
{"type":"Feature","properties":{"highway":"path","name":"Queens Park Bridge","category":"Shared path"},"geometry":{"type":"MultiLineString","coordinates":[[[-2.8846447,53.1886297],[-2.8845747,53.1885644]]]}},
{"type":"Feature","properties":{"highway":"cycleway","name":null,"category":"Dedicated cycleway"},"geometry":{"type":"MultiLineString","coordinates":[[[-2.8996536,53.1948616],[-2.8996027,53.1947899]]]}},
{"type":"Feature","properties":{"highway":"cycleway","name":null,"category":"Dedicated cycleway"},"geometry":{"type":"MultiLineString","coordinates":[[[-2.8990214,53.1931825],[-2.8990304,53.193167],[-2.8990956,53.1931316]]]}},
{"type":"Feature","properties":{"highway":"cycleway","name":null,"category":"Dedicated cycleway"},"geometry":{"type":"MultiLineString","coordinates":[[[-2.8984031,53.1929299],[-2.8982985,53.1929807],[-2.8982063,53.1931184]]]}},
{"type":"Feature","properties":{"highway":"cycleway","name":null,"category":"Dedicated cycleway"},"geometry":{"type":"MultiLineString","coordinates":[[[-2.8993585,53.1901357],[-2.8992714,53.1902076],[-2.8990313,53.1901401],[-2.8979799,53.1897672],[-2.8976473,53.1894008],[-2.8976114,53.1893899],[-2.8976025,53.1893444]]]}},
{"type":"Feature","properties":{"highway":"cycleway","name":null,"category":"Dedicated cycleway"},"geometry":{"type":"MultiLineString","coordinates":[[[-2.9008981,53.1929037],[-2.9008123,53.192835],[-2.9008057,53.1928148]]]}},
{"type":"Feature","properties":{"highway":"cycleway","name":null,"category":"Dedicated cycleway"},"geometry":{"type":"MultiLineString","coordinates":[[[-2.9007856,53.1927108],[-2.9007463,53.1926337]]]}},
{"type":"Feature","properties":{"highway":"cycleway","name":null,"category":"Dedicated cycleway"},"geometry":{"type":"MultiLineString","coordinates":[[[-2.9006093,53.19632],[-2.9006111,53.1963153],[-2.9006125,53.196293],[-2.9005985,53.1962407],[-2.9005207,53.1960744],[-2.9005417,53.1960712],[-2.9006368,53.1961969],[-2.9006833,53.196225]]]}},
{"type":"Feature","properties":{"highway":"cycleway","name":null,"category":"Dedicated cycleway"},"geometry":{"type":"MultiLineString","coordinates":[[[-2.9008057,53.1928148],[-2.9007856,53.1927108]]]}},
{"type":"Feature","properties":{"highway":"path","name":null,"category":"Shared path"},"geometry":{"type":"MultiLineString","coordinates":[[[-2.8995813,53.1932754],[-2.8993168,53.1932222],[-2.8990214,53.1931825]]]}},
{"type":"Feature","properties":{"highway":"cycleway","name":null,"category":"Dedicated cycleway"},"geometry":{"type":"MultiLineString","coordinates":[[[-2.8881967,53.1933811],[-2.8876863,53.1933907],[-2.8868386,53.193411],[-2.8865015,53.1934192],[-2.8855097,53.1934435],[-2.8851713,53.1934946],[-2.8846324,53.1935009],[-2.8845049,53.1934741],[-2.8839052,53.1934835],[-2.8837242,53.1935288],[-2.8835437,53.1935348],[-2.883357,53.1935155],[-2.8827316,53.1935067],[-2.8818373,53.1935235],[-2.8817028,53.1935607],[-2.8814223,53.1935614],[-2.8813287,53.1935428]]]}},
{"type":"Feature","properties":{"highway":"path","name":null,"category":"Shared path"},"geometry":{"type":"MultiLineString","coordinates":[[[-2.901754,53.1925567],[-2.9012944,53.1926455],[-2.9011208,53.1926401],[-2.9008336,53.1926682],[-2.9007218,53.1925909]]]}},
{"type":"Feature","properties":{"highway":"cycleway","name":null,"category":"Dedicated cycleway"},"geometry":{"type":"MultiLineString","coordinates":[[[-2.9006449,53.1924423],[-2.9007218,53.1925909]]]}},
{"type":"Feature","properties":{"highway":"path","name":null,"category":"Shared path"},"geometry":{"type":"MultiLineString","coordinates":[[[-2.8998027,53.1932154],[-2.8996898,53.1931772],[-2.8996454,53.1932082]]]}},
{"type":"Feature","properties":{"highway":"cycleway","name":null,"category":"Dedicated cycleway"},"geometry":{"type":"MultiLineString","coordinates":[[[-2.9016586,53.1978623],[-2.9016459,53.1977133],[-2.9016114,53.1976009],[-2.9015517,53.197478],[-2.9014698,53.197344],[-2.9013792,53.1972057],[-2.9011862,53.1969453],[-2.9010844,53.196799],[-2.9009899,53.1966545],[-2.9007828,53.196364],[-2.9007216,53.1962753]]]}},
{"type":"Feature","properties":{"highway":"cycleway","name":null,"category":"Dedicated cycleway"},"geometry":{"type":"MultiLineString","coordinates":[[[-2.8957868,53.1935455],[-2.8955734,53.1935778],[-2.8946992,53.1937094],[-2.8935164,53.193868],[-2.8920862,53.194092],[-2.8908582,53.194296],[-2.8907144,53.194301],[-2.8905495,53.1942815],[-2.8903917,53.1942225],[-2.8902109,53.1941499],[-2.8901323,53.1941142],[-2.8900546,53.194079],[-2.8898324,53.1939371],[-2.8896073,53.1936971],[-2.8893786,53.1935019],[-2.8892848,53.1934549],[-2.8890702,53.1934224],[-2.8888716,53.1933905],[-2.8886627,53.1933714],[-2.8885778,53.1933873],[-2.8885242,53.1933833],[-2.8881967,53.1933811]]]}},
{"type":"Feature","properties":{"highway":"path","name":null,"category":"Shared path"},"geometry":{"type":"MultiLineString","coordinates":[[[-2.8839337,53.1873918],[-2.883917,53.187365],[-2.8838677,53.1873117]]]}},
{"type":"Feature","properties":{"highway":"path","name":null,"category":"Shared path"},"geometry":{"type":"MultiLineString","coordinates":[[[-2.8996369,53.1931123],[-2.8990956,53.1931316]]]}},
{"type":"Feature","properties":{"highway":"cycleway","name":"Riverside Promenade","category":"Dedicated cycleway"},"geometry":{"type":"MultiLineString","coordinates":[[[-2.9040043,53.1867889],[-2.9040125,53.1866447],[-2.9039362,53.1862238],[-2.9038536,53.1858913],[-2.9037203,53.1855779],[-2.9034607,53.1852327],[-2.9031274,53.1848952],[-2.9026377,53.1845313],[-2.9023415,53.1843624],[-2.9020139,53.1842192],[-2.9015983,53.1840877],[-2.9011338,53.1839979],[-2.9004251,53.1839102],[-2.8996977,53.1838746],[-2.8986083,53.1839051],[-2.8975716,53.1839753],[-2.8971104,53.1840331],[-2.8968896,53.1840533],[-2.8966968,53.1840624],[-2.8964636,53.184047],[-2.8962211,53.1840204],[-2.8958093,53.1840054],[-2.89558,53.1840296],[-2.8952758,53.1840495],[-2.8949656,53.1840473],[-2.8944549,53.1840355],[-2.8933403,53.1840636],[-2.8931284,53.184083],[-2.8930818,53.1840987],[-2.8929251,53.1841754],[-2.892851,53.1841934],[-2.8925087,53.1842616],[-2.8923572,53.1843126],[-2.8921224,53.1844101],[-2.8916031,53.1847231],[-2.8909497,53.1851972],[-2.8908997,53.1852077],[-2.8905948,53.1852109],[-2.8898869,53.1857348],[-2.8898418,53.1857684],[-2.8897995,53.1858185],[-2.8897257,53.1859049],[-2.8894586,53.1860194],[-2.8892089,53.1861135]]]}},
{"type":"Feature","properties":{"highway":"cycleway","name":null,"category":"Dedicated cycleway"},"geometry":{"type":"MultiLineString","coordinates":[[[-2.8803745,53.1935522],[-2.8788329,53.1935898]]]}},
{"type":"Feature","properties":{"highway":"path","name":null,"category":"Shared path"},"geometry":{"type":"MultiLineString","coordinates":[[[-2.8820405,53.1923766],[-2.882093,53.1924956]]]}},
{"type":"Feature","properties":{"highway":"cycleway","name":null,"category":"Dedicated cycleway"},"geometry":{"type":"MultiLineString","coordinates":[[[-2.9007216,53.1962753],[-2.9006833,53.196225],[-2.9001701,53.1954565],[-2.8998199,53.1949585],[-2.8997763,53.1948992],[-2.8997266,53.1948701],[-2.8996536,53.1948616]]]}},
{"type":"Feature","properties":{"highway":"cycleway","name":null,"category":"Dedicated cycleway"},"geometry":{"type":"MultiLineString","coordinates":[[[-2.8869053,53.1942772],[-2.8869876,53.1942386],[-2.8870165,53.194243],[-2.8870416,53.1942225],[-2.8870695,53.1941826]]]}},
{"type":"Feature","properties":{"highway":"cycleway","name":null,"category":"Dedicated cycleway"},"geometry":{"type":"MultiLineString","coordinates":[[[-2.8995584,53.1947261],[-2.8995609,53.1947259],[-2.8995564,53.1947366],[-2.8995586,53.1947461],[-2.899572,53.1947577],[-2.8995964,53.1947602],[-2.8996319,53.1947557]]]}},
{"type":"Feature","properties":{"highway":"cycleway","name":"Garden Lane","category":"Dedicated cycleway"},"geometry":{"type":"MultiLineString","coordinates":[[[-2.8947246,53.1941401],[-2.8947414,53.1942014],[-2.8947552,53.1942393],[-2.8947789,53.1942798],[-2.8948789,53.1943598]]]}},
{"type":"Feature","properties":{"highway":"cycleway","name":null,"category":"Dedicated cycleway"},"geometry":{"type":"MultiLineString","coordinates":[[[-2.920854,53.1829554],[-2.9103861,53.1905303],[-2.9089598,53.1915685],[-2.907823,53.1923899],[-2.9066351,53.1932113],[-2.9057775,53.193774],[-2.9056803,53.1937827],[-2.9052575,53.1937063],[-2.9051274,53.193652],[-2.9049329,53.1936022],[-2.9045464,53.1935204],[-2.9042326,53.1933778],[-2.9033172,53.1930162],[-2.9028808,53.1930666],[-2.9026256,53.193096],[-2.9024275,53.1930733]]]}},
{"type":"Feature","properties":{"highway":"path","name":null,"category":"Shared path"},"geometry":{"type":"MultiLineString","coordinates":[[[-2.8898633,53.1934395],[-2.8897767,53.19332]]]}},
{"type":"Feature","properties":{"highway":"path","name":null,"category":"Shared path"},"geometry":{"type":"MultiLineString","coordinates":[[[-2.8946172,53.1901312],[-2.8950742,53.1900219],[-2.8951899,53.1899942]]]}},
{"type":"Feature","properties":{"highway":"path","name":null,"category":"Shared path"},"geometry":{"type":"MultiLineString","coordinates":[[[-2.8882063,53.1890008],[-2.8882218,53.1890256]]]}},
{"type":"Feature","properties":{"highway":"path","name":null,"category":"Shared path"},"geometry":{"type":"MultiLineString","coordinates":[[[-2.8959239,53.1871479],[-2.8957379,53.1872273],[-2.8955873,53.1872577],[-2.895171,53.1873524],[-2.8951184,53.187326],[-2.8949457,53.1873056],[-2.8947678,53.1873423],[-2.8946888,53.187388],[-2.8946742,53.1874886]]]}},
{"type":"Feature","properties":{"highway":"cycleway","name":null,"category":"Dedicated cycleway"},"geometry":{"type":"MultiLineString","coordinates":[[[-2.8811262,53.1935444],[-2.8803745,53.1935522]]]}},
{"type":"Feature","properties":{"highway":"cycleway","name":null,"category":"Dedicated cycleway"},"geometry":{"type":"MultiLineString","coordinates":[[[-2.9016819,53.1916974],[-2.9017709,53.1922118]]]}},
{"type":"Feature","properties":{"highway":"cycleway","name":null,"category":"Dedicated cycleway"},"geometry":{"type":"MultiLineString","coordinates":[[[-2.9016819,53.1916974],[-2.9020657,53.1916816],[-2.902149,53.1916787],[-2.9021763,53.1916685],[-2.902394,53.1915613]]]}},
{"type":"Feature","properties":{"highway":"path","name":null,"category":"Shared path"},"geometry":{"type":"MultiLineString","coordinates":[[[-2.8945897,53.1932092],[-2.8945511,53.1929751]]]}},
{"type":"Feature","properties":{"highway":"path","name":null,"category":"Shared path"},"geometry":{"type":"MultiLineString","coordinates":[[[-2.8823983,53.1927107],[-2.8824303,53.192773]]]}},
{"type":"Feature","properties":{"highway":"cycleway","name":null,"category":"Dedicated cycleway"},"geometry":{"type":"MultiLineString","coordinates":[[[-2.8864925,53.1933884],[-2.8865015,53.1934192]]]}},
{"type":"Feature","properties":{"highway":"cycleway","name":null,"category":"Dedicated cycleway"},"geometry":{"type":"MultiLineString","coordinates":[[[-2.891784,53.1957335],[-2.891999,53.1956868]]]}},
{"type":"Feature","properties":{"highway":"cycleway","name":null,"category":"Dedicated cycleway"},"geometry":{"type":"MultiLineString","coordinates":[[[-2.8902645,53.1954802],[-2.8902382,53.1954837],[-2.8902054,53.1954881],[-2.8901412,53.195506],[-2.8901072,53.1955188],[-2.8900404,53.195554]]]}},
{"type":"Feature","properties":{"highway":"cycleway","name":"Union Terrace","category":"Dedicated cycleway"},"geometry":{"type":"MultiLineString","coordinates":[[[-2.8857124,53.1936007],[-2.8855943,53.1936023]]]}},
{"type":"Feature","properties":{"highway":"path","name":null,"category":"Shared path"},"geometry":{"type":"MultiLineString","coordinates":[[[-2.8934272,53.1879692],[-2.8932827,53.1876415],[-2.8931691,53.1876595],[-2.8930844,53.187483],[-2.8927444,53.1875439]]]}},
{"type":"Feature","properties":{"highway":"path","name":null,"category":"Shared path"},"geometry":{"type":"MultiLineString","coordinates":[[[-2.8913364,53.1865994],[-2.8913714,53.1865859],[-2.8913337,53.1864246]]]}},
{"type":"Feature","properties":{"highway":"path","name":null,"category":"Shared path"},"geometry":{"type":"MultiLineString","coordinates":[[[-2.8926739,53.1922706],[-2.8924007,53.1923197]]]}},
{"type":"Feature","properties":{"highway":"path","name":"Coachworks Arcade","category":"Shared path"},"geometry":{"type":"MultiLineString","coordinates":[[[-2.8926739,53.1922706],[-2.8929522,53.1922126],[-2.8932571,53.1921547]]]}},
{"type":"Feature","properties":{"highway":"path","name":"Exchange Square","category":"Shared path"},"geometry":{"type":"MultiLineString","coordinates":[[[-2.8933321,53.1921397],[-2.8932376,53.1919521],[-2.8932289,53.1919348],[-2.8932058,53.1919191],[-2.8931719,53.1919081],[-2.8931272,53.1919016],[-2.8930764,53.1919016],[-2.8929976,53.1919039]]]}},
{"type":"Feature","properties":{"highway":"path","name":"Exchange Square","category":"Shared path"},"geometry":{"type":"MultiLineString","coordinates":[[[-2.8933375,53.1921477],[-2.8936939,53.1920811],[-2.8936794,53.1920535],[-2.8935986,53.1918878],[-2.8932376,53.1919521]]]}},
{"type":"Feature","properties":{"highway":"path","name":"Exchange Square","category":"Shared path"},"geometry":{"type":"MultiLineString","coordinates":[[[-2.8936794,53.1920535],[-2.8937473,53.1920403]]]}},
{"type":"Feature","properties":{"highway":"cycleway","name":null,"category":"Dedicated cycleway"},"geometry":{"type":"MultiLineString","coordinates":[[[-2.9007218,53.1925909],[-2.9006408,53.192669],[-2.8998085,53.1927098],[-2.8996688,53.1927043]]]}},
{"type":"Feature","properties":{"highway":"cycleway","name":null,"category":"Dedicated cycleway"},"geometry":{"type":"MultiLineString","coordinates":[[[-2.8999411,53.1902857],[-2.8999116,53.1903188],[-2.8993862,53.1901174],[-2.8993585,53.1901357]]]}},
{"type":"Feature","properties":{"highway":"path","name":"Exchange Square","category":"Shared path"},"geometry":{"type":"MultiLineString","coordinates":[[[-2.8933321,53.1921397],[-2.8933375,53.1921477],[-2.8934744,53.1924196]]]}},
{"type":"Feature","properties":{"highway":"path","name":"Exchange Square","category":"Shared path"},"geometry":{"type":"MultiLineString","coordinates":[[[-2.8932571,53.1921547],[-2.8933321,53.1921397]]]}},
{"type":"Feature","properties":{"highway":"cycleway","name":null,"category":"Dedicated cycleway"},"geometry":{"type":"MultiLineString","coordinates":[[[-2.8996268,53.1947195],[-2.8996125,53.1947152],[-2.8995994,53.1947123]]]}},
{"type":"Feature","properties":{"highway":"cycleway","name":null,"category":"Dedicated cycleway"},"geometry":{"type":"MultiLineString","coordinates":[[[-2.8995994,53.1947123],[-2.8995584,53.1947261]]]}},
{"type":"Feature","properties":{"highway":"cycleway","name":null,"category":"Dedicated cycleway"},"geometry":{"type":"MultiLineString","coordinates":[[[-2.8909705,53.1952665],[-2.8909697,53.1952669],[-2.8908878,53.1953035],[-2.8908224,53.1953327],[-2.8908219,53.1953887]]]}},
{"type":"Feature","properties":{"highway":"cycleway","name":null,"category":"Dedicated cycleway"},"geometry":{"type":"MultiLineString","coordinates":[[[-2.9018307,53.1924267],[-2.901688,53.1923385],[-2.9016124,53.1923008],[-2.9015064,53.1922939],[-2.9013642,53.192295]]]}},
{"type":"Feature","properties":{"highway":"cycleway","name":null,"category":"Dedicated cycleway"},"geometry":{"type":"MultiLineString","coordinates":[[[-2.8902663,53.1954372],[-2.8902592,53.1954484],[-2.8902645,53.1954802]]]}},
{"type":"Feature","properties":{"highway":"cycleway","name":null,"category":"Dedicated cycleway"},"geometry":{"type":"MultiLineString","coordinates":[[[-2.8902645,53.1954802],[-2.8903948,53.1954922],[-2.8906632,53.195557],[-2.8908632,53.1955938],[-2.8909963,53.1956189],[-2.8910939,53.1956335],[-2.8912179,53.1956509],[-2.8913579,53.1956675],[-2.8915184,53.1956885],[-2.8916427,53.1957142],[-2.891714,53.1957343],[-2.891784,53.1957335]]]}},
{"type":"Feature","properties":{"highway":"cycleway","name":null,"category":"Dedicated cycleway"},"geometry":{"type":"MultiLineString","coordinates":[[[-2.8908219,53.1953887],[-2.890805,53.1954141],[-2.8907842,53.1954463]]]}},
{"type":"Feature","properties":{"highway":"cycleway","name":null,"category":"Dedicated cycleway"},"geometry":{"type":"MultiLineString","coordinates":[[[-2.8907842,53.1954463],[-2.8907631,53.1954772],[-2.8903282,53.1953699],[-2.8903186,53.195379]]]}},
{"type":"Feature","properties":{"highway":"cycleway","name":null,"category":"Dedicated cycleway"},"geometry":{"type":"MultiLineString","coordinates":[[[-2.8903186,53.195379],[-2.8902928,53.1954061],[-2.8902663,53.1954372]]]}},
{"type":"Feature","properties":{"highway":"cycleway","name":null,"category":"Dedicated cycleway"},"geometry":{"type":"MultiLineString","coordinates":[[[-2.8807286,53.1922807],[-2.8807148,53.192213],[-2.8807047,53.1921634]]]}},
{"type":"Feature","properties":{"highway":"path","name":null,"category":"Shared path"},"geometry":{"type":"MultiLineString","coordinates":[[[-2.882093,53.1924956],[-2.8820104,53.192511],[-2.8819515,53.1923873],[-2.8819222,53.192392],[-2.8818889,53.1925151]]]}},
{"type":"Feature","properties":{"highway":"path","name":null,"category":"Shared path"},"geometry":{"type":"MultiLineString","coordinates":[[[-2.8826044,53.1919135],[-2.8824494,53.1919492],[-2.8824312,53.1919512],[-2.882416,53.1919481],[-2.8824105,53.1919377],[-2.8824168,53.1919186],[-2.8824182,53.1918753],[-2.882352,53.1917555],[-2.8822883,53.1917549]]]}},
{"type":"Feature","properties":{"highway":"path","name":null,"category":"Shared path"},"geometry":{"type":"MultiLineString","coordinates":[[[-2.8937473,53.1920403],[-2.8939047,53.1920095]]]}},
{"type":"Feature","properties":{"highway":"cycleway","name":null,"category":"Dedicated cycleway"},"geometry":{"type":"MultiLineString","coordinates":[[[-2.8870695,53.1941826],[-2.88709,53.1941398],[-2.8871969,53.1940457],[-2.8872498,53.1939973],[-2.8873324,53.1939725]]]}},
{"type":"Feature","properties":{"highway":"cycleway","name":null,"category":"Dedicated cycleway"},"geometry":{"type":"MultiLineString","coordinates":[[[-2.8867336,53.1943525],[-2.8867864,53.1943293],[-2.8869053,53.1942772]]]}},
{"type":"Feature","properties":{"highway":"cycle_lane_on_street","name":"Love Street","category":"Cycle lane on street"},"geometry":{"type":"MultiLineString","coordinates":[[[-2.8845222,53.190267],[-2.8846467,53.1905199],[-2.8847996,53.1908575],[-2.8849915,53.1912945],[-2.8850748,53.1914841]]]}}
]
}
