{
"type": "FeatureCollection",
"name": "CHEEA_1532_cycling",
"crs": { "type": "name", "properties": { "name": "urn:ogc:def:crs:OGC:1.3:CRS84" } },
"features": [
{"type":"Feature","properties":{"highway":"cycleway","name":null,"category":"Dedicated cycleway"},"geometry":{"type":"MultiLineString","coordinates":[[[-2.1922236,53.0465758],[-2.1923742,53.0468137],[-2.1926794,53.0470108],[-2.1928055,53.0470876],[-2.192874,53.0471668],[-2.192916,53.047254],[-2.1929392,53.0473346],[-2.1929419,53.0474458]]]}},
{"type":"Feature","properties":{"highway":"cycleway","name":null,"category":"Dedicated cycleway"},"geometry":{"type":"MultiLineString","coordinates":[[[-2.1924293,53.0471656],[-2.1923059,53.0471467],[-2.1920297,53.0470902],[-2.191778,53.0469853],[-2.1916326,53.0468502],[-2.1915143,53.0466987]]]}},
{"type":"Feature","properties":{"highway":"cycleway","name":null,"category":"Dedicated cycleway"},"geometry":{"type":"MultiLineString","coordinates":[[[-2.2115841,53.0406695],[-2.2113949,53.040723],[-2.2110694,53.0408595],[-2.210987,53.0408798],[-2.2109166,53.0408828],[-2.2108565,53.0408799],[-2.210755,53.040863],[-2.2106387,53.0408362]]]}},
{"type":"Feature","properties":{"highway":"cycleway","name":null,"category":"Dedicated cycleway"},"geometry":{"type":"MultiLineString","coordinates":[[[-2.1859045,53.0409584],[-2.1860013,53.0408088],[-2.1859411,53.0405171],[-2.185881,53.0403279],[-2.1858543,53.0402076],[-2.1858187,53.0401809],[-2.1857515,53.0401755]]]}},
{"type":"Feature","properties":{"highway":"cycleway","name":null,"category":"Dedicated cycleway"},"geometry":{"type":"MultiLineString","coordinates":[[[-2.1866536,53.0423762],[-2.186569,53.0423984],[-2.1864666,53.0423918],[-2.1863002,53.0423047],[-2.1861182,53.0421677]]]}},
{"type":"Feature","properties":{"highway":"cycleway","name":null,"category":"Dedicated cycleway"},"geometry":{"type":"MultiLineString","coordinates":[[[-2.1916029,53.0465822],[-2.1912032,53.046304],[-2.1905965,53.0459359],[-2.1895585,53.0453062],[-2.1895049,53.0452694],[-2.1893344,53.0451521],[-2.1886124,53.0446557],[-2.1883394,53.0444664],[-2.1876058,53.0437058],[-2.187498,53.0435564],[-2.1866536,53.0423762],[-2.1864733,53.0421335]]]}},
{"type":"Feature","properties":{"highway":"cycleway","name":null,"category":"Dedicated cycleway"},"geometry":{"type":"MultiLineString","coordinates":[[[-2.1864733,53.0421335],[-2.1863647,53.0419765]]]}},
{"type":"Feature","properties":{"highway":"cycleway","name":null,"category":"Dedicated cycleway"},"geometry":{"type":"MultiLineString","coordinates":[[[-2.1863647,53.0419765],[-2.1861129,53.0415835],[-2.1859136,53.0412414],[-2.1858477,53.0410268]]]}},
{"type":"Feature","properties":{"highway":"cycleway","name":null,"category":"Dedicated cycleway"},"geometry":{"type":"MultiLineString","coordinates":[[[-2.1931209,53.0475374],[-2.1927773,53.0475559],[-2.1924546,53.0475496],[-2.192393,53.0475156],[-2.1920219,53.0474716],[-2.191998,53.0474666]]]}},
{"type":"Feature","properties":{"highway":"cycleway","name":null,"category":"Dedicated cycleway"},"geometry":{"type":"MultiLineString","coordinates":[[[-2.1918201,53.0467138],[-2.1916029,53.0465822]]]}},
{"type":"Feature","properties":{"highway":"cycleway","name":null,"category":"Dedicated cycleway"},"geometry":{"type":"MultiLineString","coordinates":[[[-2.1957732,53.049217],[-2.1953664,53.0489444],[-2.1948835,53.0486594],[-2.1940274,53.0480515],[-2.1938042,53.0479588],[-2.1937301,53.0479134]]]}},
{"type":"Feature","properties":{"highway":"cycleway","name":null,"category":"Dedicated cycleway"},"geometry":{"type":"MultiLineString","coordinates":[[[-2.1857946,53.0408559],[-2.1857672,53.0406044],[-2.1857515,53.0401755],[-2.1857322,53.0400017],[-2.1855571,53.039755],[-2.1854952,53.0395847],[-2.1854672,53.0393531],[-2.1854566,53.039113],[-2.1854069,53.0388476],[-2.1853125,53.0384801],[-2.1852837,53.0383193],[-2.1852943,53.0381795],[-2.1853857,53.0379215],[-2.1853711,53.037763],[-2.1853218,53.037591]]]}},
{"type":"Feature","properties":{"highway":"cycleway","name":null,"category":"Dedicated cycleway"},"geometry":{"type":"MultiLineString","coordinates":[[[-2.1829145,53.0367679],[-2.1831548,53.0370085]]]}},
{"type":"Feature","properties":{"highway":"cycleway","name":null,"category":"Dedicated cycleway"},"geometry":{"type":"MultiLineString","coordinates":[[[-2.1851496,53.0375619],[-2.1851128,53.0376333],[-2.1850471,53.0376604],[-2.184822,53.0374115],[-2.1847186,53.0372945],[-2.1846207,53.0371734],[-2.1844883,53.0370924],[-2.1844067,53.0370578],[-2.1842794,53.0370323],[-2.1833247,53.0370374],[-2.1832551,53.0370325],[-2.1831548,53.0370085],[-2.1830073,53.0369699],[-2.1829288,53.0369594],[-2.1828568,53.0369535],[-2.182739,53.0369563],[-2.182529,53.03697],[-2.1823219,53.0370029],[-2.1820467,53.0370559],[-2.1818265,53.0370793],[-2.1816866,53.0371122],[-2.1814005,53.0371843],[-2.1811835,53.0371773],[-2.1810449,53.0371408],[-2.1810274,53.0371366],[-2.1809936,53.0371285],[-2.180908,53.0370608]]]}},
{"type":"Feature","properties":{"highway":"cycleway","name":null,"category":"Dedicated cycleway"},"geometry":{"type":"MultiLineString","coordinates":[[[-2.1995771,53.0277298],[-2.1996183,53.0275737],[-2.1995905,53.0275715],[-2.1995529,53.0277352],[-2.1995248,53.0278777],[-2.1995438,53.0279284],[-2.1995045,53.0281949],[-2.1994948,53.0282577],[-2.1994888,53.0282943],[-2.1994991,53.0283266],[-2.1995311,53.0283681],[-2.1995843,53.0284157],[-2.1996046,53.0284309],[-2.1998588,53.0285461],[-2.1999537,53.0285675],[-2.2000425,53.0285789],[-2.2002895,53.028599],[-2.2004373,53.0286168],[-2.2006742,53.0286535],[-2.2008309,53.0286926],[-2.2011724,53.0288076],[-2.2014226,53.0289241],[-2.2016673,53.0290915],[-2.20177,53.0291762],[-2.2018672,53.0292719],[-2.201957,53.0293894],[-2.202031,53.0294928],[-2.2021325,53.0297053],[-2.202172,53.0298059],[-2.2021935,53.0298945],[-2.2022313,53.0301393],[-2.2022823,53.0303698],[-2.2023162,53.0310343],[-2.2023331,53.0313472],[-2.202296,53.0314406],[-2.202296,53.0315016],[-2.2023049,53.0315797],[-2.2022858,53.0316479],[-2.2022031,53.0317495],[-2.2020938,53.0318428],[-2.2016439,53.0321324],[-2.2012618,53.0323619],[-2.2011682,53.0324181],[-2.2010638,53.0324985],[-2.2009822,53.0325716],[-2.2008624,53.0327105],[-2.2005572,53.0329664],[-2.2004891,53.0330133],[-2.2003867,53.0330696],[-2.2002512,53.0331218],[-2.1998606,53.0332617],[-2.1995359,53.0333776],[-2.1993363,53.0334528],[-2.1991335,53.0335556],[-2.1990807,53.0335982],[-2.1990435,53.0336611],[-2.1990199,53.0337612],[-2.1990317,53.0338479],[-2.1991037,53.0339451],[-2.1991844,53.0340751],[-2.1992688,53.0341676],[-2.1992919,53.0342181],[-2.1992954,53.0342541],[-2.1993462,53.0343464],[-2.1993821,53.0343752],[-2.1994984,53.0345639],[-2.1995463,53.0346926],[-2.1995504,53.0347986],[-2.1995485,53.0350789],[-2.1995359,53.0353017],[-2.1995359,53.0354134],[-2.1995325,53.0354782],[-2.1995419,53.0355097],[-2.1996073,53.0355869],[-2.1997337,53.0356647],[-2.1999155,53.0357471],[-2.2000967,53.0358112],[-2.200276,53.0358492],[-2.2006453,53.0358685],[-2.2008398,53.0359041],[-2.2009332,53.0359113],[-2.2013755,53.0358921],[-2.2017256,53.03584],[-2.2021937,53.0357559],[-2.2025015,53.0357406],[-2.2027337,53.0357535]]]}},
{"type":"Feature","properties":{"highway":"path","name":null,"category":"Shared path"},"geometry":{"type":"MultiLineString","coordinates":[[[-2.1867582,53.033534],[-2.1866155,53.0334835]]]}},
{"type":"Feature","properties":{"highway":"cycleway","name":null,"category":"Dedicated cycleway"},"geometry":{"type":"MultiLineString","coordinates":[[[-2.2091122,53.0393648],[-2.2087319,53.0391188]]]}},
{"type":"Feature","properties":{"highway":"path","name":null,"category":"Shared path"},"geometry":{"type":"MultiLineString","coordinates":[[[-2.1947625,53.0377419],[-2.1947858,53.0377711]]]}},
{"type":"Feature","properties":{"highway":"path","name":null,"category":"Shared path"},"geometry":{"type":"MultiLineString","coordinates":[[[-2.1993626,53.0342679],[-2.1991152,53.034335]]]}},
{"type":"Feature","properties":{"highway":"cycleway","name":"Grange Park Greenway","category":"Dedicated cycleway"},"geometry":{"type":"MultiLineString","coordinates":[[[-2.1981607,53.0340609],[-2.1981979,53.0341131],[-2.198282,53.0341967],[-2.1983003,53.0342743],[-2.198335,53.0343097],[-2.1983903,53.0343325],[-2.1985383,53.034364],[-2.1986212,53.0343937],[-2.1987557,53.0344769],[-2.1986527,53.0345313],[-2.1984743,53.0345678],[-2.1982243,53.0346052],[-2.1980338,53.0346583],[-2.197466,53.0348665],[-2.1970626,53.0350347],[-2.1966486,53.0351973],[-2.1958547,53.0355134],[-2.1955117,53.0356539],[-2.195129,53.0357584],[-2.1950028,53.0358236],[-2.194875,53.035957],[-2.1947739,53.0361173],[-2.194646,53.0364914],[-2.1946172,53.0365359],[-2.1945522,53.0365596],[-2.1944808,53.0365763],[-2.1941043,53.0366996],[-2.1940089,53.0367433]]]}},
{"type":"Feature","properties":{"highway":"cycleway","name":null,"category":"Dedicated cycleway"},"geometry":{"type":"MultiLineString","coordinates":[[[-2.1935223,53.0336438],[-2.1935651,53.0337159],[-2.1936012,53.0337944],[-2.1936176,53.0338612],[-2.1936317,53.0339251],[-2.1936423,53.0341032],[-2.1936629,53.0341393],[-2.1936702,53.0342654],[-2.193674,53.034283],[-2.1936904,53.034358],[-2.1937226,53.0344578],[-2.1939515,53.034953],[-2.1940607,53.0351893],[-2.1943348,53.035686],[-2.1944453,53.0360036],[-2.1944582,53.0362825],[-2.1945533,53.0365149],[-2.1945522,53.0365596],[-2.1945711,53.0366001],[-2.1946238,53.0366706],[-2.1948338,53.0368255],[-2.1949053,53.0369228],[-2.1949802,53.0371062],[-2.1949915,53.0373943],[-2.1949632,53.0374866],[-2.1949023,53.0375587],[-2.1948486,53.0375973],[-2.1947175,53.0376613],[-2.1947625,53.0377419]]]}},
{"type":"Feature","properties":{"highway":"path","name":null,"category":"Shared path"},"geometry":{"type":"MultiLineString","coordinates":[[[-2.1955117,53.0356539],[-2.1957229,53.0356042],[-2.1959134,53.0355623],[-2.1966392,53.0353887],[-2.1972963,53.0351921],[-2.1977459,53.0350343],[-2.1980568,53.0348913],[-2.1981932,53.0348214],[-2.1983738,53.0347303],[-2.1984748,53.0347052],[-2.1985972,53.0346462],[-2.1987557,53.0344769]]]}},
{"type":"Feature","properties":{"highway":"path","name":null,"category":"Shared path"},"geometry":{"type":"MultiLineString","coordinates":[[[-2.1987557,53.0344769],[-2.1988313,53.0344498],[-2.1989532,53.0343847],[-2.1991152,53.034335]]]}},
{"type":"Feature","properties":{"highway":"path","name":null,"category":"Shared path"},"geometry":{"type":"MultiLineString","coordinates":[[[-2.1987557,53.0344769],[-2.1989199,53.0344767],[-2.1990416,53.0345128],[-2.1990848,53.0345752],[-2.1991069,53.0346497],[-2.1991074,53.0347494]]]}},
{"type":"Feature","properties":{"highway":"cycleway","name":null,"category":"Dedicated cycleway"},"geometry":{"type":"MultiLineString","coordinates":[[[-2.2027337,53.0357535],[-2.2030456,53.0358109],[-2.2031614,53.0358291],[-2.2033492,53.0358488],[-2.2041171,53.036052],[-2.2043956,53.036147],[-2.2051742,53.0366258],[-2.2059031,53.0370768],[-2.2062584,53.037353],[-2.2065422,53.037616],[-2.2067662,53.0378288],[-2.2067936,53.0378789],[-2.2068648,53.0379302],[-2.2070965,53.0382185],[-2.2072724,53.0383648],[-2.2074602,53.038479],[-2.2076501,53.0385859],[-2.207895,53.0387091],[-2.2081438,53.0388359],[-2.2083332,53.0389389],[-2.2085314,53.0390513],[-2.2086644,53.0391677],[-2.208699,53.039195],[-2.20879,53.039234],[-2.2091122,53.0393648],[-2.2092723,53.0394644],[-2.2098004,53.0399148],[-2.2104722,53.040512],[-2.2105221,53.0405855],[-2.2106387,53.0408362],[-2.2106877,53.0409602],[-2.2107059,53.0410566],[-2.2107047,53.0411543],[-2.2106704,53.0413125],[-2.2106491,53.0414174],[-2.2105907,53.0416586],[-2.2105518,53.0418158],[-2.2105475,53.0418828],[-2.210547,53.0419819],[-2.2105885,53.0420785],[-2.2106318,53.0421314],[-2.2110539,53.0426911],[-2.2111223,53.0427787],[-2.2112522,53.0428929],[-2.2113908,53.042977],[-2.2115378,53.0430572],[-2.2118085,53.0431654],[-2.2120499,53.0432625],[-2.2123784,53.0433655],[-2.2127185,53.0434603],[-2.2131289,53.0435411],[-2.2135739,53.0436508],[-2.2138011,53.0438141],[-2.2139219,53.0438964],[-2.2139658,53.0439195],[-2.2141417,53.0440115],[-2.2144394,53.0442965],[-2.2144636,53.0444129],[-2.2144855,53.0446683],[-2.2144508,53.0448631],[-2.2143863,53.0449984],[-2.2142601,53.0451518],[-2.214182,53.0452317]]]}},
{"type":"Feature","properties":{"highway":"path","name":null,"category":"Shared path"},"geometry":{"type":"MultiLineString","coordinates":[[[-2.2129852,53.0370012],[-2.213001,53.0370128],[-2.213032,53.0370357]]]}},
{"type":"Feature","properties":{"highway":"path","name":"Newcastle 83","category":"Shared path"},"geometry":{"type":"MultiLineString","coordinates":[[[-2.2118633,53.03752],[-2.2114411,53.0377145],[-2.2111551,53.0378625],[-2.2111557,53.038009],[-2.2105463,53.0383838],[-2.2101029,53.0385491],[-2.2098902,53.0386164]]]}},
{"type":"Feature","properties":{"highway":"path","name":null,"category":"Shared path"},"geometry":{"type":"MultiLineString","coordinates":[[[-2.1991074,53.0347494],[-2.199087,53.0349053],[-2.1990646,53.0350881],[-2.1990817,53.0353795],[-2.1990495,53.0355666],[-2.1991085,53.0357408],[-2.1992855,53.0358666],[-2.1994894,53.0359279],[-2.1997361,53.0359537],[-2.1999829,53.0360182],[-2.2002792,53.0360766],[-2.2004687,53.0360586],[-2.200666,53.0360911],[-2.2008895,53.0360827],[-2.2009692,53.0361109],[-2.2010306,53.0361557],[-2.201125,53.0362249],[-2.2011744,53.0363086],[-2.201206,53.0364246],[-2.201206,53.0365536],[-2.2012201,53.0366356]]]}},
{"type":"Feature","properties":{"highway":"path","name":"Newcastle 83","category":"Shared path"},"geometry":{"type":"MultiLineString","coordinates":[[[-2.2087041,53.0391402],[-2.2087319,53.0391188],[-2.2097918,53.038652]]]}},
{"type":"Feature","properties":{"highway":"cycleway","name":null,"category":"Dedicated cycleway"},"geometry":{"type":"MultiLineString","coordinates":[[[-2.1955657,53.0479844],[-2.1953668,53.0480391],[-2.1952945,53.0480595],[-2.1951947,53.0481425],[-2.1950979,53.0482289],[-2.1950291,53.048309],[-2.1950232,53.0483968],[-2.1953126,53.0486527],[-2.1953664,53.0489444]]]}},
{"type":"Feature","properties":{"highway":"cycleway","name":null,"category":"Dedicated cycleway"},"geometry":{"type":"MultiLineString","coordinates":[[[-2.1947175,53.0376613],[-2.1944819,53.0378052],[-2.1942452,53.0379074],[-2.1941315,53.0379834],[-2.194087,53.0380104],[-2.1939893,53.0380698],[-2.193113,53.0384206],[-2.192942,53.0384522]]]}},
{"type":"Feature","properties":{"highway":"cycleway","name":null,"category":"Dedicated cycleway"},"geometry":{"type":"MultiLineString","coordinates":[[[-2.2030503,53.0356927],[-2.2025984,53.0356945],[-2.2021937,53.0357559]]]}},
{"type":"Feature","properties":{"highway":"cycleway","name":null,"category":"Dedicated cycleway"},"geometry":{"type":"MultiLineString","coordinates":[[[-2.2087319,53.0391188],[-2.2085488,53.0389909],[-2.2084301,53.0389587],[-2.2083332,53.0389389]]]}},
{"type":"Feature","properties":{"highway":"path","name":"Newcastle 83","category":"Shared path"},"geometry":{"type":"MultiLineString","coordinates":[[[-2.2097918,53.038652],[-2.2098902,53.0386164]]]}},
{"type":"Feature","properties":{"highway":"path","name":"Newcastle 1R/2279","category":"Shared path"},"geometry":{"type":"MultiLineString","coordinates":[[[-2.2132248,53.0368749],[-2.2133562,53.0361715],[-2.2133885,53.036028],[-2.213652,53.0347037]]]}},
{"type":"Feature","properties":{"highway":"path","name":null,"category":"Shared path"},"geometry":{"type":"MultiLineString","coordinates":[[[-2.2051781,53.034978],[-2.2050122,53.0350102]]]}},
{"type":"Feature","properties":{"highway":"track","name":null,"category":"Track"},"geometry":{"type":"MultiLineString","coordinates":[[[-2.2105446,53.0393908],[-2.2103964,53.0394511]]]}},
{"type":"Feature","properties":{"highway":"path","name":null,"category":"Shared path"},"geometry":{"type":"MultiLineString","coordinates":[[[-2.2029056,53.0396628],[-2.2029468,53.0397163],[-2.2029748,53.0397526],[-2.2025473,53.0398786]]]}},
{"type":"Feature","properties":{"highway":"path","name":null,"category":"Shared path"},"geometry":{"type":"MultiLineString","coordinates":[[[-2.2025473,53.0398786],[-2.2024471,53.0395997],[-2.2022754,53.0393707],[-2.2021117,53.0392282],[-2.2020128,53.039112],[-2.2019696,53.0389885],[-2.2019026,53.0387788],[-2.2018364,53.0386502],[-2.2018194,53.0386171],[-2.2017944,53.0384218],[-2.2017412,53.0380901],[-2.2017685,53.0379823],[-2.2017545,53.0379034],[-2.2016505,53.0377321],[-2.2014915,53.0375637],[-2.2013754,53.0373],[-2.2013366,53.0371178],[-2.2012937,53.0369581],[-2.2012201,53.0366356]]]}},
{"type":"Feature","properties":{"highway":"track","name":null,"category":"Track"},"geometry":{"type":"MultiLineString","coordinates":[[[-2.2040723,53.0450078],[-2.2041357,53.0452813],[-2.2042248,53.0454451],[-2.2042977,53.0455836],[-2.2044739,53.0457597]]]}},
{"type":"Feature","properties":{"highway":"path","name":null,"category":"Shared path"},"geometry":{"type":"MultiLineString","coordinates":[[[-2.194993,53.0380449],[-2.1950568,53.0381123],[-2.1951041,53.0381622]]]}},
{"type":"Feature","properties":{"highway":"track","name":null,"category":"Track"},"geometry":{"type":"MultiLineString","coordinates":[[[-2.1904743,53.0371087],[-2.1905784,53.0373214],[-2.1905891,53.0373618],[-2.1905838,53.0374037],[-2.1905575,53.03747],[-2.1905467,53.0375264],[-2.1905682,53.03757],[-2.1906788,53.0377163]]]}},
{"type":"Feature","properties":{"highway":"track","name":null,"category":"Track"},"geometry":{"type":"MultiLineString","coordinates":[[[-2.1866538,53.0446433],[-2.1867162,53.0446615],[-2.1878144,53.0442757],[-2.1883394,53.0444664]]]}},
{"type":"Feature","properties":{"highway":"track","name":null,"category":"Track"},"geometry":{"type":"MultiLineString","coordinates":[[[-2.1878144,53.0442757],[-2.187489,53.0437531],[-2.187461,53.0436024],[-2.187498,53.0435564]]]}},
{"type":"Feature","properties":{"highway":"path","name":null,"category":"Shared path"},"geometry":{"type":"MultiLineString","coordinates":[[[-2.1944582,53.0362825],[-2.1943522,53.0362427],[-2.1942023,53.0361021],[-2.1940486,53.0359183],[-2.1934395,53.0350975],[-2.1933421,53.034811],[-2.1933934,53.0346831],[-2.1935051,53.0345233],[-2.193674,53.034283]]]}},
{"type":"Feature","properties":{"highway":"path","name":null,"category":"Shared path"},"geometry":{"type":"MultiLineString","coordinates":[[[-2.1933888,53.0358957],[-2.1932536,53.0359282],[-2.193157,53.0359476],[-2.193039,53.0359798],[-2.1929425,53.0360282],[-2.1928298,53.0360798],[-2.1927601,53.0360895],[-2.1926313,53.0360992],[-2.1924811,53.0361476],[-2.1923685,53.0361669],[-2.1918932,53.0361563],[-2.1917841,53.0361541]]]}},
{"type":"Feature","properties":{"highway":"track","name":null,"category":"Track"},"geometry":{"type":"MultiLineString","coordinates":[[[-2.2029357,53.0460346],[-2.2027533,53.0456717],[-2.2025758,53.0454105]]]}},
{"type":"Feature","properties":{"highway":"cycleway","name":null,"category":"Dedicated cycleway"},"geometry":{"type":"MultiLineString","coordinates":[[[-2.1937301,53.0479134],[-2.1934445,53.0477332]]]}},
{"type":"Feature","properties":{"highway":"cycleway","name":null,"category":"Dedicated cycleway"},"geometry":{"type":"MultiLineString","coordinates":[[[-2.1934445,53.0477332],[-2.1932902,53.0476277],[-2.1931209,53.0475374],[-2.1929419,53.0474458],[-2.1924293,53.0471656],[-2.1921835,53.0469833],[-2.1918201,53.0467138]]]}},
{"type":"Feature","properties":{"highway":"cycleway","name":null,"category":"Dedicated cycleway"},"geometry":{"type":"MultiLineString","coordinates":[[[-2.1947625,53.0377419],[-2.1942053,53.0381718],[-2.1941884,53.0381929],[-2.1941916,53.0381991],[-2.1942015,53.0382021],[-2.1942297,53.038202],[-2.1947223,53.0381102],[-2.1948166,53.038104],[-2.194925,53.0381058],[-2.1950105,53.0381206],[-2.1951041,53.0381622]]]}},
{"type":"Feature","properties":{"highway":"cycleway","name":null,"category":"Dedicated cycleway"},"geometry":{"type":"MultiLineString","coordinates":[[[-2.1951041,53.0381622],[-2.1952133,53.0383099],[-2.1952727,53.0384171],[-2.195283,53.0384358],[-2.1954232,53.0387256],[-2.1954844,53.0389932],[-2.1955544,53.0391669],[-2.1956428,53.0392773],[-2.1958114,53.0394353],[-2.1959087,53.0395331],[-2.1959677,53.0396026],[-2.196061,53.0397887],[-2.1960946,53.0399987],[-2.1961127,53.0401223],[-2.1961193,53.0401677],[-2.1960915,53.0402367],[-2.1960442,53.0403095],[-2.1959485,53.0404153],[-2.1959515,53.0404531],[-2.1960079,53.0405378]]]}},
{"type":"Feature","properties":{"highway":"path","name":null,"category":"Shared path"},"geometry":{"type":"MultiLineString","coordinates":[[[-2.2012201,53.0366356],[-2.2014706,53.0366122],[-2.2016851,53.036579],[-2.202001,53.0365394]]]}},
{"type":"Feature","properties":{"highway":"track","name":null,"category":"Track"},"geometry":{"type":"MultiLineString","coordinates":[[[-2.2053018,53.0362459],[-2.2044172,53.0360856],[-2.2037466,53.0359017],[-2.2033106,53.0357639],[-2.2030503,53.0356927]]]}},
{"type":"Feature","properties":{"highway":"path","name":null,"category":"Shared path"},"geometry":{"type":"MultiLineString","coordinates":[[[-2.1984043,53.035955],[-2.1983064,53.0359779],[-2.1981348,53.0359682],[-2.1977002,53.0359456],[-2.1972872,53.0358714],[-2.1969321,53.0357984],[-2.1965684,53.0356876],[-2.1963967,53.035636],[-2.1961928,53.035594],[-2.1960534,53.0355747],[-2.1959134,53.0355623]]]}},
{"type":"Feature","properties":{"highway":"track","name":null,"category":"Track"},"geometry":{"type":"MultiLineString","coordinates":[[[-2.1980436,53.0395808],[-2.1978397,53.0394873],[-2.1976627,53.0394228],[-2.1975769,53.0394228],[-2.1974696,53.0394551],[-2.1972335,53.0395841],[-2.1968891,53.0397691],[-2.1965791,53.0399614],[-2.1963967,53.0401388],[-2.1962722,53.0403883],[-2.1961928,53.0404969],[-2.196125,53.0405996]]]}},
{"type":"Feature","properties":{"highway":"path","name":null,"category":"Shared path"},"geometry":{"type":"MultiLineString","coordinates":[[[-2.1983064,53.0359779],[-2.1983912,53.0360016],[-2.1984344,53.0360241]]]}},
{"type":"Feature","properties":{"highway":"path","name":null,"category":"Shared path"},"geometry":{"type":"MultiLineString","coordinates":[[[-2.1975769,53.0394228],[-2.1979996,53.0392788],[-2.198285,53.0391809],[-2.198403,53.0390906],[-2.1985478,53.0386906],[-2.1985647,53.0386014],[-2.1986229,53.0382939],[-2.1986263,53.0382761],[-2.1987141,53.0378165],[-2.1987678,53.0375165],[-2.1987946,53.0372488],[-2.1987785,53.0370488],[-2.198756,53.0368822],[-2.1986927,53.0366263],[-2.1985521,53.0362951],[-2.1984344,53.0360241],[-2.1984043,53.035955],[-2.1982517,53.0356532],[-2.1981337,53.0353242],[-2.1980918,53.0351231],[-2.1981069,53.034979],[-2.1981337,53.0349113],[-2.1981932,53.0348214]]]}},
{"type":"Feature","properties":{"highway":"path","name":null,"category":"Shared path"},"geometry":{"type":"MultiLineString","coordinates":[[[-2.2070164,53.0386136],[-2.2068554,53.038591],[-2.2067427,53.0385727],[-2.2066526,53.0385512],[-2.2065175,53.0384556],[-2.2064102,53.0382717],[-2.2063565,53.0381975],[-2.2060132,53.0380943],[-2.205686,53.0379975],[-2.2053587,53.0379492],[-2.205187,53.0379296],[-2.2050614,53.0379131]]]}},
{"type":"Feature","properties":{"highway":"path","name":null,"category":"Shared path"},"geometry":{"type":"MultiLineString","coordinates":[[[-2.1989624,53.0477216],[-2.1990043,53.0476788],[-2.1989389,53.0476074],[-2.1983729,53.047454]]]}},
{"type":"Feature","properties":{"highway":"track","name":null,"category":"Track"},"geometry":{"type":"MultiLineString","coordinates":[[[-2.2113707,53.040565],[-2.2114184,53.0406012],[-2.2114753,53.0406472],[-2.2115841,53.0406695]]]}},
{"type":"Feature","properties":{"highway":"track","name":null,"category":"Track"},"geometry":{"type":"MultiLineString","coordinates":[[[-2.2113707,53.040565],[-2.2114297,53.0405118],[-2.211478,53.0404489],[-2.2115156,53.0403957],[-2.2115182,53.0403553],[-2.2115021,53.0403215],[-2.2114512,53.0402715],[-2.2110623,53.0399828],[-2.2105205,53.0396167]]]}},
{"type":"Feature","properties":{"highway":"track","name":null,"category":"Track"},"geometry":{"type":"MultiLineString","coordinates":[[[-2.2113707,53.040565],[-2.2112259,53.0405456],[-2.2109979,53.0404908],[-2.2109255,53.040465],[-2.2108531,53.0404279],[-2.2104159,53.0400312],[-2.2100564,53.0396974]]]}},
{"type":"Feature","properties":{"highway":"path","name":null,"category":"Shared path"},"geometry":{"type":"MultiLineString","coordinates":[[[-2.1908445,53.0471427],[-2.1908677,53.0471104],[-2.1908886,53.0470556],[-2.1908928,53.0470075],[-2.1908806,53.0469595],[-2.1908593,53.0469174],[-2.1908095,53.0468169]]]}},
{"type":"Feature","properties":{"highway":"path","name":null,"category":"Shared path"},"geometry":{"type":"MultiLineString","coordinates":[[[-2.2071737,53.045053],[-2.2072512,53.0450906],[-2.2072572,53.045259],[-2.2067386,53.0452698],[-2.2067326,53.0451013],[-2.2067893,53.0450583]]]}},
{"type":"Feature","properties":{"highway":"path","name":null,"category":"Shared path"},"geometry":{"type":"MultiLineString","coordinates":[[[-2.205863,53.0453915],[-2.2057286,53.0453369],[-2.2056571,53.0452885],[-2.2055684,53.045288],[-2.205551,53.0452792],[-2.2055389,53.0452437],[-2.2055121,53.0451639],[-2.2055201,53.0451161]]]}},
{"type":"Feature","properties":{"highway":"path","name":null,"category":"Shared path"},"geometry":{"type":"MultiLineString","coordinates":[[[-2.2054631,53.045526],[-2.2058836,53.0455106]]]}},
{"type":"Feature","properties":{"highway":"path","name":null,"category":"Shared path"},"geometry":{"type":"MultiLineString","coordinates":[[[-2.2058836,53.0455106],[-2.2064618,53.0454318],[-2.2064594,53.0450029]]]}},
{"type":"Feature","properties":{"highway":"path","name":null,"category":"Shared path"},"geometry":{"type":"MultiLineString","coordinates":[[[-2.203115,53.0441536],[-2.2029934,53.0441732],[-2.2029541,53.0441618],[-2.2023618,53.0438603],[-2.202265,53.0437806],[-2.202468,53.0436269]]]}},
{"type":"Feature","properties":{"highway":"path","name":null,"category":"Shared path"},"geometry":{"type":"MultiLineString","coordinates":[[[-2.1900234,53.0457962],[-2.1899873,53.0457624],[-2.1893344,53.0451521]]]}},
{"type":"Feature","properties":{"highway":"path","name":null,"category":"Shared path"},"geometry":{"type":"MultiLineString","coordinates":[[[-2.2078649,53.0391486],[-2.2078554,53.0390723],[-2.2077922,53.0390122],[-2.2075815,53.0388618],[-2.2073329,53.0387265],[-2.2070164,53.0386136]]]}},
{"type":"Feature","properties":{"highway":"cycleway","name":null,"category":"Dedicated cycleway"},"geometry":{"type":"MultiLineString","coordinates":[[[-2.1914267,53.0471073],[-2.1910378,53.0468628],[-2.1910118,53.0468138],[-2.1909972,53.0467863]]]}},
{"type":"Feature","properties":{"highway":"cycleway","name":null,"category":"Dedicated cycleway"},"geometry":{"type":"MultiLineString","coordinates":[[[-2.191998,53.0474666],[-2.191493,53.047149],[-2.1914267,53.0471073]]]}},
{"type":"Feature","properties":{"highway":"path","name":null,"category":"Shared path"},"geometry":{"type":"MultiLineString","coordinates":[[[-2.205863,53.0453915],[-2.2058774,53.0452966]]]}},
{"type":"Feature","properties":{"highway":"cycleway","name":null,"category":"Dedicated cycleway"},"geometry":{"type":"MultiLineString","coordinates":[[[-2.2119931,53.0374659],[-2.2120132,53.0374149],[-2.2118474,53.0372734],[-2.2113539,53.0369163],[-2.2112688,53.0368479],[-2.2111269,53.0366695],[-2.2109166,53.0363632],[-2.2108028,53.0361803],[-2.210713,53.0360193],[-2.2106313,53.035842],[-2.2105155,53.0355623],[-2.2104398,53.0353461],[-2.2103759,53.0351297],[-2.2102381,53.034594],[-2.2101304,53.0342456],[-2.2100219,53.0339188],[-2.2099776,53.03376],[-2.2099512,53.0336127],[-2.2099319,53.0334831],[-2.2099169,53.0333377],[-2.2099243,53.0331689],[-2.2099637,53.0329657],[-2.2099927,53.0328809],[-2.2100426,53.0327919],[-2.21009,53.0327155],[-2.2101583,53.0326363],[-2.2102314,53.0325651],[-2.2102331,53.0324831],[-2.2102545,53.0324535],[-2.2103527,53.0323966],[-2.2104168,53.0323551],[-2.2104582,53.0322972],[-2.2105011,53.0322146],[-2.2105667,53.0321438],[-2.2106225,53.0321078],[-2.2106957,53.0320837],[-2.2108806,53.0320112],[-2.2110488,53.0319079],[-2.2111775,53.0318117],[-2.211286,53.0317128]]]}},
{"type":"Feature","properties":{"highway":"path","name":null,"category":"Shared path"},"geometry":{"type":"MultiLineString","coordinates":[[[-2.2073749,53.0423983],[-2.2075492,53.0423435],[-2.2077906,53.0422742]]]}},
{"type":"Feature","properties":{"highway":"path","name":null,"category":"Shared path"},"geometry":{"type":"MultiLineString","coordinates":[[[-2.2077906,53.0422742],[-2.2077321,53.0422062],[-2.2074597,53.041881]]]}},
{"type":"Feature","properties":{"highway":"path","name":null,"category":"Shared path"},"geometry":{"type":"MultiLineString","coordinates":[[[-2.2084802,53.0419754],[-2.2077321,53.0422062]]]}},
{"type":"Feature","properties":{"highway":"path","name":null,"category":"Shared path"},"geometry":{"type":"MultiLineString","coordinates":[[[-2.2088186,53.0425265],[-2.2085972,53.0422436],[-2.208547,53.0420677],[-2.2084802,53.0419754],[-2.2084585,53.041942]]]}},
{"type":"Feature","properties":{"highway":"path","name":null,"category":"Shared path"},"geometry":{"type":"MultiLineString","coordinates":[[[-2.1929405,53.0352205],[-2.1934395,53.0350975],[-2.1939515,53.034953]]]}},
{"type":"Feature","properties":{"highway":"path","name":null,"category":"Shared path"},"geometry":{"type":"MultiLineString","coordinates":[[[-2.1940486,53.0359183],[-2.193996,53.035926],[-2.1935556,53.0360663]]]}},
{"type":"Feature","properties":{"highway":"path","name":null,"category":"Shared path"},"geometry":{"type":"MultiLineString","coordinates":[[[-2.1918165,53.0466463],[-2.1903934,53.0457161],[-2.1902864,53.0456592]]]}},
{"type":"Feature","properties":{"highway":"path","name":null,"category":"Shared path"},"geometry":{"type":"MultiLineString","coordinates":[[[-2.1844029,53.0366186],[-2.1843688,53.0365593],[-2.1843096,53.0364563]]]}},
{"type":"Feature","properties":{"highway":"path","name":null,"category":"Shared path"},"geometry":{"type":"MultiLineString","coordinates":[[[-2.1841643,53.0366568],[-2.1841438,53.0366041],[-2.1843688,53.0365593],[-2.1847085,53.0364935],[-2.185079,53.0364217]]]}},
{"type":"Feature","properties":{"highway":"path","name":null,"category":"Shared path"},"geometry":{"type":"MultiLineString","coordinates":[[[-2.1847354,53.0365585],[-2.1847085,53.0364935],[-2.1846729,53.036383]]]}},
{"type":"Feature","properties":{"highway":"cycleway","name":null,"category":"Dedicated cycleway"},"geometry":{"type":"MultiLineString","coordinates":[[[-2.1850471,53.0376604],[-2.1851059,53.0377471],[-2.1851733,53.0377585]]]}},
{"type":"Feature","properties":{"highway":"path","name":null,"category":"Shared path"},"geometry":{"type":"MultiLineString","coordinates":[[[-2.2036939,53.0336341],[-2.2034581,53.0335699],[-2.2033967,53.0335532],[-2.2033374,53.03357],[-2.2030932,53.0335014],[-2.2024279,53.0333002],[-2.2017884,53.0331068],[-2.2010364,53.0328794],[-2.2004045,53.0336317],[-2.1998422,53.0343013],[-2.2013776,53.0347738]]]}},
{"type":"Feature","properties":{"highway":"path","name":"Newcastle 83","category":"Shared path"},"geometry":{"type":"MultiLineString","coordinates":[[[-2.2130688,53.0369594],[-2.2129852,53.0370012],[-2.212286,53.0373296],[-2.2120672,53.0374038],[-2.2119931,53.0374659]]]}},
{"type":"Feature","properties":{"highway":"path","name":"Newcastle 83","category":"Shared path"},"geometry":{"type":"MultiLineString","coordinates":[[[-2.2142494,53.0364584],[-2.2141845,53.0364786],[-2.2141398,53.0364651],[-2.2140852,53.0364324],[-2.2139634,53.0365175],[-2.2137076,53.0365911],[-2.2135264,53.0366964],[-2.2132248,53.0368749],[-2.2130945,53.0369455]]]}},
{"type":"Feature","properties":{"highway":"cycleway","name":null,"category":"Dedicated cycleway"},"geometry":{"type":"MultiLineString","coordinates":[[[-2.1853218,53.037591],[-2.1852596,53.0375805],[-2.1851496,53.0375619]]]}},
{"type":"Feature","properties":{"highway":"cycleway","name":null,"category":"Dedicated cycleway"},"geometry":{"type":"MultiLineString","coordinates":[[[-2.1858477,53.0410268],[-2.1857946,53.0408559]]]}},
{"type":"Feature","properties":{"highway":"path","name":null,"category":"Shared path"},"geometry":{"type":"MultiLineString","coordinates":[[[-2.1985647,53.0386014],[-2.1981461,53.0383612],[-2.1975507,53.038232],[-2.1967661,53.0381786],[-2.1959748,53.0382388],[-2.1959535,53.0382404],[-2.1955939,53.0382741],[-2.1953691,53.0383742],[-2.1953069,53.0384019],[-2.1952727,53.0384171]]]}},
{"type":"Feature","properties":{"highway":"path","name":null,"category":"Shared path"},"geometry":{"type":"MultiLineString","coordinates":[[[-2.1950568,53.0381123],[-2.1956406,53.0381492],[-2.1959748,53.0382388]]]}},
{"type":"Feature","properties":{"highway":"path","name":null,"category":"Shared path"},"geometry":{"type":"MultiLineString","coordinates":[[[-2.1981461,53.0383612],[-2.1986263,53.0382761]]]}},
{"type":"Feature","properties":{"highway":"path","name":null,"category":"Shared path"},"geometry":{"type":"MultiLineString","coordinates":[[[-2.1985647,53.0386014],[-2.1988313,53.038826],[-2.1989321,53.0389109],[-2.199152,53.0390222],[-2.2000371,53.0393189],[-2.2005682,53.0395495],[-2.2010135,53.0398882],[-2.2011744,53.0399043],[-2.2015619,53.0403259]]]}},
{"type":"Feature","properties":{"highway":"path","name":null,"category":"Shared path"},"geometry":{"type":"MultiLineString","coordinates":[[[-2.2020882,53.0388165],[-2.2018364,53.0386502]]]}},
{"type":"Feature","properties":{"highway":"path","name":null,"category":"Shared path"},"geometry":{"type":"MultiLineString","coordinates":[[[-2.2020882,53.0388165],[-2.2021821,53.0388133]]]}},
{"type":"Feature","properties":{"highway":"path","name":null,"category":"Shared path"},"geometry":{"type":"MultiLineString","coordinates":[[[-2.2018364,53.0386502],[-2.2016626,53.0386562],[-2.2009867,53.0388368],[-2.2006997,53.0388723],[-2.2005562,53.0387359],[-2.2004503,53.0386353],[-2.2002947,53.0384159],[-2.2001847,53.0381224],[-2.2001552,53.0378321],[-2.2000157,53.0375095]]]}},
{"type":"Feature","properties":{"highway":"path","name":null,"category":"Shared path"},"geometry":{"type":"MultiLineString","coordinates":[[[-2.2005562,53.0387359],[-2.1998057,53.0387819],[-2.1993685,53.0388626],[-2.1990386,53.038811],[-2.1988313,53.038826]]]}},
{"type":"Feature","properties":{"highway":"path","name":null,"category":"Shared path"},"geometry":{"type":"MultiLineString","coordinates":[[[-2.1961127,53.0401223],[-2.1956506,53.0400045],[-2.1954117,53.0398449],[-2.1949994,53.0396779],[-2.1948401,53.0395641],[-2.1946224,53.0394896],[-2.1943428,53.0392704],[-2.1936385,53.0389267],[-2.1934279,53.0388703],[-2.1930829,53.0388586],[-2.1926635,53.0389629],[-2.1923858,53.0390927]]]}},
{"type":"Feature","properties":{"highway":"cycle_lane_on_street","name":"Elder Road","category":"Cycle lane on street"},"geometry":{"type":"MultiLineString","coordinates":[[[-2.1880511,53.0414188],[-2.188049,53.0410375],[-2.187999,53.0407739],[-2.1879595,53.0406714],[-2.1879206,53.04057],[-2.1878258,53.0404248],[-2.1876537,53.0402118],[-2.1875872,53.0401296]]]}},
{"type":"Feature","properties":{"highway":"cycle_lane_on_street","name":"Elder Road","category":"Cycle lane on street"},"geometry":{"type":"MultiLineString","coordinates":[[[-2.1872724,53.0397278],[-2.1872193,53.0396052],[-2.187152,53.039438]]]}},
{"type":"Feature","properties":{"highway":"cycle_lane_on_street","name":"Elder Road","category":"Cycle lane on street"},"geometry":{"type":"MultiLineString","coordinates":[[[-2.1871396,53.0393844],[-2.1871216,53.039324],[-2.1870644,53.0390776],[-2.1870612,53.0390549],[-2.1870519,53.0389649],[-2.1870773,53.0388157]]]}},
{"type":"Feature","properties":{"highway":"cycle_lane_on_street","name":"Elder Road","category":"Cycle lane on street"},"geometry":{"type":"MultiLineString","coordinates":[[[-2.1870859,53.0387588],[-2.1870947,53.0386112],[-2.1871294,53.0383688],[-2.1871367,53.0382079]]]}},
{"type":"Feature","properties":{"highway":"cycle_lane_on_street","name":"Elder Road","category":"Cycle lane on street"},"geometry":{"type":"MultiLineString","coordinates":[[[-2.1875562,53.0400928],[-2.1874746,53.0400018],[-2.1873298,53.0398187],[-2.1873047,53.039787]]]}},
{"type":"Feature","properties":{"highway":"cycle_lane_on_street","name":"Hamil Road","category":"Cycle lane on street"},"geometry":{"type":"MultiLineString","coordinates":[[[-2.1937246,53.0477519],[-2.1935242,53.0478474]]]}}
]
}
