{
"type": "FeatureCollection",
"name": "CHEEA_1123_cycling",
"crs": { "type": "name", "properties": { "name": "urn:ogc:def:crs:OGC:1.3:CRS84" } },
"features": [
{"type":"Feature","properties":{"highway":"cycleway","name":null,"category":"Dedicated cycleway"},"geometry":{"type":"MultiLineString","coordinates":[[[-2.2037709,53.0693692],[-2.2038412,53.0694696],[-2.2037212,53.069498],[-2.2036409,53.0695198],[-2.2036611,53.0695599],[-2.2036838,53.0696245],[-2.2038474,53.0699178]]]}},
{"type":"Feature","properties":{"highway":"path","name":null,"category":"Shared path"},"geometry":{"type":"MultiLineString","coordinates":[[[-2.2045041,53.0757012],[-2.2045699,53.0757385],[-2.2047373,53.0758333],[-2.2048973,53.0760125],[-2.2049228,53.0764929],[-2.2049499,53.0766696],[-2.2049679,53.0767874],[-2.2050237,53.077151],[-2.2051156,53.077463],[-2.2052795,53.0777413],[-2.2060026,53.0782086],[-2.2062399,53.078402],[-2.2064451,53.0786666],[-2.2065846,53.0787536],[-2.2068099,53.0790582],[-2.2070414,53.0793411],[-2.2073847,53.07976],[-2.20761,53.0800339],[-2.2076537,53.080088],[-2.2078621,53.0803465],[-2.2080535,53.0805614],[-2.2081089,53.0806236]]]}},
{"type":"Feature","properties":{"highway":"cycleway","name":null,"category":"Dedicated cycleway"},"geometry":{"type":"MultiLineString","coordinates":[[[-2.1906161,53.0701594],[-2.1910503,53.070233],[-2.1915953,53.0703066]]]}},
{"type":"Feature","properties":{"highway":"cycleway","name":null,"category":"Dedicated cycleway"},"geometry":{"type":"MultiLineString","coordinates":[[[-2.2023013,53.0666847],[-2.2022832,53.0667316],[-2.2022282,53.0667759],[-2.2021359,53.0668239],[-2.2020606,53.0669491],[-2.2020344,53.0670325],[-2.2020642,53.0671149],[-2.20205,53.0671631],[-2.2019954,53.0671967],[-2.2019555,53.0672283],[-2.201963,53.0672683],[-2.2019776,53.0673121],[-2.2020581,53.0673862],[-2.2022874,53.0677563],[-2.2023572,53.0678438],[-2.2025798,53.0681229],[-2.2026464,53.0682847],[-2.202634,53.0683788],[-2.2025624,53.068415],[-2.202468,53.0684511],[-2.202431,53.0684645],[-2.2023721,53.0685237],[-2.2023506,53.0686365],[-2.2023034,53.0687669],[-2.2022366,53.0688317],[-2.2021307,53.0688831],[-2.2021682,53.0689346],[-2.2021978,53.0689783],[-2.2022542,53.0690492]]]}},
{"type":"Feature","properties":{"highway":"cycleway","name":null,"category":"Dedicated cycleway"},"geometry":{"type":"MultiLineString","coordinates":[[[-2.2038474,53.0699178],[-2.2039306,53.0700854],[-2.203944,53.0701209],[-2.2040175,53.0702772],[-2.2042791,53.0708337],[-2.2045917,53.0714992],[-2.2047597,53.0719476],[-2.2048492,53.0721728],[-2.2049915,53.0726953],[-2.2050945,53.0731439],[-2.2052232,53.0738452],[-2.2054464,53.0750519],[-2.205496,53.0752461],[-2.2055058,53.0753048],[-2.2055474,53.075482],[-2.2055581,53.0756335],[-2.2055597,53.0757657],[-2.2055587,53.0757795],[-2.205553,53.0758551],[-2.205549,53.0760131],[-2.2055544,53.076067],[-2.2055751,53.0762997],[-2.2056389,53.0765085],[-2.205655,53.0765964],[-2.205655,53.0767035],[-2.2056603,53.0768888],[-2.2056778,53.0770322],[-2.2057569,53.0772949],[-2.2058856,53.0775921],[-2.2059554,53.0777275],[-2.2060278,53.0778314],[-2.2061244,53.0779497],[-2.2062532,53.0780734],[-2.2064689,53.0783173],[-2.206545,53.0784034]]]}},
{"type":"Feature","properties":{"highway":"cycleway","name":null,"category":"Dedicated cycleway"},"geometry":{"type":"MultiLineString","coordinates":[[[-2.1906161,53.0701594],[-2.1910889,53.0699577],[-2.1915465,53.069775],[-2.1921041,53.0695983],[-2.1925386,53.0695115]]]}},
{"type":"Feature","properties":{"highway":"cycleway","name":null,"category":"Dedicated cycleway"},"geometry":{"type":"MultiLineString","coordinates":[[[-2.2024366,53.0692716],[-2.2025653,53.0694102],[-2.2026645,53.0694231],[-2.2027423,53.069436],[-2.202914,53.0694521],[-2.2031005,53.069487],[-2.2032841,53.069552],[-2.2034478,53.0696439],[-2.2036006,53.0697438],[-2.203716,53.069834],[-2.2038474,53.0699178]]]}},
{"type":"Feature","properties":{"highway":"cycleway","name":null,"category":"Dedicated cycleway"},"geometry":{"type":"MultiLineString","coordinates":[[[-2.2022542,53.0690492],[-2.2024366,53.0692716]]]}},
{"type":"Feature","properties":{"highway":"path","name":null,"category":"Shared path"},"geometry":{"type":"MultiLineString","coordinates":[[[-2.2019939,53.0695501],[-2.2019725,53.069554],[-2.2018951,53.0695784],[-2.201707,53.0696895],[-2.2015303,53.0697701],[-2.201305,53.0698411],[-2.2011249,53.0699054],[-2.201023,53.0699442],[-2.2009134,53.0699861],[-2.2007977,53.0700666],[-2.2006904,53.0701681],[-2.200703,53.0702134],[-2.2008594,53.0702204]]]}},
{"type":"Feature","properties":{"highway":"path","name":null,"category":"Shared path"},"geometry":{"type":"MultiLineString","coordinates":[[[-2.2048607,53.0753209],[-2.2049249,53.0752446],[-2.2049625,53.0751721],[-2.2049836,53.0751459]]]}},
{"type":"Feature","properties":{"highway":"track","name":null,"category":"Track"},"geometry":{"type":"MultiLineString","coordinates":[[[-2.1999667,53.0716338],[-2.1998709,53.0713719],[-2.1997931,53.0711463],[-2.1995367,53.0707535]]]}},
{"type":"Feature","properties":{"highway":"path","name":null,"category":"Shared path"},"geometry":{"type":"MultiLineString","coordinates":[[[-2.1987724,53.0774252],[-2.1986651,53.0773478],[-2.1984237,53.0771416],[-2.1981931,53.0769482],[-2.1979248,53.0766485],[-2.197721,53.0764133],[-2.1976673,53.0763134],[-2.197662,53.0761587],[-2.1975922,53.075975],[-2.1975225,53.0756205],[-2.1974313,53.0753885],[-2.1972972,53.0751049],[-2.1971255,53.0749663],[-2.1968573,53.0748374],[-2.1963906,53.0742863],[-2.1963423,53.0741896],[-2.1963606,53.0740336]]]}},
{"type":"Feature","properties":{"highway":"cycleway","name":null,"category":"Dedicated cycleway"},"geometry":{"type":"MultiLineString","coordinates":[[[-2.198998,53.0709856],[-2.1990129,53.0709811],[-2.1990575,53.0709677],[-2.199116,53.0709418],[-2.1991438,53.0709066],[-2.1991715,53.0708233],[-2.1991807,53.0707678],[-2.1991961,53.0707141],[-2.199227,53.0706771],[-2.1992855,53.0706234],[-2.199381,53.0705531],[-2.1996252,53.0704032],[-2.1996147,53.0703803]]]}},
{"type":"Feature","properties":{"highway":"cycleway","name":null,"category":"Dedicated cycleway"},"geometry":{"type":"MultiLineString","coordinates":[[[-2.1996147,53.0703803],[-2.1995223,53.0703102],[-2.1994633,53.0702612]]]}},
{"type":"Feature","properties":{"highway":"path","name":null,"category":"Shared path"},"geometry":{"type":"MultiLineString","coordinates":[[[-2.200703,53.0702134],[-2.2007208,53.070264],[-2.2006821,53.07033],[-2.2005947,53.0704106],[-2.2005277,53.0704533],[-2.2004545,53.0704717],[-2.2000235,53.0705767],[-2.1997329,53.0706524]]]}},
{"type":"Feature","properties":{"highway":"path","name":null,"category":"Shared path"},"geometry":{"type":"MultiLineString","coordinates":[[[-2.1997329,53.0706524],[-2.199615,53.0706805],[-2.1995662,53.0707013],[-2.1995418,53.070722],[-2.1995367,53.0707535]]]}},
{"type":"Feature","properties":{"highway":"path","name":null,"category":"Shared path"},"geometry":{"type":"MultiLineString","coordinates":[[[-2.200703,53.0702134],[-2.2006476,53.0702237],[-2.2005907,53.0702738]]]}},
{"type":"Feature","properties":{"highway":"path","name":null,"category":"Shared path"},"geometry":{"type":"MultiLineString","coordinates":[[[-2.1996147,53.0703803],[-2.1997268,53.0704118],[-2.1998081,53.0704411],[-2.1998833,53.0704497]]]}},
{"type":"Feature","properties":{"highway":"path","name":null,"category":"Shared path"},"geometry":{"type":"MultiLineString","coordinates":[[[-2.2006919,53.0672887],[-2.2009416,53.0673839],[-2.2010596,53.0674612],[-2.20115,53.0675762]]]}},
{"type":"Feature","properties":{"highway":"path","name":null,"category":"Shared path"},"geometry":{"type":"MultiLineString","coordinates":[[[-2.2026099,53.0672209],[-2.2024543,53.0671661],[-2.2022832,53.0667316]]]}},
{"type":"Feature","properties":{"highway":"cycleway","name":null,"category":"Dedicated cycleway"},"geometry":{"type":"MultiLineString","coordinates":[[[-2.2151582,53.0693319],[-2.2148418,53.0693034],[-2.2141377,53.0692738],[-2.2133576,53.069247],[-2.2128458,53.0692107],[-2.2122043,53.0691785],[-2.211679,53.0691435],[-2.211109,53.0690952],[-2.2106642,53.069063],[-2.2101635,53.069024],[-2.2098551,53.0689945],[-2.2091368,53.0689186],[-2.2084828,53.0688641],[-2.2083697,53.068857],[-2.2075685,53.0688051],[-2.2066476,53.0687675],[-2.2060218,53.0687433],[-2.2050942,53.0687272],[-2.2047522,53.0687272],[-2.2044996,53.0687366],[-2.2042694,53.0687702],[-2.2041465,53.0688158],[-2.2039431,53.0689085],[-2.2038782,53.0689824],[-2.2038939,53.0691113],[-2.2039565,53.0693222]]]}},
{"type":"Feature","properties":{"highway":"cycleway","name":null,"category":"Dedicated cycleway"},"geometry":{"type":"MultiLineString","coordinates":[[[-2.2039565,53.0693222],[-2.2038897,53.0693418],[-2.2037709,53.0693692]]]}},
{"type":"Feature","properties":{"highway":"cycleway","name":null,"category":"Dedicated cycleway"},"geometry":{"type":"MultiLineString","coordinates":[[[-2.2037709,53.0693692],[-2.2036726,53.0692107],[-2.2035944,53.0691261],[-2.2035251,53.0690844],[-2.2033731,53.0690576],[-2.2031943,53.069063],[-2.2029596,53.0690979],[-2.2026131,53.0691529],[-2.2023337,53.0692268],[-2.2019336,53.0693463],[-2.2015201,53.0695021],[-2.2013212,53.0696028],[-2.2011781,53.0696673],[-2.2006573,53.0698835],[-2.2002707,53.0700675],[-2.1996147,53.0703803]]]}},
{"type":"Feature","properties":{"highway":"cycleway","name":null,"category":"Dedicated cycleway"},"geometry":{"type":"MultiLineString","coordinates":[[[-2.1993311,53.0703129],[-2.1991121,53.0704036],[-2.198978,53.0704559],[-2.1988796,53.0704775],[-2.1987938,53.0704529]]]}},
{"type":"Feature","properties":{"highway":"cycleway","name":null,"category":"Dedicated cycleway"},"geometry":{"type":"MultiLineString","coordinates":[[[-2.1994633,53.0702612],[-2.1993824,53.070292],[-2.1993311,53.0703129]]]}},
{"type":"Feature","properties":{"highway":"cycleway","name":null,"category":"Dedicated cycleway"},"geometry":{"type":"MultiLineString","coordinates":[[[-2.1987938,53.0704529],[-2.19877,53.0704461],[-2.1987019,53.0704231]]]}},
{"type":"Feature","properties":{"highway":"cycleway","name":null,"category":"Dedicated cycleway"},"geometry":{"type":"MultiLineString","coordinates":[[[-2.1987019,53.0704231],[-2.1986483,53.0704707]]]}},
{"type":"Feature","properties":{"highway":"cycleway","name":null,"category":"Dedicated cycleway"},"geometry":{"type":"MultiLineString","coordinates":[[[-2.1986483,53.0704707],[-2.1985631,53.0705414],[-2.1984639,53.0706144],[-2.1983297,53.0706984],[-2.198212,53.0707669]]]}},
{"type":"Feature","properties":{"highway":"cycleway","name":null,"category":"Dedicated cycleway"},"geometry":{"type":"MultiLineString","coordinates":[[[-2.1980839,53.0708098],[-2.197895,53.0708602],[-2.1976056,53.0709186],[-2.1974525,53.0709542]]]}},
{"type":"Feature","properties":{"highway":"cycleway","name":null,"category":"Dedicated cycleway"},"geometry":{"type":"MultiLineString","coordinates":[[[-2.1980839,53.0708098],[-2.1981529,53.0707867],[-2.198212,53.0707669]]]}},
{"type":"Feature","properties":{"highway":"cycleway","name":null,"category":"Dedicated cycleway"},"geometry":{"type":"MultiLineString","coordinates":[[[-2.1973419,53.07104],[-2.1973594,53.0709931],[-2.1973664,53.0709744]]]}},
{"type":"Feature","properties":{"highway":"cycleway","name":null,"category":"Dedicated cycleway"},"geometry":{"type":"MultiLineString","coordinates":[[[-2.1973664,53.0709744],[-2.1974525,53.0709542]]]}},
{"type":"Feature","properties":{"highway":"cycle_lane_on_street","name":null,"category":"Cycle lane on street"},"geometry":{"type":"MultiLineString","coordinates":[[[-2.2034061,53.0685871],[-2.2035223,53.0685756],[-2.2036155,53.0685835],[-2.2036715,53.0685962],[-2.2037654,53.0686356],[-2.2038438,53.0687051],[-2.2038701,53.0687726],[-2.2038615,53.0688342],[-2.2038415,53.0688704],[-2.2038153,53.0688998],[-2.2037744,53.0689311],[-2.2036758,53.0689748],[-2.2035995,53.0689912],[-2.2035339,53.0689964],[-2.2034729,53.0689947],[-2.2033904,53.0689815],[-2.2032811,53.0689398],[-2.2032357,53.0689087],[-2.203181,53.0688381],[-2.2031702,53.0687884],[-2.2031747,53.0687522],[-2.2031917,53.0687134],[-2.2032209,53.068677],[-2.2033019,53.0686216],[-2.2034061,53.0685871]]]}},
{"type":"Feature","properties":{"highway":"cycle_lane_on_street","name":"James Brindley Way","category":"Cycle lane on street"},"geometry":{"type":"MultiLineString","coordinates":[[[-2.2034729,53.0689947],[-2.2031392,53.0690351],[-2.2028428,53.0690712],[-2.2025304,53.06911]]]}},
{"type":"Feature","properties":{"highway":"cycle_lane_on_street","name":"James Brindley Way","category":"Cycle lane on street"},"geometry":{"type":"MultiLineString","coordinates":[[[-2.2036715,53.0685962],[-2.2045137,53.0686491]]]}},
{"type":"Feature","properties":{"highway":"cycle_lane_on_street","name":"James Brindley Way","category":"Cycle lane on street"},"geometry":{"type":"MultiLineString","coordinates":[[[-2.2025304,53.06911],[-2.2028036,53.0689731],[-2.203027,53.0688445],[-2.2031747,53.0687522]]]}},
{"type":"Feature","properties":{"highway":"cycle_lane_on_street","name":"Biddulph Road","category":"Cycle lane on street"},"geometry":{"type":"MultiLineString","coordinates":[[[-2.195045,53.0716234],[-2.1948341,53.0717153],[-2.1943914,53.0719081],[-2.1941914,53.0719952],[-2.1940502,53.0720778],[-2.1939466,53.0721385],[-2.1938664,53.0721913],[-2.1937321,53.0722797],[-2.1935804,53.0723974],[-2.1933556,53.0725719],[-2.1932482,53.0726553],[-2.1931734,53.0727261],[-2.1931125,53.0727837],[-2.1930579,53.0728451],[-2.1927356,53.073222],[-2.1927124,53.0732491],[-2.1925997,53.0734303],[-2.1924946,53.0735992],[-2.1924349,53.0737329],[-2.19237,53.073878],[-2.1922211,53.0741933],[-2.1920774,53.0744671],[-2.1917135,53.0748363],[-2.1911924,53.0751475],[-2.1905036,53.0754175],[-2.1898064,53.0755808],[-2.1894322,53.0756646],[-2.189277,53.0757016],[-2.1885608,53.0758722],[-2.1879531,53.0760648],[-2.1875504,53.0762412],[-2.1872066,53.0764861]]]}},
{"type":"Feature","properties":{"highway":"cycle_lane_on_street","name":"James Brindley Way (South)","category":"Cycle lane on street"},"geometry":{"type":"MultiLineString","coordinates":[[[-2.2019532,53.0671765],[-2.2019954,53.0671967],[-2.2020542,53.067232],[-2.2027029,53.0677348],[-2.2029892,53.0681323]]]}},
{"type":"Feature","properties":{"highway":"cycle_lane_on_street","name":"James Brindley Way (South)","category":"Cycle lane on street"},"geometry":{"type":"MultiLineString","coordinates":[[[-2.2029892,53.0681323],[-2.2032135,53.0683662],[-2.2033808,53.0684842],[-2.2036155,53.0685835]]]}},
{"type":"Feature","properties":{"highway":"cycle_lane_on_street","name":"Carsington Drive","category":"Cycle lane on street"},"geometry":{"type":"MultiLineString","coordinates":[[[-2.2038474,53.0692684],[-2.2036963,53.0691237],[-2.2036104,53.0690624],[-2.2035339,53.0689964]]]}},
{"type":"Feature","properties":{"highway":"cycle_lane_on_street","name":"James Brindley Way","category":"Cycle lane on street"},"geometry":{"type":"MultiLineString","coordinates":[[[-2.204973,53.0686566],[-2.2045137,53.0686491]]]}}
]
}
