{
"type": "FeatureCollection",
"name": "CHEEA_741_cycling",
"crs": { "type": "name", "properties": { "name": "urn:ogc:def:crs:OGC:1.3:CRS84" } },
"features": [
{"type":"Feature","properties":{"highway":"bridleway","name":"Pymgate Lane","category":"Bridleway"},"geometry":{"type":"MultiLineString","coordinates":[[[-2.2384697,53.3790395],[-2.2376504,53.3793348],[-2.23705,53.3794646]]]}},
{"type":"Feature","properties":{"highway":"cycleway","name":null,"category":"Dedicated cycleway"},"geometry":{"type":"MultiLineString","coordinates":[[[-2.2475288,53.3723591],[-2.2472954,53.372312],[-2.2467808,53.3721415],[-2.2464576,53.3720538],[-2.2462735,53.3720039],[-2.2457828,53.3718969],[-2.2455394,53.3718524],[-2.2452391,53.3717974],[-2.2446862,53.3717167],[-2.2444303,53.3716919],[-2.2441175,53.3716617],[-2.2438427,53.3716291],[-2.2437179,53.3716143],[-2.2426031,53.371514],[-2.241936,53.3714348],[-2.2413768,53.3713324],[-2.2406778,53.3712131],[-2.2404477,53.3711656]]]}},
{"type":"Feature","properties":{"highway":"cycleway","name":null,"category":"Dedicated cycleway"},"geometry":{"type":"MultiLineString","coordinates":[[[-2.2575668,53.3761254],[-2.2573562,53.376093],[-2.2567599,53.3759913],[-2.2564714,53.375966],[-2.2549478,53.3756736],[-2.2545408,53.3755764],[-2.2545046,53.375564],[-2.2539002,53.3753569],[-2.2533464,53.3751289],[-2.2529199,53.3749198],[-2.252759,53.3748351],[-2.2517053,53.3742799],[-2.2511772,53.3740268],[-2.2511038,53.3739904],[-2.251066,53.3739716],[-2.2509768,53.3739274],[-2.2507541,53.373815],[-2.2503805,53.3736264],[-2.2498686,53.373368],[-2.2498257,53.3733454],[-2.2493377,53.3731212],[-2.2491871,53.3730408],[-2.2493085,53.3729376]]]}},
{"type":"Feature","properties":{"highway":"cycleway","name":null,"category":"Dedicated cycleway"},"geometry":{"type":"MultiLineString","coordinates":[[[-2.2523555,53.373957],[-2.2522308,53.3739733],[-2.2520779,53.3739893],[-2.2518553,53.3740133],[-2.2517024,53.3740213],[-2.2515388,53.3740229],[-2.2511772,53.3740268]]]}},
{"type":"Feature","properties":{"highway":"cycleway","name":null,"category":"Dedicated cycleway"},"geometry":{"type":"MultiLineString","coordinates":[[[-2.2526099,53.3731686],[-2.2529816,53.373205],[-2.2538062,53.3732779],[-2.2539562,53.3732717],[-2.2540501,53.3732541],[-2.2541252,53.3732141],[-2.2542647,53.373086],[-2.2545055,53.3729035],[-2.2545624,53.3728604],[-2.2547287,53.3728028],[-2.2555602,53.3725292],[-2.2555814,53.372524],[-2.2560649,53.372405],[-2.2561262,53.3723899],[-2.2561778,53.3723787],[-2.2563315,53.3723415],[-2.2574001,53.3721156]]]}},
{"type":"Feature","properties":{"highway":"cycleway","name":null,"category":"Dedicated cycleway"},"geometry":{"type":"MultiLineString","coordinates":[[[-2.2545046,53.375564],[-2.254464,53.3756086],[-2.2544462,53.3756346],[-2.2543853,53.3757091]]]}},
{"type":"Feature","properties":{"highway":"cycleway","name":null,"category":"Dedicated cycleway"},"geometry":{"type":"MultiLineString","coordinates":[[[-2.2496443,53.3737285],[-2.24961,53.3737052],[-2.2496038,53.3736904],[-2.2496131,53.3736792],[-2.2496837,53.3736269],[-2.2497015,53.3736136],[-2.2497023,53.3735954],[-2.2496866,53.3735794],[-2.2496115,53.3735409],[-2.2496063,53.3735294],[-2.2496009,53.3735176],[-2.2496026,53.3735022],[-2.2496135,53.3734896],[-2.2496683,53.373456],[-2.2497466,53.3733999],[-2.2497763,53.3733788],[-2.2498257,53.3733454]]]}},
{"type":"Feature","properties":{"highway":"path","name":null,"category":"Shared path"},"geometry":{"type":"MultiLineString","coordinates":[[[-2.2503805,53.3736264],[-2.2507306,53.3734234],[-2.2508057,53.3732554],[-2.2508352,53.3729578],[-2.250752,53.3726041],[-2.2507704,53.3722499]]]}},
{"type":"Feature","properties":{"highway":"cycleway","name":null,"category":"Dedicated cycleway"},"geometry":{"type":"MultiLineString","coordinates":[[[-2.2404477,53.3711656],[-2.2403515,53.3713397],[-2.2402857,53.3714526],[-2.240112,53.3714427]]]}},
{"type":"Feature","properties":{"highway":"path","name":null,"category":"Shared path"},"geometry":{"type":"MultiLineString","coordinates":[[[-2.2390364,53.3722783],[-2.2391825,53.3723168]]]}},
{"type":"Feature","properties":{"highway":"path","name":null,"category":"Shared path"},"geometry":{"type":"MultiLineString","coordinates":[[[-2.2389029,53.372452],[-2.2389442,53.3724636],[-2.2390607,53.372496]]]}},
{"type":"Feature","properties":{"highway":"cycleway","name":null,"category":"Dedicated cycleway"},"geometry":{"type":"MultiLineString","coordinates":[[[-2.2439261,53.3717985],[-2.2439414,53.3717308],[-2.2438427,53.3716291]]]}},
{"type":"Feature","properties":{"highway":"cycleway","name":null,"category":"Dedicated cycleway"},"geometry":{"type":"MultiLineString","coordinates":[[[-2.2439414,53.3717308],[-2.2441175,53.3716617]]]}},
{"type":"Feature","properties":{"highway":"cycleway","name":null,"category":"Dedicated cycleway"},"geometry":{"type":"MultiLineString","coordinates":[[[-2.2455394,53.3718524],[-2.2453636,53.3719171],[-2.245299,53.3719449],[-2.2452633,53.3719464],[-2.245149,53.371923]]]}},
{"type":"Feature","properties":{"highway":"cycleway","name":null,"category":"Dedicated cycleway"},"geometry":{"type":"MultiLineString","coordinates":[[[-2.2489491,53.3727697],[-2.2487928,53.372831],[-2.2482186,53.3726174],[-2.2480906,53.3725698],[-2.2480036,53.3725359],[-2.2477666,53.3724434]]]}},
{"type":"Feature","properties":{"highway":"cycleway","name":null,"category":"Dedicated cycleway"},"geometry":{"type":"MultiLineString","coordinates":[[[-2.2477666,53.3724434],[-2.247652,53.3724042],[-2.2475288,53.3723591]]]}},
{"type":"Feature","properties":{"highway":"path","name":null,"category":"Shared path"},"geometry":{"type":"MultiLineString","coordinates":[[[-2.2473743,53.3725336],[-2.2472839,53.3726295]]]}},
{"type":"Feature","properties":{"highway":"cycleway","name":null,"category":"Dedicated cycleway"},"geometry":{"type":"MultiLineString","coordinates":[[[-2.2480036,53.3725359],[-2.2479723,53.3726518],[-2.2479125,53.3727083]]]}},
{"type":"Feature","properties":{"highway":"cycleway","name":null,"category":"Dedicated cycleway"},"geometry":{"type":"MultiLineString","coordinates":[[[-2.2479723,53.3726518],[-2.2481312,53.3726945],[-2.2482186,53.3726174]]]}},
{"type":"Feature","properties":{"highway":"cycleway","name":null,"category":"Dedicated cycleway"},"geometry":{"type":"MultiLineString","coordinates":[[[-2.2481312,53.3726945],[-2.2483309,53.372792],[-2.2482777,53.3728422]]]}},
{"type":"Feature","properties":{"highway":"cycleway","name":null,"category":"Dedicated cycleway"},"geometry":{"type":"MultiLineString","coordinates":[[[-2.245149,53.371923],[-2.2451336,53.3719637]]]}},
{"type":"Feature","properties":{"highway":"track","name":null,"category":"Track"},"geometry":{"type":"MultiLineString","coordinates":[[[-2.2418378,53.3726945],[-2.2418635,53.3728342],[-2.2418918,53.3730177],[-2.2419521,53.3732386],[-2.2420192,53.3733234],[-2.2422136,53.3734586],[-2.242455,53.3736354],[-2.2425824,53.3738218],[-2.2426897,53.3740491],[-2.2426938,53.3742803],[-2.242679,53.3743075],[-2.2426508,53.3743355],[-2.2426039,53.3743771],[-2.2424671,53.3745483],[-2.2424228,53.3745883],[-2.2423759,53.3746251],[-2.2423317,53.3746563],[-2.2422606,53.3747331],[-2.2421747,53.3748107],[-2.2421359,53.3748547],[-2.242109,53.3749059],[-2.242101,53.3749628],[-2.2420929,53.3750164],[-2.2420768,53.3750964],[-2.2420567,53.3752028],[-2.242054,53.375286],[-2.2420286,53.3753916],[-2.242038,53.3754596],[-2.2420728,53.3755188],[-2.2420916,53.3755452],[-2.2421385,53.375586],[-2.2421841,53.3756372],[-2.2421774,53.3756956],[-2.2421171,53.3757556],[-2.2420527,53.375802],[-2.2420219,53.3758436],[-2.2419977,53.3759028],[-2.241995,53.3759476],[-2.2420031,53.375998],[-2.2420138,53.3760532],[-2.2420219,53.3761372],[-2.242038,53.3761788],[-2.2420607,53.3762404],[-2.2420835,53.3763292],[-2.2420929,53.3764237],[-2.242097,53.3765189],[-2.2420956,53.3765885],[-2.2421037,53.3766645],[-2.2421131,53.3767357],[-2.2421037,53.3768101],[-2.2421211,53.3769077],[-2.2421318,53.3770013],[-2.2421399,53.3770525],[-2.2421466,53.3771381],[-2.2421601,53.3772263],[-2.2421825,53.3773062]]]}},
{"type":"Feature","properties":{"highway":"track","name":null,"category":"Track"},"geometry":{"type":"MultiLineString","coordinates":[[[-2.2423154,53.3772905],[-2.2423432,53.3773846],[-2.2423824,53.3775677],[-2.242471,53.3778365],[-2.242538,53.3779869]]]}},
{"type":"Feature","properties":{"highway":"track","name":null,"category":"Track"},"geometry":{"type":"MultiLineString","coordinates":[[[-2.2401686,53.3770743],[-2.2400988,53.3771661],[-2.2400586,53.3772135],[-2.2400278,53.3772279],[-2.2399916,53.3772271]]]}},
{"type":"Feature","properties":{"highway":"cycleway","name":null,"category":"Dedicated cycleway"},"geometry":{"type":"MultiLineString","coordinates":[[[-2.2491722,53.3728725],[-2.2491049,53.3728433]]]}},
{"type":"Feature","properties":{"highway":"cycleway","name":null,"category":"Dedicated cycleway"},"geometry":{"type":"MultiLineString","coordinates":[[[-2.2491191,53.3727999],[-2.2490633,53.3727895]]]}},
{"type":"Feature","properties":{"highway":"cycleway","name":null,"category":"Dedicated cycleway"},"geometry":{"type":"MultiLineString","coordinates":[[[-2.2493085,53.3729376],[-2.2492186,53.3728934]]]}},
{"type":"Feature","properties":{"highway":"cycleway","name":null,"category":"Dedicated cycleway"},"geometry":{"type":"MultiLineString","coordinates":[[[-2.2491049,53.3728433],[-2.2491191,53.3727999]]]}},
{"type":"Feature","properties":{"highway":"cycleway","name":null,"category":"Dedicated cycleway"},"geometry":{"type":"MultiLineString","coordinates":[[[-2.2492186,53.3728934],[-2.2492012,53.3728857]]]}},
{"type":"Feature","properties":{"highway":"path","name":null,"category":"Shared path"},"geometry":{"type":"MultiLineString","coordinates":[[[-2.252759,53.3748351],[-2.2529244,53.3746229]]]}},
{"type":"Feature","properties":{"highway":"path","name":null,"category":"Shared path"},"geometry":{"type":"MultiLineString","coordinates":[[[-2.2530995,53.3747406],[-2.252967,53.3747949]]]}},
{"type":"Feature","properties":{"highway":"path","name":null,"category":"Shared path"},"geometry":{"type":"MultiLineString","coordinates":[[[-2.2486208,53.3731384],[-2.2485055,53.3732263],[-2.2488231,53.3733681],[-2.2488986,53.3733668],[-2.2489731,53.3732963]]]}},
{"type":"Feature","properties":{"highway":"path","name":null,"category":"Shared path"},"geometry":{"type":"MultiLineString","coordinates":[[[-2.2488986,53.3733668],[-2.2494935,53.3736377],[-2.2495675,53.3736714]]]}},
{"type":"Feature","properties":{"highway":"path","name":null,"category":"Shared path"},"geometry":{"type":"MultiLineString","coordinates":[[[-2.2494935,53.3736377],[-2.2491622,53.3738434]]]}},
{"type":"Feature","properties":{"highway":"path","name":null,"category":"Shared path"},"geometry":{"type":"MultiLineString","coordinates":[[[-2.2478894,53.3728492],[-2.2479784,53.372819],[-2.2480332,53.3727542]]]}},
{"type":"Feature","properties":{"highway":"path","name":null,"category":"Shared path"},"geometry":{"type":"MultiLineString","coordinates":[[[-2.2473908,53.3724406],[-2.2472954,53.372312]]]}},
{"type":"Feature","properties":{"highway":"path","name":null,"category":"Shared path"},"geometry":{"type":"MultiLineString","coordinates":[[[-2.2449359,53.3720839],[-2.2448112,53.3719749],[-2.2446973,53.3719579],[-2.2446234,53.3719469],[-2.2445021,53.3720074]]]}},
{"type":"Feature","properties":{"highway":"path","name":null,"category":"Shared path"},"geometry":{"type":"MultiLineString","coordinates":[[[-2.2446973,53.3719579],[-2.2447115,53.3719045]]]}},
{"type":"Feature","properties":{"highway":"path","name":null,"category":"Shared path"},"geometry":{"type":"MultiLineString","coordinates":[[[-2.2494926,53.3800599],[-2.2493011,53.379872],[-2.2494132,53.3798179],[-2.2495983,53.3799824],[-2.2496054,53.3800427]]]}},
{"type":"Feature","properties":{"highway":"path","name":null,"category":"Shared path"},"geometry":{"type":"MultiLineString","coordinates":[[[-2.2451673,53.3794167],[-2.245574,53.3794351],[-2.2455512,53.3795439],[-2.245149,53.3795369]]]}},
{"type":"Feature","properties":{"highway":"cycleway","name":null,"category":"Dedicated cycleway"},"geometry":{"type":"MultiLineString","coordinates":[[[-2.2490113,53.3727797],[-2.2489491,53.3727697]]]}},
{"type":"Feature","properties":{"highway":"cycleway","name":null,"category":"Dedicated cycleway"},"geometry":{"type":"MultiLineString","coordinates":[[[-2.2490633,53.3727895],[-2.2490113,53.3727797]]]}}
]
}
