{
"type": "FeatureCollection",
"name": "CHEEA_245_cycling",
"crs": { "type": "name", "properties": { "name": "urn:ogc:def:crs:OGC:1.3:CRS84" } },
"features": [
{"type":"Feature","properties":{"highway":"cycleway","name":null,"category":"Dedicated cycleway"},"geometry":{"type":"MultiLineString","coordinates":[[[-2.7167082,53.3728616],[-2.7160236,53.3728564]]]}},
{"type":"Feature","properties":{"highway":"cycleway","name":null,"category":"Dedicated cycleway"},"geometry":{"type":"MultiLineString","coordinates":[[[-2.716171,53.3743964],[-2.7167756,53.3748969],[-2.7168958,53.3750051],[-2.7169561,53.3750759],[-2.7169912,53.3751466],[-2.7169983,53.3752733],[-2.7169867,53.3755875],[-2.7169638,53.3757937],[-2.7169215,53.3760054],[-2.716826,53.3763683],[-2.7167348,53.3765995],[-2.7166512,53.3767729],[-2.7164317,53.3769634],[-2.716379,53.3770493],[-2.7163654,53.3771284],[-2.7163915,53.3772256],[-2.7163791,53.3772907],[-2.7162151,53.3775687],[-2.7160708,53.377888],[-2.7160708,53.3780236],[-2.7160779,53.3781403],[-2.7160459,53.3782891],[-2.7159357,53.3784269],[-2.7157437,53.3785559],[-2.7155245,53.3786345],[-2.715334,53.3786734],[-2.7152122,53.378686],[-2.7150322,53.3786974],[-2.7149289,53.3787613]]]}},
{"type":"Feature","properties":{"highway":"cycleway","name":null,"category":"Dedicated cycleway"},"geometry":{"type":"MultiLineString","coordinates":[[[-2.7164317,53.3769634],[-2.7158117,53.3766951]]]}},
{"type":"Feature","properties":{"highway":"cycleway","name":null,"category":"Dedicated cycleway"},"geometry":{"type":"MultiLineString","coordinates":[[[-2.7160779,53.3781403],[-2.716162,53.3782555],[-2.7161457,53.3785173],[-2.7161036,53.3786229],[-2.7160989,53.3787002],[-2.71612,53.3789995],[-2.716126,53.3791476],[-2.7165074,53.3791012],[-2.7166568,53.378909],[-2.7168662,53.3787162],[-2.7170065,53.3786083],[-2.7170756,53.3785998],[-2.7171366,53.3786228],[-2.7169234,53.3790504]]]}},
{"type":"Feature","properties":{"highway":"cycleway","name":null,"category":"Dedicated cycleway"},"geometry":{"type":"MultiLineString","coordinates":[[[-2.7200943,53.3772474],[-2.7199739,53.3773403],[-2.7199085,53.3773498],[-2.7199014,53.3776137],[-2.7185129,53.3777245],[-2.718055,53.377756],[-2.7179467,53.3781883],[-2.7179343,53.3786492],[-2.7178941,53.3789738],[-2.717986,53.3789951],[-2.7180559,53.3790209],[-2.7180976,53.3790531],[-2.7181156,53.3790845],[-2.718122,53.3791183],[-2.7181142,53.3791537],[-2.7181018,53.3791918],[-2.7180142,53.3793505]]]}},
{"type":"Feature","properties":{"highway":"cycleway","name":null,"category":"Dedicated cycleway"},"geometry":{"type":"MultiLineString","coordinates":[[[-2.7185129,53.3777245],[-2.7183369,53.3775819],[-2.7182343,53.377512],[-2.7182119,53.3774967],[-2.7181354,53.3774823]]]}},
{"type":"Feature","properties":{"highway":"cycleway","name":null,"category":"Dedicated cycleway"},"geometry":{"type":"MultiLineString","coordinates":[[[-2.7183369,53.3775819],[-2.7180976,53.3777109],[-2.718055,53.377756]]]}},
{"type":"Feature","properties":{"highway":"cycleway","name":null,"category":"Dedicated cycleway"},"geometry":{"type":"MultiLineString","coordinates":[[[-2.718874,53.370418],[-2.7193207,53.3705099]]]}},
{"type":"Feature","properties":{"highway":"cycleway","name":null,"category":"Dedicated cycleway"},"geometry":{"type":"MultiLineString","coordinates":[[[-2.7181354,53.3774823],[-2.7171546,53.3774388]]]}},
{"type":"Feature","properties":{"highway":"cycleway","name":null,"category":"Dedicated cycleway"},"geometry":{"type":"MultiLineString","coordinates":[[[-2.7171546,53.3774388],[-2.7170593,53.3774218],[-2.7167496,53.3773031],[-2.7166241,53.3772337],[-2.7165701,53.3771919],[-2.7164853,53.3770276],[-2.7164317,53.3769634]]]}},
{"type":"Feature","properties":{"highway":"cycleway","name":null,"category":"Dedicated cycleway"},"geometry":{"type":"MultiLineString","coordinates":[[[-2.7169234,53.3790504],[-2.7172392,53.3790642],[-2.7176368,53.3790818],[-2.7179434,53.3790988]]]}},
{"type":"Feature","properties":{"highway":"cycleway","name":null,"category":"Dedicated cycleway"},"geometry":{"type":"MultiLineString","coordinates":[[[-2.7179434,53.3790988],[-2.7179095,53.379339],[-2.7180142,53.3793505],[-2.7192932,53.3794834],[-2.7201966,53.3795773],[-2.720375,53.3795958]]]}},
{"type":"Feature","properties":{"highway":"path","name":null,"category":"Shared path"},"geometry":{"type":"MultiLineString","coordinates":[[[-2.7194996,53.3734331],[-2.7194558,53.3733677]]]}},
{"type":"Feature","properties":{"highway":"path","name":null,"category":"Shared path"},"geometry":{"type":"MultiLineString","coordinates":[[[-2.7173404,53.3900568],[-2.7170539,53.3895836],[-2.7169701,53.3895863],[-2.7164646,53.3896434],[-2.7157519,53.3891165],[-2.7152709,53.3887494],[-2.7151952,53.3886948],[-2.7147312,53.3885896]]]}},
{"type":"Feature","properties":{"highway":"cycleway","name":null,"category":"Dedicated cycleway"},"geometry":{"type":"MultiLineString","coordinates":[[[-2.7172819,53.3658318],[-2.7172785,53.3658689],[-2.7172957,53.3660532],[-2.7173379,53.3662422],[-2.7174834,53.3663884]]]}},
{"type":"Feature","properties":{"highway":"cycleway","name":null,"category":"Dedicated cycleway"},"geometry":{"type":"MultiLineString","coordinates":[[[-2.7167084,53.3656062],[-2.7166112,53.3657088],[-2.716571,53.3657511],[-2.7165231,53.3657749],[-2.7163868,53.3658427]]]}},
{"type":"Feature","properties":{"highway":"cycleway","name":null,"category":"Dedicated cycleway"},"geometry":{"type":"MultiLineString","coordinates":[[[-2.7172957,53.3660532],[-2.7171682,53.3660773],[-2.7171054,53.3660892],[-2.7170519,53.3661232],[-2.7169452,53.3661909]]]}},
{"type":"Feature","properties":{"highway":"cycleway","name":null,"category":"Dedicated cycleway"},"geometry":{"type":"MultiLineString","coordinates":[[[-2.718874,53.370418],[-2.7187143,53.3706827],[-2.7186629,53.370705],[-2.7186045,53.3706953],[-2.7185718,53.3706535],[-2.7186956,53.3704333],[-2.7185743,53.370401]]]}},
{"type":"Feature","properties":{"highway":"cycleway","name":null,"category":"Dedicated cycleway"},"geometry":{"type":"MultiLineString","coordinates":[[[-2.7193207,53.3705099],[-2.7195606,53.3701235],[-2.7196114,53.3700895],[-2.7196805,53.3701053],[-2.7197008,53.370138],[-2.7196317,53.3702593],[-2.7196757,53.3703106],[-2.7198548,53.3702971],[-2.7199302,53.3703103],[-2.7200414,53.3702631],[-2.7201845,53.3702023],[-2.7202858,53.3701583],[-2.720501,53.3700647],[-2.720705,53.3699889],[-2.7208497,53.3699351],[-2.7209409,53.3698999],[-2.7221693,53.3698239]]]}},
{"type":"Feature","properties":{"highway":"cycleway","name":null,"category":"Dedicated cycleway"},"geometry":{"type":"MultiLineString","coordinates":[[[-2.7199302,53.3703103],[-2.7199082,53.3703612],[-2.7197164,53.3705398],[-2.7198411,53.3706207],[-2.7198911,53.3706267]]]}},
{"type":"Feature","properties":{"highway":"cycleway","name":null,"category":"Dedicated cycleway"},"geometry":{"type":"MultiLineString","coordinates":[[[-2.7202858,53.3701583],[-2.7203045,53.370229],[-2.7202601,53.3702887],[-2.7201338,53.3702884],[-2.7200414,53.3702631]]]}},
{"type":"Feature","properties":{"highway":"cycleway","name":null,"category":"Dedicated cycleway"},"geometry":{"type":"MultiLineString","coordinates":[[[-2.7208933,53.3701165],[-2.720705,53.3699889]]]}},
{"type":"Feature","properties":{"highway":"cycleway","name":null,"category":"Dedicated cycleway"},"geometry":{"type":"MultiLineString","coordinates":[[[-2.7221693,53.3698239],[-2.7222731,53.3698139],[-2.7223664,53.3698208],[-2.7224253,53.369849],[-2.7224903,53.3698762],[-2.7228947,53.3696777],[-2.7230999,53.3695943],[-2.7233574,53.3695594],[-2.7233356,53.3695069]]]}},
{"type":"Feature","properties":{"highway":"cycleway","name":null,"category":"Dedicated cycleway"},"geometry":{"type":"MultiLineString","coordinates":[[[-2.7165635,53.3724886],[-2.7165931,53.3725584],[-2.7167082,53.3728616],[-2.7167222,53.3729145],[-2.7167279,53.3729709],[-2.7167014,53.3730329],[-2.7161195,53.3738667],[-2.7161691,53.3741021],[-2.716171,53.3743964],[-2.7162402,53.3749958],[-2.7162278,53.3753261],[-2.7160734,53.3753966]]]}},
{"type":"Feature","properties":{"highway":"path","name":null,"category":"Shared path"},"geometry":{"type":"MultiLineString","coordinates":[[[-2.7156607,53.3738312],[-2.7159061,53.3738483],[-2.7161195,53.3738667]]]}},
{"type":"Feature","properties":{"highway":"cycleway","name":null,"category":"Dedicated cycleway"},"geometry":{"type":"MultiLineString","coordinates":[[[-2.7140797,53.3848821],[-2.7141357,53.3848606],[-2.7141747,53.384845],[-2.7142331,53.3848286]]]}},
{"type":"Feature","properties":{"highway":"cycleway","name":"St Peters Walk","category":"Dedicated cycleway"},"geometry":{"type":"MultiLineString","coordinates":[[[-2.7246695,53.3782231],[-2.724464,53.3782441],[-2.7236115,53.3783428],[-2.7219274,53.3785244],[-2.7214905,53.3785727]]]}},
{"type":"Feature","properties":{"highway":"track","name":null,"category":"Track"},"geometry":{"type":"MultiLineString","coordinates":[[[-2.7191737,53.3824555],[-2.7198818,53.3833761],[-2.7203094,53.3839357],[-2.7203246,53.3840539],[-2.7203413,53.384147]]]}},
{"type":"Feature","properties":{"highway":"path","name":null,"category":"Shared path"},"geometry":{"type":"MultiLineString","coordinates":[[[-2.7091475,53.371784],[-2.7089654,53.3719391],[-2.7086239,53.372211]]]}},
{"type":"Feature","properties":{"highway":"path","name":null,"category":"Shared path"},"geometry":{"type":"MultiLineString","coordinates":[[[-2.7188487,53.372092],[-2.7189078,53.3720103],[-2.718953,53.371852],[-2.7189749,53.3717752]]]}},
{"type":"Feature","properties":{"highway":"path","name":null,"category":"Shared path"},"geometry":{"type":"MultiLineString","coordinates":[[[-2.7218913,53.3720174],[-2.7218759,53.3719656],[-2.7216372,53.3716839],[-2.721538,53.3716887],[-2.7214451,53.3715762]]]}},
{"type":"Feature","properties":{"highway":"path","name":null,"category":"Shared path"},"geometry":{"type":"MultiLineString","coordinates":[[[-2.7293147,53.3718016],[-2.7286887,53.3718252],[-2.7282494,53.3718418],[-2.7275031,53.3718699],[-2.7272248,53.3718804],[-2.7269355,53.3717737],[-2.7263959,53.3715745],[-2.7258518,53.3713737],[-2.72506,53.3710815],[-2.7242717,53.3707905]]]}},
{"type":"Feature","properties":{"highway":"path","name":null,"category":"Shared path"},"geometry":{"type":"MultiLineString","coordinates":[[[-2.7144893,53.3768791],[-2.7145307,53.3770107],[-2.714551,53.3770659],[-2.7146244,53.3772651],[-2.7146262,53.3773009],[-2.7146062,53.3773239],[-2.7145664,53.3773445],[-2.7145106,53.3773603],[-2.7144805,53.3773804],[-2.7144681,53.3774078],[-2.7144803,53.3777345],[-2.7144663,53.3777658],[-2.7144406,53.3777895],[-2.7144009,53.3778028],[-2.7143402,53.3778083],[-2.7141427,53.3778637]]]}},
{"type":"Feature","properties":{"highway":"path","name":null,"category":"Shared path"},"geometry":{"type":"MultiLineString","coordinates":[[[-2.7143206,53.3778676],[-2.7144753,53.3778718],[-2.7156684,53.3778525],[-2.7157559,53.3778555]]]}},
{"type":"Feature","properties":{"highway":"path","name":null,"category":"Shared path"},"geometry":{"type":"MultiLineString","coordinates":[[[-2.7162151,53.3775687],[-2.7158271,53.3778193],[-2.7157559,53.3778555],[-2.7158322,53.3778851],[-2.7158912,53.3779077],[-2.715936,53.3779376],[-2.7159827,53.3779849],[-2.7160434,53.378088],[-2.7160779,53.3781403]]]}},
{"type":"Feature","properties":{"highway":"cycleway","name":null,"category":"Dedicated cycleway"},"geometry":{"type":"MultiLineString","coordinates":[[[-2.7217586,53.3648528],[-2.721765,53.3648715],[-2.7217598,53.3649065],[-2.7217368,53.364963],[-2.7215349,53.3654122],[-2.7214466,53.3654477],[-2.7211749,53.3655044],[-2.7207927,53.365689],[-2.7206167,53.3657518]]]}},
{"type":"Feature","properties":{"highway":"path","name":null,"category":"Shared path"},"geometry":{"type":"MultiLineString","coordinates":[[[-2.7179434,53.3790988],[-2.7178821,53.3789961],[-2.7178941,53.3789738]]]}},
{"type":"Feature","properties":{"highway":"cycleway","name":null,"category":"Dedicated cycleway"},"geometry":{"type":"MultiLineString","coordinates":[[[-2.7158904,53.3653136],[-2.715993,53.3653841],[-2.7167084,53.3656062],[-2.7170193,53.3657011]]]}},
{"type":"Feature","properties":{"highway":"cycleway","name":null,"category":"Dedicated cycleway"},"geometry":{"type":"MultiLineString","coordinates":[[[-2.7170193,53.3657011],[-2.7170764,53.3657389],[-2.7171251,53.3657711],[-2.7171908,53.3657965],[-2.7172819,53.3658318]]]}},
{"type":"Feature","properties":{"highway":"cycleway","name":null,"category":"Dedicated cycleway"},"geometry":{"type":"MultiLineString","coordinates":[[[-2.7174834,53.3663884],[-2.7174219,53.3664179],[-2.7173613,53.3664471]]]}},
{"type":"Feature","properties":{"highway":"cycleway","name":null,"category":"Dedicated cycleway"},"geometry":{"type":"MultiLineString","coordinates":[[[-2.7173613,53.3664471],[-2.7169452,53.3661909],[-2.7168743,53.3661475],[-2.7167787,53.3661354],[-2.716658,53.366138]]]}},
{"type":"Feature","properties":{"highway":"cycleway","name":null,"category":"Dedicated cycleway"},"geometry":{"type":"MultiLineString","coordinates":[[[-2.716658,53.366138],[-2.716622,53.3660979],[-2.7165907,53.3660631],[-2.7165396,53.3660335],[-2.7164789,53.3659985]]]}},
{"type":"Feature","properties":{"highway":"cycleway","name":null,"category":"Dedicated cycleway"},"geometry":{"type":"MultiLineString","coordinates":[[[-2.7172819,53.3658318],[-2.7173063,53.3657859],[-2.717346,53.365741],[-2.7174344,53.3656652],[-2.7175635,53.3655821],[-2.7177159,53.3655033],[-2.7179896,53.3653917],[-2.7181554,53.365327],[-2.7184349,53.3652312],[-2.7186691,53.3651604],[-2.718947,53.3650871],[-2.7191522,53.3650398],[-2.7193856,53.3649942],[-2.719747,53.3649392],[-2.7199439,53.3649151],[-2.7207471,53.3648328],[-2.7208171,53.3648286],[-2.7208883,53.3648342],[-2.7209365,53.3648438],[-2.7209772,53.3648581],[-2.7210126,53.3648745]]]}},
{"type":"Feature","properties":{"highway":"cycleway","name":null,"category":"Dedicated cycleway"},"geometry":{"type":"MultiLineString","coordinates":[[[-2.7164789,53.3659985],[-2.7165052,53.3659616],[-2.7165084,53.3659426],[-2.7164921,53.3659216],[-2.7163868,53.3658427],[-2.7158213,53.3653785],[-2.7157367,53.3653661]]]}},
{"type":"Feature","properties":{"highway":"cycleway","name":null,"category":"Dedicated cycleway"},"geometry":{"type":"MultiLineString","coordinates":[[[-2.7157367,53.3653661],[-2.7156725,53.3653134],[-2.715609,53.3652613]]]}},
{"type":"Feature","properties":{"highway":"path","name":null,"category":"Shared path"},"geometry":{"type":"MultiLineString","coordinates":[[[-2.7223127,53.3670746],[-2.7220675,53.3669798]]]}},
{"type":"Feature","properties":{"highway":"cycleway","name":null,"category":"Dedicated cycleway"},"geometry":{"type":"MultiLineString","coordinates":[[[-2.715609,53.3652613],[-2.715268,53.3649754],[-2.7152204,53.3648941],[-2.7150651,53.3648412],[-2.7144268,53.3643006]]]}},
{"type":"Feature","properties":{"highway":"path","name":null,"category":"Shared path"},"geometry":{"type":"MultiLineString","coordinates":[[[-2.7109009,53.3730319],[-2.7109198,53.3730448],[-2.7109489,53.373089],[-2.7109659,53.3731046],[-2.7109887,53.3731157],[-2.7110184,53.3731244],[-2.7110675,53.3731349],[-2.7111206,53.3731446],[-2.7111509,53.3731547],[-2.711172,53.3731662],[-2.7111982,53.3731857],[-2.7112233,53.3732091],[-2.7112408,53.37323],[-2.711256,53.3732526],[-2.7112642,53.3732707],[-2.7112703,53.3732877],[-2.7112723,53.3733062],[-2.7112739,53.3733437],[-2.7112789,53.3733577],[-2.7112874,53.3733699],[-2.7113008,53.3733804],[-2.711317,53.3733894],[-2.7113351,53.3733958],[-2.7113586,53.3734016],[-2.7114159,53.3734095],[-2.7115841,53.3734293],[-2.7116211,53.3734394],[-2.7116553,53.3734634]]]}},
{"type":"Feature","properties":{"highway":"path","name":null,"category":"Shared path"},"geometry":{"type":"MultiLineString","coordinates":[[[-2.7148505,53.3788607],[-2.7146692,53.3790452],[-2.7144493,53.3793108],[-2.714224,53.3798164],[-2.7141167,53.3801908],[-2.714063,53.380602]]]}},
{"type":"Feature","properties":{"highway":"path","name":null,"category":"Shared path"},"geometry":{"type":"MultiLineString","coordinates":[[[-2.7082346,53.3723996],[-2.7088249,53.3726481]]]}},
{"type":"Feature","properties":{"highway":"path","name":null,"category":"Shared path"},"geometry":{"type":"MultiLineString","coordinates":[[[-2.7079851,53.3726147],[-2.7085746,53.3728607]]]}},
{"type":"Feature","properties":{"highway":"path","name":null,"category":"Shared path"},"geometry":{"type":"MultiLineString","coordinates":[[[-2.707734,53.3728306],[-2.7083194,53.3730775]]]}},
{"type":"Feature","properties":{"highway":"path","name":null,"category":"Shared path"},"geometry":{"type":"MultiLineString","coordinates":[[[-2.7092347,53.3728505],[-2.7091985,53.3728574],[-2.708778,53.3726879]]]}},
{"type":"Feature","properties":{"highway":"path","name":null,"category":"Shared path"},"geometry":{"type":"MultiLineString","coordinates":[[[-2.709589,53.3729986],[-2.7096354,53.3729976],[-2.7099212,53.3727536]]]}},
{"type":"Feature","properties":{"highway":"path","name":null,"category":"Shared path"},"geometry":{"type":"MultiLineString","coordinates":[[[-2.7100702,53.3720862],[-2.7094991,53.372578]]]}},
{"type":"Feature","properties":{"highway":"path","name":null,"category":"Shared path"},"geometry":{"type":"MultiLineString","coordinates":[[[-2.7098673,53.3727312],[-2.7101101,53.3725199],[-2.7101802,53.3725275]]]}},
{"type":"Feature","properties":{"highway":"path","name":null,"category":"Shared path"},"geometry":{"type":"MultiLineString","coordinates":[[[-2.7084299,53.3811568],[-2.7077292,53.3808847]]]}},
{"type":"Feature","properties":{"highway":"path","name":null,"category":"Shared path"},"geometry":{"type":"MultiLineString","coordinates":[[[-2.7085455,53.3814865],[-2.70847,53.3815658]]]}}
]
}
