{
"type": "FeatureCollection",
"name": "LANCA_26_toilets",
"crs": { "type": "name", "properties": { "name": "urn:ogc:def:crs:OGC:1.3:CRS84" } },
"features": [
{ "type": "Feature", "properties": { "name": "St nicks toilets", "payment_info": "Free", "accessible": "True", "radar": "True", "women": "True", "men": "True", "baby_change": "True", "Mon": "09:00-17:00", "Tue": "09:00-17:00", "Wed": "09:00-17:00", "Thu": "09:00-17:00", "Fri": "09:00-17:00", "Sat": "09:00-17:00", "Sun": "09:00-17:00", "index_right": 50, "park_offical_id": "LANCA_26" }, "geometry": { "type": "Point", "coordinates": [ -2.798777819, 54.04932051 ] } },
{ "type": "Feature", "properties": { "name": "Sainsburys  Lancaster", "payment_info": "Free", "accessible": "True", "radar": "Unknown", "women": "True", "men": "True", "baby_change": "Unknown", "Mon": "08:00-22:00", "Tue": "08:00-22:00", "Wed": "08:00-22:00", "Thu": "08:00-22:00", "Fri": "08:00-22:00", "Sat": "08:00-22:00", "Sun": "11:00-17:00", "index_right": 50, "park_offical_id": "LANCA_26" }, "geometry": { "type": "Point", "coordinates": [ -2.799732078, 54.051546227 ] } },
{ "type": "Feature", "properties": { "name": "The Cornerstone", "payment_info": "Free", "accessible": "False", "radar": "False", "women": "Unknown", "men": "Unknown", "baby_change": "True", "Mon": "09:00-17:00", "Tue": "09:00-17:00", "Wed": "09:00-17:00", "Thu": "09:00-17:00", "Fri": "09:00-17:00", "Sat": "Closed", "Sun": "Closed", "index_right": 50, "park_offical_id": "LANCA_26" }, "geometry": { "type": "Point", "coordinates": [ -2.797098756, 54.048408752 ] } },
{ "type": "Feature", "properties": { "name": "Lancaster Bus Station", "payment_info": "Free", "accessible": "True", "radar": "True", "women": "True", "men": "True", "baby_change": "True", "Mon": "Unknown", "Tue": "Unknown", "Wed": "Unknown", "Thu": "Unknown", "Fri": "Unknown", "Sat": "Unknown", "Sun": "Unknown", "index_right": 50, "park_offical_id": "LANCA_26" }, "geometry": { "type": "Point", "coordinates": [ -2.800794715, 54.050463393 ] } }
]
}
