{
"type": "FeatureCollection",
"name": "CHORL_235_walking",
"crs": { "type": "name", "properties": { "name": "urn:ogc:def:crs:OGC:1.3:CRS84" } },
"features": [
{"type":"Feature","properties":{"highway":"footway","name":"Mount Pleasant","category":"Footpath (pedestrian only)"},"geometry":{"type":"MultiLineString","coordinates":[[[-2.6337615,53.652006],[-2.6337571,53.6520338],[-2.6337541,53.6520523],[-2.6337254,53.652632],[-2.6335422,53.6526754]]]}},
{"type":"Feature","properties":{"highway":"path","name":"Theatre Walk","category":"Shared path"},"geometry":{"type":"MultiLineString","coordinates":[[[-2.6324575,53.652983],[-2.6330106,53.6529827]]]}},
{"type":"Feature","properties":{"highway":"footway","name":null,"category":"Footpath (pedestrian only)"},"geometry":{"type":"MultiLineString","coordinates":[[[-2.6333189,53.6520237],[-2.6333006,53.6520145],[-2.6332428,53.6519857]]]}},
{"type":"Feature","properties":{"highway":"footway","name":null,"category":"Footpath (pedestrian only)"},"geometry":{"type":"MultiLineString","coordinates":[[[-2.6323322,53.6507695],[-2.6321952,53.6508248],[-2.6321268,53.6508757],[-2.6320985,53.6509311]]]}},
{"type":"Feature","properties":{"highway":"footway","name":null,"category":"Footpath (pedestrian only)"},"geometry":{"type":"MultiLineString","coordinates":[[[-2.6407243,53.6573639],[-2.6418188,53.6582149],[-2.6423235,53.6587798],[-2.6427355,53.6594308],[-2.6428492,53.6597217],[-2.6427772,53.6600333],[-2.6427592,53.6600834]]]}},
{"type":"Feature","properties":{"highway":"footway","name":null,"category":"Footpath (pedestrian only)"},"geometry":{"type":"MultiLineString","coordinates":[[[-2.6438922,53.6580568],[-2.643602,53.658118],[-2.6433878,53.6582712],[-2.6434823,53.6584797],[-2.6438116,53.6586094],[-2.644008,53.6586577],[-2.6442118,53.6588815],[-2.6442377,53.6590512],[-2.644139,53.6592706],[-2.6437827,53.6595478],[-2.6436481,53.6596083],[-2.6435071,53.6596284],[-2.6432532,53.6596417],[-2.6429645,53.6597319],[-2.6428492,53.6597217]]]}},
{"type":"Feature","properties":{"highway":"footway","name":null,"category":"Footpath (pedestrian only)"},"geometry":{"type":"MultiLineString","coordinates":[[[-2.6433878,53.6582712],[-2.6432934,53.6580677],[-2.6431533,53.6578747]]]}},
{"type":"Feature","properties":{"highway":"footway","name":null,"category":"Footpath (pedestrian only)"},"geometry":{"type":"MultiLineString","coordinates":[[[-2.6390011,53.6570203],[-2.6384322,53.6572686],[-2.6380578,53.6574319],[-2.6357146,53.6572183]]]}},
{"type":"Feature","properties":{"highway":"footway","name":null,"category":"Footpath (pedestrian only)"},"geometry":{"type":"MultiLineString","coordinates":[[[-2.6447067,53.6551071],[-2.6447683,53.6549474],[-2.6446911,53.6548508],[-2.6443907,53.6547897],[-2.6442853,53.6547434],[-2.6442199,53.6546675],[-2.6442321,53.654553],[-2.644376,53.6544411],[-2.644415,53.6544393],[-2.6448267,53.6544204],[-2.6449952,53.6543575],[-2.6451491,53.6545065],[-2.6454766,53.654584],[-2.6455495,53.6547255],[-2.6455063,53.6548265],[-2.645501,53.6548389],[-2.6452833,53.6549271],[-2.6451855,53.654913],[-2.6449314,53.6548762],[-2.6447683,53.6549474]]]}},
{"type":"Feature","properties":{"highway":"footway","name":null,"category":"Footpath (pedestrian only)"},"geometry":{"type":"MultiLineString","coordinates":[[[-2.6449314,53.6548762],[-2.6446911,53.6548508]]]}},
{"type":"Feature","properties":{"highway":"footway","name":null,"category":"Footpath (pedestrian only)"},"geometry":{"type":"MultiLineString","coordinates":[[[-2.6449952,53.6543575],[-2.6451073,53.6542019],[-2.6454184,53.6533454],[-2.6455664,53.6529381],[-2.6456118,53.6528481],[-2.6458654,53.6522745],[-2.6460518,53.651861]]]}},
{"type":"Feature","properties":{"highway":"footway","name":null,"category":"Footpath (pedestrian only)"},"geometry":{"type":"MultiLineString","coordinates":[[[-2.6446363,53.6520798],[-2.6450671,53.6521316],[-2.6458654,53.6522745],[-2.6472438,53.6525778],[-2.6478284,53.6527072],[-2.648454,53.6528457],[-2.6481622,53.6532282],[-2.6478889,53.6532763],[-2.6475423,53.6532042],[-2.6466937,53.6530503],[-2.6464202,53.6530007],[-2.6456286,53.6528416],[-2.6456118,53.6528481],[-2.6452637,53.6527757],[-2.6448835,53.652649],[-2.64474,53.6525863],[-2.6446118,53.6525303],[-2.6445041,53.6524081],[-2.6446363,53.6520798]]]}},
{"type":"Feature","properties":{"highway":"footway","name":null,"category":"Footpath (pedestrian only)"},"geometry":{"type":"MultiLineString","coordinates":[[[-2.6474241,53.6522758],[-2.6472438,53.6525778],[-2.6469379,53.6529381],[-2.6467805,53.65299],[-2.6464202,53.6530007]]]}},
{"type":"Feature","properties":{"highway":"footway","name":null,"category":"Footpath (pedestrian only)"},"geometry":{"type":"MultiLineString","coordinates":[[[-2.644415,53.6544393],[-2.644501,53.6542213],[-2.6446458,53.6538255]]]}},
{"type":"Feature","properties":{"highway":"footway","name":null,"category":"Footpath (pedestrian only)"},"geometry":{"type":"MultiLineString","coordinates":[[[-2.6454184,53.6533454],[-2.6452976,53.6533216],[-2.6451554,53.6532882],[-2.6450187,53.6532468],[-2.6448738,53.6531849],[-2.6446458,53.6530784],[-2.6446083,53.6530609],[-2.6444661,53.6529448],[-2.6444232,53.6528939],[-2.6444017,53.6528478],[-2.6443883,53.6527302],[-2.6444393,53.6526475],[-2.6445466,53.6526062],[-2.6446566,53.6525776],[-2.64474,53.6525863]]]}},
{"type":"Feature","properties":{"highway":"footway","name":null,"category":"Footpath (pedestrian only)"},"geometry":{"type":"MultiLineString","coordinates":[[[-2.6458689,53.6548301],[-2.6458662,53.6548174],[-2.6458475,53.6547872],[-2.6457938,53.6547745],[-2.6455495,53.6547255]]]}},
{"type":"Feature","properties":{"highway":"footway","name":null,"category":"Footpath (pedestrian only)"},"geometry":{"type":"MultiLineString","coordinates":[[[-2.6444232,53.6528939],[-2.6443588,53.6529273],[-2.6443293,53.6529893],[-2.6442945,53.6530958],[-2.6442194,53.6533168],[-2.6440987,53.6537428],[-2.6446458,53.6538255],[-2.6447692,53.6534328],[-2.6447746,53.6533104],[-2.6447263,53.6531753],[-2.6446458,53.6530784]]]}},
{"type":"Feature","properties":{"highway":"footway","name":null,"category":"Footpath (pedestrian only)"},"geometry":{"type":"MultiLineString","coordinates":[[[-2.6460886,53.6543231],[-2.6460728,53.6543946],[-2.6460111,53.6544566],[-2.6459306,53.6545027],[-2.6457858,53.6545519],[-2.6456463,53.6545615],[-2.6454766,53.654584]]]}},
{"type":"Feature","properties":{"highway":"footway","name":null,"category":"Footpath (pedestrian only)"},"geometry":{"type":"MultiLineString","coordinates":[[[-2.6461954,53.6548802],[-2.6458689,53.6548301],[-2.6458126,53.6548651],[-2.645767,53.6548699],[-2.6455063,53.6548265]]]}},
{"type":"Feature","properties":{"highway":"footway","name":null,"category":"Footpath (pedestrian only)"},"geometry":{"type":"MultiLineString","coordinates":[[[-2.6451073,53.6542019],[-2.6451662,53.6541482],[-2.6452466,53.6541164],[-2.6453942,53.6540751],[-2.6455766,53.6540449],[-2.6456919,53.6540417],[-2.6457911,53.6540528],[-2.6459091,53.654091],[-2.645995,53.6541657],[-2.6460223,53.6542053],[-2.6460674,53.6542706],[-2.6460886,53.6543231],[-2.6461264,53.6544168],[-2.6462203,53.6548206],[-2.6461954,53.6548802],[-2.6462062,53.6549693],[-2.6461829,53.6550516],[-2.6461318,53.6551337],[-2.6460808,53.655156],[-2.645311,53.6550384],[-2.6452493,53.6550002],[-2.6451957,53.6549541],[-2.6451855,53.654913]]]}},
{"type":"Feature","properties":{"highway":"footway","name":null,"category":"Footpath (pedestrian only)"},"geometry":{"type":"MultiLineString","coordinates":[[[-2.6387032,53.6569223],[-2.6380732,53.6570237],[-2.6363292,53.656664]]]}},
{"type":"Feature","properties":{"highway":"footway","name":null,"category":"Footpath (pedestrian only)"},"geometry":{"type":"MultiLineString","coordinates":[[[-2.6363292,53.656664],[-2.6360261,53.6566395],[-2.635391,53.6565882],[-2.6337387,53.6564547],[-2.6332968,53.6563352],[-2.6332476,53.6563215],[-2.6331233,53.656316]]]}},
{"type":"Feature","properties":{"highway":"footway","name":null,"category":"Footpath (pedestrian only)"},"geometry":{"type":"MultiLineString","coordinates":[[[-2.6373726,53.6564387],[-2.6379927,53.6563657],[-2.6382607,53.6564671],[-2.6384033,53.6565211],[-2.6385687,53.6565482],[-2.6386942,53.6565617],[-2.6387911,53.6565752],[-2.6389052,53.6565651],[-2.6391447,53.6565448],[-2.639318,53.6565301]]]}},
{"type":"Feature","properties":{"highway":"footway","name":null,"category":"Footpath (pedestrian only)"},"geometry":{"type":"MultiLineString","coordinates":[[[-2.6413559,53.6568102],[-2.6415899,53.6568019],[-2.6420053,53.6568461]]]}},
{"type":"Feature","properties":{"highway":"footway","name":null,"category":"Footpath (pedestrian only)"},"geometry":{"type":"MultiLineString","coordinates":[[[-2.6435207,53.6570495],[-2.6436518,53.6571175],[-2.6437377,53.6571561]]]}},
{"type":"Feature","properties":{"highway":"footway","name":null,"category":"Footpath (pedestrian only)"},"geometry":{"type":"MultiLineString","coordinates":[[[-2.645773,53.6580644],[-2.6457029,53.65798],[-2.6455908,53.6579482],[-2.6454951,53.6578832],[-2.6454251,53.657807],[-2.6453433,53.6576963],[-2.6452686,53.6576535],[-2.6451519,53.6576078],[-2.6450491,53.6575843],[-2.6449041,53.6575295]]]}},
{"type":"Feature","properties":{"highway":"path","name":null,"category":"Shared path"},"geometry":{"type":"MultiLineString","coordinates":[[[-2.6327223,53.6545662],[-2.6323548,53.6545725]]]}},
{"type":"Feature","properties":{"highway":"path","name":null,"category":"Shared path"},"geometry":{"type":"MultiLineString","coordinates":[[[-2.632773,53.6544555],[-2.6327223,53.6545662],[-2.6327585,53.6547243]]]}},
{"type":"Feature","properties":{"highway":"path","name":null,"category":"Shared path"},"geometry":{"type":"MultiLineString","coordinates":[[[-2.637218,53.6524429],[-2.6373732,53.6522834],[-2.6375028,53.6520836],[-2.6375905,53.6519241],[-2.6374805,53.6516364],[-2.6360107,53.6511022],[-2.6355519,53.6515893],[-2.635435,53.651752],[-2.635324,53.6519384],[-2.6351637,53.6523346]]]}},
{"type":"Feature","properties":{"highway":"path","name":null,"category":"Shared path"},"geometry":{"type":"MultiLineString","coordinates":[[[-2.637671,53.6521265],[-2.6376393,53.6521184],[-2.6375028,53.6520836],[-2.6355519,53.6515893],[-2.6355242,53.6515817],[-2.6355042,53.6515762]]]}},
{"type":"Feature","properties":{"highway":"path","name":null,"category":"Shared path"},"geometry":{"type":"MultiLineString","coordinates":[[[-2.6375419,53.6524567],[-2.6374791,53.652454],[-2.637218,53.6524429],[-2.6357617,53.6523661],[-2.6351637,53.6523346],[-2.6351285,53.6523328],[-2.6350739,53.6523301]]]}},
{"type":"Feature","properties":{"highway":"footway","name":"Saint Mary's Walk","category":"Footpath (pedestrian only)"},"geometry":{"type":"MultiLineString","coordinates":[[[-2.6330147,53.6526349],[-2.6329169,53.6526241],[-2.6325332,53.6526345],[-2.6324003,53.6526381]]]}},
{"type":"Feature","properties":{"highway":"footway","name":null,"category":"Footpath (pedestrian only)"},"geometry":{"type":"MultiLineString","coordinates":[[[-2.635391,53.6565882],[-2.6355842,53.6567375],[-2.6357625,53.6569044],[-2.6358001,53.6570562],[-2.6357848,53.6570995],[-2.6357146,53.6572183]]]}},
{"type":"Feature","properties":{"highway":"footway","name":null,"category":"Footpath (pedestrian only)"},"geometry":{"type":"MultiLineString","coordinates":[[[-2.6332968,53.6563352],[-2.6336181,53.6558426],[-2.6337522,53.6556487],[-2.6337066,53.6554484],[-2.6338209,53.6552922]]]}},
{"type":"Feature","properties":{"highway":"footway","name":null,"category":"Footpath (pedestrian only)"},"geometry":{"type":"MultiLineString","coordinates":[[[-2.6390977,53.6570475],[-2.6391474,53.6570967],[-2.6391877,53.6571516],[-2.6392414,53.6572502],[-2.639304,53.657348],[-2.6393312,53.6574369]]]}},
{"type":"Feature","properties":{"highway":"footway","name":null,"category":"Footpath (pedestrian only)"},"geometry":{"type":"MultiLineString","coordinates":[[[-2.6384322,53.6572686],[-2.6386312,53.6573765],[-2.6387867,53.6574528],[-2.6389262,53.6575021],[-2.6390925,53.6575498]]]}},
{"type":"Feature","properties":{"highway":"footway","name":null,"category":"Footpath (pedestrian only)"},"geometry":{"type":"MultiLineString","coordinates":[[[-2.6358785,53.6562188],[-2.6358516,53.6562577]]]}},
{"type":"Feature","properties":{"highway":"footway","name":null,"category":"Footpath (pedestrian only)"},"geometry":{"type":"MultiLineString","coordinates":[[[-2.6362473,53.6559737],[-2.6358785,53.6562188]]]}},
{"type":"Feature","properties":{"highway":"footway","name":null,"category":"Footpath (pedestrian only)"},"geometry":{"type":"MultiLineString","coordinates":[[[-2.6358516,53.6562577],[-2.6358423,53.6563308],[-2.6358409,53.6563896]]]}},
{"type":"Feature","properties":{"highway":"footway","name":null,"category":"Footpath (pedestrian only)"},"geometry":{"type":"MultiLineString","coordinates":[[[-2.6358409,53.6563896],[-2.6359147,53.6564977],[-2.6360261,53.6566395]]]}},
{"type":"Feature","properties":{"highway":"footway","name":null,"category":"Footpath (pedestrian only)"},"geometry":{"type":"MultiLineString","coordinates":[[[-2.6408184,53.6573885],[-2.6409802,53.6573078]]]}},
{"type":"Feature","properties":{"highway":"footway","name":null,"category":"Footpath (pedestrian only)"},"geometry":{"type":"MultiLineString","coordinates":[[[-2.6443521,53.657062],[-2.6440322,53.6569745],[-2.6436094,53.6568396],[-2.6433289,53.6567649],[-2.6428776,53.6566275],[-2.6424711,53.6565215],[-2.641849,53.656442],[-2.6412961,53.6563938],[-2.6407148,53.6562758],[-2.6399952,53.6561698],[-2.6395724,53.6560879],[-2.6390979,53.6559958],[-2.6387916,53.6559438],[-2.638473,53.6559941]]]}},
{"type":"Feature","properties":{"highway":"footway","name":null,"category":"Footpath (pedestrian only)"},"geometry":{"type":"MultiLineString","coordinates":[[[-2.638473,53.6559941],[-2.6383088,53.6561645],[-2.6379927,53.6563657]]]}},
{"type":"Feature","properties":{"highway":"path","name":"Theatre Walk","category":"Shared path"},"geometry":{"type":"MultiLineString","coordinates":[[[-2.6331139,53.6529826],[-2.6335159,53.6529824]]]}},
{"type":"Feature","properties":{"highway":"footway","name":null,"category":"Footpath (pedestrian only)"},"geometry":{"type":"MultiLineString","coordinates":[[[-2.6337053,53.6528263],[-2.6336757,53.6529888]]]}},
{"type":"Feature","properties":{"highway":"footway","name":null,"category":"Footpath (pedestrian only)"},"geometry":{"type":"MultiLineString","coordinates":[[[-2.6329542,53.6519791],[-2.6329596,53.6518597]]]}},
{"type":"Feature","properties":{"highway":"footway","name":null,"category":"Footpath (pedestrian only)"},"geometry":{"type":"MultiLineString","coordinates":[[[-2.6329408,53.651693],[-2.6329248,53.651762],[-2.6329435,53.6517882],[-2.6329999,53.6518216],[-2.6331313,53.6518335],[-2.6331863,53.6518415],[-2.6332104,53.6518661],[-2.6332104,53.6518963],[-2.6332145,53.6519851]]]}},
{"type":"Feature","properties":{"highway":"footway","name":null,"category":"Footpath (pedestrian only)"},"geometry":{"type":"MultiLineString","coordinates":[[[-2.6333006,53.6520145],[-2.6332574,53.6522421]]]}},
{"type":"Feature","properties":{"highway":"footway","name":null,"category":"Footpath (pedestrian only)"},"geometry":{"type":"MultiLineString","coordinates":[[[-2.6329817,53.654413],[-2.6333026,53.6544098],[-2.6334699,53.6544038],[-2.6337677,53.6543618]]]}},
{"type":"Feature","properties":{"highway":"footway","name":null,"category":"Footpath (pedestrian only)"},"geometry":{"type":"MultiLineString","coordinates":[[[-2.6328213,53.6540092],[-2.6327559,53.6540184],[-2.6326825,53.6540292],[-2.6325591,53.6540471]]]}},
{"type":"Feature","properties":{"highway":"footway","name":null,"category":"Footpath (pedestrian only)"},"geometry":{"type":"MultiLineString","coordinates":[[[-2.6320668,53.6502352],[-2.6320381,53.6501963],[-2.63199,53.6501174],[-2.6319973,53.6500749],[-2.6320597,53.6500065],[-2.6321144,53.6499774]]]}},
{"type":"Feature","properties":{"highway":"footway","name":null,"category":"Footpath (pedestrian only)"},"geometry":{"type":"MultiLineString","coordinates":[[[-2.6325357,53.6534274],[-2.632965,53.6534121]]]}},
{"type":"Feature","properties":{"highway":"footway","name":null,"category":"Footpath (pedestrian only)"},"geometry":{"type":"MultiLineString","coordinates":[[[-2.6359261,53.6527013],[-2.6359208,53.6528525]]]}},
{"type":"Feature","properties":{"highway":"track","name":null,"category":"Track"},"geometry":{"type":"MultiLineString","coordinates":[[[-2.6418774,53.6534325],[-2.6429996,53.6536151],[-2.6431641,53.6536617],[-2.6432499,53.6537236],[-2.6432875,53.6538445],[-2.6432714,53.6539382],[-2.6431373,53.6541449]]]}},
{"type":"Feature","properties":{"highway":"footway","name":null,"category":"Footpath (pedestrian only)"},"geometry":{"type":"MultiLineString","coordinates":[[[-2.6414654,53.6604675],[-2.6415293,53.6603996],[-2.6416031,53.6602304],[-2.6411431,53.6600992],[-2.6408467,53.659992],[-2.6406093,53.660104],[-2.6405476,53.6601882],[-2.640517,53.660228]]]}},
{"type":"Feature","properties":{"highway":"footway","name":null,"category":"Footpath (pedestrian only)"},"geometry":{"type":"MultiLineString","coordinates":[[[-2.6415628,53.660832],[-2.641772,53.6608955],[-2.6419249,53.6609527],[-2.6420537,53.6610576],[-2.6421958,53.6611212],[-2.6423112,53.6611594],[-2.6425123,53.6612659],[-2.6427676,53.6616111],[-2.6427323,53.6617077],[-2.6425284,53.6619699],[-2.6424319,53.6619636],[-2.6423401,53.6620117]]]}},
{"type":"Feature","properties":{"highway":"footway","name":null,"category":"Footpath (pedestrian only)"},"geometry":{"type":"MultiLineString","coordinates":[[[-2.6360649,53.6465948],[-2.6359134,53.6466185],[-2.6355386,53.6468141],[-2.6356861,53.6471539],[-2.6356053,53.6472612]]]}},
{"type":"Feature","properties":{"highway":"footway","name":null,"category":"Footpath (pedestrian only)"},"geometry":{"type":"MultiLineString","coordinates":[[[-2.6387497,53.648349],[-2.6380424,53.6483749],[-2.6376118,53.6486131]]]}},
{"type":"Feature","properties":{"highway":"path","name":"Windsor Road","category":"Shared path"},"geometry":{"type":"MultiLineString","coordinates":[[[-2.6403641,53.650803],[-2.6403649,53.6508328],[-2.6404317,53.6508656]]]}},
{"type":"Feature","properties":{"highway":"footway","name":null,"category":"Footpath (pedestrian only)"},"geometry":{"type":"MultiLineString","coordinates":[[[-2.6338586,53.6553011],[-2.6339574,53.6552346],[-2.6341264,53.6552155],[-2.6344147,53.6552537],[-2.6346561,53.6553188],[-2.6347762,53.6553883],[-2.635179,53.6556214]]]}},
{"type":"Feature","properties":{"highway":"footway","name":null,"category":"Footpath (pedestrian only)"},"geometry":{"type":"MultiLineString","coordinates":[[[-2.6358011,53.6556443],[-2.6358238,53.6555485],[-2.635847,53.65545]]]}},
{"type":"Feature","properties":{"highway":"footway","name":null,"category":"Footpath (pedestrian only)"},"geometry":{"type":"MultiLineString","coordinates":[[[-2.6328373,53.6548478],[-2.632965,53.6550335],[-2.6330381,53.6552091],[-2.6330175,53.6553761]]]}},
{"type":"Feature","properties":{"highway":"footway","name":null,"category":"Footpath (pedestrian only)"},"geometry":{"type":"MultiLineString","coordinates":[[[-2.6317339,53.6495313],[-2.6319323,53.6494552],[-2.6320121,53.6494878],[-2.6320726,53.6494549]]]}},
{"type":"Feature","properties":{"highway":"footway","name":null,"category":"Footpath (pedestrian only)"},"geometry":{"type":"MultiLineString","coordinates":[[[-2.6323322,53.6507695],[-2.6324615,53.6507286]]]}},
{"type":"Feature","properties":{"highway":"footway","name":null,"category":"Footpath (pedestrian only)"},"geometry":{"type":"MultiLineString","coordinates":[[[-2.6347805,53.655528],[-2.6344979,53.6554086],[-2.6344174,53.655388],[-2.6342307,53.6553991]]]}},
{"type":"Feature","properties":{"highway":"footway","name":null,"category":"Footpath (pedestrian only)"},"geometry":{"type":"MultiLineString","coordinates":[[[-2.6347762,53.6553883],[-2.6349485,53.6554007],[-2.6350151,53.6553868]]]}},
{"type":"Feature","properties":{"highway":"footway","name":null,"category":"Footpath (pedestrian only)"},"geometry":{"type":"MultiLineString","coordinates":[[[-2.6427022,53.6602416],[-2.6424238,53.660255],[-2.6420403,53.6601771],[-2.6417613,53.6601358],[-2.641595,53.6601994],[-2.6416031,53.6602304]]]}},
{"type":"Feature","properties":{"highway":"footway","name":null,"category":"Footpath (pedestrian only)"},"geometry":{"type":"MultiLineString","coordinates":[[[-2.6427592,53.6600834],[-2.6427289,53.6601675]]]}},
{"type":"Feature","properties":{"highway":"footway","name":null,"category":"Footpath (pedestrian only)"},"geometry":{"type":"MultiLineString","coordinates":[[[-2.6427289,53.6601675],[-2.6427022,53.6602416],[-2.642758,53.6604189]]]}},
{"type":"Feature","properties":{"highway":"footway","name":null,"category":"Footpath (pedestrian only)"},"geometry":{"type":"MultiLineString","coordinates":[[[-2.6467644,53.6577789],[-2.6468106,53.6577572],[-2.6469055,53.6577544],[-2.646959,53.6577443],[-2.6470612,53.657727],[-2.6471414,53.6577126],[-2.6471876,53.657701],[-2.6472411,53.6576895],[-2.6472363,53.6576708],[-2.6471682,53.6576607],[-2.6470757,53.6576506],[-2.6469833,53.6576434],[-2.6468958,53.6576246],[-2.6467474,53.6575756],[-2.6465334,53.6575655],[-2.6462926,53.6575526],[-2.645901,53.6575208],[-2.6455775,53.6574589],[-2.6453634,53.6574099],[-2.6451723,53.6574508]]]}},
{"type":"Feature","properties":{"highway":"footway","name":null,"category":"Footpath (pedestrian only)"},"geometry":{"type":"MultiLineString","coordinates":[[[-2.6438653,53.6572117],[-2.6440501,53.6572255],[-2.6442532,53.657295],[-2.6443287,53.6573413],[-2.6443339,53.6574122],[-2.6444172,53.6574385],[-2.64455,53.6574662],[-2.6446411,53.6574647],[-2.6447297,53.6575033],[-2.6448234,53.6575264],[-2.6449041,53.6575295],[-2.6449484,53.6574909],[-2.6449744,53.6574847]]]}},
{"type":"Feature","properties":{"highway":"footway","name":null,"category":"Footpath (pedestrian only)"},"geometry":{"type":"MultiLineString","coordinates":[[[-2.6437377,53.6571561],[-2.6438653,53.6572117]]]}},
{"type":"Feature","properties":{"highway":"footway","name":null,"category":"Footpath (pedestrian only)"},"geometry":{"type":"MultiLineString","coordinates":[[[-2.6451332,53.657457],[-2.6451723,53.6574508],[-2.6451644,53.6573675],[-2.6451228,53.6573227],[-2.6449067,53.6572657],[-2.6446958,53.6572132],[-2.6445266,53.6571484],[-2.6444381,53.6571006],[-2.6443521,53.657062],[-2.6441387,53.6570481],[-2.643946,53.657045],[-2.6437794,53.6570389],[-2.6435546,53.657016]]]}},
{"type":"Feature","properties":{"highway":"footway","name":null,"category":"Footpath (pedestrian only)"},"geometry":{"type":"MultiLineString","coordinates":[[[-2.6449744,53.6574847],[-2.6451332,53.657457]]]}},
{"type":"Feature","properties":{"highway":"footway","name":null,"category":"Footpath (pedestrian only)"},"geometry":{"type":"MultiLineString","coordinates":[[[-2.6426812,53.6569849],[-2.64302,53.6570796]]]}},
{"type":"Feature","properties":{"highway":"footway","name":null,"category":"Footpath (pedestrian only)"},"geometry":{"type":"MultiLineString","coordinates":[[[-2.6420053,53.6568461],[-2.6421086,53.6568576]]]}},
{"type":"Feature","properties":{"highway":"footway","name":null,"category":"Footpath (pedestrian only)"},"geometry":{"type":"MultiLineString","coordinates":[[[-2.6429787,53.6569089],[-2.642798,53.6568588],[-2.6425666,53.6568086],[-2.6424254,53.6567785],[-2.6422786,53.6567684],[-2.6421996,53.6567918],[-2.6421149,53.656822],[-2.6421086,53.6568576],[-2.6422109,53.6568688],[-2.642609,53.6569392]]]}},
{"type":"Feature","properties":{"highway":"footway","name":null,"category":"Footpath (pedestrian only)"},"geometry":{"type":"MultiLineString","coordinates":[[[-2.642609,53.6569392],[-2.6426812,53.6569849]]]}},
{"type":"Feature","properties":{"highway":"footway","name":null,"category":"Footpath (pedestrian only)"},"geometry":{"type":"MultiLineString","coordinates":[[[-2.6431415,53.6570676],[-2.6435207,53.6570495],[-2.6435546,53.657016],[-2.6434642,53.6569993],[-2.6432779,53.6569558],[-2.6429787,53.6569089]]]}},
{"type":"Feature","properties":{"highway":"footway","name":null,"category":"Footpath (pedestrian only)"},"geometry":{"type":"MultiLineString","coordinates":[[[-2.64302,53.6570796],[-2.6431415,53.6570676]]]}},
{"type":"Feature","properties":{"highway":"footway","name":null,"category":"Footpath (pedestrian only)"},"geometry":{"type":"MultiLineString","coordinates":[[[-2.6394935,53.6565448],[-2.639618,53.656538],[-2.6397492,53.6564671],[-2.6398005,53.6564265]]]}},
{"type":"Feature","properties":{"highway":"footway","name":null,"category":"Footpath (pedestrian only)"},"geometry":{"type":"MultiLineString","coordinates":[[[-2.639318,53.6565301],[-2.6394935,53.6565448]]]}},
{"type":"Feature","properties":{"highway":"footway","name":null,"category":"Footpath (pedestrian only)"},"geometry":{"type":"MultiLineString","coordinates":[[[-2.6400229,53.6563724],[-2.6403194,53.6564164],[-2.6404848,53.6564907],[-2.6406445,53.6565516],[-2.6409212,53.6566547]]]}},
{"type":"Feature","properties":{"highway":"footway","name":null,"category":"Footpath (pedestrian only)"},"geometry":{"type":"MultiLineString","coordinates":[[[-2.6398005,53.6564265],[-2.6400229,53.6563724]]]}},
{"type":"Feature","properties":{"highway":"footway","name":null,"category":"Footpath (pedestrian only)"},"geometry":{"type":"MultiLineString","coordinates":[[[-2.6409595,53.6567083],[-2.6413559,53.6568102],[-2.641517,53.6568692],[-2.6417166,53.6569402],[-2.6418421,53.6569909],[-2.641939,53.657045],[-2.642093,53.6571058],[-2.6423325,53.6571531],[-2.6429313,53.6572241],[-2.643302,53.6572984],[-2.6436727,53.6573829],[-2.6438274,53.6573973],[-2.6439508,53.6574317],[-2.6440454,53.6574717],[-2.6446065,53.657728],[-2.6447868,53.6583568]]]}},
{"type":"Feature","properties":{"highway":"footway","name":null,"category":"Footpath (pedestrian only)"},"geometry":{"type":"MultiLineString","coordinates":[[[-2.6409212,53.6566547],[-2.6409595,53.6567083]]]}},
{"type":"Feature","properties":{"highway":"footway","name":null,"category":"Footpath (pedestrian only)"},"geometry":{"type":"MultiLineString","coordinates":[[[-2.642641,53.6509066],[-2.6425043,53.6512922],[-2.6425155,53.6514484],[-2.6424453,53.6520966],[-2.6425016,53.6521435]]]}},
{"type":"Feature","properties":{"highway":"footway","name":null,"category":"Footpath (pedestrian only)"},"geometry":{"type":"MultiLineString","coordinates":[[[-2.6357617,53.6523661],[-2.6358444,53.6519533],[-2.6358088,53.6518943],[-2.6356833,53.6518087],[-2.635435,53.651752]]]}},
{"type":"Feature","properties":{"highway":"footway","name":null,"category":"Footpath (pedestrian only)"},"geometry":{"type":"MultiLineString","coordinates":[[[-2.6360107,53.6511022],[-2.6359971,53.6510968],[-2.6359586,53.6510816]]]}},
{"type":"Feature","properties":{"highway":"footway","name":null,"category":"Footpath (pedestrian only)"},"geometry":{"type":"MultiLineString","coordinates":[[[-2.6328127,53.6549892],[-2.6327137,53.6550426],[-2.6326106,53.6551146]]]}},
{"type":"Feature","properties":{"highway":"footway","name":null,"category":"Footpath (pedestrian only)"},"geometry":{"type":"MultiLineString","coordinates":[[[-2.6327207,53.6543672],[-2.632773,53.6544555],[-2.632857,53.6545987]]]}},
{"type":"Feature","properties":{"highway":"footway","name":null,"category":"Footpath (pedestrian only)"},"geometry":{"type":"MultiLineString","coordinates":[[[-2.6474241,53.6522758],[-2.6473571,53.6522401],[-2.647288,53.6522079],[-2.6472002,53.6521856],[-2.646834,53.6521284],[-2.6467623,53.6521061],[-2.6467274,53.6520851],[-2.6466697,53.6520231],[-2.6466181,53.6519929],[-2.6465269,53.6519674],[-2.6462513,53.6519092],[-2.6460518,53.651861]]]}},
{"type":"Feature","properties":{"highway":"footway","name":null,"category":"Footpath (pedestrian only)"},"geometry":{"type":"MultiLineString","coordinates":[[[-2.631346,53.6554313],[-2.6314268,53.6555604],[-2.6314938,53.6556073]]]}},
{"type":"Feature","properties":{"highway":"path","name":null,"category":"Shared path"},"geometry":{"type":"MultiLineString","coordinates":[[[-2.6349324,53.6551432],[-2.6346138,53.6550796]]]}},
{"type":"Feature","properties":{"highway":"path","name":null,"category":"Shared path"},"geometry":{"type":"MultiLineString","coordinates":[[[-2.6443907,53.6547897],[-2.6442955,53.6548243],[-2.6441482,53.6548428],[-2.6440263,53.6548503],[-2.6439512,53.6548369],[-2.6438662,53.6548176],[-2.6437826,53.6547655],[-2.6437557,53.6547],[-2.6437826,53.6546052],[-2.6437968,53.6545498],[-2.6438266,53.6544725],[-2.6438747,53.6543499],[-2.6439526,53.6541492],[-2.6439937,53.6540501]]]}},
{"type":"Feature","properties":{"highway":"path","name":null,"category":"Shared path"},"geometry":{"type":"MultiLineString","coordinates":[[[-2.6439937,53.6540501],[-2.6440419,53.6538713],[-2.6440987,53.6537428]]]}},
{"type":"Feature","properties":{"highway":"path","name":null,"category":"Shared path"},"geometry":{"type":"MultiLineString","coordinates":[[[-2.6460518,53.651861],[-2.6455046,53.6517606],[-2.6453787,53.6517547],[-2.6452887,53.6517589],[-2.6452261,53.6517712],[-2.6451704,53.6517898],[-2.6451065,53.6518187],[-2.644994,53.6518954],[-2.644969,53.651905],[-2.6449354,53.6519054],[-2.6447862,53.6518947],[-2.6447497,53.6518957],[-2.6446864,53.6519112],[-2.6446423,53.6519439],[-2.6446075,53.6519848],[-2.6446005,53.652024],[-2.6446363,53.6520798]]]}},
{"type":"Feature","properties":{"highway":"path","name":null,"category":"Shared path"},"geometry":{"type":"MultiLineString","coordinates":[[[-2.6466937,53.6530503],[-2.6464925,53.653478],[-2.6465571,53.6535192],[-2.6465786,53.6535653],[-2.646514,53.6536506],[-2.6460223,53.6542053]]]}},
{"type":"Feature","properties":{"highway":"pedestrian","name":"Chapel Street","category":"Pedestrian area/street"},"geometry":{"type":"MultiLineString","coordinates":[[[-2.6324003,53.6526381],[-2.6320329,53.6526431],[-2.6315337,53.6526499],[-2.6305297,53.6526132]]]}},
{"type":"Feature","properties":{"highway":"pedestrian","name":"Cleveland Street","category":"Pedestrian area/street"},"geometry":{"type":"MultiLineString","coordinates":[[[-2.6314362,53.6537318],[-2.6314444,53.6536417],[-2.6314603,53.6534658],[-2.6314624,53.653441],[-2.6314803,53.6532429],[-2.6314987,53.6530384],[-2.6315042,53.6529757],[-2.6315337,53.6526499]]]}},
{"type":"Feature","properties":{"highway":"pedestrian","name":"Fazakerley Street","category":"Pedestrian area/street"},"geometry":{"type":"MultiLineString","coordinates":[[[-2.6314803,53.6532429],[-2.6324879,53.6532487]]]}},
{"type":"Feature","properties":{"highway":"pedestrian","name":"Market Place","category":"Pedestrian area/street"},"geometry":{"type":"MultiLineString","coordinates":[[[-2.6314624,53.653441],[-2.6304849,53.6533997]]]}},
{"type":"Feature","properties":{"highway":"pedestrian","name":"Market Place","category":"Pedestrian area/street"},"geometry":{"type":"MultiLineString","coordinates":[[[-2.6314987,53.6530384],[-2.630496,53.6529986]]]}},
{"type":"Feature","properties":{"highway":"pedestrian","name":"Cannon Street","category":"Pedestrian area/street"},"geometry":{"type":"MultiLineString","coordinates":[[[-2.6314603,53.6534658],[-2.6315206,53.6534659],[-2.6321229,53.6534577]]]}},
{"type":"Feature","properties":{"highway":"pedestrian","name":"Dole Lane","category":"Pedestrian area/street"},"geometry":{"type":"MultiLineString","coordinates":[[[-2.6337581,53.6534789],[-2.6337969,53.6537198],[-2.633804,53.6537573]]]}}
]
}
