{
"type": "FeatureCollection",
"name": "CHORL_362_walking",
"crs": { "type": "name", "properties": { "name": "urn:ogc:def:crs:OGC:1.3:CRS84" } },
"features": [
{"type":"Feature","properties":{"highway":"bridleway","name":null,"category":"Bridleway"},"geometry":{"type":"MultiLineString","coordinates":[[[-2.6005474,53.7185847],[-2.6005425,53.7184996],[-2.6005626,53.7184346],[-2.6010802,53.7179791],[-2.6014397,53.7177505],[-2.6016884,53.7176514],[-2.601877,53.7175762]]]}},
{"type":"Feature","properties":{"highway":"footway","name":null,"category":"Footpath (pedestrian only)"},"geometry":{"type":"MultiLineString","coordinates":[[[-2.6047868,53.7252569],[-2.6040029,53.7254765],[-2.6036603,53.7254923],[-2.6031594,53.7252586],[-2.6012859,53.7252861]]]}},
{"type":"Feature","properties":{"highway":"footway","name":null,"category":"Footpath (pedestrian only)"},"geometry":{"type":"MultiLineString","coordinates":[[[-2.5985129,53.7193764],[-2.5989645,53.7201604],[-2.5993415,53.7211086],[-2.599261,53.7213935],[-2.5989726,53.721807],[-2.5989619,53.7220406],[-2.5994286,53.7228718],[-2.5994767,53.7233431],[-2.5982264,53.7241761],[-2.5982264,53.7242664],[-2.5973956,53.7248266],[-2.5970649,53.7255331]]]}},
{"type":"Feature","properties":{"highway":"footway","name":null,"category":"Footpath (pedestrian only)"},"geometry":{"type":"MultiLineString","coordinates":[[[-2.6026718,53.727551],[-2.6019056,53.7274006],[-2.6007549,53.7268869],[-2.5992069,53.7263931]]]}},
{"type":"Feature","properties":{"highway":"footway","name":null,"category":"Footpath (pedestrian only)"},"geometry":{"type":"MultiLineString","coordinates":[[[-2.6040518,53.7212754],[-2.6021769,53.7218891],[-2.6012727,53.7222664],[-2.6002161,53.7229198],[-2.5994767,53.7233431]]]}},
{"type":"Feature","properties":{"highway":"track","name":null,"category":"Track"},"geometry":{"type":"MultiLineString","coordinates":[[[-2.6115972,53.7242214],[-2.6117758,53.7240715],[-2.6125573,53.7237211],[-2.613235,53.7232659],[-2.6133937,53.7230817],[-2.6138116,53.7228077],[-2.6139014,53.7227926]]]}},
{"type":"Feature","properties":{"highway":"track","name":null,"category":"Track"},"geometry":{"type":"MultiLineString","coordinates":[[[-2.6140675,53.7227675],[-2.6142733,53.722778],[-2.6144074,53.7227982],[-2.6145355,53.7228005],[-2.6153796,53.7223822]]]}},
{"type":"Feature","properties":{"highway":"track","name":null,"category":"Track"},"geometry":{"type":"MultiLineString","coordinates":[[[-2.6139014,53.7227926],[-2.6140675,53.7227675]]]}},
{"type":"Feature","properties":{"highway":"footway","name":null,"category":"Footpath (pedestrian only)"},"geometry":{"type":"MultiLineString","coordinates":[[[-2.6069017,53.7230351],[-2.6072153,53.7234908],[-2.607902,53.7238082],[-2.6102192,53.7247909]]]}},
{"type":"Feature","properties":{"highway":"footway","name":null,"category":"Footpath (pedestrian only)"},"geometry":{"type":"MultiLineString","coordinates":[[[-2.6163352,53.7201896],[-2.6165217,53.7205932],[-2.6162039,53.7210301],[-2.6160872,53.7214851],[-2.6160362,53.7217755],[-2.6158681,53.7220185],[-2.615701,53.7221993],[-2.6156146,53.7222357],[-2.615422,53.7223167],[-2.6153796,53.7223822]]]}},
{"type":"Feature","properties":{"highway":"track","name":null,"category":"Track"},"geometry":{"type":"MultiLineString","coordinates":[[[-2.6153796,53.7223822],[-2.6148669,53.7217977]]]}},
{"type":"Feature","properties":{"highway":"footway","name":null,"category":"Footpath (pedestrian only)"},"geometry":{"type":"MultiLineString","coordinates":[[[-2.5989645,53.7201604],[-2.598749,53.7202472],[-2.597352,53.7204737],[-2.5971151,53.7205024],[-2.5969511,53.7205779],[-2.5968631,53.7206622],[-2.5968725,53.7206947],[-2.5968417,53.720736],[-2.5966352,53.7209876],[-2.5956755,53.7216562],[-2.5950863,53.7219113],[-2.5948555,53.7219473],[-2.5947522,53.7219617],[-2.594576,53.7220264],[-2.5944904,53.7221086]]]}},
{"type":"Feature","properties":{"highway":"footway","name":null,"category":"Footpath (pedestrian only)"},"geometry":{"type":"MultiLineString","coordinates":[[[-2.6151828,53.7247964],[-2.6148977,53.725317],[-2.6147313,53.7256148],[-2.6142621,53.7261928],[-2.6138488,53.7265508]]]}},
{"type":"Feature","properties":{"highway":"footway","name":null,"category":"Footpath (pedestrian only)"},"geometry":{"type":"MultiLineString","coordinates":[[[-2.6138488,53.7265508],[-2.6136435,53.726531],[-2.6126029,53.7264291],[-2.6123297,53.7264023],[-2.6118827,53.7267431]]]}},
{"type":"Feature","properties":{"highway":"footway","name":null,"category":"Footpath (pedestrian only)"},"geometry":{"type":"MultiLineString","coordinates":[[[-2.614173,53.7273605],[-2.6145188,53.7271694],[-2.6145017,53.7271134],[-2.6144465,53.7270512],[-2.6143813,53.7269761],[-2.614296,53.7268427],[-2.6142183,53.7267782],[-2.6141015,53.7266472],[-2.6139687,53.7265942],[-2.6138488,53.7265508]]]}},
{"type":"Feature","properties":{"highway":"footway","name":null,"category":"Footpath (pedestrian only)"},"geometry":{"type":"MultiLineString","coordinates":[[[-2.6119861,53.7267647],[-2.612488,53.7277796],[-2.6130222,53.728875]]]}},
{"type":"Feature","properties":{"highway":"footway","name":null,"category":"Footpath (pedestrian only)"},"geometry":{"type":"MultiLineString","coordinates":[[[-2.6156146,53.7222357],[-2.6160627,53.7225238],[-2.61698,53.7233227],[-2.6172204,53.7235651],[-2.617135,53.72459]]]}},
{"type":"Feature","properties":{"highway":"footway","name":null,"category":"Footpath (pedestrian only)"},"geometry":{"type":"MultiLineString","coordinates":[[[-2.6145355,53.7228005],[-2.6143245,53.722934],[-2.6139983,53.7232608],[-2.6138661,53.7234642],[-2.6138367,53.7235511],[-2.6138514,53.7238502],[-2.6138808,53.7239614],[-2.6140338,53.7242951]]]}},
{"type":"Feature","properties":{"highway":"footway","name":null,"category":"Footpath (pedestrian only)"},"geometry":{"type":"MultiLineString","coordinates":[[[-2.6140544,53.7243269],[-2.6142319,53.7246126]]]}},
{"type":"Feature","properties":{"highway":"footway","name":null,"category":"Footpath (pedestrian only)"},"geometry":{"type":"MultiLineString","coordinates":[[[-2.6140338,53.7242951],[-2.6140544,53.7243269]]]}},
{"type":"Feature","properties":{"highway":"track","name":null,"category":"Track"},"geometry":{"type":"MultiLineString","coordinates":[[[-2.6060188,53.7273612],[-2.6059377,53.7272951],[-2.6057553,53.7272459],[-2.6055354,53.7271935],[-2.6053208,53.7271554],[-2.6051733,53.7270935],[-2.6052001,53.7270332],[-2.6052538,53.7269364],[-2.6053637,53.7268825],[-2.6053959,53.726846],[-2.6052484,53.7267079],[-2.6052001,53.7266793],[-2.6052296,53.7265984],[-2.6052886,53.7265318],[-2.6057486,53.7263159]]]}}
]
}
