{
"type": "FeatureCollection",
"name": "BURNL_33_walking",
"crs": { "type": "name", "properties": { "name": "urn:ogc:def:crs:OGC:1.3:CRS84" } },
"features": [
{"type":"Feature","properties":{"highway":"footway","name":null,"category":"Footpath (pedestrian only)"},"geometry":{"type":"MultiLineString","coordinates":[[[-2.2621392,53.7767069],[-2.2612928,53.7769015],[-2.2610324,53.7769177]]]}},
{"type":"Feature","properties":{"highway":"track","name":null,"category":"Track"},"geometry":{"type":"MultiLineString","coordinates":[[[-2.2695096,53.777875],[-2.2696187,53.7778347],[-2.2698315,53.777721],[-2.2699918,53.7776315],[-2.2702134,53.7775419],[-2.2704057,53.7774747],[-2.2705981,53.7774678],[-2.2708196,53.7774782],[-2.2710149,53.7774695],[-2.2711957,53.7774489],[-2.2714114,53.777411],[-2.2715833,53.7773593],[-2.2717699,53.7772715],[-2.272038,53.7771319],[-2.2722392,53.7770269],[-2.2724811,53.7769132],[-2.2727522,53.7767909],[-2.2728717,53.7767478],[-2.2729941,53.7767203]]]}},
{"type":"Feature","properties":{"highway":"track","name":null,"category":"Track"},"geometry":{"type":"MultiLineString","coordinates":[[[-2.2735552,53.7781224],[-2.2735771,53.7780345],[-2.2735421,53.7779363],[-2.273513,53.7778433],[-2.2734926,53.7777107],[-2.2734547,53.7775953],[-2.2733701,53.777454],[-2.2732448,53.7772232],[-2.2731486,53.7770544],[-2.273067,53.7769046],[-2.2730262,53.7768081],[-2.2729941,53.7767203]]]}},
{"type":"Feature","properties":{"highway":"track","name":null,"category":"Track"},"geometry":{"type":"MultiLineString","coordinates":[[[-2.2729941,53.7767203],[-2.2730932,53.7766445],[-2.2732623,53.7765222],[-2.2733556,53.7764481],[-2.2733964,53.7763999],[-2.2734255,53.7763499],[-2.2734343,53.7762862],[-2.2734168,53.7762173],[-2.2733643,53.7761122],[-2.2729941,53.7755903],[-2.2729446,53.775499],[-2.2729067,53.7754008],[-2.2728571,53.775282],[-2.2728134,53.7750839],[-2.2727901,53.7749271],[-2.2727638,53.7747842],[-2.2727376,53.7745998],[-2.2727493,53.7744655],[-2.2727522,53.7743639],[-2.2727172,53.7742967],[-2.2726647,53.7742295],[-2.2725715,53.7741347],[-2.2725277,53.7740676],[-2.2724928,53.7739849],[-2.2724782,53.7738781],[-2.272484,53.7737937]]]}},
{"type":"Feature","properties":{"highway":"path","name":null,"category":"Shared path"},"geometry":{"type":"MultiLineString","coordinates":[[[-2.2746124,53.7855181],[-2.274718,53.7853115],[-2.2748251,53.7851021],[-2.2748806,53.7849935],[-2.2749516,53.7848616],[-2.2750535,53.7846722],[-2.2751569,53.7844801],[-2.2753044,53.7839334],[-2.2753312,53.7838097],[-2.2753205,53.7837131],[-2.2752747,53.7835853],[-2.2751514,53.7834032],[-2.2752059,53.7832818],[-2.2752623,53.7831557],[-2.2751761,53.7830355],[-2.2748248,53.7828025],[-2.2747262,53.7826496],[-2.2743134,53.7823692],[-2.2739424,53.7822058]]]}},
{"type":"Feature","properties":{"highway":"path","name":null,"category":"Shared path"},"geometry":{"type":"MultiLineString","coordinates":[[[-2.2746124,53.7855181],[-2.2744058,53.7856829],[-2.2742707,53.7856917],[-2.273797,53.7857225]]]}},
{"type":"Feature","properties":{"highway":"path","name":null,"category":"Shared path"},"geometry":{"type":"MultiLineString","coordinates":[[[-2.2763875,53.7840626],[-2.2762351,53.7841029],[-2.2759776,53.7841235],[-2.275755,53.7841647],[-2.2756048,53.7842091],[-2.2755055,53.7842582],[-2.2754144,53.7843089],[-2.2753607,53.7843692],[-2.2753124,53.7844436],[-2.275232,53.7844722],[-2.2751569,53.7844801],[-2.2750228,53.7843565],[-2.2743281,53.784049],[-2.2741094,53.783958],[-2.2739284,53.7838826],[-2.2737611,53.7838607]]]}},
{"type":"Feature","properties":{"highway":"path","name":null,"category":"Shared path"},"geometry":{"type":"MultiLineString","coordinates":[[[-2.273883,53.7859652],[-2.273797,53.7857225],[-2.2733276,53.7855101],[-2.2730851,53.7854056],[-2.2730343,53.7854464],[-2.2729367,53.7854056],[-2.2727948,53.785223]]]}},
{"type":"Feature","properties":{"highway":"footway","name":null,"category":"Footpath (pedestrian only)"},"geometry":{"type":"MultiLineString","coordinates":[[[-2.2587103,53.7868762],[-2.2584898,53.7868796],[-2.2582724,53.7868716],[-2.2581114,53.7869128],[-2.2578566,53.7869492],[-2.2576635,53.7869746],[-2.2575269,53.7869778],[-2.2574114,53.7870173],[-2.2572692,53.7870205],[-2.257154,53.7870665],[-2.257087,53.7871062],[-2.2569992,53.7871171]]]}},
{"type":"Feature","properties":{"highway":"path","name":null,"category":"Shared path"},"geometry":{"type":"MultiLineString","coordinates":[[[-2.2791121,53.7824433],[-2.2786885,53.7820362],[-2.2782526,53.7816216],[-2.2772099,53.7820184],[-2.2772187,53.7820497],[-2.2778639,53.7823401],[-2.278796,53.7827597],[-2.2789096,53.7827672]]]}},
{"type":"Feature","properties":{"highway":"path","name":null,"category":"Shared path"},"geometry":{"type":"MultiLineString","coordinates":[[[-2.2786885,53.7820362],[-2.2778639,53.7823401]]]}},
{"type":"Feature","properties":{"highway":"path","name":null,"category":"Shared path"},"geometry":{"type":"MultiLineString","coordinates":[[[-2.2664012,53.7839444],[-2.2664362,53.7840692],[-2.2663301,53.7841319],[-2.2662345,53.7842051],[-2.2662036,53.7842695],[-2.2661814,53.7843159],[-2.2661142,53.7844351],[-2.266008,53.7845438],[-2.2658523,53.7846693]]]}},
{"type":"Feature","properties":{"highway":"path","name":null,"category":"Shared path"},"geometry":{"type":"MultiLineString","coordinates":[[[-2.2658523,53.7846693],[-2.2657567,53.7846191],[-2.2656187,53.7845647],[-2.2654523,53.7845396],[-2.2652825,53.7845396],[-2.2650984,53.7845229],[-2.2649533,53.7844957],[-2.2648294,53.7844644],[-2.2647303,53.7844476],[-2.2645305,53.7844771]]]}},
{"type":"Feature","properties":{"highway":"path","name":null,"category":"Shared path"},"geometry":{"type":"MultiLineString","coordinates":[[[-2.2647303,53.7844476],[-2.2649604,53.7843891]]]}},
{"type":"Feature","properties":{"highway":"path","name":null,"category":"Shared path"},"geometry":{"type":"MultiLineString","coordinates":[[[-2.2662036,53.7842695],[-2.2660788,53.7843284],[-2.265923,53.7843556],[-2.265785,53.7843368],[-2.2656611,53.7843201]]]}},
{"type":"Feature","properties":{"highway":"path","name":null,"category":"Shared path"},"geometry":{"type":"MultiLineString","coordinates":[[[-2.2673251,53.7847607],[-2.2670184,53.7847997],[-2.2667937,53.7848282]]]}},
{"type":"Feature","properties":{"highway":"footway","name":null,"category":"Footpath (pedestrian only)"},"geometry":{"type":"MultiLineString","coordinates":[[[-2.2606364,53.7876831],[-2.2606066,53.7876903],[-2.2605498,53.787703],[-2.2604701,53.7877176],[-2.2603878,53.7877098],[-2.2603082,53.7876925],[-2.2602532,53.7876814],[-2.2602233,53.7876753],[-2.2601074,53.7876554],[-2.2599061,53.787633]]]}},
{"type":"Feature","properties":{"highway":"footway","name":null,"category":"Footpath (pedestrian only)"},"geometry":{"type":"MultiLineString","coordinates":[[[-2.2602532,53.7876814],[-2.2602052,53.7876364],[-2.2601498,53.7876],[-2.2601667,53.7875781],[-2.2601544,53.7875463],[-2.2601282,53.7875108],[-2.2600936,53.7874196]]]}},
{"type":"Feature","properties":{"highway":"footway","name":null,"category":"Footpath (pedestrian only)"},"geometry":{"type":"MultiLineString","coordinates":[[[-2.2601498,53.7876],[-2.2600743,53.7875972],[-2.2599973,53.7875963]]]}},
{"type":"Feature","properties":{"highway":"footway","name":null,"category":"Footpath (pedestrian only)"},"geometry":{"type":"MultiLineString","coordinates":[[[-2.2576573,53.781921],[-2.2574633,53.7820461],[-2.2572722,53.782147],[-2.2572031,53.7823247],[-2.2570446,53.7825361],[-2.2568901,53.7826466],[-2.2566543,53.7827079],[-2.2563647,53.7827134],[-2.2561013,53.7829288]]]}},
{"type":"Feature","properties":{"highway":"footway","name":null,"category":"Footpath (pedestrian only)"},"geometry":{"type":"MultiLineString","coordinates":[[[-2.2563647,53.7827134],[-2.2562355,53.7825914],[-2.2561542,53.7824256],[-2.2561502,53.7819908],[-2.2560119,53.7818467],[-2.2558737,53.7816642],[-2.2558252,53.7815569],[-2.2557802,53.7814576],[-2.2557343,53.7811926],[-2.2557287,53.7811404],[-2.2557203,53.7810613],[-2.2557763,53.7809868],[-2.2559997,53.7809677]]]}},
{"type":"Feature","properties":{"highway":"footway","name":null,"category":"Footpath (pedestrian only)"},"geometry":{"type":"MultiLineString","coordinates":[[[-2.2572722,53.782147],[-2.2570474,53.7820387],[-2.2568848,53.7818849],[-2.2568475,53.7817919],[-2.2568116,53.7817024],[-2.2568116,53.7815126],[-2.2569499,53.7813613],[-2.2569939,53.7813092],[-2.257019,53.7812796],[-2.2571249,53.7812618],[-2.257181,53.7812524]]]}},
{"type":"Feature","properties":{"highway":"footway","name":null,"category":"Footpath (pedestrian only)"},"geometry":{"type":"MultiLineString","coordinates":[[[-2.2568475,53.7817919],[-2.2561502,53.7819908]]]}},
{"type":"Feature","properties":{"highway":"footway","name":null,"category":"Footpath (pedestrian only)"},"geometry":{"type":"MultiLineString","coordinates":[[[-2.2558252,53.7815569],[-2.2555757,53.7815878],[-2.2553562,53.7815806],[-2.2547057,53.7815349],[-2.254677,53.7814202]]]}},
{"type":"Feature","properties":{"highway":"path","name":null,"category":"Shared path"},"geometry":{"type":"MultiLineString","coordinates":[[[-2.2795621,53.7839306],[-2.2791272,53.783934]]]}},
{"type":"Feature","properties":{"highway":"path","name":null,"category":"Shared path"},"geometry":{"type":"MultiLineString","coordinates":[[[-2.2784334,53.7832099],[-2.278387,53.7833649],[-2.2783769,53.7833988],[-2.2783448,53.783506],[-2.2781696,53.7834903],[-2.2780883,53.7834595],[-2.2780262,53.7834359],[-2.2778634,53.7834464],[-2.2778085,53.7835196]]]}},
{"type":"Feature","properties":{"highway":"path","name":null,"category":"Shared path"},"geometry":{"type":"MultiLineString","coordinates":[[[-2.2783769,53.7833988],[-2.2780262,53.7834359]]]}},
{"type":"Feature","properties":{"highway":"footway","name":null,"category":"Footpath (pedestrian only)"},"geometry":{"type":"MultiLineString","coordinates":[[[-2.278387,53.7833649],[-2.2788187,53.7834025],[-2.2787694,53.7835554],[-2.2785044,53.78353],[-2.2783889,53.7838329],[-2.278335,53.7839741],[-2.2782589,53.7840213],[-2.2782102,53.7840515],[-2.2780572,53.7840914],[-2.2780007,53.7841061],[-2.2778974,53.7840997],[-2.2776494,53.7841598],[-2.2773366,53.7841284],[-2.2771999,53.7841147]]]}},
{"type":"Feature","properties":{"highway":"footway","name":null,"category":"Footpath (pedestrian only)"},"geometry":{"type":"MultiLineString","coordinates":[[[-2.278093,53.783278],[-2.2779751,53.7833008],[-2.2778389,53.7832876],[-2.2777904,53.7832895],[-2.2777169,53.7832924],[-2.2776132,53.78329],[-2.2775279,53.7832756],[-2.2774364,53.7832768],[-2.2772681,53.7833089],[-2.2770138,53.7833573]]]}},
{"type":"Feature","properties":{"highway":"path","name":null,"category":"Shared path"},"geometry":{"type":"MultiLineString","coordinates":[[[-2.2772681,53.7833089],[-2.2771742,53.7831507],[-2.2768363,53.7832125]]]}},
{"type":"Feature","properties":{"highway":"path","name":null,"category":"Shared path"},"geometry":{"type":"MultiLineString","coordinates":[[[-2.2777904,53.7832895],[-2.2776193,53.7829898],[-2.2775421,53.7829273],[-2.2774122,53.7828704]]]}},
{"type":"Feature","properties":{"highway":"footway","name":null,"category":"Footpath (pedestrian only)"},"geometry":{"type":"MultiLineString","coordinates":[[[-2.2780613,53.7838017],[-2.2776673,53.7837588],[-2.2773653,53.7837294],[-2.2772619,53.7837193],[-2.2771189,53.7837054]]]}},
{"type":"Feature","properties":{"highway":"footway","name":null,"category":"Footpath (pedestrian only)"},"geometry":{"type":"MultiLineString","coordinates":[[[-2.2776673,53.7837588],[-2.2775902,53.7840009],[-2.2772984,53.7839678],[-2.2772736,53.783965],[-2.2771451,53.7839504]]]}},
{"type":"Feature","properties":{"highway":"footway","name":null,"category":"Footpath (pedestrian only)"},"geometry":{"type":"MultiLineString","coordinates":[[[-2.2772984,53.7839678],[-2.2773653,53.7837294]]]}},
{"type":"Feature","properties":{"highway":"path","name":null,"category":"Shared path"},"geometry":{"type":"MultiLineString","coordinates":[[[-2.2770843,53.7836372],[-2.2769816,53.7836498],[-2.2766933,53.783685],[-2.2766348,53.7836836],[-2.276242,53.7836742],[-2.2762441,53.783876],[-2.2763875,53.7839155]]]}},
{"type":"Feature","properties":{"highway":"path","name":null,"category":"Shared path"},"geometry":{"type":"MultiLineString","coordinates":[[[-2.2766933,53.783685],[-2.2766334,53.7835583],[-2.2765531,53.7833884],[-2.2765041,53.7832568]]]}},
{"type":"Feature","properties":{"highway":"path","name":null,"category":"Shared path"},"geometry":{"type":"MultiLineString","coordinates":[[[-2.2747971,53.7819476],[-2.2751687,53.7823243],[-2.275381,53.7824812],[-2.2755052,53.7825579],[-2.2755638,53.7825942],[-2.2756076,53.7826213],[-2.2758262,53.7827092],[-2.2759402,53.7827551],[-2.2761172,53.7828241],[-2.2761738,53.7828973],[-2.2761983,53.7830001],[-2.2762021,53.7830165],[-2.2762198,53.7833887],[-2.2765531,53.7833884]]]}},
{"type":"Feature","properties":{"highway":"path","name":null,"category":"Shared path"},"geometry":{"type":"MultiLineString","coordinates":[[[-2.2768081,53.7830645],[-2.2766686,53.7829965],[-2.2761983,53.7830001],[-2.2759388,53.7830037],[-2.2759402,53.7827551]]]}},
{"type":"Feature","properties":{"highway":"path","name":null,"category":"Shared path"},"geometry":{"type":"MultiLineString","coordinates":[[[-2.2766334,53.7835583],[-2.2765875,53.7835594],[-2.2762031,53.7835682],[-2.276242,53.7836742]]]}},
{"type":"Feature","properties":{"highway":"footway","name":null,"category":"Footpath (pedestrian only)"},"geometry":{"type":"MultiLineString","coordinates":[[[-2.2770913,53.7841548],[-2.2771829,53.7841734],[-2.2771041,53.7844767]]]}},
{"type":"Feature","properties":{"highway":"path","name":null,"category":"Shared path"},"geometry":{"type":"MultiLineString","coordinates":[[[-2.2748432,53.7857516],[-2.275025,53.7856232],[-2.275084,53.7855503],[-2.2752422,53.7854425],[-2.2755829,53.7853015],[-2.2756311,53.7851351],[-2.2757687,53.7848398],[-2.2759101,53.7845361],[-2.2760609,53.784561],[-2.2761612,53.7845776],[-2.2760211,53.7848856],[-2.275952,53.7850373],[-2.2760658,53.7851029]]]}},
{"type":"Feature","properties":{"highway":"path","name":null,"category":"Shared path"},"geometry":{"type":"MultiLineString","coordinates":[[[-2.2759043,53.7853414],[-2.2755829,53.7853015]]]}},
{"type":"Feature","properties":{"highway":"path","name":null,"category":"Shared path"},"geometry":{"type":"MultiLineString","coordinates":[[[-2.2760211,53.7848856],[-2.2757687,53.7848398]]]}},
{"type":"Feature","properties":{"highway":"footway","name":null,"category":"Footpath (pedestrian only)"},"geometry":{"type":"MultiLineString","coordinates":[[[-2.2763638,53.7845938],[-2.276371,53.7845256],[-2.2764099,53.7845047],[-2.2766754,53.7841335],[-2.2769833,53.7841493]]]}},
{"type":"Feature","properties":{"highway":"footway","name":null,"category":"Footpath (pedestrian only)"},"geometry":{"type":"MultiLineString","coordinates":[[[-2.2769833,53.7841493],[-2.2766618,53.7846414]]]}},
{"type":"Feature","properties":{"highway":"path","name":null,"category":"Shared path"},"geometry":{"type":"MultiLineString","coordinates":[[[-2.276371,53.7845256],[-2.2763586,53.7844984],[-2.2765267,53.7841304],[-2.2762772,53.784122],[-2.2760609,53.784561]]]}},
{"type":"Feature","properties":{"highway":"path","name":null,"category":"Shared path"},"geometry":{"type":"MultiLineString","coordinates":[[[-2.2766754,53.7841335],[-2.2765267,53.7841304]]]}},
{"type":"Feature","properties":{"highway":"footway","name":null,"category":"Footpath (pedestrian only)"},"geometry":{"type":"MultiLineString","coordinates":[[[-2.2765185,53.7851369],[-2.2765034,53.7852643],[-2.2764757,53.7852795],[-2.2760433,53.7855173],[-2.2758115,53.785533]]]}},
{"type":"Feature","properties":{"highway":"footway","name":null,"category":"Footpath (pedestrian only)"},"geometry":{"type":"MultiLineString","coordinates":[[[-2.2759292,53.7853974],[-2.2758115,53.785533],[-2.2757162,53.7856953]]]}},
{"type":"Feature","properties":{"highway":"path","name":null,"category":"Shared path"},"geometry":{"type":"MultiLineString","coordinates":[[[-2.2782526,53.7816216],[-2.2789546,53.7813555],[-2.2796304,53.7810994],[-2.2806839,53.7807001],[-2.2818329,53.7802646],[-2.2831128,53.7797795],[-2.2840789,53.7794133],[-2.284725,53.7791684],[-2.285499,53.778875],[-2.2861037,53.7786458],[-2.2867571,53.7783982],[-2.287288,53.7790841],[-2.2873526,53.7791521],[-2.2875782,53.7793894],[-2.2879463,53.7796153],[-2.2880373,53.7797882],[-2.2881214,53.779798],[-2.2882046,53.7798424],[-2.2882314,53.77992],[-2.288218,53.779985],[-2.2881751,53.7800088],[-2.2882529,53.7801562],[-2.2882716,53.7802782],[-2.2882394,53.7804098],[-2.2881536,53.7805144],[-2.2880977,53.7805461],[-2.2880195,53.7805904],[-2.2879212,53.7806306]]]}},
{"type":"Feature","properties":{"highway":"path","name":null,"category":"Shared path"},"geometry":{"type":"MultiLineString","coordinates":[[[-2.2795991,53.7820184],[-2.2795656,53.7819839],[-2.27925,53.7816594],[-2.2789546,53.7813555]]]}},
{"type":"Feature","properties":{"highway":"path","name":null,"category":"Shared path"},"geometry":{"type":"MultiLineString","coordinates":[[[-2.2795656,53.7819839],[-2.2803098,53.7817584],[-2.2814033,53.7814271],[-2.2817732,53.781315],[-2.2830021,53.7809654],[-2.2840906,53.7806557],[-2.2843266,53.7805543],[-2.2844339,53.7803894],[-2.2844715,53.7802056],[-2.2847129,53.780082],[-2.2847913,53.7800664],[-2.2851742,53.7799901],[-2.2853781,53.7799472],[-2.2854156,53.7799393],[-2.2854555,53.7799231],[-2.2863913,53.7795428],[-2.2868452,53.7793583],[-2.2873526,53.7791521]]]}},
{"type":"Feature","properties":{"highway":"path","name":null,"category":"Shared path"},"geometry":{"type":"MultiLineString","coordinates":[[[-2.2794373,53.7824101],[-2.2796328,53.7826169],[-2.2808022,53.782231],[-2.281285,53.7820789],[-2.2819234,53.7819458],[-2.2824974,53.7818475],[-2.2845557,53.7815447],[-2.2846621,53.7815144],[-2.2849527,53.7814317],[-2.2856729,53.7812267],[-2.2860426,53.781285],[-2.2861102,53.7813789]]]}},
{"type":"Feature","properties":{"highway":"path","name":null,"category":"Shared path"},"geometry":{"type":"MultiLineString","coordinates":[[[-2.2808022,53.782231],[-2.2803098,53.7817584],[-2.2799654,53.7814244],[-2.2796304,53.7810994]]]}},
{"type":"Feature","properties":{"highway":"path","name":null,"category":"Shared path"},"geometry":{"type":"MultiLineString","coordinates":[[[-2.2799654,53.7814244],[-2.2797088,53.7815079],[-2.2797101,53.7815491],[-2.279686,53.781584],[-2.279635,53.7816014],[-2.2795773,53.7815966],[-2.2795331,53.7815808],[-2.2795237,53.7815721],[-2.27925,53.7816594]]]}},
{"type":"Feature","properties":{"highway":"path","name":null,"category":"Shared path"},"geometry":{"type":"MultiLineString","coordinates":[[[-2.2797088,53.7815079],[-2.2796524,53.7814873],[-2.2796041,53.7814817],[-2.2795505,53.7814905],[-2.2795237,53.7815111],[-2.2795103,53.7815388],[-2.279513,53.7815562],[-2.2795237,53.7815721]]]}},
{"type":"Feature","properties":{"highway":"path","name":null,"category":"Shared path"},"geometry":{"type":"MultiLineString","coordinates":[[[-2.2819234,53.7819458],[-2.2814033,53.7814271],[-2.2806839,53.7807001]]]}},
{"type":"Feature","properties":{"highway":"path","name":null,"category":"Shared path"},"geometry":{"type":"MultiLineString","coordinates":[[[-2.2779943,53.7840179],[-2.2780572,53.7840914]]]}},
{"type":"Feature","properties":{"highway":"path","name":null,"category":"Shared path"},"geometry":{"type":"MultiLineString","coordinates":[[[-2.2742012,53.7854368],[-2.2740222,53.7855893],[-2.2732762,53.7852543],[-2.2730851,53.7854056]]]}},
{"type":"Feature","properties":{"highway":"path","name":null,"category":"Shared path"},"geometry":{"type":"MultiLineString","coordinates":[[[-2.2732762,53.7852543],[-2.2733026,53.7852278],[-2.2731248,53.7851442]]]}},
{"type":"Feature","properties":{"highway":"path","name":null,"category":"Shared path"},"geometry":{"type":"MultiLineString","coordinates":[[[-2.2748822,53.7858001],[-2.2748432,53.7857516],[-2.2746124,53.7855181],[-2.2742711,53.7853772],[-2.2742012,53.7854368],[-2.2741228,53.7854012],[-2.274007,53.7853486],[-2.2736092,53.7851678],[-2.2735304,53.7851263]]]}},
{"type":"Feature","properties":{"highway":"path","name":null,"category":"Shared path"},"geometry":{"type":"MultiLineString","coordinates":[[[-2.2744116,53.7851749],[-2.2741939,53.7853453],[-2.2741228,53.7854012]]]}},
{"type":"Feature","properties":{"highway":"path","name":null,"category":"Shared path"},"geometry":{"type":"MultiLineString","coordinates":[[[-2.274007,53.7853486],[-2.2740789,53.7852742]]]}},
{"type":"Feature","properties":{"highway":"path","name":null,"category":"Shared path"},"geometry":{"type":"MultiLineString","coordinates":[[[-2.2740222,53.7855893],[-2.2742707,53.7856917]]]}},
{"type":"Feature","properties":{"highway":"path","name":null,"category":"Shared path"},"geometry":{"type":"MultiLineString","coordinates":[[[-2.2726288,53.7858832],[-2.2729507,53.7856078],[-2.2730322,53.7855406]]]}},
{"type":"Feature","properties":{"highway":"path","name":null,"category":"Shared path"},"geometry":{"type":"MultiLineString","coordinates":[[[-2.2729812,53.7858661],[-2.2731722,53.7857032],[-2.2729507,53.7856078],[-2.2727491,53.7855257],[-2.2727178,53.785513],[-2.272546,53.7852824]]]}},
{"type":"Feature","properties":{"highway":"path","name":null,"category":"Shared path"},"geometry":{"type":"MultiLineString","coordinates":[[[-2.2727491,53.7855257],[-2.2725971,53.7856491],[-2.2724803,53.7857679]]]}},
{"type":"Feature","properties":{"highway":"path","name":null,"category":"Shared path"},"geometry":{"type":"MultiLineString","coordinates":[[[-2.2725361,53.7860966],[-2.2726217,53.785897],[-2.2726288,53.7858832],[-2.2724909,53.7858254],[-2.2724803,53.7857679],[-2.2724559,53.7856606],[-2.2724242,53.7856631],[-2.272357,53.7856686],[-2.2723223,53.7856714],[-2.271998,53.7856978],[-2.2719501,53.7853983]]]}},
{"type":"Feature","properties":{"highway":"path","name":null,"category":"Shared path"},"geometry":{"type":"MultiLineString","coordinates":[[[-2.272357,53.7856686],[-2.272336,53.7855744],[-2.2723049,53.7855767],[-2.2722715,53.7853561]]]}},
{"type":"Feature","properties":{"highway":"path","name":null,"category":"Shared path"},"geometry":{"type":"MultiLineString","coordinates":[[[-2.2727636,53.783783],[-2.2727726,53.7838247],[-2.2727015,53.7838846],[-2.272646,53.7839314],[-2.2724249,53.7841175],[-2.2723205,53.7842054],[-2.2722729,53.7842455],[-2.2724701,53.7843291]]]}},
{"type":"Feature","properties":{"highway":"path","name":null,"category":"Shared path"},"geometry":{"type":"MultiLineString","coordinates":[[[-2.2722613,53.7841848],[-2.2723205,53.7842054]]]}},
{"type":"Feature","properties":{"highway":"path","name":null,"category":"Shared path"},"geometry":{"type":"MultiLineString","coordinates":[[[-2.2726139,53.7844567],[-2.2729878,53.7844344],[-2.2730563,53.7844303],[-2.2730725,53.7844169],[-2.2732912,53.7842369],[-2.2733701,53.784172],[-2.27293,53.7839779]]]}},
{"type":"Feature","properties":{"highway":"path","name":null,"category":"Shared path"},"geometry":{"type":"MultiLineString","coordinates":[[[-2.2727598,53.7841079],[-2.2728256,53.7843098],[-2.2729878,53.7844344],[-2.2727988,53.7847124],[-2.2728012,53.7847243]]]}},
{"type":"Feature","properties":{"highway":"path","name":null,"category":"Shared path"},"geometry":{"type":"MultiLineString","coordinates":[[[-2.2752059,53.7832818],[-2.2743806,53.7835435],[-2.2739284,53.7838826],[-2.2736625,53.7841022],[-2.2737778,53.7841514],[-2.2736195,53.784275],[-2.2735491,53.7842459],[-2.2733701,53.784172]]]}},
{"type":"Feature","properties":{"highway":"path","name":null,"category":"Shared path"},"geometry":{"type":"MultiLineString","coordinates":[[[-2.2736625,53.7841022],[-2.2729205,53.7837688]]]}},
{"type":"Feature","properties":{"highway":"path","name":null,"category":"Shared path"},"geometry":{"type":"MultiLineString","coordinates":[[[-2.2732912,53.7842369],[-2.2734633,53.7843111],[-2.2735304,53.78434],[-2.2736625,53.784397],[-2.2734398,53.7845729],[-2.2732187,53.784479],[-2.2730725,53.7844169]]]}},
{"type":"Feature","properties":{"highway":"path","name":null,"category":"Shared path"},"geometry":{"type":"MultiLineString","coordinates":[[[-2.2732187,53.784479],[-2.2729709,53.7846899],[-2.2728012,53.7847243]]]}},
{"type":"Feature","properties":{"highway":"path","name":null,"category":"Shared path"},"geometry":{"type":"MultiLineString","coordinates":[[[-2.2736195,53.784275],[-2.2735304,53.78434]]]}},
{"type":"Feature","properties":{"highway":"path","name":null,"category":"Shared path"},"geometry":{"type":"MultiLineString","coordinates":[[[-2.2737778,53.7841514],[-2.2738297,53.7841726],[-2.2740596,53.7842669],[-2.2741135,53.784289],[-2.2741457,53.7842652],[-2.2745735,53.784457],[-2.2746506,53.7844915],[-2.2750535,53.7846722]]]}},
{"type":"Feature","properties":{"highway":"path","name":null,"category":"Shared path"},"geometry":{"type":"MultiLineString","coordinates":[[[-2.2741135,53.784289],[-2.2739451,53.7844203],[-2.2738685,53.7844799],[-2.2736625,53.784397]]]}},
{"type":"Feature","properties":{"highway":"path","name":null,"category":"Shared path"},"geometry":{"type":"MultiLineString","coordinates":[[[-2.2735491,53.7842459],[-2.2734633,53.7843111]]]}},
{"type":"Feature","properties":{"highway":"path","name":null,"category":"Shared path"},"geometry":{"type":"MultiLineString","coordinates":[[[-2.2739451,53.7844203],[-2.2740538,53.7844679],[-2.2743833,53.7846124],[-2.2744674,53.7846508],[-2.2746037,53.7847101],[-2.2749516,53.7848616]]]}},
{"type":"Feature","properties":{"highway":"path","name":null,"category":"Shared path"},"geometry":{"type":"MultiLineString","coordinates":[[[-2.2745735,53.784457],[-2.2743833,53.7846124],[-2.2742637,53.7846403]]]}},
{"type":"Feature","properties":{"highway":"path","name":null,"category":"Shared path"},"geometry":{"type":"MultiLineString","coordinates":[[[-2.2744674,53.7846508],[-2.2746506,53.7844915]]]}},
{"type":"Feature","properties":{"highway":"path","name":null,"category":"Shared path"},"geometry":{"type":"MultiLineString","coordinates":[[[-2.2740538,53.7844679],[-2.2739773,53.7845277],[-2.2737525,53.7847033],[-2.2737282,53.7847223],[-2.2738497,53.7847755],[-2.2740089,53.7848452]]]}},
{"type":"Feature","properties":{"highway":"path","name":null,"category":"Shared path"},"geometry":{"type":"MultiLineString","coordinates":[[[-2.2738685,53.7844799],[-2.2739773,53.7845277]]]}},
{"type":"Feature","properties":{"highway":"path","name":null,"category":"Shared path"},"geometry":{"type":"MultiLineString","coordinates":[[[-2.2734398,53.7845729],[-2.2735696,53.784627],[-2.2737525,53.7847033]]]}},
{"type":"Feature","properties":{"highway":"path","name":null,"category":"Shared path"},"geometry":{"type":"MultiLineString","coordinates":[[[-2.2735696,53.784627],[-2.2733195,53.7848234],[-2.2731233,53.7847483],[-2.2729709,53.7846899]]]}},
{"type":"Feature","properties":{"highway":"path","name":null,"category":"Shared path"},"geometry":{"type":"MultiLineString","coordinates":[[[-2.2731233,53.7847483],[-2.2729065,53.7849265]]]}},
{"type":"Feature","properties":{"highway":"path","name":null,"category":"Shared path"},"geometry":{"type":"MultiLineString","coordinates":[[[-2.2732291,53.7850787],[-2.273321,53.78506],[-2.2735028,53.7848962],[-2.2733195,53.7848234]]]}},
{"type":"Feature","properties":{"highway":"path","name":null,"category":"Shared path"},"geometry":{"type":"MultiLineString","coordinates":[[[-2.2735028,53.7848962],[-2.2736322,53.7849408],[-2.2736938,53.7849854],[-2.2737416,53.7850127]]]}},
{"type":"Feature","properties":{"highway":"path","name":null,"category":"Shared path"},"geometry":{"type":"MultiLineString","coordinates":[[[-2.2738497,53.7847755],[-2.2736322,53.7849408]]]}},
{"type":"Feature","properties":{"highway":"path","name":null,"category":"Shared path"},"geometry":{"type":"MultiLineString","coordinates":[[[-2.2741094,53.783958],[-2.2738297,53.7841726]]]}},
{"type":"Feature","properties":{"highway":"path","name":null,"category":"Shared path"},"geometry":{"type":"MultiLineString","coordinates":[[[-2.2743281,53.784049],[-2.2740596,53.7842669]]]}},
{"type":"Feature","properties":{"highway":"path","name":null,"category":"Shared path"},"geometry":{"type":"MultiLineString","coordinates":[[[-2.2741223,53.784754],[-2.2743865,53.7848821],[-2.2743476,53.7849146],[-2.2744554,53.7849569],[-2.2748251,53.7851021]]]}},
{"type":"Feature","properties":{"highway":"path","name":null,"category":"Shared path"},"geometry":{"type":"MultiLineString","coordinates":[[[-2.2743865,53.7848821],[-2.2746037,53.7847101]]]}},
{"type":"Feature","properties":{"highway":"path","name":null,"category":"Shared path"},"geometry":{"type":"MultiLineString","coordinates":[[[-2.2744554,53.7849569],[-2.2742717,53.7851125]]]}},
{"type":"Feature","properties":{"highway":"path","name":null,"category":"Shared path"},"geometry":{"type":"MultiLineString","coordinates":[[[-2.2738822,53.7849426],[-2.2742717,53.7851125],[-2.2744116,53.7851749],[-2.274718,53.7853115]]]}},
{"type":"Feature","properties":{"highway":"path","name":null,"category":"Shared path"},"geometry":{"type":"MultiLineString","coordinates":[[[-2.2736092,53.7851678],[-2.2737098,53.7850666]]]}},
{"type":"Feature","properties":{"highway":"path","name":null,"category":"Shared path"},"geometry":{"type":"MultiLineString","coordinates":[[[-2.2727598,53.7841079],[-2.2731055,53.784257]]]}},
{"type":"Feature","properties":{"highway":"path","name":null,"category":"Shared path"},"geometry":{"type":"MultiLineString","coordinates":[[[-2.272646,53.7839314],[-2.2724773,53.783859],[-2.27247,53.7838146]]]}},
{"type":"Feature","properties":{"highway":"path","name":null,"category":"Shared path"},"geometry":{"type":"MultiLineString","coordinates":[[[-2.2724249,53.7841175],[-2.2722808,53.7840597],[-2.272234,53.78384]]]}},
{"type":"Feature","properties":{"highway":"path","name":null,"category":"Shared path"},"geometry":{"type":"MultiLineString","coordinates":[[[-2.2724952,53.7852945],[-2.2724257,53.7852365],[-2.2716831,53.7852965],[-2.2716169,53.7852798],[-2.2713226,53.7852055],[-2.2712857,53.7851709],[-2.2712456,53.7850253],[-2.271224,53.784907],[-2.2711372,53.7844329],[-2.2710415,53.7839105]]]}},
{"type":"Feature","properties":{"highway":"path","name":null,"category":"Shared path"},"geometry":{"type":"MultiLineString","coordinates":[[[-2.2713226,53.7852055],[-2.2713653,53.7854484]]]}},
{"type":"Feature","properties":{"highway":"path","name":null,"category":"Shared path"},"geometry":{"type":"MultiLineString","coordinates":[[[-2.2716169,53.7852798],[-2.2716376,53.7854205]]]}},
{"type":"Feature","properties":{"highway":"path","name":null,"category":"Shared path"},"geometry":{"type":"MultiLineString","coordinates":[[[-2.271224,53.784907],[-2.2702133,53.784995]]]}},
{"type":"Feature","properties":{"highway":"path","name":null,"category":"Shared path"},"geometry":{"type":"MultiLineString","coordinates":[[[-2.2711372,53.7844329],[-2.2701152,53.7845124]]]}},
{"type":"Feature","properties":{"highway":"path","name":null,"category":"Shared path"},"geometry":{"type":"MultiLineString","coordinates":[[[-2.2660596,53.7765986],[-2.2661299,53.7766642],[-2.2667295,53.7768972],[-2.2668637,53.7768516]]]}},
{"type":"Feature","properties":{"highway":"path","name":null,"category":"Shared path"},"geometry":{"type":"MultiLineString","coordinates":[[[-2.2668708,53.7779897],[-2.2662165,53.7781763],[-2.2655157,53.7783761]]]}},
{"type":"Feature","properties":{"highway":"path","name":null,"category":"Shared path"},"geometry":{"type":"MultiLineString","coordinates":[[[-2.2662165,53.7781763],[-2.2660655,53.7779863]]]}},
{"type":"Feature","properties":{"highway":"path","name":null,"category":"Shared path"},"geometry":{"type":"MultiLineString","coordinates":[[[-2.2642406,53.776769],[-2.2646178,53.7766615],[-2.2646727,53.7766255],[-2.2646666,53.7765871],[-2.2646341,53.7765498],[-2.2646188,53.7765476],[-2.2645751,53.7765414],[-2.2641526,53.7766563]]]}},
{"type":"Feature","properties":{"highway":"path","name":null,"category":"Shared path"},"geometry":{"type":"MultiLineString","coordinates":[[[-2.2648731,53.7761287],[-2.2648455,53.7761919],[-2.2648679,53.7762183],[-2.2648414,53.7763492],[-2.2646188,53.7765476]]]}},
{"type":"Feature","properties":{"highway":"footway","name":null,"category":"Footpath (pedestrian only)"},"geometry":{"type":"MultiLineString","coordinates":[[[-2.2652641,53.7761718],[-2.2648731,53.7761287],[-2.2646803,53.7760384],[-2.2645062,53.77599]]]}},
{"type":"Feature","properties":{"highway":"path","name":null,"category":"Shared path"},"geometry":{"type":"MultiLineString","coordinates":[[[-2.2651414,53.776982],[-2.2651237,53.7768806],[-2.2651768,53.7767865],[-2.2653361,53.7766348],[-2.2652759,53.7765229],[-2.2651131,53.7763954],[-2.2650087,53.7763703],[-2.2648414,53.7763492]]]}},
{"type":"Feature","properties":{"highway":"path","name":null,"category":"Shared path"},"geometry":{"type":"MultiLineString","coordinates":[[[-2.2700128,53.7840141],[-2.2699398,53.78402],[-2.2693533,53.7840677],[-2.2692035,53.7841599]]]}},
{"type":"Feature","properties":{"highway":"path","name":null,"category":"Shared path"},"geometry":{"type":"MultiLineString","coordinates":[[[-2.2699474,53.7851981],[-2.2701573,53.7847195]]]}},
{"type":"Feature","properties":{"highway":"path","name":null,"category":"Shared path"},"geometry":{"type":"MultiLineString","coordinates":[[[-2.2686971,53.7829174],[-2.2687036,53.7831281],[-2.2687042,53.7831462],[-2.2687416,53.7833399],[-2.2687624,53.7834472],[-2.268788,53.7835795],[-2.2688071,53.7836784],[-2.2688349,53.7838222],[-2.2688863,53.7839215],[-2.268975,53.7839932],[-2.2690731,53.7840402],[-2.2692035,53.7841599]]]}},
{"type":"Feature","properties":{"highway":"path","name":null,"category":"Shared path"},"geometry":{"type":"MultiLineString","coordinates":[[[-2.2689527,53.7832043],[-2.268774,53.7831653],[-2.2687036,53.7831281]]]}},
{"type":"Feature","properties":{"highway":"path","name":null,"category":"Shared path"},"geometry":{"type":"MultiLineString","coordinates":[[[-2.2687416,53.7833399],[-2.2686288,53.7832654],[-2.2685457,53.783221],[-2.2683426,53.7831343]]]}},
{"type":"Feature","properties":{"highway":"path","name":null,"category":"Shared path"},"geometry":{"type":"MultiLineString","coordinates":[[[-2.2688071,53.7836784],[-2.2689338,53.7837384],[-2.2695924,53.7839017],[-2.2698119,53.7839762],[-2.2699398,53.78402]]]}},
{"type":"Feature","properties":{"highway":"footway","name":null,"category":"Footpath (pedestrian only)"},"geometry":{"type":"MultiLineString","coordinates":[[[-2.2739424,53.7822058],[-2.2738016,53.7824919],[-2.2735576,53.782761],[-2.2732014,53.7830864],[-2.2730367,53.7832667],[-2.2728048,53.7834938],[-2.2726553,53.7836118],[-2.2725941,53.7836281],[-2.2721333,53.7836744]]]}},
{"type":"Feature","properties":{"highway":"path","name":null,"category":"Shared path"},"geometry":{"type":"MultiLineString","coordinates":[[[-2.272096,53.7836781],[-2.2721333,53.7836744],[-2.2721686,53.783847]]]}},
{"type":"Feature","properties":{"highway":"footway","name":null,"category":"Footpath (pedestrian only)"},"geometry":{"type":"MultiLineString","coordinates":[[[-2.2623307,53.7831279],[-2.2625118,53.7831345],[-2.2629,53.7831782],[-2.2630387,53.7831837],[-2.2637365,53.783091]]]}},
{"type":"Feature","properties":{"highway":"footway","name":null,"category":"Footpath (pedestrian only)"},"geometry":{"type":"MultiLineString","coordinates":[[[-2.263047,53.7844536],[-2.2628713,53.7841156],[-2.2623307,53.7831279]]]}},
{"type":"Feature","properties":{"highway":"footway","name":null,"category":"Footpath (pedestrian only)"},"geometry":{"type":"MultiLineString","coordinates":[[[-2.2633257,53.7804319],[-2.2641718,53.7801827]]]}},
{"type":"Feature","properties":{"highway":"path","name":null,"category":"Shared path"},"geometry":{"type":"MultiLineString","coordinates":[[[-2.2620164,53.7818244],[-2.2620667,53.7817654],[-2.2623199,53.781468],[-2.2623306,53.7814555],[-2.2621436,53.7813991],[-2.2618205,53.7817689]]]}},
{"type":"Feature","properties":{"highway":"path","name":null,"category":"Shared path"},"geometry":{"type":"MultiLineString","coordinates":[[[-2.2634198,53.781105],[-2.26348,53.781042],[-2.2635013,53.7810054],[-2.263503,53.780974],[-2.2634818,53.7809468],[-2.2634446,53.7809259],[-2.2633933,53.7809123],[-2.263342,53.7809175],[-2.2632978,53.7809301],[-2.2632588,53.7809562],[-2.2631892,53.7810248]]]}},
{"type":"Feature","properties":{"highway":"path","name":null,"category":"Shared path"},"geometry":{"type":"MultiLineString","coordinates":[[[-2.2633445,53.7810788],[-2.2631424,53.7813124],[-2.2629112,53.7812379],[-2.2631181,53.7810001]]]}},
{"type":"Feature","properties":{"highway":"footway","name":null,"category":"Footpath (pedestrian only)"},"geometry":{"type":"MultiLineString","coordinates":[[[-2.2618443,53.7889696],[-2.2619196,53.7889461],[-2.2619287,53.788884]]]}},
{"type":"Feature","properties":{"highway":"path","name":"Florence Street","category":"Shared path"},"geometry":{"type":"MultiLineString","coordinates":[[[-2.2702016,53.7849373],[-2.2702133,53.784995],[-2.2702303,53.7850783]]]}},
{"type":"Feature","properties":{"highway":"footway","name":null,"category":"Footpath (pedestrian only)"},"geometry":{"type":"MultiLineString","coordinates":[[[-2.2673956,53.7816596],[-2.2674013,53.7816341],[-2.2674068,53.7815679]]]}},
{"type":"Feature","properties":{"highway":"footway","name":null,"category":"Footpath (pedestrian only)"},"geometry":{"type":"MultiLineString","coordinates":[[[-2.2685397,53.7816025],[-2.2685338,53.7816747],[-2.2685318,53.7817083]]]}},
{"type":"Feature","properties":{"highway":"footway","name":null,"category":"Footpath (pedestrian only)"},"geometry":{"type":"MultiLineString","coordinates":[[[-2.2677594,53.7798025],[-2.267728,53.779836],[-2.2677011,53.7798646]]]}},
{"type":"Feature","properties":{"highway":"footway","name":null,"category":"Footpath (pedestrian only)"},"geometry":{"type":"MultiLineString","coordinates":[[[-2.2677011,53.7798646],[-2.2674302,53.7799418],[-2.2673147,53.7799478],[-2.2672784,53.7799578],[-2.2669073,53.7800607]]]}},
{"type":"Feature","properties":{"highway":"footway","name":null,"category":"Footpath (pedestrian only)"},"geometry":{"type":"MultiLineString","coordinates":[[[-2.2677386,53.7796298],[-2.2678702,53.7798003]]]}},
{"type":"Feature","properties":{"highway":"footway","name":null,"category":"Footpath (pedestrian only)"},"geometry":{"type":"MultiLineString","coordinates":[[[-2.2681468,53.7798239],[-2.2680988,53.7797458]]]}},
{"type":"Feature","properties":{"highway":"footway","name":null,"category":"Footpath (pedestrian only)"},"geometry":{"type":"MultiLineString","coordinates":[[[-2.2666811,53.7798444],[-2.2669568,53.7797697]]]}},
{"type":"Feature","properties":{"highway":"footway","name":null,"category":"Footpath (pedestrian only)"},"geometry":{"type":"MultiLineString","coordinates":[[[-2.2665625,53.7796754],[-2.2667105,53.7796424]]]}},
{"type":"Feature","properties":{"highway":"footway","name":null,"category":"Footpath (pedestrian only)"},"geometry":{"type":"MultiLineString","coordinates":[[[-2.2672784,53.7799578],[-2.2671243,53.7797581]]]}},
{"type":"Feature","properties":{"highway":"footway","name":null,"category":"Footpath (pedestrian only)"},"geometry":{"type":"MultiLineString","coordinates":[[[-2.2668442,53.7799959],[-2.2669433,53.7799682]]]}},
{"type":"Feature","properties":{"highway":"path","name":null,"category":"Shared path"},"geometry":{"type":"MultiLineString","coordinates":[[[-2.2784334,53.7832099],[-2.2782109,53.7832552],[-2.278093,53.783278]]]}},
{"type":"Feature","properties":{"highway":"path","name":null,"category":"Shared path"},"geometry":{"type":"MultiLineString","coordinates":[[[-2.2784391,53.7831909],[-2.2784334,53.7832099]]]}},
{"type":"Feature","properties":{"highway":"footway","name":null,"category":"Footpath (pedestrian only)"},"geometry":{"type":"MultiLineString","coordinates":[[[-2.2766618,53.7846414],[-2.2766469,53.7847279],[-2.2765821,53.7848889],[-2.2765762,53.7849882],[-2.2765202,53.7850901],[-2.2764069,53.7851285],[-2.2763846,53.7851693],[-2.2759292,53.7853974]]]}},
{"type":"Feature","properties":{"highway":"footway","name":null,"category":"Footpath (pedestrian only)"},"geometry":{"type":"MultiLineString","coordinates":[[[-2.2759043,53.7853414],[-2.2759292,53.7853974]]]}},
{"type":"Feature","properties":{"highway":"footway","name":null,"category":"Footpath (pedestrian only)"},"geometry":{"type":"MultiLineString","coordinates":[[[-2.2769833,53.7841493],[-2.2770913,53.7841548]]]}},
{"type":"Feature","properties":{"highway":"path","name":null,"category":"Shared path"},"geometry":{"type":"MultiLineString","coordinates":[[[-2.2770138,53.7833573],[-2.2769331,53.7833727]]]}},
{"type":"Feature","properties":{"highway":"footway","name":null,"category":"Footpath (pedestrian only)"},"geometry":{"type":"MultiLineString","coordinates":[[[-2.2770138,53.7833573],[-2.2771681,53.7835924]]]}},
{"type":"Feature","properties":{"highway":"footway","name":null,"category":"Footpath (pedestrian only)"},"geometry":{"type":"MultiLineString","coordinates":[[[-2.2771681,53.7835924],[-2.2772296,53.7836822],[-2.2772619,53.7837193],[-2.2772736,53.783965],[-2.2772164,53.7840249],[-2.2771999,53.7841147]]]}},
{"type":"Feature","properties":{"highway":"footway","name":null,"category":"Footpath (pedestrian only)"},"geometry":{"type":"MultiLineString","coordinates":[[[-2.2771999,53.7841147],[-2.2771829,53.7841734]]]}},
{"type":"Feature","properties":{"highway":"footway","name":null,"category":"Footpath (pedestrian only)"},"geometry":{"type":"MultiLineString","coordinates":[[[-2.2771999,53.7841147],[-2.2771044,53.7841051]]]}},
{"type":"Feature","properties":{"highway":"footway","name":null,"category":"Footpath (pedestrian only)"},"geometry":{"type":"MultiLineString","coordinates":[[[-2.2611783,53.777643],[-2.2611464,53.7776501],[-2.2603579,53.7778266],[-2.2599948,53.7776898],[-2.2602719,53.7776183]]]}},
{"type":"Feature","properties":{"highway":"footway","name":null,"category":"Footpath (pedestrian only)"},"geometry":{"type":"MultiLineString","coordinates":[[[-2.2611464,53.7776501],[-2.2609087,53.777291],[-2.2599078,53.7775618],[-2.2599948,53.7776898]]]}},
{"type":"Feature","properties":{"highway":"footway","name":null,"category":"Footpath (pedestrian only)"},"geometry":{"type":"MultiLineString","coordinates":[[[-2.2593081,53.7778504],[-2.2599948,53.7776898],[-2.2602254,53.7780101],[-2.2598745,53.7780931]]]}},
{"type":"Feature","properties":{"highway":"footway","name":null,"category":"Footpath (pedestrian only)"},"geometry":{"type":"MultiLineString","coordinates":[[[-2.2622748,53.7766867],[-2.2623529,53.7766628],[-2.2626653,53.7765534]]]}},
{"type":"Feature","properties":{"highway":"footway","name":null,"category":"Footpath (pedestrian only)"},"geometry":{"type":"MultiLineString","coordinates":[[[-2.2621556,53.7767233],[-2.2622748,53.7766867]]]}},
{"type":"Feature","properties":{"highway":"footway","name":null,"category":"Footpath (pedestrian only)"},"geometry":{"type":"MultiLineString","coordinates":[[[-2.2622928,53.7784915],[-2.2620855,53.778092],[-2.2618784,53.7780509]]]}},
{"type":"Feature","properties":{"highway":"footway","name":null,"category":"Footpath (pedestrian only)"},"geometry":{"type":"MultiLineString","coordinates":[[[-2.2673318,53.7772731],[-2.2665332,53.7775614]]]}},
{"type":"Feature","properties":{"highway":"footway","name":null,"category":"Footpath (pedestrian only)"},"geometry":{"type":"MultiLineString","coordinates":[[[-2.2736875,53.7817978],[-2.2733485,53.7814337],[-2.2730901,53.7812909]]]}},
{"type":"Feature","properties":{"highway":"footway","name":null,"category":"Footpath (pedestrian only)"},"geometry":{"type":"MultiLineString","coordinates":[[[-2.2738547,53.7818325],[-2.2745887,53.7818351]]]}},
{"type":"Feature","properties":{"highway":"path","name":null,"category":"Shared path"},"geometry":{"type":"MultiLineString","coordinates":[[[-2.2738388,53.7817384],[-2.2738547,53.7818325]]]}},
{"type":"Feature","properties":{"highway":"footway","name":null,"category":"Footpath (pedestrian only)"},"geometry":{"type":"MultiLineString","coordinates":[[[-2.2738547,53.7818325],[-2.2738679,53.7819104],[-2.2739146,53.7820539],[-2.2739398,53.7821154],[-2.2739424,53.7822058]]]}},
{"type":"Feature","properties":{"highway":"path","name":null,"category":"Shared path"},"geometry":{"type":"MultiLineString","coordinates":[[[-2.2732957,53.7851083],[-2.2732291,53.7850787],[-2.2729222,53.7849421],[-2.2729065,53.7849265],[-2.2728256,53.7848455],[-2.2728012,53.7847243],[-2.2726678,53.7847327],[-2.2726139,53.7844567],[-2.2724984,53.7844636],[-2.2724701,53.7843291],[-2.2727598,53.7841079],[-2.27293,53.7839779]]]}},
{"type":"Feature","properties":{"highway":"path","name":null,"category":"Shared path"},"geometry":{"type":"MultiLineString","coordinates":[[[-2.27293,53.7839779],[-2.2727015,53.7838846]]]}},
{"type":"Feature","properties":{"highway":"path","name":null,"category":"Shared path"},"geometry":{"type":"MultiLineString","coordinates":[[[-2.2742711,53.7853772],[-2.2741939,53.7853453],[-2.2741159,53.7852896]]]}},
{"type":"Feature","properties":{"highway":"path","name":null,"category":"Shared path"},"geometry":{"type":"MultiLineString","coordinates":[[[-2.2733276,53.7855101],[-2.2732625,53.7855624],[-2.2731613,53.7855371]]]}},
{"type":"Feature","properties":{"highway":"path","name":null,"category":"Shared path"},"geometry":{"type":"MultiLineString","coordinates":[[[-2.2725033,53.7861731],[-2.2725361,53.7860966]]]}},
{"type":"Feature","properties":{"highway":"path","name":null,"category":"Shared path"},"geometry":{"type":"MultiLineString","coordinates":[[[-2.2725971,53.7856491],[-2.2724559,53.7856606]]]}},
{"type":"Feature","properties":{"highway":"path","name":null,"category":"Shared path"},"geometry":{"type":"MultiLineString","coordinates":[[[-2.2633954,53.7882253],[-2.2632066,53.7882267]]]}},
{"type":"Feature","properties":{"highway":"path","name":null,"category":"Shared path"},"geometry":{"type":"MultiLineString","coordinates":[[[-2.2635474,53.7880306],[-2.2635369,53.7880086],[-2.2634913,53.7880162],[-2.2634538,53.7879416]]]}},
{"type":"Feature","properties":{"highway":"path","name":null,"category":"Shared path"},"geometry":{"type":"MultiLineString","coordinates":[[[-2.2635395,53.7882231],[-2.2633954,53.7882253]]]}},
{"type":"Feature","properties":{"highway":"footway","name":null,"category":"Footpath (pedestrian only)"},"geometry":{"type":"MultiLineString","coordinates":[[[-2.2630128,53.7894634],[-2.2631056,53.789551]]]}},
{"type":"Feature","properties":{"highway":"footway","name":null,"category":"Footpath (pedestrian only)"},"geometry":{"type":"MultiLineString","coordinates":[[[-2.2583684,53.7811766],[-2.2583288,53.7810378],[-2.2582973,53.7809671],[-2.2582784,53.7808982],[-2.2582658,53.78082],[-2.2582186,53.7807418],[-2.2581051,53.7806506],[-2.2578972,53.7805557],[-2.2577334,53.7804813],[-2.2576169,53.7804124],[-2.2575917,53.7803305],[-2.2575854,53.7802635],[-2.2575255,53.7801927],[-2.257508,53.7801676],[-2.2574436,53.7800755],[-2.257368,53.7799768]]]}},
{"type":"Feature","properties":{"highway":"footway","name":null,"category":"Footpath (pedestrian only)"},"geometry":{"type":"MultiLineString","coordinates":[[[-2.257368,53.7799768],[-2.2573306,53.7799132]]]}},
{"type":"Feature","properties":{"highway":"footway","name":null,"category":"Footpath (pedestrian only)"},"geometry":{"type":"MultiLineString","coordinates":[[[-2.2566367,53.7799796],[-2.2566634,53.7800318],[-2.2567072,53.7800975],[-2.2567846,53.7801532],[-2.2568486,53.780199],[-2.2568957,53.7802547],[-2.2569125,53.7803104],[-2.2569125,53.780386],[-2.2569125,53.7804795],[-2.2569327,53.7805252],[-2.2570203,53.780563],[-2.2570472,53.7806147],[-2.2570472,53.7806824],[-2.2570506,53.7807321],[-2.2571179,53.780764],[-2.2572593,53.780754],[-2.2572879,53.7807393]]]}},
{"type":"Feature","properties":{"highway":"footway","name":null,"category":"Footpath (pedestrian only)"},"geometry":{"type":"MultiLineString","coordinates":[[[-2.2573906,53.7806864],[-2.2573704,53.7806247],[-2.2573671,53.7805531],[-2.2573603,53.7804417],[-2.2573805,53.7803521],[-2.2574075,53.7802706],[-2.2574613,53.7802009],[-2.257508,53.7801676]]]}},
{"type":"Feature","properties":{"highway":"footway","name":null,"category":"Footpath (pedestrian only)"},"geometry":{"type":"MultiLineString","coordinates":[[[-2.2572879,53.7807393],[-2.2573906,53.7806864]]]}},
{"type":"Feature","properties":{"highway":"footway","name":null,"category":"Footpath (pedestrian only)"},"geometry":{"type":"MultiLineString","coordinates":[[[-2.2571179,53.780764],[-2.2570876,53.7808296],[-2.257054,53.7808793],[-2.2570068,53.7809291],[-2.2569664,53.7809907],[-2.2570641,53.7811598],[-2.2571249,53.7812618]]]}},
{"type":"Feature","properties":{"highway":"footway","name":null,"category":"Footpath (pedestrian only)"},"geometry":{"type":"MultiLineString","coordinates":[[[-2.2569939,53.7813092],[-2.2568216,53.7813528],[-2.2566903,53.7814125],[-2.2565725,53.7814881],[-2.2564344,53.7815876],[-2.2563267,53.781693],[-2.2562459,53.7818362],[-2.2561502,53.7819908]]]}},
{"type":"Feature","properties":{"highway":"footway","name":null,"category":"Footpath (pedestrian only)"},"geometry":{"type":"MultiLineString","coordinates":[[[-2.2587206,53.7812318],[-2.2583684,53.7811766],[-2.2580638,53.7812286],[-2.2579159,53.7813488],[-2.2579282,53.7814944],[-2.2579713,53.7816437],[-2.2578239,53.7817961],[-2.2577375,53.7818609]]]}},
{"type":"Feature","properties":{"highway":"footway","name":null,"category":"Footpath (pedestrian only)"},"geometry":{"type":"MultiLineString","coordinates":[[[-2.2577375,53.7818609],[-2.2576573,53.781921]]]}},
{"type":"Feature","properties":{"highway":"footway","name":null,"category":"Footpath (pedestrian only)"},"geometry":{"type":"MultiLineString","coordinates":[[[-2.2573206,53.7812289],[-2.2575475,53.7811907],[-2.2575678,53.7814742],[-2.2576044,53.7816447],[-2.2578239,53.7817961]]]}},
{"type":"Feature","properties":{"highway":"footway","name":null,"category":"Footpath (pedestrian only)"},"geometry":{"type":"MultiLineString","coordinates":[[[-2.257181,53.7812524],[-2.2573206,53.7812289]]]}},
{"type":"Feature","properties":{"highway":"footway","name":null,"category":"Footpath (pedestrian only)"},"geometry":{"type":"MultiLineString","coordinates":[[[-2.2583684,53.7811766],[-2.2581819,53.7811738],[-2.2579664,53.7811758],[-2.2577307,53.7811837],[-2.2575475,53.7811907]]]}},
{"type":"Feature","properties":{"highway":"footway","name":null,"category":"Footpath (pedestrian only)"},"geometry":{"type":"MultiLineString","coordinates":[[[-2.2570506,53.7807321],[-2.2568644,53.7807063],[-2.2567024,53.7806744],[-2.2565981,53.780668],[-2.2565117,53.7806765],[-2.2564146,53.7807105],[-2.256375,53.7807764],[-2.2563898,53.7808411]]]}},
{"type":"Feature","properties":{"highway":"footway","name":null,"category":"Footpath (pedestrian only)"},"geometry":{"type":"MultiLineString","coordinates":[[[-2.2618812,53.7832175],[-2.2623307,53.7831279]]]}},
{"type":"Feature","properties":{"highway":"footway","name":null,"category":"Footpath (pedestrian only)"},"geometry":{"type":"MultiLineString","coordinates":[[[-2.2623307,53.7831279],[-2.262177,53.7827666],[-2.2621429,53.7826564],[-2.2621699,53.7825344],[-2.2622391,53.7823925],[-2.2626466,53.781999]]]}},
{"type":"Feature","properties":{"highway":"footway","name":null,"category":"Footpath (pedestrian only)"},"geometry":{"type":"MultiLineString","coordinates":[[[-2.2612235,53.7854764],[-2.2608572,53.7855359]]]}},
{"type":"Feature","properties":{"highway":"track","name":null,"category":"Track"},"geometry":{"type":"MultiLineString","coordinates":[[[-2.2704057,53.7774747],[-2.2704621,53.7773469]]]}},
{"type":"Feature","properties":{"highway":"footway","name":null,"category":"Footpath (pedestrian only)"},"geometry":{"type":"MultiLineString","coordinates":[[[-2.2662578,53.7772951],[-2.265838,53.7774929]]]}},
{"type":"Feature","properties":{"highway":"footway","name":null,"category":"Footpath (pedestrian only)"},"geometry":{"type":"MultiLineString","coordinates":[[[-2.2560614,53.7837073],[-2.2563002,53.783491]]]}},
{"type":"Feature","properties":{"highway":"footway","name":null,"category":"Footpath (pedestrian only)"},"geometry":{"type":"MultiLineString","coordinates":[[[-2.2558573,53.783612],[-2.2560954,53.7833976]]]}},
{"type":"Feature","properties":{"highway":"footway","name":null,"category":"Footpath (pedestrian only)"},"geometry":{"type":"MultiLineString","coordinates":[[[-2.2692035,53.7841599],[-2.2677146,53.7840161],[-2.2673782,53.7839836],[-2.2670395,53.7840266]]]}},
{"type":"Feature","properties":{"highway":"footway","name":null,"category":"Footpath (pedestrian only)"},"geometry":{"type":"MultiLineString","coordinates":[[[-2.2675581,53.7842483],[-2.2677146,53.7840161],[-2.2680821,53.7834711],[-2.2682857,53.7831692]]]}},
{"type":"Feature","properties":{"highway":"footway","name":null,"category":"Footpath (pedestrian only)"},"geometry":{"type":"MultiLineString","coordinates":[[[-2.2680821,53.7834711],[-2.2688071,53.7836784]]]}},
{"type":"Feature","properties":{"highway":"footway","name":null,"category":"Footpath (pedestrian only)"},"geometry":{"type":"MultiLineString","coordinates":[[[-2.2648408,53.7852231],[-2.2664804,53.7849741],[-2.2667937,53.7848282]]]}},
{"type":"Feature","properties":{"highway":"footway","name":null,"category":"Footpath (pedestrian only)"},"geometry":{"type":"MultiLineString","coordinates":[[[-2.2690409,53.7827182],[-2.2687525,53.7826245],[-2.268443,53.7826244]]]}},
{"type":"Feature","properties":{"highway":"footway","name":null,"category":"Footpath (pedestrian only)"},"geometry":{"type":"MultiLineString","coordinates":[[[-2.2707765,53.7825641],[-2.2710504,53.7822726]]]}},
{"type":"Feature","properties":{"highway":"footway","name":null,"category":"Footpath (pedestrian only)"},"geometry":{"type":"MultiLineString","coordinates":[[[-2.2697247,53.7828635],[-2.269056,53.7827094]]]}},
{"type":"Feature","properties":{"highway":"footway","name":null,"category":"Footpath (pedestrian only)"},"geometry":{"type":"MultiLineString","coordinates":[[[-2.2668983,53.7865731],[-2.2672231,53.7863533]]]}},
{"type":"Feature","properties":{"highway":"footway","name":null,"category":"Footpath (pedestrian only)"},"geometry":{"type":"MultiLineString","coordinates":[[[-2.2676536,53.7882283],[-2.2678805,53.7873168]]]}},
{"type":"Feature","properties":{"highway":"footway","name":null,"category":"Footpath (pedestrian only)"},"geometry":{"type":"MultiLineString","coordinates":[[[-2.2658069,53.7881986],[-2.2654569,53.7881301],[-2.2651571,53.7880714],[-2.2651074,53.7880617],[-2.2649645,53.7877647]]]}},
{"type":"Feature","properties":{"highway":"footway","name":null,"category":"Footpath (pedestrian only)"},"geometry":{"type":"MultiLineString","coordinates":[[[-2.2657083,53.7884115],[-2.2658069,53.7881986]]]}},
{"type":"Feature","properties":{"highway":"footway","name":null,"category":"Footpath (pedestrian only)"},"geometry":{"type":"MultiLineString","coordinates":[[[-2.2650437,53.7883113],[-2.2651571,53.7880714]]]}},
{"type":"Feature","properties":{"highway":"footway","name":null,"category":"Footpath (pedestrian only)"},"geometry":{"type":"MultiLineString","coordinates":[[[-2.2689147,53.7882204],[-2.2676536,53.7882283]]]}},
{"type":"Feature","properties":{"highway":"footway","name":null,"category":"Footpath (pedestrian only)"},"geometry":{"type":"MultiLineString","coordinates":[[[-2.2759322,53.7841037],[-2.2759388,53.7830037]]]}},
{"type":"Feature","properties":{"highway":"footway","name":null,"category":"Footpath (pedestrian only)"},"geometry":{"type":"MultiLineString","coordinates":[[[-2.2769833,53.7841493],[-2.2770097,53.7839155],[-2.2770236,53.7837506],[-2.2769816,53.7836498],[-2.2767391,53.7832401]]]}},
{"type":"Feature","properties":{"highway":"footway","name":null,"category":"Footpath (pedestrian only)"},"geometry":{"type":"MultiLineString","coordinates":[[[-2.2792168,53.7837258],[-2.2790587,53.783803],[-2.2789953,53.7837364],[-2.2789026,53.7836812],[-2.278742,53.7835857],[-2.2787694,53.7835554]]]}},
{"type":"Feature","properties":{"highway":"footway","name":null,"category":"Footpath (pedestrian only)"},"geometry":{"type":"MultiLineString","coordinates":[[[-2.2790587,53.783803],[-2.2786653,53.7839371],[-2.2782589,53.7840213]]]}},
{"type":"Feature","properties":{"highway":"footway","name":null,"category":"Footpath (pedestrian only)"},"geometry":{"type":"MultiLineString","coordinates":[[[-2.2789026,53.7836812],[-2.2783889,53.7838329]]]}},
{"type":"Feature","properties":{"highway":"footway","name":null,"category":"Footpath (pedestrian only)"},"geometry":{"type":"MultiLineString","coordinates":[[[-2.282018,53.783886],[-2.2815615,53.784234]]]}},
{"type":"Feature","properties":{"highway":"footway","name":null,"category":"Footpath (pedestrian only)"},"geometry":{"type":"MultiLineString","coordinates":[[[-2.2810228,53.7838722],[-2.280408,53.7835209],[-2.2798598,53.7832077],[-2.280104,53.7830746]]]}},
{"type":"Feature","properties":{"highway":"footway","name":null,"category":"Footpath (pedestrian only)"},"geometry":{"type":"MultiLineString","coordinates":[[[-2.2806275,53.7833891],[-2.280408,53.7835209]]]}},
{"type":"Feature","properties":{"highway":"footway","name":null,"category":"Footpath (pedestrian only)"},"geometry":{"type":"MultiLineString","coordinates":[[[-2.2804559,53.7827399],[-2.2801375,53.7825646]]]}},
{"type":"Feature","properties":{"highway":"footway","name":null,"category":"Footpath (pedestrian only)"},"geometry":{"type":"MultiLineString","coordinates":[[[-2.2640056,53.7798592],[-2.2644513,53.7797801],[-2.2643362,53.7795199]]]}},
{"type":"Feature","properties":{"highway":"footway","name":null,"category":"Footpath (pedestrian only)"},"geometry":{"type":"MultiLineString","coordinates":[[[-2.2625014,53.7764015],[-2.2621573,53.7765015],[-2.2620032,53.7765463]]]}},
{"type":"Feature","properties":{"highway":"footway","name":null,"category":"Footpath (pedestrian only)"},"geometry":{"type":"MultiLineString","coordinates":[[[-2.2624127,53.7762988],[-2.2620613,53.7764013],[-2.2619162,53.7764436]]]}},
{"type":"Feature","properties":{"highway":"footway","name":null,"category":"Footpath (pedestrian only)"},"geometry":{"type":"MultiLineString","coordinates":[[[-2.2621573,53.7765015],[-2.2620613,53.7764013]]]}},
{"type":"Feature","properties":{"highway":"footway","name":null,"category":"Footpath (pedestrian only)"},"geometry":{"type":"MultiLineString","coordinates":[[[-2.262354,53.7762308],[-2.2622584,53.776124],[-2.2617684,53.7762723]]]}},
{"type":"Feature","properties":{"highway":"footway","name":null,"category":"Footpath (pedestrian only)"},"geometry":{"type":"MultiLineString","coordinates":[[[-2.2569992,53.7871171],[-2.2579037,53.7863106]]]}},
{"type":"Feature","properties":{"highway":"footway","name":null,"category":"Footpath (pedestrian only)"},"geometry":{"type":"MultiLineString","coordinates":[[[-2.2575866,53.7863326],[-2.2574245,53.7861693],[-2.2569245,53.7859149],[-2.2569424,53.7857214]]]}},
{"type":"Feature","properties":{"highway":"footway","name":null,"category":"Footpath (pedestrian only)"},"geometry":{"type":"MultiLineString","coordinates":[[[-2.2569424,53.7857214],[-2.2566324,53.7857306],[-2.2562066,53.785637],[-2.2561658,53.7856308],[-2.2560389,53.7856117]]]}},
{"type":"Feature","properties":{"highway":"footway","name":null,"category":"Footpath (pedestrian only)"},"geometry":{"type":"MultiLineString","coordinates":[[[-2.2570161,53.7872536],[-2.2574209,53.7872758]]]}},
{"type":"Feature","properties":{"highway":"footway","name":null,"category":"Footpath (pedestrian only)"},"geometry":{"type":"MultiLineString","coordinates":[[[-2.2618016,53.7846427],[-2.2617378,53.7844239],[-2.2615022,53.7836166],[-2.2616265,53.7833986]]]}},
{"type":"Feature","properties":{"highway":"footway","name":null,"category":"Footpath (pedestrian only)"},"geometry":{"type":"MultiLineString","coordinates":[[[-2.2613687,53.7846642],[-2.2617378,53.7844239]]]}},
{"type":"Feature","properties":{"highway":"footway","name":null,"category":"Footpath (pedestrian only)"},"geometry":{"type":"MultiLineString","coordinates":[[[-2.2633095,53.7863457],[-2.2652232,53.7860916]]]}},
{"type":"Feature","properties":{"highway":"footway","name":null,"category":"Footpath (pedestrian only)"},"geometry":{"type":"MultiLineString","coordinates":[[[-2.2653976,53.7872766],[-2.265336,53.7872357]]]}},
{"type":"Feature","properties":{"highway":"footway","name":null,"category":"Footpath (pedestrian only)"},"geometry":{"type":"MultiLineString","coordinates":[[[-2.2665603,53.7878015],[-2.2663336,53.7875073]]]}},
{"type":"Feature","properties":{"highway":"footway","name":null,"category":"Footpath (pedestrian only)"},"geometry":{"type":"MultiLineString","coordinates":[[[-2.277352,53.7828748],[-2.2774748,53.782759],[-2.2772966,53.7826116],[-2.277642,53.7824774]]]}},
{"type":"Feature","properties":{"highway":"footway","name":null,"category":"Footpath (pedestrian only)"},"geometry":{"type":"MultiLineString","coordinates":[[[-2.2768381,53.783046],[-2.2766136,53.7828636],[-2.2772966,53.7826116]]]}},
{"type":"Feature","properties":{"highway":"footway","name":null,"category":"Footpath (pedestrian only)"},"geometry":{"type":"MultiLineString","coordinates":[[[-2.2561502,53.7819908],[-2.2559316,53.7820963],[-2.2555654,53.7821138],[-2.2552582,53.7822778]]]}},
{"type":"Feature","properties":{"highway":"footway","name":null,"category":"Footpath (pedestrian only)"},"geometry":{"type":"MultiLineString","coordinates":[[[-2.2575475,53.7811907],[-2.2576036,53.7810142],[-2.2574411,53.7807908],[-2.2575091,53.7805901],[-2.2576169,53.7804124]]]}},
{"type":"Feature","properties":{"highway":"footway","name":null,"category":"Footpath (pedestrian only)"},"geometry":{"type":"MultiLineString","coordinates":[[[-2.2580184,53.7838078],[-2.2579578,53.783861],[-2.2576152,53.783908]]]}},
{"type":"Feature","properties":{"highway":"footway","name":null,"category":"Footpath (pedestrian only)"},"geometry":{"type":"MultiLineString","coordinates":[[[-2.2658069,53.7881986],[-2.2658942,53.7880708],[-2.266489,53.7879038],[-2.2665603,53.7878015]]]}},
{"type":"Feature","properties":{"highway":"footway","name":"Perth Street","category":"Footpath (pedestrian only)"},"geometry":{"type":"MultiLineString","coordinates":[[[-2.2639648,53.7874268],[-2.2639872,53.7874772],[-2.2640036,53.7875139],[-2.2640275,53.7875554],[-2.2640573,53.7876075]]]}},
{"type":"Feature","properties":{"highway":"path","name":"Perth Street","category":"Shared path"},"geometry":{"type":"MultiLineString","coordinates":[[[-2.2639104,53.7873055],[-2.263872,53.7873131],[-2.26371,53.7869456]]]}},
{"type":"Feature","properties":{"highway":"footway","name":null,"category":"Footpath (pedestrian only)"},"geometry":{"type":"MultiLineString","coordinates":[[[-2.2639872,53.7874772],[-2.2637299,53.7875271],[-2.2635381,53.7875873],[-2.2633692,53.7876713],[-2.2632954,53.7876871],[-2.2631443,53.7877713],[-2.2631318,53.7878178],[-2.2629343,53.7880193],[-2.2628324,53.788154]]]}},
{"type":"Feature","properties":{"highway":"footway","name":null,"category":"Footpath (pedestrian only)"},"geometry":{"type":"MultiLineString","coordinates":[[[-2.2635381,53.7875873],[-2.2633519,53.7876194],[-2.2633364,53.7876218]]]}},
{"type":"Feature","properties":{"highway":"footway","name":null,"category":"Footpath (pedestrian only)"},"geometry":{"type":"MultiLineString","coordinates":[[[-2.2631443,53.7877713],[-2.2631368,53.7877513],[-2.2631334,53.7877392]]]}},
{"type":"Feature","properties":{"highway":"footway","name":null,"category":"Footpath (pedestrian only)"},"geometry":{"type":"MultiLineString","coordinates":[[[-2.2643934,53.7875043],[-2.2641922,53.7875605],[-2.2640573,53.7876075],[-2.2639608,53.7876411],[-2.2637819,53.7877166],[-2.2636209,53.7877959],[-2.2634213,53.787928]]]}},
{"type":"Feature","properties":{"highway":"footway","name":null,"category":"Footpath (pedestrian only)"},"geometry":{"type":"MultiLineString","coordinates":[[[-2.2682792,53.7798557],[-2.2681468,53.7798239],[-2.268035,53.779797],[-2.2678702,53.7798003],[-2.2677594,53.7798025]]]}},
{"type":"Feature","properties":{"highway":"path","name":null,"category":"Shared path"},"geometry":{"type":"MultiLineString","coordinates":[[[-2.2579332,53.7902081],[-2.2579316,53.7901925],[-2.2580469,53.7901435],[-2.2581392,53.7900574],[-2.2582807,53.7900006],[-2.2584555,53.7898781],[-2.2585812,53.7898128]]]}}
]
}
