{
"type": "FeatureCollection",
"name": "427b7ae79ea5_visibility",
"crs": { "type": "name", "properties": { "name": "urn:ogc:def:crs:OGC:1.3:CRS84" } },
"features": [
{ "type": "Feature", "properties": { "visible_points": 0, "total_points": 62, "visibility_pct": 0.0 }, "geometry": { "type": "Point", "coordinates": [ -2.929641171460851, 53.263598434544249 ] } },
{ "type": "Feature", "properties": { "visible_points": 0, "total_points": 64, "visibility_pct": 0.0 }, "geometry": { "type": "Point", "coordinates": [ -2.929433466563621, 53.263600054392008 ] } },
{ "type": "Feature", "properties": { "visible_points": 0, "total_points": 71, "visibility_pct": 0.0 }, "geometry": { "type": "Point", "coordinates": [ -2.929747364528312, 53.263705475529896 ] } },
{ "type": "Feature", "properties": { "visible_points": 0, "total_points": 74, "visibility_pct": 0.0 }, "geometry": { "type": "Point", "coordinates": [ -2.92953965911843, 53.263707095566033 ] } },
{ "type": "Feature", "properties": { "visible_points": 11, "total_points": 76, "visibility_pct": 14.473684210526317 }, "geometry": { "type": "Point", "coordinates": [ -2.929331953688481, 53.263708715240405 ] } },
{ "type": "Feature", "properties": { "visible_points": 0, "total_points": 76, "visibility_pct": 0.0 }, "geometry": { "type": "Point", "coordinates": [ -2.929124248238462, 53.263710334552997 ] } },
{ "type": "Feature", "properties": { "visible_points": 1, "total_points": 79, "visibility_pct": 1.2658227848101267 }, "geometry": { "type": "Point", "coordinates": [ -2.929853558128487, 53.263812516415584 ] } },
{ "type": "Feature", "properties": { "visible_points": 6, "total_points": 83, "visibility_pct": 7.2289156626506017 }, "geometry": { "type": "Point", "coordinates": [ -2.929645852205947, 53.263814136640107 ] } },
{ "type": "Feature", "properties": { "visible_points": 14, "total_points": 86, "visibility_pct": 16.279069767441861 }, "geometry": { "type": "Point", "coordinates": [ -2.929438146263338, 53.263815756502837 ] } },
{ "type": "Feature", "properties": { "visible_points": 15, "total_points": 88, "visibility_pct": 17.045454545454543 }, "geometry": { "type": "Point", "coordinates": [ -2.929230440300666, 53.2638173760038 ] } },
{ "type": "Feature", "properties": { "visible_points": 7, "total_points": 87, "visibility_pct": 8.0459770114942533 }, "geometry": { "type": "Point", "coordinates": [ -2.929022734317933, 53.263818995142969 ] } },
{ "type": "Feature", "properties": { "visible_points": 7, "total_points": 81, "visibility_pct": 8.6419753086419746 }, "geometry": { "type": "Point", "coordinates": [ -2.928815028315138, 53.263820613920373 ] } },
{ "type": "Feature", "properties": { "visible_points": 5, "total_points": 83, "visibility_pct": 6.024096385542169 }, "geometry": { "type": "Point", "coordinates": [ -2.929959752261374, 53.263919557201305 ] } },
{ "type": "Feature", "properties": { "visible_points": 21, "total_points": 92, "visibility_pct": 22.826086956521738 }, "geometry": { "type": "Point", "coordinates": [ -2.929752045826185, 53.263921177614179 ] } },
{ "type": "Feature", "properties": { "visible_points": 21, "total_points": 96, "visibility_pct": 21.875 }, "geometry": { "type": "Point", "coordinates": [ -2.929544339370914, 53.26392279766528 ] } },
{ "type": "Feature", "properties": { "visible_points": 19, "total_points": 99, "visibility_pct": 19.19191919191919 }, "geometry": { "type": "Point", "coordinates": [ -2.92933663289558, 53.263924417354609 ] } },
{ "type": "Feature", "properties": { "visible_points": 18, "total_points": 99, "visibility_pct": 18.181818181818183 }, "geometry": { "type": "Point", "coordinates": [ -2.929128926400181, 53.263926036682157 ] } },
{ "type": "Feature", "properties": { "visible_points": 16, "total_points": 94, "visibility_pct": 17.021276595744681 }, "geometry": { "type": "Point", "coordinates": [ -2.928921219884719, 53.263927655647919 ] } },
{ "type": "Feature", "properties": { "visible_points": 13, "total_points": 87, "visibility_pct": 14.942528735632186 }, "geometry": { "type": "Point", "coordinates": [ -2.928713513349208, 53.2639292742519 ] } },
{ "type": "Feature", "properties": { "visible_points": 0, "total_points": 82, "visibility_pct": 0.0 }, "geometry": { "type": "Point", "coordinates": [ -2.930065946926993, 53.264026597887032 ] } },
{ "type": "Feature", "properties": { "visible_points": 22, "total_points": 95, "visibility_pct": 23.157894736842106 }, "geometry": { "type": "Point", "coordinates": [ -2.929858239979136, 53.264028218488278 ] } },
{ "type": "Feature", "properties": { "visible_points": 22, "total_points": 105, "visibility_pct": 20.952380952380953 }, "geometry": { "type": "Point", "coordinates": [ -2.929650533011208, 53.264029838727751 ] } },
{ "type": "Feature", "properties": { "visible_points": 20, "total_points": 109, "visibility_pct": 18.348623853211009 }, "geometry": { "type": "Point", "coordinates": [ -2.929442826023206, 53.264031458605437 ] } },
{ "type": "Feature", "properties": { "visible_points": 21, "total_points": 110, "visibility_pct": 19.090909090909093 }, "geometry": { "type": "Point", "coordinates": [ -2.929235119015142, 53.264033078121351 ] } },
{ "type": "Feature", "properties": { "visible_points": 19, "total_points": 105, "visibility_pct": 18.095238095238095 }, "geometry": { "type": "Point", "coordinates": [ -2.929027411987013, 53.264034697275477 ] } },
{ "type": "Feature", "properties": { "visible_points": 17, "total_points": 99, "visibility_pct": 17.171717171717169 }, "geometry": { "type": "Point", "coordinates": [ -2.928819704938828, 53.264036316067845 ] } },
{ "type": "Feature", "properties": { "visible_points": 16, "total_points": 93, "visibility_pct": 17.20430107526882 }, "geometry": { "type": "Point", "coordinates": [ -2.928611997870595, 53.264037934498425 ] } },
{ "type": "Feature", "properties": { "visible_points": 4, "total_points": 86, "visibility_pct": 4.6511627906976747 }, "geometry": { "type": "Point", "coordinates": [ -2.928404290782309, 53.264039552567219 ] } },
{ "type": "Feature", "properties": { "visible_points": 0, "total_points": 78, "visibility_pct": 0.0 }, "geometry": { "type": "Point", "coordinates": [ -2.928196583673977, 53.264041170274226 ] } },
{ "type": "Feature", "properties": { "visible_points": 0, "total_points": 77, "visibility_pct": 0.0 }, "geometry": { "type": "Point", "coordinates": [ -2.930172142125328, 53.264133638472792 ] } },
{ "type": "Feature", "properties": { "visible_points": 17, "total_points": 90, "visibility_pct": 18.888888888888889 }, "geometry": { "type": "Point", "coordinates": [ -2.929964434664816, 53.264135259262396 ] } },
{ "type": "Feature", "properties": { "visible_points": 20, "total_points": 103, "visibility_pct": 19.417475728155338 }, "geometry": { "type": "Point", "coordinates": [ -2.929756727184223, 53.264136879690234 ] } },
{ "type": "Feature", "properties": { "visible_points": 20, "total_points": 115, "visibility_pct": 17.391304347826086 }, "geometry": { "type": "Point", "coordinates": [ -2.929549019683556, 53.264138499756292 ] } },
{ "type": "Feature", "properties": { "visible_points": 19, "total_points": 117, "visibility_pct": 16.239316239316238 }, "geometry": { "type": "Point", "coordinates": [ -2.929341312162823, 53.264140119460571 ] } },
{ "type": "Feature", "properties": { "visible_points": 19, "total_points": 114, "visibility_pct": 16.666666666666664 }, "geometry": { "type": "Point", "coordinates": [ -2.929133604622024, 53.264141738803062 ] } },
{ "type": "Feature", "properties": { "visible_points": 18, "total_points": 110, "visibility_pct": 16.363636363636363 }, "geometry": { "type": "Point", "coordinates": [ -2.928925897061167, 53.264143357783787 ] } },
{ "type": "Feature", "properties": { "visible_points": 16, "total_points": 104, "visibility_pct": 15.384615384615385 }, "geometry": { "type": "Point", "coordinates": [ -2.928718189480255, 53.264144976402733 ] } },
{ "type": "Feature", "properties": { "visible_points": 12, "total_points": 98, "visibility_pct": 12.244897959183673 }, "geometry": { "type": "Point", "coordinates": [ -2.92851048187929, 53.264146594659891 ] } },
{ "type": "Feature", "properties": { "visible_points": 0, "total_points": 91, "visibility_pct": 0.0 }, "geometry": { "type": "Point", "coordinates": [ -2.928302774258283, 53.26414821255527 ] } },
{ "type": "Feature", "properties": { "visible_points": 0, "total_points": 83, "visibility_pct": 0.0 }, "geometry": { "type": "Point", "coordinates": [ -2.92809506661723, 53.264149830088876 ] } },
{ "type": "Feature", "properties": { "visible_points": 0, "total_points": 74, "visibility_pct": 0.0 }, "geometry": { "type": "Point", "coordinates": [ -2.927887358956143, 53.264151447260687 ] } },
{ "type": "Feature", "properties": { "visible_points": 0, "total_points": 58, "visibility_pct": 0.0 }, "geometry": { "type": "Point", "coordinates": [ -2.930486045809497, 53.264239057618781 ] } },
{ "type": "Feature", "properties": { "visible_points": 0, "total_points": 71, "visibility_pct": 0.0 }, "geometry": { "type": "Point", "coordinates": [ -2.930278337856404, 53.264240678958551 ] } },
{ "type": "Feature", "properties": { "visible_points": 0, "total_points": 84, "visibility_pct": 0.0 }, "geometry": { "type": "Point", "coordinates": [ -2.93007062988322, 53.264242299936548 ] } },
{ "type": "Feature", "properties": { "visible_points": 0, "total_points": 97, "visibility_pct": 0.0 }, "geometry": { "type": "Point", "coordinates": [ -2.929862921889964, 53.264243920552744 ] } },
{ "type": "Feature", "properties": { "visible_points": 18, "total_points": 110, "visibility_pct": 16.363636363636363 }, "geometry": { "type": "Point", "coordinates": [ -2.92965521387663, 53.264245540807181 ] } },
{ "type": "Feature", "properties": { "visible_points": 18, "total_points": 120, "visibility_pct": 15.0 }, "geometry": { "type": "Point", "coordinates": [ -2.929447505843225, 53.264247160699817 ] } },
{ "type": "Feature", "properties": { "visible_points": 18, "total_points": 119, "visibility_pct": 15.126050420168067 }, "geometry": { "type": "Point", "coordinates": [ -2.929239797789753, 53.26424878023068 ] } },
{ "type": "Feature", "properties": { "visible_points": 16, "total_points": 117, "visibility_pct": 13.675213675213676 }, "geometry": { "type": "Point", "coordinates": [ -2.929032089716224, 53.264250399399778 ] } },
{ "type": "Feature", "properties": { "visible_points": 16, "total_points": 114, "visibility_pct": 14.035087719298245 }, "geometry": { "type": "Point", "coordinates": [ -2.92882438162263, 53.264252018207074 ] } },
{ "type": "Feature", "properties": { "visible_points": 0, "total_points": 109, "visibility_pct": 0.0 }, "geometry": { "type": "Point", "coordinates": [ -2.928616673508988, 53.264253636652597 ] } },
{ "type": "Feature", "properties": { "visible_points": 0, "total_points": 103, "visibility_pct": 0.0 }, "geometry": { "type": "Point", "coordinates": [ -2.928408965375296, 53.264255254736341 ] } },
{ "type": "Feature", "properties": { "visible_points": 0, "total_points": 95, "visibility_pct": 0.0 }, "geometry": { "type": "Point", "coordinates": [ -2.928201257221562, 53.264256872458304 ] } },
{ "type": "Feature", "properties": { "visible_points": 0, "total_points": 87, "visibility_pct": 0.0 }, "geometry": { "type": "Point", "coordinates": [ -2.927993549047786, 53.264258489818481 ] } },
{ "type": "Feature", "properties": { "visible_points": 0, "total_points": 77, "visibility_pct": 0.0 }, "geometry": { "type": "Point", "coordinates": [ -2.927785840853975, 53.264260106816884 ] } },
{ "type": "Feature", "properties": { "visible_points": 0, "total_points": 64, "visibility_pct": 0.0 }, "geometry": { "type": "Point", "coordinates": [ -2.930384534120209, 53.264347719344336 ] } },
{ "type": "Feature", "properties": { "visible_points": 0, "total_points": 77, "visibility_pct": 0.0 }, "geometry": { "type": "Point", "coordinates": [ -2.930176825634365, 53.264349340510698 ] } },
{ "type": "Feature", "properties": { "visible_points": 0, "total_points": 90, "visibility_pct": 0.0 }, "geometry": { "type": "Point", "coordinates": [ -2.929969117128439, 53.264350961315287 ] } },
{ "type": "Feature", "properties": { "visible_points": 0, "total_points": 103, "visibility_pct": 0.0 }, "geometry": { "type": "Point", "coordinates": [ -2.929761408602435, 53.264352581758082 ] } },
{ "type": "Feature", "properties": { "visible_points": 19, "total_points": 115, "visibility_pct": 16.521739130434781 }, "geometry": { "type": "Point", "coordinates": [ -2.929553700056358, 53.264354201839105 ] } },
{ "type": "Feature", "properties": { "visible_points": 16, "total_points": 120, "visibility_pct": 13.333333333333334 }, "geometry": { "type": "Point", "coordinates": [ -2.929345991490208, 53.26435582155834 ] } },
{ "type": "Feature", "properties": { "visible_points": 16, "total_points": 120, "visibility_pct": 13.333333333333334 }, "geometry": { "type": "Point", "coordinates": [ -2.929138282904002, 53.264357440915781 ] } },
{ "type": "Feature", "properties": { "visible_points": 1, "total_points": 119, "visibility_pct": 0.84033613445378152 }, "geometry": { "type": "Point", "coordinates": [ -2.928930574297731, 53.264359059911463 ] } },
{ "type": "Feature", "properties": { "visible_points": 0, "total_points": 117, "visibility_pct": 0.0 }, "geometry": { "type": "Point", "coordinates": [ -2.928722865671402, 53.264360678545344 ] } },
{ "type": "Feature", "properties": { "visible_points": 0, "total_points": 113, "visibility_pct": 0.0 }, "geometry": { "type": "Point", "coordinates": [ -2.928515157025029, 53.264362296817467 ] } },
{ "type": "Feature", "properties": { "visible_points": 0, "total_points": 107, "visibility_pct": 0.0 }, "geometry": { "type": "Point", "coordinates": [ -2.928307448358606, 53.26436391472776 ] } },
{ "type": "Feature", "properties": { "visible_points": 0, "total_points": 99, "visibility_pct": 0.0 }, "geometry": { "type": "Point", "coordinates": [ -2.92809973967214, 53.264365532276315 ] } },
{ "type": "Feature", "properties": { "visible_points": 0, "total_points": 88, "visibility_pct": 0.0 }, "geometry": { "type": "Point", "coordinates": [ -2.927892030965641, 53.264367149463069 ] } },
{ "type": "Feature", "properties": { "visible_points": 0, "total_points": 76, "visibility_pct": 0.0 }, "geometry": { "type": "Point", "coordinates": [ -2.927684322239104, 53.264368766288051 ] } },
{ "type": "Feature", "properties": { "visible_points": 0, "total_points": 82, "visibility_pct": 0.0 }, "geometry": { "type": "Point", "coordinates": [ -2.930075312899648, 53.264458001977822 ] } },
{ "type": "Feature", "properties": { "visible_points": 0, "total_points": 95, "visibility_pct": 0.0 }, "geometry": { "type": "Point", "coordinates": [ -2.929867603860971, 53.264459622609003 ] } },
{ "type": "Feature", "properties": { "visible_points": 2, "total_points": 107, "visibility_pct": 1.8691588785046727 }, "geometry": { "type": "Point", "coordinates": [ -2.929659894802219, 53.264461242878397 ] } },
{ "type": "Feature", "properties": { "visible_points": 3, "total_points": 115, "visibility_pct": 2.6086956521739131 }, "geometry": { "type": "Point", "coordinates": [ -2.929452185723396, 53.264462862785997 ] } },
{ "type": "Feature", "properties": { "visible_points": 0, "total_points": 120, "visibility_pct": 0.0 }, "geometry": { "type": "Point", "coordinates": [ -2.929244476624505, 53.264464482331832 ] } },
{ "type": "Feature", "properties": { "visible_points": 0, "total_points": 120, "visibility_pct": 0.0 }, "geometry": { "type": "Point", "coordinates": [ -2.929036767505556, 53.264466101515858 ] } },
{ "type": "Feature", "properties": { "visible_points": 0, "total_points": 120, "visibility_pct": 0.0 }, "geometry": { "type": "Point", "coordinates": [ -2.928829058366544, 53.264467720338118 ] } },
{ "type": "Feature", "properties": { "visible_points": 0, "total_points": 120, "visibility_pct": 0.0 }, "geometry": { "type": "Point", "coordinates": [ -2.928621349207484, 53.264469338798584 ] } },
{ "type": "Feature", "properties": { "visible_points": 0, "total_points": 117, "visibility_pct": 0.0 }, "geometry": { "type": "Point", "coordinates": [ -2.928413640028367, 53.26447095689727 ] } },
{ "type": "Feature", "properties": { "visible_points": 1, "total_points": 109, "visibility_pct": 0.91743119266055051 }, "geometry": { "type": "Point", "coordinates": [ -2.928205930829213, 53.264472574634169 ] } },
{ "type": "Feature", "properties": { "visible_points": 2, "total_points": 97, "visibility_pct": 2.0618556701030926 }, "geometry": { "type": "Point", "coordinates": [ -2.927998221610018, 53.264474192009288 ] } },
{ "type": "Feature", "properties": { "visible_points": 1, "total_points": 84, "visibility_pct": 1.1904761904761905 }, "geometry": { "type": "Point", "coordinates": [ -2.927790512370787, 53.26447580902262 ] } },
{ "type": "Feature", "properties": { "visible_points": 0, "total_points": 71, "visibility_pct": 0.0 }, "geometry": { "type": "Point", "coordinates": [ -2.927582803111525, 53.264477425674173 ] } },
{ "type": "Feature", "properties": { "visible_points": 0, "total_points": 86, "visibility_pct": 0.0 }, "geometry": { "type": "Point", "coordinates": [ -2.929973799652247, 53.264566663359943 ] } },
{ "type": "Feature", "properties": { "visible_points": 0, "total_points": 98, "visibility_pct": 0.0 }, "geometry": { "type": "Point", "coordinates": [ -2.929766090080818, 53.264568283817717 ] } },
{ "type": "Feature", "properties": { "visible_points": 0, "total_points": 107, "visibility_pct": 0.0 }, "geometry": { "type": "Point", "coordinates": [ -2.929558380489319, 53.264569903913689 ] } },
{ "type": "Feature", "properties": { "visible_points": 0, "total_points": 115, "visibility_pct": 0.0 }, "geometry": { "type": "Point", "coordinates": [ -2.929350670877743, 53.264571523647881 ] } },
{ "type": "Feature", "properties": { "visible_points": 0, "total_points": 120, "visibility_pct": 0.0 }, "geometry": { "type": "Point", "coordinates": [ -2.929142961246108, 53.264573143020279 ] } },
{ "type": "Feature", "properties": { "visible_points": 0, "total_points": 120, "visibility_pct": 0.0 }, "geometry": { "type": "Point", "coordinates": [ -2.928935251594414, 53.264574762030904 ] } },
{ "type": "Feature", "properties": { "visible_points": 0, "total_points": 120, "visibility_pct": 0.0 }, "geometry": { "type": "Point", "coordinates": [ -2.928727541922662, 53.264576380679735 ] } },
{ "type": "Feature", "properties": { "visible_points": 0, "total_points": 118, "visibility_pct": 0.0 }, "geometry": { "type": "Point", "coordinates": [ -2.928519832230856, 53.264577998966786 ] } },
{ "type": "Feature", "properties": { "visible_points": 4, "total_points": 114, "visibility_pct": 3.5087719298245612 }, "geometry": { "type": "Point", "coordinates": [ -2.92831212251901, 53.264579616892078 ] } },
{ "type": "Feature", "properties": { "visible_points": 0, "total_points": 103, "visibility_pct": 0.0 }, "geometry": { "type": "Point", "coordinates": [ -2.928104412787117, 53.264581234455548 ] } },
{ "type": "Feature", "properties": { "visible_points": 4, "total_points": 90, "visibility_pct": 4.4444444444444446 }, "geometry": { "type": "Point", "coordinates": [ -2.927896703035186, 53.264582851657252 ] } },
{ "type": "Feature", "properties": { "visible_points": 0, "total_points": 77, "visibility_pct": 0.0 }, "geometry": { "type": "Point", "coordinates": [ -2.927688993263223, 53.264584468497148 ] } },
{ "type": "Feature", "properties": { "visible_points": 0, "total_points": 65, "visibility_pct": 0.0 }, "geometry": { "type": "Point", "coordinates": [ -2.927481283471232, 53.264586084975271 ] } },
{ "type": "Feature", "properties": { "visible_points": 2, "total_points": 53, "visibility_pct": 3.7735849056603774 }, "geometry": { "type": "Point", "coordinates": [ -2.927273573659215, 53.264587701091607 ] } },
{ "type": "Feature", "properties": { "visible_points": 0, "total_points": 89, "visibility_pct": 0.0 }, "geometry": { "type": "Point", "coordinates": [ -2.929872285892162, 53.264675324657055 ] } },
{ "type": "Feature", "properties": { "visible_points": 0, "total_points": 99, "visibility_pct": 0.0 }, "geometry": { "type": "Point", "coordinates": [ -2.929664575787975, 53.264676944941399 ] } },
{ "type": "Feature", "properties": { "visible_points": 0, "total_points": 108, "visibility_pct": 0.0 }, "geometry": { "type": "Point", "coordinates": [ -2.92945686566372, 53.264678564863971 ] } },
{ "type": "Feature", "properties": { "visible_points": 0, "total_points": 115, "visibility_pct": 0.0 }, "geometry": { "type": "Point", "coordinates": [ -2.9292491555194, 53.264680184424741 ] } },
{ "type": "Feature", "properties": { "visible_points": 0, "total_points": 120, "visibility_pct": 0.0 }, "geometry": { "type": "Point", "coordinates": [ -2.929041445355012, 53.264681803623731 ] } },
{ "type": "Feature", "properties": { "visible_points": 0, "total_points": 118, "visibility_pct": 0.0 }, "geometry": { "type": "Point", "coordinates": [ -2.928833735170569, 53.264683422460934 ] } },
{ "type": "Feature", "properties": { "visible_points": 0, "total_points": 115, "visibility_pct": 0.0 }, "geometry": { "type": "Point", "coordinates": [ -2.928626024966072, 53.264685040936349 ] } },
{ "type": "Feature", "properties": { "visible_points": 0, "total_points": 111, "visibility_pct": 0.0 }, "geometry": { "type": "Point", "coordinates": [ -2.928418314741531, 53.264686659049978 ] } },
{ "type": "Feature", "properties": { "visible_points": 5, "total_points": 106, "visibility_pct": 4.716981132075472 }, "geometry": { "type": "Point", "coordinates": [ -2.928210604496934, 53.26468827680182 ] } },
{ "type": "Feature", "properties": { "visible_points": 5, "total_points": 93, "visibility_pct": 5.376344086021505 }, "geometry": { "type": "Point", "coordinates": [ -2.928002894232309, 53.264689894191875 ] } },
{ "type": "Feature", "properties": { "visible_points": 11, "total_points": 81, "visibility_pct": 13.580246913580247 }, "geometry": { "type": "Point", "coordinates": [ -2.927795183947643, 53.26469151122015 ] } },
{ "type": "Feature", "properties": { "visible_points": 8, "total_points": 69, "visibility_pct": 11.594202898550725 }, "geometry": { "type": "Point", "coordinates": [ -2.927587473642943, 53.26469312788663 ] } },
{ "type": "Feature", "properties": { "visible_points": 9, "total_points": 57, "visibility_pct": 15.789473684210526 }, "geometry": { "type": "Point", "coordinates": [ -2.927379763318222, 53.264694744191324 ] } },
{ "type": "Feature", "properties": { "visible_points": 0, "total_points": 90, "visibility_pct": 0.0 }, "geometry": { "type": "Point", "coordinates": [ -2.929770771619377, 53.264783985869137 ] } },
{ "type": "Feature", "properties": { "visible_points": 6, "total_points": 100, "visibility_pct": 6.0 }, "geometry": { "type": "Point", "coordinates": [ -2.929563060982438, 53.264785605980059 ] } },
{ "type": "Feature", "properties": { "visible_points": 6, "total_points": 109, "visibility_pct": 5.5045871559633035 }, "geometry": { "type": "Point", "coordinates": [ -2.929355350325426, 53.264787225729201 ] } },
{ "type": "Feature", "properties": { "visible_points": 2, "total_points": 114, "visibility_pct": 1.7543859649122806 }, "geometry": { "type": "Point", "coordinates": [ -2.92914763964835, 53.26478884511657 ] } },
{ "type": "Feature", "properties": { "visible_points": 0, "total_points": 115, "visibility_pct": 0.0 }, "geometry": { "type": "Point", "coordinates": [ -2.928939928951216, 53.264790464142152 ] } },
{ "type": "Feature", "properties": { "visible_points": 0, "total_points": 111, "visibility_pct": 0.0 }, "geometry": { "type": "Point", "coordinates": [ -2.928732218234023, 53.264792082805918 ] } },
{ "type": "Feature", "properties": { "visible_points": 0, "total_points": 106, "visibility_pct": 0.0 }, "geometry": { "type": "Point", "coordinates": [ -2.928524507496782, 53.264793701107919 ] } },
{ "type": "Feature", "properties": { "visible_points": 0, "total_points": 100, "visibility_pct": 0.0 }, "geometry": { "type": "Point", "coordinates": [ -2.928316796739488, 53.264795319048119 ] } },
{ "type": "Feature", "properties": { "visible_points": 0, "total_points": 94, "visibility_pct": 0.0 }, "geometry": { "type": "Point", "coordinates": [ -2.928109085962157, 53.264796936626553 ] } },
{ "type": "Feature", "properties": { "visible_points": 11, "total_points": 83, "visibility_pct": 13.253012048192772 }, "geometry": { "type": "Point", "coordinates": [ -2.927901375164785, 53.264798553843178 ] } },
{ "type": "Feature", "properties": { "visible_points": 10, "total_points": 71, "visibility_pct": 14.084507042253522 }, "geometry": { "type": "Point", "coordinates": [ -2.927693664347383, 53.264800170698024 ] } },
{ "type": "Feature", "properties": { "visible_points": 0, "total_points": 88, "visibility_pct": 0.0 }, "geometry": { "type": "Point", "coordinates": [ -2.929669256833901, 53.264892646996209 ] } },
{ "type": "Feature", "properties": { "visible_points": 6, "total_points": 96, "visibility_pct": 6.25 }, "geometry": { "type": "Point", "coordinates": [ -2.929461545664198, 53.264894266933716 ] } },
{ "type": "Feature", "properties": { "visible_points": 8, "total_points": 102, "visibility_pct": 7.8431372549019605 }, "geometry": { "type": "Point", "coordinates": [ -2.92925383447443, 53.26489588650945 ] } },
{ "type": "Feature", "properties": { "visible_points": 0, "total_points": 106, "visibility_pct": 0.0 }, "geometry": { "type": "Point", "coordinates": [ -2.929046123264599, 53.26489750572339 ] } },
{ "type": "Feature", "properties": { "visible_points": 0, "total_points": 105, "visibility_pct": 0.0 }, "geometry": { "type": "Point", "coordinates": [ -2.928838412034709, 53.264899124575543 ] } },
{ "type": "Feature", "properties": { "visible_points": 0, "total_points": 100, "visibility_pct": 0.0 }, "geometry": { "type": "Point", "coordinates": [ -2.928630700784767, 53.264900743065915 ] } },
{ "type": "Feature", "properties": { "visible_points": 0, "total_points": 95, "visibility_pct": 0.0 }, "geometry": { "type": "Point", "coordinates": [ -2.928422989514778, 53.26490236119448 ] } },
{ "type": "Feature", "properties": { "visible_points": 10, "total_points": 89, "visibility_pct": 11.235955056179774 }, "geometry": { "type": "Point", "coordinates": [ -2.928215278224733, 53.264903978961257 ] } },
{ "type": "Feature", "properties": { "visible_points": 10, "total_points": 81, "visibility_pct": 12.345679012345679 }, "geometry": { "type": "Point", "coordinates": [ -2.92800756691466, 53.264905596366255 ] } },
{ "type": "Feature", "properties": { "visible_points": 0, "total_points": 75, "visibility_pct": 0.0 }, "geometry": { "type": "Point", "coordinates": [ -2.929775453218114, 53.264999687912351 ] } },
{ "type": "Feature", "properties": { "visible_points": 6, "total_points": 83, "visibility_pct": 7.2289156626506017 }, "geometry": { "type": "Point", "coordinates": [ -2.929567741535717, 53.265001308038229 ] } },
{ "type": "Feature", "properties": { "visible_points": 6, "total_points": 89, "visibility_pct": 6.7415730337078648 }, "geometry": { "type": "Point", "coordinates": [ -2.929360029833255, 53.265002927802335 ] } },
{ "type": "Feature", "properties": { "visible_points": 5, "total_points": 93, "visibility_pct": 5.376344086021505 }, "geometry": { "type": "Point", "coordinates": [ -2.929152318110728, 53.265004547204633 ] } },
{ "type": "Feature", "properties": { "visible_points": 0, "total_points": 95, "visibility_pct": 0.0 }, "geometry": { "type": "Point", "coordinates": [ -2.928944606368137, 53.265006166245165 ] } },
{ "type": "Feature", "properties": { "visible_points": 1, "total_points": 93, "visibility_pct": 1.0752688172043012 }, "geometry": { "type": "Point", "coordinates": [ -2.928736894605496, 53.265007784923903 ] } },
{ "type": "Feature", "properties": { "visible_points": 0, "total_points": 88, "visibility_pct": 0.0 }, "geometry": { "type": "Point", "coordinates": [ -2.928529182822795, 53.265009403240846 ] } },
{ "type": "Feature", "properties": { "visible_points": 10, "total_points": 82, "visibility_pct": 12.195121951219512 }, "geometry": { "type": "Point", "coordinates": [ -2.928321471020055, 53.265011021195996 ] } },
{ "type": "Feature", "properties": { "visible_points": 0, "total_points": 70, "visibility_pct": 0.0 }, "geometry": { "type": "Point", "coordinates": [ -2.929673937939992, 53.265108349042784 ] } },
{ "type": "Feature", "properties": { "visible_points": 5, "total_points": 76, "visibility_pct": 6.5789473684210522 }, "geometry": { "type": "Point", "coordinates": [ -2.929466225724832, 53.265109968995247 ] } },
{ "type": "Feature", "properties": { "visible_points": 6, "total_points": 80, "visibility_pct": 7.5 }, "geometry": { "type": "Point", "coordinates": [ -2.929258513489605, 53.265111588585924 ] } },
{ "type": "Feature", "properties": { "visible_points": 3, "total_points": 83, "visibility_pct": 3.6144578313253009 }, "geometry": { "type": "Point", "coordinates": [ -2.929050801234313, 53.265113207814828 ] } },
{ "type": "Feature", "properties": { "visible_points": 0, "total_points": 84, "visibility_pct": 0.0 }, "geometry": { "type": "Point", "coordinates": [ -2.928843088958966, 53.265114826681923 ] } },
{ "type": "Feature", "properties": { "visible_points": 0, "total_points": 80, "visibility_pct": 0.0 }, "geometry": { "type": "Point", "coordinates": [ -2.928635376663564, 53.265116445187239 ] } },
{ "type": "Feature", "properties": { "visible_points": 1, "total_points": 63, "visibility_pct": 1.5873015873015872 }, "geometry": { "type": "Point", "coordinates": [ -2.929572422149162, 53.265217010088179 ] } },
{ "type": "Feature", "properties": { "visible_points": 0, "total_points": 68, "visibility_pct": 0.0 }, "geometry": { "type": "Point", "coordinates": [ -2.929364709401235, 53.265218629867256 ] } },
{ "type": "Feature", "properties": { "visible_points": 2, "total_points": 71, "visibility_pct": 2.8169014084507045 }, "geometry": { "type": "Point", "coordinates": [ -2.929156996633238, 53.265220249284503 ] } },
{ "type": "Feature", "properties": { "visible_points": 0, "total_points": 72, "visibility_pct": 0.0 }, "geometry": { "type": "Point", "coordinates": [ -2.928949283845188, 53.265221868339978 ] } },
{ "type": "Feature", "properties": { "visible_points": 0, "total_points": 56, "visibility_pct": 0.0 }, "geometry": { "type": "Point", "coordinates": [ -2.92947090584562, 53.265325671048572 ] } },
{ "type": "Feature", "properties": { "visible_points": 0, "total_points": 59, "visibility_pct": 0.0 }, "geometry": { "type": "Point", "coordinates": [ -2.929263192564922, 53.265327290654213 ] } }
]
}
