{
"type": "FeatureCollection",
"name": "f08140712b28_visibility",
"crs": { "type": "name", "properties": { "name": "urn:ogc:def:crs:OGC:1.3:CRS84" } },
"features": [
{ "type": "Feature", "properties": { "visible_points": 0, "total_points": 63, "visibility_pct": 0.0 }, "geometry": { "type": "Point", "coordinates": [ -2.619966646182156, 53.24366646095082 ] } },
{ "type": "Feature", "properties": { "visible_points": 0, "total_points": 62, "visibility_pct": 0.0 }, "geometry": { "type": "Point", "coordinates": [ -2.619759021957299, 53.243667542670281 ] } },
{ "type": "Feature", "properties": { "visible_points": 4, "total_points": 72, "visibility_pct": 5.5555555555555554 }, "geometry": { "type": "Point", "coordinates": [ -2.619864394821554, 53.243774860944633 ] } },
{ "type": "Feature", "properties": { "visible_points": 0, "total_points": 69, "visibility_pct": 0.0 }, "geometry": { "type": "Point", "coordinates": [ -2.619656770077744, 53.243775942493606 ] } },
{ "type": "Feature", "properties": { "visible_points": 2, "total_points": 65, "visibility_pct": 3.0769230769230771 }, "geometry": { "type": "Point", "coordinates": [ -2.619449145320765, 53.243777023681083 ] } },
{ "type": "Feature", "properties": { "visible_points": 1, "total_points": 58, "visibility_pct": 1.7241379310344827 }, "geometry": { "type": "Point", "coordinates": [ -2.619241520550628, 53.243778104507051 ] } },
{ "type": "Feature", "properties": { "visible_points": 7, "total_points": 82, "visibility_pct": 8.536585365853659 }, "geometry": { "type": "Point", "coordinates": [ -2.620177393441188, 53.2438810970148 ] } },
{ "type": "Feature", "properties": { "visible_points": 11, "total_points": 84, "visibility_pct": 13.095238095238097 }, "geometry": { "type": "Point", "coordinates": [ -2.619969768204755, 53.24388217911627 ] } },
{ "type": "Feature", "properties": { "visible_points": 2, "total_points": 80, "visibility_pct": 2.5 }, "geometry": { "type": "Point", "coordinates": [ -2.619762142955149, 53.243883260856244 ] } },
{ "type": "Feature", "properties": { "visible_points": 5, "total_points": 76, "visibility_pct": 6.5789473684210522 }, "geometry": { "type": "Point", "coordinates": [ -2.619554517692385, 53.243884342234736 ] } },
{ "type": "Feature", "properties": { "visible_points": 1, "total_points": 69, "visibility_pct": 1.4492753623188406 }, "geometry": { "type": "Point", "coordinates": [ -2.619346892416448, 53.243885423251726 ] } },
{ "type": "Feature", "properties": { "visible_points": 0, "total_points": 61, "visibility_pct": 0.0 }, "geometry": { "type": "Point", "coordinates": [ -2.619139267127354, 53.243886503907191 ] } },
{ "type": "Feature", "properties": { "visible_points": 7, "total_points": 94, "visibility_pct": 7.4468085106382977 }, "geometry": { "type": "Point", "coordinates": [ -2.620075142106902, 53.243989497185197 ] } },
{ "type": "Feature", "properties": { "visible_points": 14, "total_points": 92, "visibility_pct": 15.217391304347828 }, "geometry": { "type": "Point", "coordinates": [ -2.619867516351505, 53.243990579116172 ] } },
{ "type": "Feature", "properties": { "visible_points": 1, "total_points": 87, "visibility_pct": 1.1494252873563218 }, "geometry": { "type": "Point", "coordinates": [ -2.619659890582941, 53.243991660685687 ] } },
{ "type": "Feature", "properties": { "visible_points": 3, "total_points": 81, "visibility_pct": 3.7037037037037033 }, "geometry": { "type": "Point", "coordinates": [ -2.619452264801212, 53.243992741893685 ] } },
{ "type": "Feature", "properties": { "visible_points": 0, "total_points": 72, "visibility_pct": 0.0 }, "geometry": { "type": "Point", "coordinates": [ -2.619244639006318, 53.243993822740165 ] } },
{ "type": "Feature", "properties": { "visible_points": 6, "total_points": 101, "visibility_pct": 5.9405940594059405 }, "geometry": { "type": "Point", "coordinates": [ -2.620180516527999, 53.244096815151408 ] } },
{ "type": "Feature", "properties": { "visible_points": 13, "total_points": 103, "visibility_pct": 12.621359223300971 }, "geometry": { "type": "Point", "coordinates": [ -2.619972890266812, 53.244097897273406 ] } },
{ "type": "Feature", "properties": { "visible_points": 13, "total_points": 99, "visibility_pct": 13.131313131313133 }, "geometry": { "type": "Point", "coordinates": [ -2.619765263992452, 53.244098979033915 ] } },
{ "type": "Feature", "properties": { "visible_points": 2, "total_points": 93, "visibility_pct": 2.1505376344086025 }, "geometry": { "type": "Point", "coordinates": [ -2.619557637704921, 53.244100060432913 ] } },
{ "type": "Feature", "properties": { "visible_points": 0, "total_points": 82, "visibility_pct": 0.0 }, "geometry": { "type": "Point", "coordinates": [ -2.619350011404225, 53.244101141470416 ] } },
{ "type": "Feature", "properties": { "visible_points": 2, "total_points": 72, "visibility_pct": 2.7777777777777777 }, "geometry": { "type": "Point", "coordinates": [ -2.621116398404169, 53.244199800147769 ] } },
{ "type": "Feature", "properties": { "visible_points": 4, "total_points": 91, "visibility_pct": 4.395604395604396 }, "geometry": { "type": "Point", "coordinates": [ -2.62070114496249, 53.244201967304321 ] } },
{ "type": "Feature", "properties": { "visible_points": 4, "total_points": 99, "visibility_pct": 4.0404040404040407 }, "geometry": { "type": "Point", "coordinates": [ -2.620493518221864, 53.244203050340353 ] } },
{ "type": "Feature", "properties": { "visible_points": 4, "total_points": 105, "visibility_pct": 3.8095238095238098 }, "geometry": { "type": "Point", "coordinates": [ -2.620285891468058, 53.244204133014875 ] } },
{ "type": "Feature", "properties": { "visible_points": 9, "total_points": 108, "visibility_pct": 8.3333333333333321 }, "geometry": { "type": "Point", "coordinates": [ -2.620078264701075, 53.244205215327902 ] } },
{ "type": "Feature", "properties": { "visible_points": 14, "total_points": 106, "visibility_pct": 13.20754716981132 }, "geometry": { "type": "Point", "coordinates": [ -2.61987063792091, 53.244206297279426 ] } },
{ "type": "Feature", "properties": { "visible_points": 13, "total_points": 101, "visibility_pct": 12.871287128712872 }, "geometry": { "type": "Point", "coordinates": [ -2.619663011127577, 53.244207378869454 ] } },
{ "type": "Feature", "properties": { "visible_points": 0, "total_points": 90, "visibility_pct": 0.0 }, "geometry": { "type": "Point", "coordinates": [ -2.619455384321085, 53.244208460097951 ] } },
{ "type": "Feature", "properties": { "visible_points": 7, "total_points": 74, "visibility_pct": 9.4594594594594597 }, "geometry": { "type": "Point", "coordinates": [ -2.621221775886358, 53.244307117144444 ] } },
{ "type": "Feature", "properties": { "visible_points": 0, "total_points": 85, "visibility_pct": 0.0 }, "geometry": { "type": "Point", "coordinates": [ -2.621014148666324, 53.244308201094519 ] } },
{ "type": "Feature", "properties": { "visible_points": 3, "total_points": 94, "visibility_pct": 3.1914893617021276 }, "geometry": { "type": "Point", "coordinates": [ -2.620806521433099, 53.244309284683055 ] } },
{ "type": "Feature", "properties": { "visible_points": 10, "total_points": 103, "visibility_pct": 9.7087378640776691 }, "geometry": { "type": "Point", "coordinates": [ -2.620598894186677, 53.24431036791011 ] } },
{ "type": "Feature", "properties": { "visible_points": 11, "total_points": 109, "visibility_pct": 10.091743119266056 }, "geometry": { "type": "Point", "coordinates": [ -2.620391266927077, 53.244311450775648 ] } },
{ "type": "Feature", "properties": { "visible_points": 2, "total_points": 113, "visibility_pct": 1.7699115044247788 }, "geometry": { "type": "Point", "coordinates": [ -2.62018363965429, 53.24431253327969 ] } },
{ "type": "Feature", "properties": { "visible_points": 13, "total_points": 111, "visibility_pct": 11.711711711711711 }, "geometry": { "type": "Point", "coordinates": [ -2.619976012368331, 53.244313615422215 ] } },
{ "type": "Feature", "properties": { "visible_points": 15, "total_points": 105, "visibility_pct": 14.285714285714285 }, "geometry": { "type": "Point", "coordinates": [ -2.619768385069194, 53.244314697203251 ] } },
{ "type": "Feature", "properties": { "visible_points": 12, "total_points": 93, "visibility_pct": 12.903225806451612 }, "geometry": { "type": "Point", "coordinates": [ -2.619560757756891, 53.244315778622777 ] } },
{ "type": "Feature", "properties": { "visible_points": 1, "total_points": 81, "visibility_pct": 1.2345679012345678 }, "geometry": { "type": "Point", "coordinates": [ -2.619353130431427, 53.244316859680801 ] } },
{ "type": "Feature", "properties": { "visible_points": 0, "total_points": 74, "visibility_pct": 0.0 }, "geometry": { "type": "Point", "coordinates": [ -2.621327153887524, 53.244414434038411 ] } },
{ "type": "Feature", "properties": { "visible_points": 6, "total_points": 86, "visibility_pct": 6.9767441860465116 }, "geometry": { "type": "Point", "coordinates": [ -2.621119526161699, 53.244415518179494 ] } },
{ "type": "Feature", "properties": { "visible_points": 0, "total_points": 97, "visibility_pct": 0.0 }, "geometry": { "type": "Point", "coordinates": [ -2.620911898422674, 53.244416601959067 ] } },
{ "type": "Feature", "properties": { "visible_points": 3, "total_points": 106, "visibility_pct": 2.8301886792452833 }, "geometry": { "type": "Point", "coordinates": [ -2.620704270670462, 53.24441768537713 ] } },
{ "type": "Feature", "properties": { "visible_points": 10, "total_points": 113, "visibility_pct": 8.8495575221238933 }, "geometry": { "type": "Point", "coordinates": [ -2.62049664290506, 53.24441876843369 ] } },
{ "type": "Feature", "properties": { "visible_points": 7, "total_points": 116, "visibility_pct": 6.0344827586206895 }, "geometry": { "type": "Point", "coordinates": [ -2.620289015126473, 53.244419851128754 ] } },
{ "type": "Feature", "properties": { "visible_points": 9, "total_points": 114, "visibility_pct": 7.8947368421052628 }, "geometry": { "type": "Point", "coordinates": [ -2.62008138733471, 53.244420933462301 ] } },
{ "type": "Feature", "properties": { "visible_points": 19, "total_points": 106, "visibility_pct": 17.924528301886792 }, "geometry": { "type": "Point", "coordinates": [ -2.619873759529769, 53.244422015434353 ] } },
{ "type": "Feature", "properties": { "visible_points": 17, "total_points": 95, "visibility_pct": 17.894736842105264 }, "geometry": { "type": "Point", "coordinates": [ -2.61966613171166, 53.244423097044894 ] } },
{ "type": "Feature", "properties": { "visible_points": 0, "total_points": 83, "visibility_pct": 0.0 }, "geometry": { "type": "Point", "coordinates": [ -2.619458503880381, 53.244424178293919 ] } },
{ "type": "Feature", "properties": { "visible_points": 2, "total_points": 69, "visibility_pct": 2.8985507246376812 }, "geometry": { "type": "Point", "coordinates": [ -2.621432532407667, 53.244521750829655 ] } },
{ "type": "Feature", "properties": { "visible_points": 0, "total_points": 80, "visibility_pct": 0.0 }, "geometry": { "type": "Point", "coordinates": [ -2.621224904176042, 53.244522835161746 ] } },
{ "type": "Feature", "properties": { "visible_points": 8, "total_points": 92, "visibility_pct": 8.695652173913043 }, "geometry": { "type": "Point", "coordinates": [ -2.621017275931227, 53.244523919132348 ] } },
{ "type": "Feature", "properties": { "visible_points": 0, "total_points": 103, "visibility_pct": 0.0 }, "geometry": { "type": "Point", "coordinates": [ -2.620809647673216, 53.244525002741447 ] } },
{ "type": "Feature", "properties": { "visible_points": 15, "total_points": 111, "visibility_pct": 13.513513513513514 }, "geometry": { "type": "Point", "coordinates": [ -2.620602019402013, 53.244526085989023 ] } },
{ "type": "Feature", "properties": { "visible_points": 13, "total_points": 112, "visibility_pct": 11.607142857142858 }, "geometry": { "type": "Point", "coordinates": [ -2.620394391117623, 53.244527168875081 ] } },
{ "type": "Feature", "properties": { "visible_points": 9, "total_points": 111, "visibility_pct": 8.1081081081081088 }, "geometry": { "type": "Point", "coordinates": [ -2.620186762820055, 53.244528251399679 ] } },
{ "type": "Feature", "properties": { "visible_points": 14, "total_points": 104, "visibility_pct": 13.461538461538462 }, "geometry": { "type": "Point", "coordinates": [ -2.619979134509305, 53.244529333562724 ] } },
{ "type": "Feature", "properties": { "visible_points": 12, "total_points": 94, "visibility_pct": 12.76595744680851 }, "geometry": { "type": "Point", "coordinates": [ -2.619771506185386, 53.244530415364274 ] } },
{ "type": "Feature", "properties": { "visible_points": 11, "total_points": 83, "visibility_pct": 13.253012048192772 }, "geometry": { "type": "Point", "coordinates": [ -2.619563877848297, 53.244531496804335 ] } },
{ "type": "Feature", "properties": { "visible_points": 6, "total_points": 72, "visibility_pct": 8.3333333333333321 }, "geometry": { "type": "Point", "coordinates": [ -2.619356249498047, 53.244532577882865 ] } },
{ "type": "Feature", "properties": { "visible_points": 3, "total_points": 63, "visibility_pct": 4.7619047619047619 }, "geometry": { "type": "Point", "coordinates": [ -2.621537911446794, 53.244629067518161 ] } },
{ "type": "Feature", "properties": { "visible_points": 0, "total_points": 73, "visibility_pct": 0.0 }, "geometry": { "type": "Point", "coordinates": [ -2.621330282709373, 53.244630152041282 ] } },
{ "type": "Feature", "properties": { "visible_points": 13, "total_points": 84, "visibility_pct": 15.476190476190476 }, "geometry": { "type": "Point", "coordinates": [ -2.62112265395876, 53.244631236202906 ] } },
{ "type": "Feature", "properties": { "visible_points": 16, "total_points": 95, "visibility_pct": 16.842105263157894 }, "geometry": { "type": "Point", "coordinates": [ -2.620915025194946, 53.244632320003021 ] } },
{ "type": "Feature", "properties": { "visible_points": 15, "total_points": 105, "visibility_pct": 14.285714285714285 }, "geometry": { "type": "Point", "coordinates": [ -2.62070739641794, 53.244633403441618 ] } },
{ "type": "Feature", "properties": { "visible_points": 14, "total_points": 105, "visibility_pct": 13.333333333333334 }, "geometry": { "type": "Point", "coordinates": [ -2.620499767627748, 53.244634486518713 ] } },
{ "type": "Feature", "properties": { "visible_points": 11, "total_points": 104, "visibility_pct": 10.576923076923077 }, "geometry": { "type": "Point", "coordinates": [ -2.620292138824371, 53.244635569234305 ] } },
{ "type": "Feature", "properties": { "visible_points": 0, "total_points": 99, "visibility_pct": 0.0 }, "geometry": { "type": "Point", "coordinates": [ -2.620084510007812, 53.244636651588401 ] } },
{ "type": "Feature", "properties": { "visible_points": 9, "total_points": 91, "visibility_pct": 9.8901098901098905 }, "geometry": { "type": "Point", "coordinates": [ -2.619876881178081, 53.244637733580952 ] } },
{ "type": "Feature", "properties": { "visible_points": 0, "total_points": 81, "visibility_pct": 0.0 }, "geometry": { "type": "Point", "coordinates": [ -2.619669252335179, 53.244638815212028 ] } },
{ "type": "Feature", "properties": { "visible_points": 0, "total_points": 71, "visibility_pct": 0.0 }, "geometry": { "type": "Point", "coordinates": [ -2.61946162347911, 53.244639896481566 ] } },
{ "type": "Feature", "properties": { "visible_points": 0, "total_points": 65, "visibility_pct": 0.0 }, "geometry": { "type": "Point", "coordinates": [ -2.62143566176169, 53.244737468818101 ] } },
{ "type": "Feature", "properties": { "visible_points": 7, "total_points": 75, "visibility_pct": 9.3333333333333339 }, "geometry": { "type": "Point", "coordinates": [ -2.621228032505273, 53.244738553170734 ] } },
{ "type": "Feature", "properties": { "visible_points": 0, "total_points": 85, "visibility_pct": 0.0 }, "geometry": { "type": "Point", "coordinates": [ -2.621020403235659, 53.244739637161871 ] } },
{ "type": "Feature", "properties": { "visible_points": 14, "total_points": 94, "visibility_pct": 14.893617021276595 }, "geometry": { "type": "Point", "coordinates": [ -2.620812773952846, 53.244740720791512 ] } },
{ "type": "Feature", "properties": { "visible_points": 13, "total_points": 97, "visibility_pct": 13.402061855670103 }, "geometry": { "type": "Point", "coordinates": [ -2.620605144656849, 53.244741804059615 ] } },
{ "type": "Feature", "properties": { "visible_points": 8, "total_points": 95, "visibility_pct": 8.4210526315789469 }, "geometry": { "type": "Point", "coordinates": [ -2.620397515347659, 53.244742886966236 ] } },
{ "type": "Feature", "properties": { "visible_points": 0, "total_points": 92, "visibility_pct": 0.0 }, "geometry": { "type": "Point", "coordinates": [ -2.620189886025294, 53.244743969511326 ] } },
{ "type": "Feature", "properties": { "visible_points": 0, "total_points": 86, "visibility_pct": 0.0 }, "geometry": { "type": "Point", "coordinates": [ -2.619982256689744, 53.244745051694913 ] } },
{ "type": "Feature", "properties": { "visible_points": 1, "total_points": 78, "visibility_pct": 1.2820512820512819 }, "geometry": { "type": "Point", "coordinates": [ -2.619774627341024, 53.244746133516983 ] } },
{ "type": "Feature", "properties": { "visible_points": 2, "total_points": 69, "visibility_pct": 2.8985507246376812 }, "geometry": { "type": "Point", "coordinates": [ -2.619566997979139, 53.244747214977551 ] } },
{ "type": "Feature", "properties": { "visible_points": 2, "total_points": 59, "visibility_pct": 3.3898305084745761 }, "geometry": { "type": "Point", "coordinates": [ -2.619359368604087, 53.244748296076622 ] } },
{ "type": "Feature", "properties": { "visible_points": 3, "total_points": 55, "visibility_pct": 5.4545454545454541 }, "geometry": { "type": "Point", "coordinates": [ -2.621541041332996, 53.24484478549217 ] } },
{ "type": "Feature", "properties": { "visible_points": 0, "total_points": 64, "visibility_pct": 0.0 }, "geometry": { "type": "Point", "coordinates": [ -2.621333411570773, 53.244845870035846 ] } },
{ "type": "Feature", "properties": { "visible_points": 0, "total_points": 73, "visibility_pct": 0.0 }, "geometry": { "type": "Point", "coordinates": [ -2.621125781795355, 53.244846954218005 ] } },
{ "type": "Feature", "properties": { "visible_points": 0, "total_points": 81, "visibility_pct": 0.0 }, "geometry": { "type": "Point", "coordinates": [ -2.620918152006737, 53.244848038038654 ] } },
{ "type": "Feature", "properties": { "visible_points": 14, "total_points": 86, "visibility_pct": 16.279069767441861 }, "geometry": { "type": "Point", "coordinates": [ -2.62071052220493, 53.244849121497786 ] } },
{ "type": "Feature", "properties": { "visible_points": 10, "total_points": 85, "visibility_pct": 11.76470588235294 }, "geometry": { "type": "Point", "coordinates": [ -2.62050289238993, 53.244850204595423 ] } },
{ "type": "Feature", "properties": { "visible_points": 1, "total_points": 83, "visibility_pct": 1.2048192771084338 }, "geometry": { "type": "Point", "coordinates": [ -2.620295262561748, 53.244851287331542 ] } },
{ "type": "Feature", "properties": { "visible_points": 0, "total_points": 79, "visibility_pct": 0.0 }, "geometry": { "type": "Point", "coordinates": [ -2.620087632720384, 53.244852369706145 ] } },
{ "type": "Feature", "properties": { "visible_points": 1, "total_points": 73, "visibility_pct": 1.3698630136986301 }, "geometry": { "type": "Point", "coordinates": [ -2.619880002865846, 53.244853451719237 ] } },
{ "type": "Feature", "properties": { "visible_points": 0, "total_points": 61, "visibility_pct": 0.0 }, "geometry": { "type": "Point", "coordinates": [ -2.621231160874044, 53.244954271171409 ] } },
{ "type": "Feature", "properties": { "visible_points": 3, "total_points": 68, "visibility_pct": 4.4117647058823533 }, "geometry": { "type": "Point", "coordinates": [ -2.621023530579614, 53.24495535518308 ] } },
{ "type": "Feature", "properties": { "visible_points": 9, "total_points": 73, "visibility_pct": 12.328767123287671 }, "geometry": { "type": "Point", "coordinates": [ -2.620815900271994, 53.244956438833235 ] } },
{ "type": "Feature", "properties": { "visible_points": 14, "total_points": 74, "visibility_pct": 18.918918918918919 }, "geometry": { "type": "Point", "coordinates": [ -2.620608269951184, 53.244957522121894 ] } }
]
}
