{
"type": "FeatureCollection",
"name": "SALFO_44_cycling",
"crs": { "type": "name", "properties": { "name": "urn:ogc:def:crs:OGC:1.3:CRS84" } },
"features": [
{"type":"Feature","properties":{"highway":"cycleway","name":null,"category":"Dedicated cycleway"},"geometry":{"type":"MultiLineString","coordinates":[[[-2.408628,53.535936],[-2.4085803,53.5358902],[-2.4084183,53.5357811],[-2.4082326,53.5356701],[-2.4080315,53.5355709],[-2.4078247,53.5354204],[-2.4076435,53.5352157],[-2.4075152,53.5350801],[-2.407314,53.534954],[-2.4072925,53.5349333]]]}},
{"type":"Feature","properties":{"highway":"cycleway","name":null,"category":"Dedicated cycleway"},"geometry":{"type":"MultiLineString","coordinates":[[[-2.4117962,53.5377501],[-2.4111934,53.537994],[-2.4111476,53.5379969],[-2.4111161,53.5379949],[-2.4110768,53.5379856],[-2.4110396,53.5379685],[-2.4109248,53.5379343],[-2.410731,53.537941],[-2.4106772,53.5379388],[-2.410634,53.5379307],[-2.4104565,53.5378826],[-2.4104103,53.5378769],[-2.4101827,53.5378762],[-2.410124,53.537873],[-2.4100712,53.537868],[-2.4096571,53.5377646],[-2.4095303,53.5377314],[-2.4093416,53.5376486],[-2.4092489,53.5375889],[-2.4091728,53.5375217],[-2.4091397,53.5374704],[-2.4091025,53.5373671],[-2.4090653,53.5372962],[-2.4089845,53.5371943],[-2.4085639,53.5364271],[-2.4085585,53.5363961],[-2.4085645,53.5363707],[-2.4086555,53.5362528],[-2.4086612,53.5362129],[-2.408628,53.535936]]]}},
{"type":"Feature","properties":{"highway":"track","name":"Hill Top Road","category":"Track"},"geometry":{"type":"MultiLineString","coordinates":[[[-2.3938021,53.5294125],[-2.3941509,53.5293582],[-2.3944497,53.5293185],[-2.3945772,53.5293073],[-2.3948237,53.5293471],[-2.3957871,53.5296278],[-2.3959564,53.5296613],[-2.3966982,53.5298899]]]}},
{"type":"Feature","properties":{"highway":"track","name":null,"category":"Track"},"geometry":{"type":"MultiLineString","coordinates":[[[-2.3939495,53.5295218],[-2.393852,53.5295446],[-2.3938667,53.5296904],[-2.3939525,53.5298573],[-2.3941032,53.5300136],[-2.3944933,53.530235],[-2.394972,53.5304264],[-2.3953828,53.5306003],[-2.3955483,53.530653],[-2.3958084,53.5306776],[-2.3959739,53.5306495],[-2.3960714,53.5305547]]]}},
{"type":"Feature","properties":{"highway":"track","name":null,"category":"Track"},"geometry":{"type":"MultiLineString","coordinates":[[[-2.3965118,53.5305529],[-2.3966042,53.5305967],[-2.396832,53.5306563],[-2.3969908,53.5306724],[-2.397135,53.5306439],[-2.3972019,53.5306148],[-2.3972123,53.5306103],[-2.3972896,53.5304016],[-2.3971914,53.5303992],[-2.3969887,53.5304228],[-2.3968173,53.5304861],[-2.3966836,53.5305333],[-2.3966004,53.5305424]]]}},
{"type":"Feature","properties":{"highway":"path","name":null,"category":"Shared path"},"geometry":{"type":"MultiLineString","coordinates":[[[-2.3912536,53.5311457],[-2.391322,53.5311351],[-2.3917044,53.5312407],[-2.3921202,53.5313649],[-2.3926239,53.5315537],[-2.3930648,53.5317139],[-2.3933218,53.5318319],[-2.39342,53.5318853],[-2.3935851,53.5319536],[-2.3936896,53.531976],[-2.3937628,53.5319772],[-2.393861,53.5319586],[-2.393909,53.531935],[-2.3939467,53.5319425],[-2.3940888,53.5320008]]]}},
{"type":"Feature","properties":{"highway":"track","name":null,"category":"Track"},"geometry":{"type":"MultiLineString","coordinates":[[[-2.3972896,53.5304016],[-2.3974296,53.5303606]]]}},
{"type":"Feature","properties":{"highway":"path","name":null,"category":"Shared path"},"geometry":{"type":"MultiLineString","coordinates":[[[-2.3937075,53.5312087],[-2.3937795,53.5312133],[-2.393838,53.5312605],[-2.3939487,53.5315015],[-2.3939885,53.5316443],[-2.3940031,53.5317561],[-2.3939968,53.5318158],[-2.3940365,53.5318915],[-2.3940888,53.5320008],[-2.3941306,53.5320306],[-2.3942894,53.5320654],[-2.3944628,53.5321151],[-2.394676,53.5321971],[-2.3949539,53.5323287],[-2.3950814,53.5324169],[-2.3952945,53.5325001],[-2.3953907,53.5325809],[-2.395468,53.5326343],[-2.3956456,53.5327113],[-2.3958358,53.5327647],[-2.3959904,53.5328293],[-2.3960981,53.5329126]]]}},
{"type":"Feature","properties":{"highway":"track","name":null,"category":"Track"},"geometry":{"type":"MultiLineString","coordinates":[[[-2.3952206,53.5326298],[-2.3953767,53.5329113],[-2.3955059,53.5331177],[-2.3956795,53.5333665],[-2.3957329,53.5335279],[-2.3957463,53.5339063],[-2.39596,53.5341313],[-2.3961025,53.5343192],[-2.3962227,53.5348246],[-2.3963017,53.5350792],[-2.3964528,53.5351699],[-2.3954374,53.5356171],[-2.3952485,53.5356752],[-2.3949942,53.5357135],[-2.3946613,53.5357098],[-2.3943638,53.5356864],[-2.393986,53.5356031],[-2.3938632,53.5355554],[-2.3937656,53.5354936],[-2.393627,53.5353701],[-2.3935656,53.5353411],[-2.3931815,53.5352307],[-2.3930634,53.5351989],[-2.3929769,53.5351942],[-2.3928635,53.5352279],[-2.3926357,53.5352994],[-2.3925864,53.5353149],[-2.3924731,53.5353271],[-2.3923771,53.5353215],[-2.3922684,53.5352841],[-2.3921189,53.5351484]]]}},
{"type":"Feature","properties":{"highway":"track","name":null,"category":"Track"},"geometry":{"type":"MultiLineString","coordinates":[[[-2.39596,53.5341313],[-2.3960451,53.5340988],[-2.3961914,53.5340665],[-2.3962833,53.5340019]]]}},
{"type":"Feature","properties":{"highway":"track","name":null,"category":"Track"},"geometry":{"type":"MultiLineString","coordinates":[[[-2.3955059,53.5331177],[-2.3957036,53.5328983],[-2.395739,53.5328843],[-2.3958163,53.5328247]]]}},
{"type":"Feature","properties":{"highway":"path","name":null,"category":"Shared path"},"geometry":{"type":"MultiLineString","coordinates":[[[-2.3937607,53.5320393],[-2.3937215,53.5320278],[-2.3936729,53.5320235],[-2.3936372,53.5320421]]]}},
{"type":"Feature","properties":{"highway":"path","name":null,"category":"Shared path"},"geometry":{"type":"MultiLineString","coordinates":[[[-2.3942392,53.5322194],[-2.3940282,53.5321511],[-2.3937607,53.5320393],[-2.3938275,53.5320108],[-2.393861,53.5319586]]]}},
{"type":"Feature","properties":{"highway":"path","name":null,"category":"Shared path"},"geometry":{"type":"MultiLineString","coordinates":[[[-2.3933316,53.5299948],[-2.3933824,53.5300333],[-2.3934514,53.5301265],[-2.3935977,53.5305103],[-2.3936729,53.5306966],[-2.3938025,53.5308854],[-2.3937941,53.5309103],[-2.3936332,53.5309252]]]}},
{"type":"Feature","properties":{"highway":"track","name":null,"category":"Track"},"geometry":{"type":"MultiLineString","coordinates":[[[-2.3984954,53.5302451],[-2.3984949,53.5303453],[-2.3984062,53.5306228],[-2.3982023,53.5308354],[-2.3979481,53.530874],[-2.3976467,53.5308547],[-2.3973659,53.5307493],[-2.3972221,53.5306715],[-2.3972019,53.5306148]]]}},
{"type":"Feature","properties":{"highway":"cycleway","name":null,"category":"Dedicated cycleway"},"geometry":{"type":"MultiLineString","coordinates":[[[-2.3813012,53.5273351],[-2.3814649,53.5274197],[-2.3824278,53.5277928],[-2.3870833,53.529597],[-2.3871024,53.5296043],[-2.3906247,53.5309424],[-2.3910889,53.531085],[-2.3912536,53.5311457],[-2.3915876,53.5312543],[-2.3923854,53.5315468],[-2.3929982,53.5317899],[-2.3931173,53.5318372],[-2.3936372,53.5320421],[-2.3940005,53.5321853],[-2.3942837,53.5322904],[-2.3952206,53.5326298],[-2.3956099,53.5327598],[-2.3958163,53.5328247],[-2.3960981,53.5329126],[-2.3965533,53.5330337],[-2.3970598,53.533117],[-2.3973103,53.53316],[-2.3982442,53.5332679],[-2.3987029,53.5333182],[-2.3989866,53.5333543],[-2.3993937,53.5333838],[-2.3995978,53.5334224],[-2.399847,53.5334527],[-2.4000588,53.533466],[-2.4000868,53.5334614],[-2.4001474,53.5334289],[-2.4001764,53.5334251],[-2.4002215,53.5334204],[-2.4003906,53.5334082]]]}},
{"type":"Feature","properties":{"highway":"path","name":null,"category":"Shared path"},"geometry":{"type":"MultiLineString","coordinates":[[[-2.4062141,53.5328777],[-2.4060131,53.532879],[-2.4055267,53.532877],[-2.4052957,53.5328769],[-2.4050441,53.5328769],[-2.4049687,53.5328682],[-2.4048555,53.532852],[-2.4046998,53.5328182],[-2.4044568,53.5327482],[-2.4041046,53.5326805],[-2.4040246,53.5326619],[-2.4038317,53.5326509],[-2.4032534,53.5326534],[-2.4030991,53.5326975]]]}},
{"type":"Feature","properties":{"highway":"path","name":null,"category":"Shared path"},"geometry":{"type":"MultiLineString","coordinates":[[[-2.4057916,53.5310873],[-2.4056656,53.5311561],[-2.4054187,53.5313261],[-2.4051501,53.5314948],[-2.4048834,53.5316428],[-2.4048012,53.5316871],[-2.4047509,53.5317275],[-2.4046842,53.5317831],[-2.4046572,53.5318251],[-2.4045379,53.5320492]]]}},
{"type":"Feature","properties":{"highway":"path","name":null,"category":"Shared path"},"geometry":{"type":"MultiLineString","coordinates":[[[-2.4031041,53.5317195],[-2.4039361,53.5317217],[-2.4039869,53.5317314]]]}},
{"type":"Feature","properties":{"highway":"path","name":null,"category":"Shared path"},"geometry":{"type":"MultiLineString","coordinates":[[[-2.4045315,53.5321621],[-2.4045319,53.5322248],[-2.4044828,53.5324472],[-2.4044568,53.5327482]]]}},
{"type":"Feature","properties":{"highway":"path","name":null,"category":"Shared path"},"geometry":{"type":"MultiLineString","coordinates":[[[-2.4044612,53.5320546],[-2.4039869,53.5317314],[-2.4032967,53.5312876],[-2.4030914,53.531143],[-2.4029701,53.5311311]]]}},
{"type":"Feature","properties":{"highway":"path","name":null,"category":"Shared path"},"geometry":{"type":"MultiLineString","coordinates":[[[-2.4060131,53.532879],[-2.4060304,53.5328466],[-2.4056656,53.5311561],[-2.4056562,53.5311127],[-2.4032328,53.5311261],[-2.4030914,53.531143],[-2.4030951,53.5313708],[-2.4031041,53.5317195],[-2.403106,53.5321524],[-2.4030991,53.5326975]]]}},
{"type":"Feature","properties":{"highway":"path","name":null,"category":"Shared path"},"geometry":{"type":"MultiLineString","coordinates":[[[-2.4045905,53.5321386],[-2.4046354,53.5321449],[-2.4047952,53.532242],[-2.4050702,53.5323805],[-2.405104,53.5323975],[-2.4054798,53.5325986],[-2.4057324,53.5327313],[-2.405922,53.53282],[-2.4059775,53.5328406],[-2.4060131,53.532879]]]}},
{"type":"Feature","properties":{"highway":"cycleway","name":null,"category":"Dedicated cycleway"},"geometry":{"type":"MultiLineString","coordinates":[[[-2.4066875,53.5345331],[-2.4068588,53.5346126],[-2.40691,53.5346483],[-2.4070282,53.5347287],[-2.40706,53.5347405],[-2.4071334,53.5347429]]]}},
{"type":"Feature","properties":{"highway":"cycleway","name":null,"category":"Dedicated cycleway"},"geometry":{"type":"MultiLineString","coordinates":[[[-2.400501,53.5331748],[-2.4006951,53.5332313],[-2.4019577,53.5334015],[-2.4021945,53.5334347],[-2.4022355,53.5334717],[-2.4029389,53.5335828],[-2.403737,53.5337723],[-2.4041599,53.5338871],[-2.4042141,53.5339018],[-2.4047053,53.534031],[-2.4064341,53.5344489],[-2.4066875,53.5345331]]]}},
{"type":"Feature","properties":{"highway":"track","name":null,"category":"Track"},"geometry":{"type":"MultiLineString","coordinates":[[[-2.3965768,53.5300892],[-2.3966448,53.5301629],[-2.3966004,53.5305424],[-2.3965118,53.5305529],[-2.3960714,53.5305547],[-2.3958409,53.5304879]]]}},
{"type":"Feature","properties":{"highway":"track","name":null,"category":"Track"},"geometry":{"type":"MultiLineString","coordinates":[[[-2.3958409,53.5304879],[-2.3952794,53.5303755],[-2.3948627,53.5302455],[-2.3946115,53.5301085],[-2.3944342,53.5299574],[-2.3944017,53.5299135],[-2.3943603,53.5297536],[-2.3943606,53.5296923],[-2.3943751,53.5296658]]]}},
{"type":"Feature","properties":{"highway":"track","name":"Hill Top Road","category":"Track"},"geometry":{"type":"MultiLineString","coordinates":[[[-2.3966982,53.5298899],[-2.3967881,53.5299209],[-2.3968916,53.5299288]]]}},
{"type":"Feature","properties":{"highway":"track","name":"Moss Lane","category":"Track"},"geometry":{"type":"MultiLineString","coordinates":[[[-2.3912536,53.5311457],[-2.3916589,53.5308088],[-2.3919993,53.5304173],[-2.3926802,53.5299741],[-2.3929236,53.5297727],[-2.39305,53.5295762]]]}},
{"type":"Feature","properties":{"highway":"cycleway","name":null,"category":"Dedicated cycleway"},"geometry":{"type":"MultiLineString","coordinates":[[[-2.4071334,53.5347429],[-2.4071595,53.5345241],[-2.4071625,53.5342823],[-2.4071644,53.5342669]]]}},
{"type":"Feature","properties":{"highway":"track","name":null,"category":"Track"},"geometry":{"type":"MultiLineString","coordinates":[[[-2.399403,53.5336756],[-2.3991485,53.5336779],[-2.3990294,53.533674],[-2.3982462,53.5336313]]]}},
{"type":"Feature","properties":{"highway":"track","name":null,"category":"Track"},"geometry":{"type":"MultiLineString","coordinates":[[[-2.4036948,53.5303959],[-2.4036735,53.5304098],[-2.4035081,53.5305172],[-2.4034249,53.5305308],[-2.4031916,53.5305385],[-2.4031328,53.5305443],[-2.4030513,53.5305608],[-2.4029762,53.5305938]]]}},
{"type":"Feature","properties":{"highway":"track","name":null,"category":"Track"},"geometry":{"type":"MultiLineString","coordinates":[[[-2.4026189,53.5303368],[-2.4026188,53.5305084]]]}},
{"type":"Feature","properties":{"highway":"track","name":null,"category":"Track"},"geometry":{"type":"MultiLineString","coordinates":[[[-2.4036146,53.5298631],[-2.4036734,53.5303709],[-2.4036735,53.5304098]]]}},
{"type":"Feature","properties":{"highway":"path","name":null,"category":"Shared path"},"geometry":{"type":"MultiLineString","coordinates":[[[-2.4044856,53.5320487],[-2.4045118,53.5320468],[-2.4045379,53.5320492],[-2.4045658,53.5320571],[-2.4045881,53.5320698],[-2.4046027,53.5320859],[-2.4046082,53.532104],[-2.404604,53.5321221],[-2.4045905,53.5321386],[-2.4045743,53.5321493],[-2.4045542,53.5321573],[-2.4045315,53.5321621],[-2.4045,53.5321632],[-2.4044696,53.5321583],[-2.4044433,53.5321479],[-2.404424,53.5321331],[-2.4044137,53.5321162],[-2.4044126,53.5320982],[-2.4044208,53.5320809],[-2.4044375,53.5320659],[-2.4044612,53.5320546],[-2.4044856,53.5320487]]]}},
{"type":"Feature","properties":{"highway":"path","name":null,"category":"Shared path"},"geometry":{"type":"MultiLineString","coordinates":[[[-2.3960335,53.5359676],[-2.3959197,53.5359341],[-2.3950756,53.5359115]]]}},
{"type":"Feature","properties":{"highway":"track","name":"Moss Lane","category":"Track"},"geometry":{"type":"MultiLineString","coordinates":[[[-2.39305,53.5295762],[-2.3930188,53.5295762],[-2.3922791,53.5291564],[-2.3922422,53.5290791]]]}},
{"type":"Feature","properties":{"highway":"track","name":"Hill Top Road","category":"Track"},"geometry":{"type":"MultiLineString","coordinates":[[[-2.3938021,53.5294125],[-2.3936067,53.5294445],[-2.3934723,53.5294893],[-2.3931296,53.5295762],[-2.39305,53.5295762]]]}},
{"type":"Feature","properties":{"highway":"cycleway","name":null,"category":"Dedicated cycleway"},"geometry":{"type":"MultiLineString","coordinates":[[[-2.4072539,53.5348974],[-2.4071444,53.5347974],[-2.4071362,53.5347666],[-2.4071334,53.5347429]]]}},
{"type":"Feature","properties":{"highway":"cycleway","name":null,"category":"Dedicated cycleway"},"geometry":{"type":"MultiLineString","coordinates":[[[-2.4072925,53.5349333],[-2.4072539,53.5348974]]]}},
{"type":"Feature","properties":{"highway":"path","name":null,"category":"Shared path"},"geometry":{"type":"MultiLineString","coordinates":[[[-2.394065,53.5365049],[-2.3939845,53.5365074],[-2.3938516,53.536437],[-2.3936327,53.5363201],[-2.3935732,53.5362705],[-2.3935178,53.536227],[-2.3934514,53.5361648],[-2.3934063,53.5361304],[-2.3933262,53.5360914],[-2.3932615,53.5360509],[-2.3932112,53.5359942],[-2.3931985,53.5359385],[-2.3931721,53.5358125],[-2.3931329,53.5357457],[-2.3930886,53.5356885],[-2.3930384,53.5356409],[-2.3929745,53.5355989],[-2.3929098,53.5355691],[-2.3928442,53.5355422],[-2.3928008,53.5355154],[-2.3927412,53.5354739],[-2.3927003,53.5354238],[-2.3926773,53.5353747],[-2.3926662,53.5353352],[-2.3926357,53.5352994]]]}},
{"type":"Feature","properties":{"highway":"path","name":null,"category":"Shared path"},"geometry":{"type":"MultiLineString","coordinates":[[[-2.3950411,53.5358279],[-2.3949942,53.5357135]]]}},
{"type":"Feature","properties":{"highway":"path","name":null,"category":"Shared path"},"geometry":{"type":"MultiLineString","coordinates":[[[-2.4109617,53.5354077],[-2.410777,53.5354892]]]}},
{"type":"Feature","properties":{"highway":"path","name":null,"category":"Shared path"},"geometry":{"type":"MultiLineString","coordinates":[[[-2.4022591,53.5249732],[-2.4022486,53.5249068]]]}},
{"type":"Feature","properties":{"highway":"path","name":null,"category":"Shared path"},"geometry":{"type":"MultiLineString","coordinates":[[[-2.4018427,53.5246629],[-2.4018125,53.5246392],[-2.4018094,53.5245138]]]}},
{"type":"Feature","properties":{"highway":"path","name":null,"category":"Shared path"},"geometry":{"type":"MultiLineString","coordinates":[[[-2.4107974,53.5247617],[-2.4108485,53.5247421],[-2.4110221,53.5247513],[-2.4116335,53.5248991]]]}},
{"type":"Feature","properties":{"highway":"path","name":null,"category":"Shared path"},"geometry":{"type":"MultiLineString","coordinates":[[[-2.4030991,53.5326975],[-2.4030976,53.5327378]]]}},
{"type":"Feature","properties":{"highway":"cycle_lane_on_street","name":"Ravenscraig Road","category":"Cycle lane on street"},"geometry":{"type":"MultiLineString","coordinates":[[[-2.4126136,53.5368116],[-2.4124861,53.5366984],[-2.4122384,53.5364787],[-2.4116259,53.5359694],[-2.4114328,53.5358009],[-2.4109617,53.5354077],[-2.4108315,53.535299],[-2.4106119,53.535136],[-2.4105189,53.5350917],[-2.4096922,53.5346979],[-2.4093406,53.5345304]]]}},
{"type":"Feature","properties":{"highway":"cycle_lane_on_street","name":"Ravenscraig Road","category":"Cycle lane on street"},"geometry":{"type":"MultiLineString","coordinates":[[[-2.4127046,53.5368873],[-2.412878,53.5370382]]]}}
]
}
