{
"type": "FeatureCollection",
"name": "ROCHD_42_NACH",
"crs": { "type": "name", "properties": { "name": "urn:ogc:def:crs:OGC:1.3:CRS84" } },
"features": [
{"type":"Feature","properties":{"id":56175,"nach":0.68532297168017065},"geometry":{"type":"LineString","coordinates":[[-2.113739,53.611275],[-2.1137958,53.6112776]]}},
{"type":"Feature","properties":{"id":15361,"nach":0.63904276159395379},"geometry":{"type":"LineString","coordinates":[[-2.1143216,53.611249],[-2.1141722,53.6112587],[-2.1137958,53.6112776]]}},
{"type":"Feature","properties":{"id":64626,"nach":0.63913763941339174},"geometry":{"type":"LineString","coordinates":[[-2.1137707,53.6109554],[-2.1137693,53.6109605],[-2.1137666,53.6110012],[-2.1137958,53.6112776]]}},
{"type":"Feature","properties":{"id":56176,"nach":0.69134769755356218},"geometry":{"type":"LineString","coordinates":[[-2.113739,53.611275],[-2.1135753,53.6112608],[-2.1134312,53.6112466]]}},
{"type":"Feature","properties":{"id":56177,"nach":0.5651471181096277},"geometry":{"type":"LineString","coordinates":[[-2.113739,53.611275],[-2.1137405,53.61128870000001],[-2.113756,53.611332],[-2.113832,53.6114831],[-2.1138703,53.6115385],[-2.1139352,53.6116318]]}},
{"type":"Feature","properties":{"id":15364,"nach":0.5610747923758137},"geometry":{"type":"LineString","coordinates":[[-2.1144287,53.6114243],[-2.1143216,53.611249]]}},
{"type":"Feature","properties":{"id":56188,"nach":0.64046189839059575},"geometry":{"type":"LineString","coordinates":[[-2.1148472,53.6111026],[-2.1147041,53.611163700000013],[-2.11463,53.61118720000001],[-2.1145296,53.61121],[-2.1143216,53.611249]]}},
{"type":"Feature","properties":{"id":64625,"nach":0.63253115199192789},"geometry":{"type":"LineString","coordinates":[[-2.1137707,53.6109554],[-2.1137782,53.6109291],[-2.1138126,53.6108918],[-2.1138924,53.6108662],[-2.1139607,53.610854]]}},
{"type":"Feature","properties":{"id":64628,"nach":0.53985445243852248},"geometry":{"type":"LineString","coordinates":[[-2.1136889,53.6109433],[-2.1137707,53.6109554]]}},
{"type":"Feature","properties":{"id":8196,"nach":0.65736181998168886},"geometry":{"type":"LineString","coordinates":[[-2.1128969,53.6111735],[-2.1130493,53.6111767],[-2.1132169,53.611208599999983],[-2.1134312,53.6112466]]}},
{"type":"Feature","properties":{"id":56397,"nach":0.62997193354319503},"geometry":{"type":"LineString","coordinates":[[-2.1134291,53.6113322],[-2.1134208,53.611318900000015],[-2.1134312,53.6112466]]}},
{"type":"Feature","properties":{"id":56400,"nach":0.52918041171194563},"geometry":{"type":"LineString","coordinates":[[-2.1128253,53.6112727],[-2.1128969,53.6111735]]}},
{"type":"Feature","properties":{"id":56404,"nach":0.65049122578910479},"geometry":{"type":"LineString","coordinates":[[-2.1127111,53.6110845],[-2.1128969,53.6111735]]}},
{"type":"Feature","properties":{"id":56403,"nach":0.42784536055610906},"geometry":{"type":"LineString","coordinates":[[-2.112801,53.6110236],[-2.1128369,53.6110347],[-2.1128918,53.611057],[-2.1129213,53.6110787],[-2.1129254,53.6111056],[-2.1128969,53.6111735]]}},
{"type":"Feature","properties":{"id":56396,"nach":0.4610102465528923},"geometry":{"type":"LineString","coordinates":[[-2.1134291,53.6113322],[-2.1137013,53.6117694]]}},
{"type":"Feature","properties":{"id":56398,"nach":0.62326660881496876},"geometry":{"type":"LineString","coordinates":[[-2.1134291,53.6113322],[-2.1129068,53.6113981],[-2.1128129,53.6114573]]}},
{"type":"Feature","properties":{"id":56399,"nach":0.51550988545935805},"geometry":{"type":"LineString","coordinates":[[-2.1128253,53.6112727],[-2.1127946,53.6113153]]}},
{"type":"Feature","properties":{"id":56407,"nach":0.0},"geometry":{"type":"LineString","coordinates":[[-2.1127111,53.6110845],[-2.112657,53.6111211],[-2.1126933,53.6111468],[-2.1127132,53.6111781],[-2.1127201,53.6112058],[-2.1127167,53.6112448],[-2.1128253,53.6112727]]}},
{"type":"Feature","properties":{"id":56405,"nach":0.64941564777384264},"geometry":{"type":"LineString","coordinates":[[-2.1127111,53.6110845],[-2.1125751,53.6110192]]}},
{"type":"Feature","properties":{"id":56406,"nach":0.076875118616826152},"geometry":{"type":"LineString","coordinates":[[-2.1127111,53.6110845],[-2.112801,53.6110236]]}},
{"type":"Feature","properties":{"id":11348,"nach":0.64119942131703322},"geometry":{"type":"LineString","coordinates":[[-2.1114372,53.6125893],[-2.1115985,53.612482299999989],[-2.1118455,53.6122904],[-2.1123293,53.6118675]]}},
{"type":"Feature","properties":{"id":34560,"nach":0.56676002151445026},"geometry":{"type":"LineString","coordinates":[[-2.1114564,53.6073551],[-2.1110781,53.6071602],[-2.1103874,53.6067117],[-2.1098043,53.606201]]}},
{"type":"Feature","properties":{"id":35335,"nach":0.54527962080554193},"geometry":{"type":"LineString","coordinates":[[-2.1101192,53.6060948],[-2.110912,53.6058273]]}},
{"type":"Feature","properties":{"id":35338,"nach":0.44873463547218706},"geometry":{"type":"LineString","coordinates":[[-2.1121031,53.6075169],[-2.1115726,53.6071731],[-2.1107636,53.6067173],[-2.1105156,53.6065424],[-2.1102087,53.6062623],[-2.1101815,53.6062171],[-2.1101859,53.6061744],[-2.1101192,53.6060948]]}},
{"type":"Feature","properties":{"id":34561,"nach":0.51632364246935469},"geometry":{"type":"LineString","coordinates":[[-2.1114564,53.6073551],[-2.1117195,53.6074941],[-2.112097,53.6077289]]}},
{"type":"Feature","properties":{"id":35349,"nach":0.52625734667744328},"geometry":{"type":"LineString","coordinates":[[-2.1120275,53.6077667],[-2.1115358,53.6074618],[-2.1114245,53.6074164],[-2.1114352,53.607396],[-2.1114564,53.6073551]]}},
{"type":"Feature","properties":{"id":25063,"nach":0.42550410017665041},"geometry":{"type":"LineString","coordinates":[[-2.114972,53.6118196],[-2.1154988,53.6115599]]}},
{"type":"Feature","properties":{"id":15328,"nach":0.62643369111467917},"geometry":{"type":"LineString","coordinates":[[-2.1164669,53.6125451],[-2.1161431,53.6120987],[-2.1154988,53.6115599]]}},
{"type":"Feature","properties":{"id":15405,"nach":0.63172696292606967},"geometry":{"type":"LineString","coordinates":[[-2.1149122,53.6111523],[-2.1150171,53.6112252],[-2.1154988,53.6115599]]}},
{"type":"Feature","properties":{"id":25065,"nach":0.479776267166097},"geometry":{"type":"LineString","coordinates":[[-2.114972,53.6118196],[-2.1149284,53.6117841],[-2.114907,53.6117679],[-2.1144287,53.6114243]]}},
{"type":"Feature","properties":{"id":41387,"nach":0.43978534693025029},"geometry":{"type":"LineString","coordinates":[[-2.1160827,53.61284160000001],[-2.1152686,53.6120608],[-2.1151125,53.6119469],[-2.114972,53.6118196]]}},
{"type":"Feature","properties":{"id":15327,"nach":0.59109121170399292},"geometry":{"type":"LineString","coordinates":[[-2.1164669,53.6125451],[-2.116728,53.612422700000018]]}},
{"type":"Feature","properties":{"id":41382,"nach":0.57387482114250565},"geometry":{"type":"LineString","coordinates":[[-2.1165708,53.6126374],[-2.1164669,53.6125451]]}},
{"type":"Feature","properties":{"id":56187,"nach":0.65108758983236525},"geometry":{"type":"LineString","coordinates":[[-2.1148472,53.6111026],[-2.1149122,53.6111523]]}},
{"type":"Feature","properties":{"id":55844,"nach":0.6315290089179314},"geometry":{"type":"LineString","coordinates":[[-2.1149967,53.6111145],[-2.1149122,53.6111523]]}},
{"type":"Feature","properties":{"id":56178,"nach":0.56344591331348703},"geometry":{"type":"LineString","coordinates":[[-2.1127323,53.611416],[-2.1127946,53.6113153]]}},
{"type":"Feature","properties":{"id":8968,"nach":0.56163321845648972},"geometry":{"type":"LineString","coordinates":[[-2.1127946,53.6113153],[-2.1126337,53.6112763]]}},
{"type":"Feature","properties":{"id":56179,"nach":0.64115942697783312},"geometry":{"type":"LineString","coordinates":[[-2.1127323,53.611416],[-2.1126757,53.6114968],[-2.1126042,53.6115796],[-2.1123293,53.6118675]]}},
{"type":"Feature","properties":{"id":56183,"nach":0.62475585176313631},"geometry":{"type":"LineString","coordinates":[[-2.1128129,53.6114573],[-2.1127751,53.6114333],[-2.1127323,53.611416]]}},
{"type":"Feature","properties":{"id":56186,"nach":0.46760541941037276},"geometry":{"type":"LineString","coordinates":[[-2.1126356,53.611359],[-2.1126337,53.6112763]]}},
{"type":"Feature","properties":{"id":56182,"nach":0.55728078406734938},"geometry":{"type":"LineString","coordinates":[[-2.1126337,53.6112763],[-2.1125535,53.6111221],[-2.1125484,53.611080900000012],[-2.1125548,53.611047699999986],[-2.1125751,53.6110192]]}},
{"type":"Feature","properties":{"id":15376,"nach":0.66736102858497326},"geometry":{"type":"LineString","coordinates":[[-2.1124216,53.6109541],[-2.1125751,53.6110192]]}},
{"type":"Feature","properties":{"id":8971,"nach":0.41382142637612634},"geometry":{"type":"LineString","coordinates":[[-2.1125751,53.6110192],[-2.1126296,53.6109943],[-2.1126784,53.6109931],[-2.1127353,53.6110033],[-2.112801,53.6110236]]}},
{"type":"Feature","properties":{"id":55851,"nach":0.56257092640247741},"geometry":{"type":"LineString","coordinates":[[-2.1126226,53.6108002],[-2.1124216,53.6109541]]}},
{"type":"Feature","properties":{"id":56681,"nach":0.65698225456675852},"geometry":{"type":"LineString","coordinates":[[-2.111045,53.6103396],[-2.1110538,53.6103428],[-2.1113877,53.610466],[-2.1124216,53.6109541]]}},
{"type":"Feature","properties":{"id":28063,"nach":0.50855302976668371},"geometry":{"type":"LineString","coordinates":[[-2.1255247,53.6027368],[-2.1254545,53.6028105],[-2.1246584,53.6036469],[-2.1249342,53.6044112],[-2.1248967,53.604447700000016],[-2.1248501,53.6044906],[-2.1247599,53.6045067],[-2.1245239,53.6045894],[-2.1240947,53.6048695],[-2.123687,53.605035],[-2.1235129,53.6051199]]}},
{"type":"Feature","properties":{"id":11280,"nach":0.55005177607428002},"geometry":{"type":"LineString","coordinates":[[-2.1123293,53.6118675],[-2.1119099,53.6117189]]}},
{"type":"Feature","properties":{"id":11285,"nach":0.47207193932653951},"geometry":{"type":"LineString","coordinates":[[-2.1100199,53.6110146],[-2.1108211,53.6114288],[-2.1109505,53.6114872],[-2.1111686,53.6115539],[-2.1119099,53.6117189]]}},
{"type":"Feature","properties":{"id":43143,"nach":0.51812386222854401},"geometry":{"type":"LineString","coordinates":[[-2.1116159,53.6113538],[-2.1119099,53.6117189]]}},
{"type":"Feature","properties":{"id":56184,"nach":0.45684231691428639},"geometry":{"type":"LineString","coordinates":[[-2.1128129,53.6114573],[-2.1128424,53.611489400000011],[-2.1128794,53.6115455],[-2.1131815,53.6121544]]}},
{"type":"Feature","properties":{"id":11367,"nach":0.567148406656796},"geometry":{"type":"LineString","coordinates":[[-2.1131848,53.6090733],[-2.1109309,53.6084115],[-2.1108726,53.6083968]]}},
{"type":"Feature","properties":{"id":31324,"nach":0.51811428603440468},"geometry":{"type":"LineString","coordinates":[[-2.1115358,53.6079042],[-2.1115154,53.6079221],[-2.1115282,53.6079501],[-2.111457,53.6079977],[-2.1115451,53.6080551],[-2.1109659,53.608289700000014],[-2.1108726,53.6083968]]}},
{"type":"Feature","properties":{"id":15373,"nach":0.62099646486006455},"geometry":{"type":"LineString","coordinates":[[-2.1126532,53.6085622],[-2.1127214,53.60866390000001],[-2.1127966,53.6087554],[-2.1129333,53.6088541],[-2.1131797,53.6090177],[-2.113191,53.609049099999986],[-2.1131848,53.6090733]]}},
{"type":"Feature","properties":{"id":15371,"nach":0.60891335939212476},"geometry":{"type":"LineString","coordinates":[[-2.1133552,53.609170700000021],[-2.1132876,53.609114],[-2.1131848,53.6090733]]}},
{"type":"Feature","properties":{"id":31322,"nach":0.43979289849486602},"geometry":{"type":"LineString","coordinates":[[-2.1115358,53.6079042],[-2.111784,53.6080331]]}},
{"type":"Feature","properties":{"id":32201,"nach":0.439003354997207},"geometry":{"type":"LineString","coordinates":[[-2.1118829,53.6079708],[-2.1116594,53.6078471],[-2.1116093,53.6078626],[-2.1115736,53.6078824],[-2.1115358,53.6079042]]}},
{"type":"Feature","properties":{"id":66334,"nach":0.61695744134461239},"geometry":{"type":"LineString","coordinates":[[-2.1126582,53.6082225],[-2.1126456,53.6083503],[-2.1126255,53.6084911],[-2.1126532,53.6085622]]}},
{"type":"Feature","properties":{"id":40952,"nach":0.45484399123342956},"geometry":{"type":"LineString","coordinates":[[-2.1123914,53.608378],[-2.1123741,53.6083917],[-2.112507,53.6084782],[-2.1126,53.6085367],[-2.1126532,53.6085622]]}},
{"type":"Feature","properties":{"id":56728,"nach":0.58400416089683949},"geometry":{"type":"LineString","coordinates":[[-2.1122782,53.6097131],[-2.1133552,53.609170700000021]]}},
{"type":"Feature","properties":{"id":53729,"nach":0.56990275153401682},"geometry":{"type":"LineString","coordinates":[[-2.1144229,53.6107265],[-2.114438,53.6106765],[-2.1144344,53.6106237],[-2.1142503,53.6101462],[-2.1139928,53.6098407],[-2.113746,53.6094843],[-2.1133552,53.609170700000021]]}},
{"type":"Feature","properties":{"id":41384,"nach":0.56782975125329105},"geometry":{"type":"LineString","coordinates":[[-2.1165708,53.6126374],[-2.1166419,53.6127006],[-2.116982,53.6129561],[-2.1174107,53.6132035],[-2.1175932,53.61329]]}},
{"type":"Feature","properties":{"id":15396,"nach":0.52292756032430032},"geometry":{"type":"LineString","coordinates":[[-2.1151582,53.6126236],[-2.115285,53.612718600000015],[-2.1155141,53.6128967],[-2.1159,53.6132023],[-2.1163793,53.613606299999987],[-2.1166584,53.6138264],[-2.1167318,53.6138909]]}},
{"type":"Feature","properties":{"id":15395,"nach":0.50515787547672941},"geometry":{"type":"LineString","coordinates":[[-2.1151582,53.6126236],[-2.1145241,53.6129155]]}},
{"type":"Feature","properties":{"id":25067,"nach":0.55689721117259627},"geometry":{"type":"LineString","coordinates":[[-2.1144417,53.6120262],[-2.1151582,53.6126236]]}},
{"type":"Feature","properties":{"id":15213,"nach":0.40079297017144971},"geometry":{"type":"LineString","coordinates":[[-2.1191534,53.6112951],[-2.1192177,53.6115044],[-2.1192355,53.611634200000012],[-2.1192111,53.6117208],[-2.1190636,53.6119022],[-2.1187793,53.6118664]]}},
{"type":"Feature","properties":{"id":15215,"nach":0.49005361963685329},"geometry":{"type":"LineString","coordinates":[[-2.1195114,53.6111031],[-2.1191534,53.6112951]]}},
{"type":"Feature","properties":{"id":15218,"nach":0.41601277414058424},"geometry":{"type":"LineString","coordinates":[[-2.1187711,53.6111614],[-2.1190179,53.6112068],[-2.1191534,53.6112951]]}},
{"type":"Feature","properties":{"id":26496,"nach":0.61133670125639772},"geometry":{"type":"LineString","coordinates":[[-2.1197395,53.6111996],[-2.1195114,53.6111031]]}},
{"type":"Feature","properties":{"id":15306,"nach":0.61750082754849034},"geometry":{"type":"LineString","coordinates":[[-2.1191393,53.6109067],[-2.1192607,53.6109633],[-2.1195114,53.6111031]]}},
{"type":"Feature","properties":{"id":26498,"nach":0.49154245484073122},"geometry":{"type":"LineString","coordinates":[[-2.1197395,53.6111996],[-2.1203855,53.6107494],[-2.1205089,53.6107558],[-2.1205974,53.6107892],[-2.1207691,53.6108433],[-2.1208807,53.6109228]]}},
{"type":"Feature","properties":{"id":26499,"nach":0.59493691818497818},"geometry":{"type":"LineString","coordinates":[[-2.1200138,53.611347],[-2.1197395,53.6111996]]}},
{"type":"Feature","properties":{"id":15304,"nach":0.417880544699606},"geometry":{"type":"LineString","coordinates":[[-2.1191393,53.6109067],[-2.1193572,53.6107064],[-2.1198937,53.6108082]]}},
{"type":"Feature","properties":{"id":40985,"nach":0.62066717383297421},"geometry":{"type":"LineString","coordinates":[[-2.1187939,53.6108293],[-2.1188999,53.610848],[-2.1191393,53.6109067]]}},
{"type":"Feature","properties":{"id":15222,"nach":0.42355475302256712},"geometry":{"type":"LineString","coordinates":[[-2.1184386,53.610766800000015],[-2.1184667,53.6104645],[-2.1185311,53.6102544]]}},
{"type":"Feature","properties":{"id":15339,"nach":0.6315985463125201},"geometry":{"type":"LineString","coordinates":[[-2.1179987,53.610732600000013],[-2.1184386,53.610766800000015]]}},
{"type":"Feature","properties":{"id":40984,"nach":0.62763833997195007},"geometry":{"type":"LineString","coordinates":[[-2.1187939,53.6108293],[-2.1184386,53.610766800000015]]}},
{"type":"Feature","properties":{"id":15385,"nach":0.55223125002232365},"geometry":{"type":"LineString","coordinates":[[-2.1178136,53.611175],[-2.1179987,53.610732600000013]]}},
{"type":"Feature","properties":{"id":15341,"nach":0.64325481754216973},"geometry":{"type":"LineString","coordinates":[[-2.1171508,53.6105518],[-2.1179987,53.610732600000013]]}},
{"type":"Feature","properties":{"id":40987,"nach":0.49543058941053714},"geometry":{"type":"LineString","coordinates":[[-2.1189163,53.6103936],[-2.1189299,53.61043080000001],[-2.1189192,53.6105135],[-2.1187939,53.6108293]]}},
{"type":"Feature","properties":{"id":30573,"nach":0.57883094477917307},"geometry":{"type":"LineString","coordinates":[[-2.120052,53.6113675],[-2.1202906,53.611495600000012]]}},
{"type":"Feature","properties":{"id":30572,"nach":0.58932604311962933},"geometry":{"type":"LineString","coordinates":[[-2.120052,53.6113675],[-2.1200138,53.611347]]}},
{"type":"Feature","properties":{"id":30577,"nach":0.46411354615925476},"geometry":{"type":"LineString","coordinates":[[-2.1188271,53.6123622],[-2.1190739,53.6123176],[-2.1191972,53.6122921],[-2.1192752,53.6121658],[-2.120052,53.6113675]]}},
{"type":"Feature","properties":{"id":15239,"nach":0.40320815162422141},"geometry":{"type":"LineString","coordinates":[[-2.1205547,53.6109778],[-2.1208807,53.6109228]]}},
{"type":"Feature","properties":{"id":50987,"nach":0.30690005961073513},"geometry":{"type":"LineString","coordinates":[[-2.1206823,53.6112081],[-2.120634,53.6111328],[-2.1205547,53.6109778]]}},
{"type":"Feature","properties":{"id":26501,"nach":0.41400709576003691},"geometry":{"type":"LineString","coordinates":[[-2.1200138,53.611347],[-2.120466,53.6109388],[-2.1205547,53.6109778]]}},
{"type":"Feature","properties":{"id":50988,"nach":0.41073507073806964},"geometry":{"type":"LineString","coordinates":[[-2.1203826,53.61117],[-2.1206823,53.6112081]]}},
{"type":"Feature","properties":{"id":56191,"nach":0.45736194723827428},"geometry":{"type":"LineString","coordinates":[[-2.1158551,53.611039],[-2.1158148,53.6111398]]}},
{"type":"Feature","properties":{"id":56190,"nach":0.60870038460474651},"geometry":{"type":"LineString","coordinates":[[-2.1158551,53.611039],[-2.1161897,53.6102908]]}},
{"type":"Feature","properties":{"id":56192,"nach":0.61598225789432737},"geometry":{"type":"LineString","coordinates":[[-2.1158551,53.611039],[-2.1156941,53.6110176],[-2.1156215,53.610992200000013],[-2.115482,53.6109381],[-2.1154408,53.610899]]}},
{"type":"Feature","properties":{"id":15297,"nach":0.60975995274672612},"geometry":{"type":"LineString","coordinates":[[-2.1160876,53.6102561],[-2.1161897,53.6102908]]}},
{"type":"Feature","properties":{"id":15334,"nach":0.65136622820331402},"geometry":{"type":"LineString","coordinates":[[-2.1170747,53.6105274],[-2.1161897,53.6102908]]}},
{"type":"Feature","properties":{"id":15298,"nach":0.44424104821357396},"geometry":{"type":"LineString","coordinates":[[-2.1164081,53.609906],[-2.1160876,53.6102561]]}},
{"type":"Feature","properties":{"id":15343,"nach":0.61346190976329762},"geometry":{"type":"LineString","coordinates":[[-2.1154023,53.610100899999985],[-2.1160876,53.6102561]]}},
{"type":"Feature","properties":{"id":15340,"nach":0.64745720164713916},"geometry":{"type":"LineString","coordinates":[[-2.1171508,53.6105518],[-2.1170747,53.6105274]]}},
{"type":"Feature","properties":{"id":50989,"nach":0.42156336954055612},"geometry":{"type":"LineString","coordinates":[[-2.1170015,53.61165050000001],[-2.1167573,53.6115988],[-2.1166963,53.6115767],[-2.1166578,53.6115519],[-2.1166536,53.611521100000012],[-2.1170747,53.6105274]]}},
{"type":"Feature","properties":{"id":15344,"nach":0.63034370298720688},"geometry":{"type":"LineString","coordinates":[[-2.1154023,53.610100899999985],[-2.1150067,53.6103658]]}},
{"type":"Feature","properties":{"id":19013,"nach":0.58852341124412211},"geometry":{"type":"LineString","coordinates":[[-2.1164934,53.6093052],[-2.1163183,53.6094532],[-2.1160337,53.6096943],[-2.1154023,53.610100899999985]]}},
{"type":"Feature","properties":{"id":15300,"nach":0.45649680114375624},"geometry":{"type":"LineString","coordinates":[[-2.1150067,53.6103658],[-2.1154694,53.610478800000017]]}},
{"type":"Feature","properties":{"id":56194,"nach":0.6354536118307208},"geometry":{"type":"LineString","coordinates":[[-2.1149293,53.6103981],[-2.1150067,53.6103658]]}},
{"type":"Feature","properties":{"id":56195,"nach":0.4053049688560641},"geometry":{"type":"LineString","coordinates":[[-2.1149293,53.6103981],[-2.1151289,53.610602599999986],[-2.1152144,53.6106958],[-2.1154408,53.610899]]}},
{"type":"Feature","properties":{"id":56193,"nach":0.63968014805855111},"geometry":{"type":"LineString","coordinates":[[-2.1149293,53.6103981],[-2.1149108,53.6104058]]}},
{"type":"Feature","properties":{"id":25073,"nach":0.4306008123909868},"geometry":{"type":"LineString","coordinates":[[-2.1164599,53.6120391],[-2.11638,53.6119802]]}},
{"type":"Feature","properties":{"id":25072,"nach":0.50652172341002077},"geometry":{"type":"LineString","coordinates":[[-2.1164599,53.6120391],[-2.116728,53.612422700000018]]}},
{"type":"Feature","properties":{"id":25075,"nach":0.42754980540166765},"geometry":{"type":"LineString","coordinates":[[-2.1167461,53.6119623],[-2.1164599,53.6120391]]}},
{"type":"Feature","properties":{"id":15323,"nach":0.55693748235479679},"geometry":{"type":"LineString","coordinates":[[-2.116928,53.6123284],[-2.116728,53.612422700000018]]}},
{"type":"Feature","properties":{"id":15324,"nach":0.5022444305432695},"geometry":{"type":"LineString","coordinates":[[-2.116928,53.6123284],[-2.1174336,53.612141]]}},
{"type":"Feature","properties":{"id":15325,"nach":0.52906927327674946},"geometry":{"type":"LineString","coordinates":[[-2.116928,53.6123284],[-2.1173724,53.6126795],[-2.11802310000001,53.6130022]]}},
{"type":"Feature","properties":{"id":15321,"nach":0.42613814000880162},"geometry":{"type":"LineString","coordinates":[[-2.1174336,53.612141],[-2.1175316,53.6121187],[-2.1176755,53.6121186]]}},
{"type":"Feature","properties":{"id":45841,"nach":0.41983196393361355},"geometry":{"type":"LineString","coordinates":[[-2.1173303,53.6117025],[-2.1172972,53.6118714],[-2.1172729,53.6120387],[-2.1173006,53.6120711],[-2.1174336,53.612141]]}},
{"type":"Feature","properties":{"id":41385,"nach":0.42551277396867943},"geometry":{"type":"LineString","coordinates":[[-2.1160827,53.61284160000001],[-2.1165708,53.6126374]]}},
{"type":"Feature","properties":{"id":15346,"nach":0.42830207994556457},"geometry":{"type":"LineString","coordinates":[[-2.1179196,53.6101653],[-2.1173617,53.6100571],[-2.1171508,53.6105518]]}},
{"type":"Feature","properties":{"id":15386,"nach":0.52542204803417147},"geometry":{"type":"LineString","coordinates":[[-2.1178136,53.611175],[-2.1177895,53.6115815]]}},
{"type":"Feature","properties":{"id":15388,"nach":0.42360299754714975},"geometry":{"type":"LineString","coordinates":[[-2.1181556,53.6112204],[-2.1178136,53.611175]]}},
{"type":"Feature","properties":{"id":19012,"nach":0.53761969119424002},"geometry":{"type":"LineString","coordinates":[[-2.1164934,53.6093052],[-2.1179006,53.6081329]]}},
{"type":"Feature","properties":{"id":19049,"nach":0.54766261835184382},"geometry":{"type":"LineString","coordinates":[[-2.1150667,53.6085199],[-2.1150399,53.6087045],[-2.115072,53.6088955],[-2.1151847,53.6089782],[-2.1156031,53.6090705],[-2.1161821,53.609193],[-2.1163338,53.6092387],[-2.1164934,53.6093052]]}},
{"type":"Feature","properties":{"id":51336,"nach":0.49290596164588235},"geometry":{"type":"LineString","coordinates":[[-2.1196618,53.60687320000001],[-2.1199667,53.606670300000012],[-2.1201715,53.6065306],[-2.1202568,53.6064629]]}},
{"type":"Feature","properties":{"id":27672,"nach":0.48569889201148653},"geometry":{"type":"LineString","coordinates":[[-2.1215721,53.606181],[-2.1213696,53.6062188],[-2.1208431,53.6062959],[-2.1206646,53.6063289],[-2.1204589,53.6063843],[-2.1202568,53.6064629]]}},
{"type":"Feature","properties":{"id":19038,"nach":0.44893606392366342},"geometry":{"type":"LineString","coordinates":[[-2.1188987,53.6063931],[-2.1189825,53.6063904],[-2.1190582,53.606393],[-2.1191415,53.6064067],[-2.1192718,53.6064343],[-2.119342,53.606443599999984],[-2.1194197,53.6064458],[-2.1195152,53.6064366],[-2.119597,53.6064185],[-2.1197504,53.6063744],[-2.1198578,53.606354],[-2.1199547,53.6063521],[-2.1200426,53.6063628],[-2.120119,53.6063832],[-2.1202568,53.6064629]]}},
{"type":"Feature","properties":{"id":51335,"nach":0.50564995493047649},"geometry":{"type":"LineString","coordinates":[[-2.1196618,53.60687320000001],[-2.1191666,53.6072259],[-2.1186103,53.6075758],[-2.1179006,53.6081329]]}},
{"type":"Feature","properties":{"id":51338,"nach":0.38502411817866405},"geometry":{"type":"LineString","coordinates":[[-2.120213,53.60735780000001],[-2.1203619,53.6072433],[-2.1198065,53.6069385],[-2.1196618,53.60687320000001]]}},
{"type":"Feature","properties":{"id":27671,"nach":0.51191787608073192},"geometry":{"type":"LineString","coordinates":[[-2.1215721,53.606181],[-2.1217421,53.6061407],[-2.1218173,53.6061048],[-2.121891,53.6060485],[-2.1219811,53.6059259],[-2.1222708,53.6056331]]}},
{"type":"Feature","properties":{"id":33911,"nach":0.0},"geometry":{"type":"LineString","coordinates":[[-2.12071,53.6052941],[-2.1207083,53.6053163],[-2.1206999,53.6055198],[-2.1207317,53.6056805],[-2.120838,53.6058431],[-2.1209538,53.6059022],[-2.1212791,53.605977],[-2.1214783,53.6060578],[-2.1215721,53.606181]]}},
{"type":"Feature","properties":{"id":33908,"nach":0.46266120523438786},"geometry":{"type":"LineString","coordinates":[[-2.1209589,53.605318],[-2.1211877,53.6055635],[-2.1213927,53.6057456],[-2.1214678,53.6059311],[-2.1215572,53.6060836],[-2.1215721,53.606181]]}},
{"type":"Feature","properties":{"id":19039,"nach":0.37242588293793616},"geometry":{"type":"LineString","coordinates":[[-2.1188877,53.6063318],[-2.1188987,53.6063931]]}},
{"type":"Feature","properties":{"id":19045,"nach":0.37096202022146996},"geometry":{"type":"LineString","coordinates":[[-2.1187572,53.606412],[-2.1188987,53.6063931]]}},
{"type":"Feature","properties":{"id":19029,"nach":0.49772652678229939},"geometry":{"type":"LineString","coordinates":[[-2.1163574,53.607779],[-2.1164509,53.6078426],[-2.1165907,53.60789410000001],[-2.1167092,53.6079153],[-2.116822,53.6079117],[-2.1171068,53.607878399999983],[-2.1172302,53.6078731],[-2.1173133,53.6078887],[-2.1173964,53.607913],[-2.1179006,53.6081329]]}},
{"type":"Feature","properties":{"id":19034,"nach":0.46064772208026111},"geometry":{"type":"LineString","coordinates":[[-2.1180437,53.606849],[-2.1179471,53.6068808],[-2.1178184,53.6069317],[-2.1176038,53.6071291],[-2.1173034,53.6073519],[-2.1169815,53.607472799999989],[-2.1166704,53.6076065],[-2.1164546,53.6077131],[-2.1163574,53.607779]]}},
{"type":"Feature","properties":{"id":56994,"nach":0.48496268844821933},"geometry":{"type":"LineString","coordinates":[[-2.1150977,53.6074029],[-2.1151686,53.6074331],[-2.1155715,53.6075723],[-2.1157161,53.607606500000017],[-2.1159089,53.6076219],[-2.1160701,53.6076484],[-2.116241,53.6077095],[-2.1163574,53.607779]]}},
{"type":"Feature","properties":{"id":39725,"nach":0.62321952421180182},"geometry":{"type":"LineString","coordinates":[[-2.1144111,53.61009450000001],[-2.1145211,53.6102651],[-2.1146016,53.6104647]]}},
{"type":"Feature","properties":{"id":55842,"nach":0.5612378523944811},"geometry":{"type":"LineString","coordinates":[[-2.1149108,53.6104058],[-2.1148712,53.61042230000001],[-2.1146016,53.6104647]]}},
{"type":"Feature","properties":{"id":56189,"nach":0.63342044456545499},"geometry":{"type":"LineString","coordinates":[[-2.1146016,53.6104647],[-2.114680792614673,53.610727716152326]]}},
{"type":"Feature","properties":{"id":56189,"nach":0.63342044456545499},"geometry":{"type":"LineString","coordinates":[[-2.114680792614673,53.610727716152326],[-2.1148472,53.6111026]]}},
{"type":"Feature","properties":{"id":39724,"nach":0.52153259866502899},"geometry":{"type":"LineString","coordinates":[[-2.1144111,53.61009450000001],[-2.1143157,53.6099521],[-2.1141681,53.609731],[-2.1136031,53.6090628],[-2.1129404,53.6083841],[-2.1128463,53.6083025],[-2.112666,53.6081429],[-2.1123959,53.607924200000014],[-2.112097,53.6077289]]}},
{"type":"Feature","properties":{"id":64617,"nach":0.57858093153004242},"geometry":{"type":"LineString","coordinates":[[-2.1146522,53.6100255],[-2.1144111,53.61009450000001]]}},
{"type":"Feature","properties":{"id":66340,"nach":0.51328626623434892},"geometry":{"type":"LineString","coordinates":[[-2.1134089,53.6089936],[-2.1140499,53.6097424],[-2.1143289,53.6101147],[-2.1144111,53.61009450000001]]}},
{"type":"Feature","properties":{"id":55843,"nach":0.61572890804176561},"geometry":{"type":"LineString","coordinates":[[-2.1149108,53.6104058],[-2.1149681,53.6104832],[-2.1148607,53.6106524],[-2.114857,53.6107023]]}},
{"type":"Feature","properties":{"id":15357,"nach":0.41871475012227155},"geometry":{"type":"LineString","coordinates":[[-2.1177895,53.6115815],[-2.1175829,53.6116023]]}},
{"type":"Feature","properties":{"id":15384,"nach":0.48562371092590861},"geometry":{"type":"LineString","coordinates":[[-2.1179931,53.6121425],[-2.1179236,53.6120009],[-2.1179303,53.6117439],[-2.1177895,53.6115815]]}},
{"type":"Feature","properties":{"id":30581,"nach":0.40853847096274504},"geometry":{"type":"LineString","coordinates":[[-2.1179802,53.612222],[-2.1179931,53.6121425]]}},
{"type":"Feature","properties":{"id":30580,"nach":0.40853847096274504},"geometry":{"type":"LineString","coordinates":[[-2.118148,53.6121513],[-2.1179931,53.6121425]]}},
{"type":"Feature","properties":{"id":15398,"nach":0.50225694587129743},"geometry":{"type":"LineString","coordinates":[[-2.1139352,53.6116318],[-2.1144287,53.6114243]]}},
{"type":"Feature","properties":{"id":56408,"nach":0.46324745678313128},"geometry":{"type":"LineString","coordinates":[[-2.1146858,53.6113699],[-2.1146227,53.6113689],[-2.1145553,53.6113756],[-2.1144287,53.6114243]]}},
{"type":"Feature","properties":{"id":25068,"nach":0.57759061563376168},"geometry":{"type":"LineString","coordinates":[[-2.1144417,53.6120262],[-2.1139352,53.6116318]]}},
{"type":"Feature","properties":{"id":56730,"nach":0.58772898279341979},"geometry":{"type":"LineString","coordinates":[[-2.1122782,53.6097131],[-2.1122527,53.6097242],[-2.1121319,53.609783],[-2.111782,53.6099512]]}},
{"type":"Feature","properties":{"id":56729,"nach":0.46637499701232216},"geometry":{"type":"LineString","coordinates":[[-2.1122782,53.6097131],[-2.1123865,53.6097724],[-2.1125019,53.6097432]]}},
{"type":"Feature","properties":{"id":56302,"nach":0.63348362540104475},"geometry":{"type":"LineString","coordinates":[[-2.1143617,53.6107717],[-2.1143954,53.610751],[-2.1144229,53.6107265]]}},
{"type":"Feature","properties":{"id":55839,"nach":0.6731933164907028},"geometry":{"type":"LineString","coordinates":[[-2.1144229,53.6107265],[-2.114680792614673,53.610727716152326]]}},
{"type":"Feature","properties":{"id":66333,"nach":0.62487869228018444},"geometry":{"type":"LineString","coordinates":[[-2.1126582,53.6082225],[-2.112564,53.6081499]]}},
{"type":"Feature","properties":{"id":66341,"nach":0.52338521239701685},"geometry":{"type":"LineString","coordinates":[[-2.1127451,53.6083025],[-2.1127328,53.60829110000001],[-2.1126582,53.6082225]]}},
{"type":"Feature","properties":{"id":55850,"nach":0.54674292386075141},"geometry":{"type":"LineString","coordinates":[[-2.1126226,53.6108002],[-2.1128377,53.6106405]]}},
{"type":"Feature","properties":{"id":56733,"nach":0.57094598190150825},"geometry":{"type":"LineString","coordinates":[[-2.1117168,53.6099626],[-2.1115562,53.6100272],[-2.1113347,53.610150699999977],[-2.1112132,53.610217],[-2.111045,53.6103396]]}},
{"type":"Feature","properties":{"id":56732,"nach":0.5756903461327777},"geometry":{"type":"LineString","coordinates":[[-2.1117168,53.6099626],[-2.111782,53.6099512]]}},
{"type":"Feature","properties":{"id":55849,"nach":0.52835064089679951},"geometry":{"type":"LineString","coordinates":[[-2.1128377,53.6106405],[-2.1129675,53.6105453],[-2.1119062,53.6100668],[-2.111799,53.6100086],[-2.1117791,53.6099811],[-2.111782,53.6099512]]}},
{"type":"Feature","properties":{"id":56734,"nach":0.46858906477858481},"geometry":{"type":"LineString","coordinates":[[-2.1116295,53.6098888],[-2.1117168,53.6099626]]}},
{"type":"Feature","properties":{"id":25069,"nach":0.45307072889504268},"geometry":{"type":"LineString","coordinates":[[-2.1144417,53.6120262],[-2.1140178,53.6122181]]}},
{"type":"Feature","properties":{"id":55845,"nach":0.61788650983157423},"geometry":{"type":"LineString","coordinates":[[-2.1149967,53.6111145],[-2.115014,53.6111061],[-2.1154408,53.610899]]}},
{"type":"Feature","properties":{"id":55846,"nach":0.48700165421764413},"geometry":{"type":"LineString","coordinates":[[-2.1149967,53.6111145],[-2.1149401,53.6110524],[-2.1149361,53.61098470000001],[-2.114857,53.6107023]]}},
{"type":"Feature","properties":{"id":18988,"nach":0.0},"geometry":{"type":"LineString","coordinates":[[-2.1129693,53.603749200000017],[-2.1134092,53.6036028],[-2.1136023,53.6034755],[-2.1138812,53.603259],[-2.1140314,53.6031444],[-2.11423530000001,53.603099900000011],[-2.1145035,53.6030999],[-2.1146752,53.6031635],[-2.1161123,53.6041757],[-2.1162088,53.6042776],[-2.1161552,53.6044367],[-2.1160158,53.6046269]]}},
{"type":"Feature","properties":{"id":19006,"nach":0.45328450540394605},"geometry":{"type":"LineString","coordinates":[[-2.1146122,53.604432],[-2.1154417,53.6045219],[-2.1155584,53.604537],[-2.1160158,53.6046269]]}},
{"type":"Feature","properties":{"id":33905,"nach":0.44895433201136076},"geometry":{"type":"LineString","coordinates":[[-2.1168872,53.6048412],[-2.1167238,53.6047614],[-2.1160158,53.6046269]]}},
{"type":"Feature","properties":{"id":18987,"nach":0.35645279651796441},"geometry":{"type":"LineString","coordinates":[[-2.1129693,53.603749200000017],[-2.1132804,53.6040611],[-2.1135057,53.6042394],[-2.1137417,53.6043922]]}},
{"type":"Feature","properties":{"id":19002,"nach":0.41523125205730588},"geometry":{"type":"LineString","coordinates":[[-2.1115809,53.6042383],[-2.1129693,53.603749200000017]]}},
{"type":"Feature","properties":{"id":19005,"nach":0.36729414265290949},"geometry":{"type":"LineString","coordinates":[[-2.1146122,53.604432],[-2.1147181,53.6041375],[-2.114643,53.6040229],[-2.1142675,53.6037747]]}},
{"type":"Feature","properties":{"id":19007,"nach":0.47330602950842371},"geometry":{"type":"LineString","coordinates":[[-2.1146122,53.604432],[-2.1138718,53.604352299999988],[-2.1138041,53.6043675],[-2.1137417,53.6043922]]}},
{"type":"Feature","properties":{"id":33904,"nach":0.44375577681907752},"geometry":{"type":"LineString","coordinates":[[-2.1168872,53.6048412],[-2.1169062,53.6048505],[-2.1169437,53.6049543]]}},
{"type":"Feature","properties":{"id":56799,"nach":0.39733745706188267},"geometry":{"type":"LineString","coordinates":[[-2.1183011,53.6045893],[-2.1182539,53.6046194],[-2.1179686,53.60483030000001],[-2.1178109,53.6048125],[-2.1173805,53.60466550000001],[-2.1172904,53.6046506],[-2.1172103,53.604671399999987],[-2.1168872,53.6048412]]}},
{"type":"Feature","properties":{"id":18977,"nach":0.4751392960900781},"geometry":{"type":"LineString","coordinates":[[-2.1137417,53.6043922],[-2.1127627,53.6048259]]}},
{"type":"Feature","properties":{"id":18999,"nach":0.46022496418515974},"geometry":{"type":"LineString","coordinates":[[-2.1135969,53.6052508],[-2.1131731,53.60504190000001],[-2.1129357,53.6049542],[-2.1128965,53.604933599999988],[-2.1128573,53.6049083],[-2.1127627,53.6048259]]}},
{"type":"Feature","properties":{"id":18974,"nach":0.52409239021152965},"geometry":{"type":"LineString","coordinates":[[-2.1111776,53.6048187],[-2.1113492,53.6048251],[-2.1125294,53.6048696],[-2.1125891,53.6048694],[-2.1126514,53.604861300000017],[-2.1127627,53.6048259]]}},
{"type":"Feature","properties":{"id":19000,"nach":0.38769713870230754},"geometry":{"type":"LineString","coordinates":[[-2.1135969,53.6052508],[-2.114016,53.6054696],[-2.1140727,53.605511],[-2.1141266,53.6055619],[-2.1143968,53.605880600000013],[-2.1144444,53.6059065],[-2.1144985,53.6059285],[-2.114579,53.6059411],[-2.1146867,53.6059318],[-2.1153076,53.6057478]]}},
{"type":"Feature","properties":{"id":18998,"nach":0.39770262920814869},"geometry":{"type":"LineString","coordinates":[[-2.1135969,53.6052508],[-2.113892,53.6050224],[-2.1142245,53.6049587],[-2.1145035,53.6049778],[-2.1147181,53.605054200000012],[-2.1149321,53.6052579]]}},
{"type":"Feature","properties":{"id":18975,"nach":0.55635399254149875},"geometry":{"type":"LineString","coordinates":[[-2.1111776,53.6048187],[-2.1107913,53.6049142],[-2.1104802,53.60502240000001]]}},
{"type":"Feature","properties":{"id":19004,"nach":0.46827487102931659},"geometry":{"type":"LineString","coordinates":[[-2.1115809,53.6042383],[-2.1112527,53.604354],[-2.1111454,53.6044686],[-2.1111776,53.6048187]]}},
{"type":"Feature","properties":{"id":18982,"nach":0.53704148789877537},"geometry":{"type":"LineString","coordinates":[[-2.110912,53.6058273],[-2.1107377,53.6056459],[-2.1106089,53.6053916],[-2.1105016,53.6051306],[-2.1104802,53.60502240000001]]}},
{"type":"Feature","properties":{"id":56796,"nach":0.48257359300080793},"geometry":{"type":"LineString","coordinates":[[-2.1142616,53.606329500000015],[-2.1141326,53.606246300000016],[-2.1140568,53.6061967],[-2.1138165,53.6059146],[-2.1136163,53.6056737],[-2.1134611,53.6055661],[-2.1131706,53.6054546],[-2.1130106,53.6053879],[-2.1128844,53.6053079],[-2.1127477,53.60525040000001],[-2.1126025,53.6052207],[-2.1121458,53.6052032],[-2.1118181,53.6051991],[-2.1113173,53.6052073],[-2.111134,53.60519810000001],[-2.1109126,53.605174],[-2.1107327,53.6051257],[-2.1105321,53.60506],[-2.1104802,53.60502240000001]]}},
{"type":"Feature","properties":{"id":19011,"nach":0.53386485640091008},"geometry":{"type":"LineString","coordinates":[[-2.1097682,53.6042565],[-2.1097319,53.6043289],[-2.1097522,53.6044284],[-2.1098211,53.6045302],[-2.1099605,53.60463570000001],[-2.1101181,53.6047599],[-2.1104802,53.60502240000001]]}},
{"type":"Feature","properties":{"id":18984,"nach":0.58247135777910231},"geometry":{"type":"LineString","coordinates":[[-2.1110508,53.6059596],[-2.110912,53.6058273]]}},
{"type":"Feature","properties":{"id":56798,"nach":0.46070576970474053},"geometry":{"type":"LineString","coordinates":[[-2.1142616,53.606329500000015],[-2.1143494,53.6063253],[-2.1147514,53.606229],[-2.1155599,53.6060156],[-2.1168229,53.6056884],[-2.1172202,53.6055756]]}},
{"type":"Feature","properties":{"id":69077,"nach":0.51682554572523887},"geometry":{"type":"LineString","coordinates":[[-2.1143782,53.6063665],[-2.1143244,53.6063509],[-2.1142616,53.606329500000015]]}},
{"type":"Feature","properties":{"id":19009,"nach":0.49897876171525701},"geometry":{"type":"LineString","coordinates":[[-2.1097682,53.6042565],[-2.1098686,53.6041312],[-2.1101369,53.6039656],[-2.1110488,53.603711]]}},
{"type":"Feature","properties":{"id":35332,"nach":0.57392988558031366},"geometry":{"type":"LineString","coordinates":[[-2.1089159,53.6048897],[-2.1088373,53.6047578],[-2.1088199,53.6046631],[-2.1088534,53.6045024],[-2.1088681,53.6044355],[-2.1088963,53.604389400000017],[-2.1089405,53.6043744],[-2.1094609,53.6042694],[-2.1096459,53.604261399999984],[-2.1097682,53.6042565]]}},
{"type":"Feature","properties":{"id":19020,"nach":0.4344753743712832},"geometry":{"type":"LineString","coordinates":[[-2.1105799,53.6043748],[-2.1101307,53.604313699999985],[-2.1097682,53.6042565]]}},
{"type":"Feature","properties":{"id":19001,"nach":0.36269607588358194},"geometry":{"type":"LineString","coordinates":[[-2.1173547,53.605255],[-2.1174516,53.6050957],[-2.1174102,53.6050147],[-2.11734,53.604985],[-2.1171413,53.6049493],[-2.1169437,53.6049543]]}},
{"type":"Feature","properties":{"id":56790,"nach":0.42758205667617372},"geometry":{"type":"LineString","coordinates":[[-2.1167477,53.60528],[-2.1167765,53.605257],[-2.116854,53.6051636],[-2.1169177,53.60503],[-2.1169437,53.6049543]]}},
{"type":"Feature","properties":{"id":56789,"nach":0.40079465326524244},"geometry":{"type":"LineString","coordinates":[[-2.1167477,53.60528],[-2.1166989,53.605319],[-2.116563,53.6053842],[-2.1153076,53.6057478]]}},
{"type":"Feature","properties":{"id":56794,"nach":0.43902120595138444},"geometry":{"type":"LineString","coordinates":[[-2.1172202,53.6055756],[-2.1171851,53.6055408],[-2.1169966,53.6055004],[-2.1170584,53.6054082],[-2.1167477,53.60528]]}},
{"type":"Feature","properties":{"id":35341,"nach":0.58647413533583492},"geometry":{"type":"LineString","coordinates":[[-2.1121128,53.60733],[-2.1117998,53.6068554]]}},
{"type":"Feature","properties":{"id":36811,"nach":0.58198623231922164},"geometry":{"type":"LineString","coordinates":[[-2.1116519,53.606673899999983],[-2.1117998,53.6068554]]}},
{"type":"Feature","properties":{"id":57001,"nach":0.43755675209407607},"geometry":{"type":"LineString","coordinates":[[-2.1122209,53.606792299999988],[-2.1121298,53.6067851],[-2.1120612,53.6067992],[-2.1117998,53.6068554]]}},
{"type":"Feature","properties":{"id":35343,"nach":0.59264418759969284},"geometry":{"type":"LineString","coordinates":[[-2.1121128,53.60733],[-2.1120885,53.6074111],[-2.1121031,53.6075169]]}},
{"type":"Feature","properties":{"id":56997,"nach":0.33785655662328024},"geometry":{"type":"LineString","coordinates":[[-2.1130709,53.6081571],[-2.1130279,53.6081251],[-2.112992,53.6080896],[-2.112908,53.6079508],[-2.1127347,53.6076186],[-2.1126898,53.607589],[-2.1126318,53.6075784],[-2.1124088,53.6076201],[-2.1123291,53.6076204],[-2.1122826,53.6075875],[-2.1121128,53.60733]]}},
{"type":"Feature","properties":{"id":36812,"nach":0.57890687583720002},"geometry":{"type":"LineString","coordinates":[[-2.1116519,53.606673899999983],[-2.1114887,53.6064735],[-2.1114728,53.6064548]]}},
{"type":"Feature","properties":{"id":36814,"nach":0.43623477995461707},"geometry":{"type":"LineString","coordinates":[[-2.1111602,53.6067828],[-2.1115118,53.6067095],[-2.1116519,53.606673899999983]]}},
{"type":"Feature","properties":{"id":57000,"nach":0.0},"geometry":{"type":"LineString","coordinates":[[-2.1122209,53.606792299999988],[-2.1122669,53.6068584],[-2.1123116,53.606923],[-2.1123697,53.6069415],[-2.1124233,53.6069398],[-2.1124695,53.6069062],[-2.1124546,53.6068584],[-2.112328,53.6068107],[-2.1122209,53.606792299999988]]}},
{"type":"Feature","properties":{"id":19042,"nach":0.42962898214764444},"geometry":{"type":"LineString","coordinates":[[-2.1116766,53.6055638],[-2.1116496,53.6054935]]}},
{"type":"Feature","properties":{"id":19043,"nach":0.53664954545149213},"geometry":{"type":"LineString","coordinates":[[-2.1116766,53.6055638],[-2.1117033,53.6056332],[-2.1115209,53.6057669],[-2.1110508,53.6059596]]}},
{"type":"Feature","properties":{"id":19044,"nach":0.4958539406310874},"geometry":{"type":"LineString","coordinates":[[-2.1116766,53.6055638],[-2.1117998,53.605541],[-2.1119392,53.6055123],[-2.112068,53.6054582],[-2.1122986,53.6053882]]}},
{"type":"Feature","properties":{"id":35468,"nach":0.48487945097911389},"geometry":{"type":"LineString","coordinates":[[-2.111289,53.603949],[-2.1115809,53.6042383]]}},
{"type":"Feature","properties":{"id":18996,"nach":0.36912063471743878},"geometry":{"type":"LineString","coordinates":[[-2.1149321,53.6052579],[-2.1154793,53.6051179]]}},
{"type":"Feature","properties":{"id":18995,"nach":0.32866296033776354},"geometry":{"type":"LineString","coordinates":[[-2.1149321,53.6052579],[-2.1153076,53.6057478]]}},
{"type":"Feature","properties":{"id":36807,"nach":0.578247978494008},"geometry":{"type":"LineString","coordinates":[[-2.1114728,53.6064548],[-2.1110508,53.6059596]]}},
{"type":"Feature","properties":{"id":36810,"nach":0.43505649983643335},"geometry":{"type":"LineString","coordinates":[[-2.110859,53.6065858],[-2.1109902,53.6065521],[-2.1111988,53.6064942],[-2.111333,53.6064906],[-2.1114728,53.6064548]]}},
{"type":"Feature","properties":{"id":35469,"nach":0.49192899700966297},"geometry":{"type":"LineString","coordinates":[[-2.111289,53.603949],[-2.1110488,53.603711]]}},
{"type":"Feature","properties":{"id":35463,"nach":0.42813583491829627},"geometry":{"type":"LineString","coordinates":[[-2.1123884,53.6032043],[-2.1121217,53.603329],[-2.1110488,53.603711]]}},
{"type":"Feature","properties":{"id":35470,"nach":0.42650680810119435},"geometry":{"type":"LineString","coordinates":[[-2.111289,53.603949],[-2.1126505,53.6034568]]}},
{"type":"Feature","properties":{"id":35465,"nach":0.272745182767128},"geometry":{"type":"LineString","coordinates":[[-2.1126505,53.6034568],[-2.1123884,53.6032043]]}},
{"type":"Feature","properties":{"id":35615,"nach":0.38965940687825884},"geometry":{"type":"LineString","coordinates":[[-2.1173647,53.6017106],[-2.1172161,53.6016922],[-2.1168608,53.6016317],[-2.1166591,53.6016092],[-2.1164573,53.6016043],[-2.1161609,53.6016135],[-2.1159303,53.6016324],[-2.1157227,53.6016395],[-2.1152696,53.601613],[-2.1150447,53.6016211],[-2.1148264,53.6016586],[-2.1143533,53.6018393],[-2.113892,53.602094],[-2.1124757,53.603163499999987],[-2.1123884,53.6032043]]}},
{"type":"Feature","properties":{"id":19050,"nach":0.43500857008941513},"geometry":{"type":"LineString","coordinates":[[-2.1150667,53.6085199],[-2.1149701,53.608376700000015],[-2.1149672,53.6082715],[-2.1149939,53.6082421],[-2.1150939,53.6082],[-2.1151089,53.608065]]}},
{"type":"Feature","properties":{"id":19051,"nach":0.43701983681993034},"geometry":{"type":"LineString","coordinates":[[-2.1150667,53.6085199],[-2.1153134,53.6085136],[-2.1155763,53.6084404]]}},
{"type":"Feature","properties":{"id":56097,"nach":0.54361506293557771},"geometry":{"type":"LineString","coordinates":[[-2.1143362,53.6084596],[-2.1144698,53.6084734],[-2.1146643,53.608461499999983],[-2.1149548,53.6085315],[-2.1150667,53.6085199]]}},
{"type":"Feature","properties":{"id":19022,"nach":0.41679535659801381},"geometry":{"type":"LineString","coordinates":[[-2.1122986,53.6053882],[-2.1122986,53.6052991]]}},
{"type":"Feature","properties":{"id":19021,"nach":0.41863471016815978},"geometry":{"type":"LineString","coordinates":[[-2.1122986,53.6053882],[-2.1124006,53.6053786]]}},
{"type":"Feature","properties":{"id":52527,"nach":0.51021629275434788},"geometry":{"type":"LineString","coordinates":[[-2.122862,53.606057699999987],[-2.1226895,53.6059007],[-2.1223784,53.605697],[-2.1222708,53.6056331]]}},
{"type":"Feature","properties":{"id":25509,"nach":0.49265303074748745},"geometry":{"type":"LineString","coordinates":[[-2.1235129,53.6051199],[-2.1233866,53.605181400000014],[-2.1228609,53.6054043],[-2.1222708,53.6056331]]}},
{"type":"Feature","properties":{"id":52528,"nach":0.33768195565272618},"geometry":{"type":"LineString","coordinates":[[-2.122862,53.606057699999987],[-2.1228574,53.606076],[-2.1228343,53.606151],[-2.1227827,53.6062988],[-2.1227542,53.6064044],[-2.1226902,53.6064931],[-2.122667,53.6065755],[-2.1226652,53.6066779],[-2.1226866,53.6067381],[-2.1226724,53.6068099],[-2.1226475,53.606851],[-2.1226563,53.6069408],[-2.1227044,53.6070147],[-2.1227346,53.60712980000001],[-2.1227435,53.6072966],[-2.1227631,53.6073652],[-2.1227827,53.6075574],[-2.1228311,53.6077077]]}},
{"type":"Feature","properties":{"id":56961,"nach":0.50103623898812188},"geometry":{"type":"LineString","coordinates":[[-2.1232948,53.6066049],[-2.1231616,53.6066009],[-2.1230865,53.6065755],[-2.1230704,53.6064927],[-2.1230382,53.6063177],[-2.1229309,53.6061203],[-2.122862,53.606057699999987]]}},
{"type":"Feature","properties":{"id":25507,"nach":0.18226156402774743},"geometry":{"type":"LineString","coordinates":[[-2.1235129,53.6051199],[-2.1234583,53.6050173],[-2.12341,53.6048009],[-2.1233708,53.604548],[-2.1233226,53.6043633],[-2.1232437,53.60410060000001],[-2.1230972,53.6038763],[-2.1229218,53.6036932],[-2.1226804,53.6035818],[-2.1223033,53.6035517],[-2.1219348,53.6035531],[-2.1216435,53.6035867],[-2.1212465,53.6036758],[-2.1208764,53.603752200000017],[-2.1205277,53.6038095],[-2.120304,53.603868200000022],[-2.1202005,53.6038509],[-2.1201001,53.6037918],[-2.1199537,53.6036694],[-2.1199017,53.6034799],[-2.1197498,53.603328899999987],[-2.1195084,53.6030869],[-2.1193314,53.6028864],[-2.1191544,53.6026445],[-2.1190326,53.602439],[-2.1189736,53.6023371],[-2.1189092,53.602299],[-2.1187269,53.6022544],[-2.1185874,53.6022066],[-2.118464,53.6021111],[-2.1183484,53.6019219],[-2.1183245,53.6018932],[-2.1182891,53.6018754],[-2.1181663,53.60185520000001],[-2.1180766,53.601830300000017],[-2.1178657,53.6017504]]}},
{"type":"Feature","properties":{"id":56988,"nach":0.40462702798075667},"geometry":{"type":"LineString","coordinates":[[-2.1138196,53.606782500000016],[-2.113877,53.6068432]]}},
{"type":"Feature","properties":{"id":56989,"nach":0.47941592851644921},"geometry":{"type":"LineString","coordinates":[[-2.1138196,53.606782500000016],[-2.1139105,53.6067515],[-2.1140553,53.6067048],[-2.1142021,53.6066955],[-2.1142871,53.6067041]]}},
{"type":"Feature","properties":{"id":69085,"nach":0.3981296226447209},"geometry":{"type":"LineString","coordinates":[[-2.1134483,53.6065805],[-2.1135946,53.6067185],[-2.1135865,53.6067729],[-2.1137244,53.6068123],[-2.1138196,53.606782500000016]]}},
{"type":"Feature","properties":{"id":56992,"nach":0.49118846149507256},"geometry":{"type":"LineString","coordinates":[[-2.1150977,53.6074029],[-2.1147983,53.6072753]]}},
{"type":"Feature","properties":{"id":19047,"nach":0.53384270487747965},"geometry":{"type":"LineString","coordinates":[[-2.114068,53.6078956],[-2.1140037,53.607826],[-2.113944,53.6077498],[-2.1139332,53.6076804],[-2.1139473,53.607637],[-2.113978,53.6076001],[-2.11403,53.60755480000001],[-2.1141185,53.6075122],[-2.1145037,53.607370900000014],[-2.1146116,53.6073411],[-2.1147983,53.6072753]]}},
{"type":"Feature","properties":{"id":56985,"nach":0.52619881849205741},"geometry":{"type":"LineString","coordinates":[[-2.1142871,53.6067041],[-2.1143327,53.606773],[-2.1144713,53.606877],[-2.1146099,53.6069866],[-2.1147092,53.607037],[-2.1147724,53.6070907],[-2.1147838,53.6071714],[-2.1147983,53.6072753]]}},
{"type":"Feature","properties":{"id":56993,"nach":0.41934726113357851},"geometry":{"type":"LineString","coordinates":[[-2.1150977,53.6074029],[-2.1150354,53.6074407]]}},
{"type":"Feature","properties":{"id":56098,"nach":0.55154324478990457},"geometry":{"type":"LineString","coordinates":[[-2.1143362,53.6084596],[-2.1141285,53.608078500000012],[-2.1141157,53.6079921],[-2.114068,53.6078956]]}},
{"type":"Feature","properties":{"id":46053,"nach":0.42826160395800528},"geometry":{"type":"LineString","coordinates":[[-2.1145883,53.6079646],[-2.1141601,53.6078859],[-2.1141362,53.6078827],[-2.1141188,53.6078827],[-2.114068,53.6078956]]}},
{"type":"Feature","properties":{"id":69078,"nach":0.51632983420188694},"geometry":{"type":"LineString","coordinates":[[-2.1143782,53.6063665],[-2.1143896,53.6063948],[-2.1145728,53.6065221],[-2.1145861,53.6065416],[-2.1145814,53.6065621],[-2.1145556,53.6065871],[-2.1144898,53.6066266],[-2.1143621,53.6066709],[-2.1142871,53.6067041]]}},
{"type":"Feature","properties":{"id":19035,"nach":0.38354903704108784},"geometry":{"type":"LineString","coordinates":[[-2.1181295,53.6069126],[-2.1180437,53.606849]]}},
{"type":"Feature","properties":{"id":19040,"nach":0.38415043013018912},"geometry":{"type":"LineString","coordinates":[[-2.1180437,53.6067789],[-2.1180437,53.606849]]}},
{"type":"Feature","properties":{"id":56104,"nach":0.55398561350711129},"geometry":{"type":"LineString","coordinates":[[-2.1131985,53.6082538],[-2.1132641,53.6082337],[-2.1143362,53.6084596]]}},
{"type":"Feature","properties":{"id":56960,"nach":0.30385909191609672},"geometry":{"type":"LineString","coordinates":[[-2.1232948,53.6066049],[-2.1234781,53.6066105],[-2.1239716,53.60662],[-2.1242667,53.606636],[-2.1245081,53.6066869],[-2.124728,53.6067696],[-2.1250177,53.6069256],[-2.1255166,53.6072469],[-2.1260367,53.6075747],[-2.1265141,53.6078707],[-2.1268789,53.608109400000011],[-2.1270023,53.608224],[-2.1271686,53.6086441],[-2.1273402,53.6090547],[-2.1275173,53.609487499999986],[-2.1276514,53.6098217],[-2.1277201,53.609918299999983]]}},
{"type":"Feature","properties":{"id":56962,"nach":0.39858945238549837},"geometry":{"type":"LineString","coordinates":[[-2.1232948,53.6066049],[-2.1232205,53.6066951],[-2.1231088,53.606830200000012],[-2.1230284,53.6069416],[-2.1229945,53.607012799999985],[-2.1229792,53.6070449],[-2.1229301,53.6071987],[-2.1228905,53.6073459],[-2.1228616,53.6075024],[-2.1228311,53.6077077]]}},
{"type":"Feature","properties":{"id":56963,"nach":0.51607163508725296},"geometry":{"type":"LineString","coordinates":[[-2.1232948,53.6066049],[-2.1233232,53.6065705],[-2.1234036,53.6064883],[-2.1235021,53.606394599999987],[-2.1235771,53.60632660000001],[-2.123907,53.6060623]]}},
{"type":"Feature","properties":{"id":33910,"nach":0.27232518472802053},"geometry":{"type":"LineString","coordinates":[[-2.12071,53.6052941],[-2.1207229,53.6051324],[-2.1206972,53.6050426],[-2.1206937,53.604994800000014],[-2.1209273,53.604904]]}},
{"type":"Feature","properties":{"id":33909,"nach":0.36792926359555655},"geometry":{"type":"LineString","coordinates":[[-2.12071,53.6052941],[-2.1209589,53.605318]]}},
{"type":"Feature","properties":{"id":33907,"nach":0.41249547737675007},"geometry":{"type":"LineString","coordinates":[[-2.1209589,53.605318],[-2.1209572,53.605171],[-2.1209828,53.604981],[-2.1209273,53.604904]]}},
{"type":"Feature","properties":{"id":66338,"nach":0.44464716729218001},"geometry":{"type":"LineString","coordinates":[[-2.1120632,53.6077911],[-2.1120519,53.6077994],[-2.1122679,53.607991200000022],[-2.1122518,53.6080071],[-2.1120077,53.6079132],[-2.1119809,53.6079371],[-2.1121414,53.6080663],[-2.1121249,53.6080797]]}},
{"type":"Feature","properties":{"id":66337,"nach":0.62036822880081954},"geometry":{"type":"LineString","coordinates":[[-2.1120632,53.6077911],[-2.1120275,53.6077667]]}},
{"type":"Feature","properties":{"id":66336,"nach":0.62175313717335823},"geometry":{"type":"LineString","coordinates":[[-2.1120632,53.6077911],[-2.112564,53.6081499]]}},
{"type":"Feature","properties":{"id":35348,"nach":0.59770038399042391},"geometry":{"type":"LineString","coordinates":[[-2.1120275,53.6077667],[-2.112097,53.6077289]]}},
{"type":"Feature","properties":{"id":35345,"nach":0.62321714976363729},"geometry":{"type":"LineString","coordinates":[[-2.1121615,53.6076939],[-2.112097,53.6077289]]}},
{"type":"Feature","properties":{"id":35346,"nach":0.60129535262788114},"geometry":{"type":"LineString","coordinates":[[-2.1121615,53.6076939],[-2.112115,53.607663100000011],[-2.1121031,53.6075169]]}},
{"type":"Feature","properties":{"id":56100,"nach":0.5740149675375612},"geometry":{"type":"LineString","coordinates":[[-2.1127379,53.60812],[-2.1121615,53.6076939]]}},
{"type":"Feature","properties":{"id":56800,"nach":0.40595310547479485},"geometry":{"type":"LineString","coordinates":[[-2.1183011,53.6045893],[-2.1185542,53.6044279],[-2.1187469,53.6043477],[-2.1187895,53.6042749],[-2.1188226,53.6042426],[-2.1189271,53.6041235],[-2.1190272,53.6040418],[-2.1191448,53.604021],[-2.119305,53.6040121],[-2.1195177,53.6041339],[-2.1199907,53.6043714],[-2.1202928,53.604481399999983],[-2.1205878,53.6045594],[-2.1208762,53.6046422],[-2.120911,53.604822],[-2.1209273,53.604904]]}},
{"type":"Feature","properties":{"id":56801,"nach":0.33606918223067872},"geometry":{"type":"LineString","coordinates":[[-2.1183011,53.6045893],[-2.1182888,53.6046895],[-2.118258,53.6047251],[-2.1179961,53.6048622],[-2.1179664,53.6048954],[-2.117886,53.605129],[-2.1178057,53.605382],[-2.1177839,53.6054068],[-2.117741,53.605423100000017],[-2.1173868,53.6055283],[-2.1172202,53.6055756]]}},
{"type":"Feature","properties":{"id":56996,"nach":0.48389806600914687},"geometry":{"type":"LineString","coordinates":[[-2.1130709,53.6081571],[-2.1131282,53.6081997],[-2.1131985,53.6082538]]}},
{"type":"Feature","properties":{"id":56998,"nach":0.44049707711982822},"geometry":{"type":"LineString","coordinates":[[-2.1134606,53.608084800000015],[-2.1130709,53.6081571]]}},
{"type":"Feature","properties":{"id":56103,"nach":0.57166353903854517},"geometry":{"type":"LineString","coordinates":[[-2.1131985,53.6082538],[-2.113132,53.6082741],[-2.1127379,53.60812]]}},
{"type":"Feature","properties":{"id":64619,"nach":0.50524703054871434},"geometry":{"type":"LineString","coordinates":[[-2.1146522,53.6100255],[-2.1146193,53.6099789],[-2.1145439,53.6099945],[-2.1144994,53.6099973],[-2.1144623,53.6099917],[-2.1144246,53.6099781],[-2.114285,53.6097998],[-2.1139352,53.6093543],[-2.1137061,53.6090988],[-2.1131842,53.6085124],[-2.1130543,53.6083831],[-2.1127379,53.60812]]}},
{"type":"Feature","properties":{"id":35471,"nach":0.36453808646865721},"geometry":{"type":"LineString","coordinates":[[-2.1143077,53.602321],[-2.1131276,53.6032335],[-2.1130236,53.6033187],[-2.1128899,53.6033726],[-2.1126505,53.6034568]]}},
{"type":"Feature","properties":{"id":39728,"nach":0.44748713989367228},"geometry":{"type":"LineString","coordinates":[[-2.1148606,53.6098225],[-2.1149109,53.6096396]]}},
{"type":"Feature","properties":{"id":39722,"nach":0.0},"geometry":{"type":"LineString","coordinates":[[-2.1149109,53.6096396],[-2.1150401,53.6096648],[-2.1152947,53.6097569],[-2.1154111,53.6096332],[-2.1151104,53.6095181],[-2.115011,53.6094994],[-2.1149446,53.6095822],[-2.1149109,53.6096396]]}},
{"type":"Feature","properties":{"id":39730,"nach":0.44676596449651906},"geometry":{"type":"LineString","coordinates":[[-2.1145347,53.609894],[-2.1148606,53.6098225]]}},
{"type":"Feature","properties":{"id":39733,"nach":0.52582701736636162},"geometry":{"type":"LineString","coordinates":[[-2.1147627,53.6099938],[-2.1148408,53.6099814],[-2.1148654,53.609958],[-2.1148583,53.6098601],[-2.1148606,53.6098225]]}},
{"type":"Feature","properties":{"id":64618,"nach":0.56374684086349525},"geometry":{"type":"LineString","coordinates":[[-2.1146522,53.6100255],[-2.1147627,53.6099938]]}},
{"type":"Feature","properties":{"id":66339,"nach":0.51319679384241657},"geometry":{"type":"LineString","coordinates":[[-2.1134089,53.6089936],[-2.1129154,53.608459],[-2.1127451,53.6083025]]}},
{"type":"Feature","properties":{"id":39734,"nach":0.44971312261545493},"geometry":{"type":"LineString","coordinates":[[-2.1148263,53.6103082],[-2.1147655,53.6101497],[-2.1147627,53.6099938]]}},
{"type":"Feature","properties":{"id":40967,"nach":0.45625525010068846},"geometry":{"type":"LineString","coordinates":[[-2.1122708,53.608157600000013],[-2.1122986,53.608139799999989],[-2.1123621,53.608173399999984],[-2.1123952,53.6081716],[-2.112564,53.6081499]]}},
{"type":"Feature","properties":{"id":40990,"nach":0.41476534387607905},"geometry":{"type":"LineString","coordinates":[[-2.1190608,53.6100065],[-2.1189411,53.6101758],[-2.1188907,53.6102929],[-2.1189031,53.6103576],[-2.1189163,53.6103936]]}},
{"type":"Feature","properties":{"id":40991,"nach":0.41908036401412657},"geometry":{"type":"LineString","coordinates":[[-2.1192188,53.610401],[-2.1190364,53.6103819],[-2.1189163,53.6103936]]}},
{"type":"Feature","properties":{"id":56304,"nach":0.46436490003304132},"geometry":{"type":"LineString","coordinates":[[-2.1144092,53.610888600000017],[-2.1143617,53.6107717]]}},
{"type":"Feature","properties":{"id":64622,"nach":0.63212228697445016},"geometry":{"type":"LineString","coordinates":[[-2.1139607,53.610854],[-2.1142849,53.6107965],[-2.1143617,53.6107717]]}},
{"type":"Feature","properties":{"id":55839,"nach":0.6731933164907028},"geometry":{"type":"LineString","coordinates":[[-2.114680792614673,53.610727716152326],[-2.114857,53.6107023]]}},
{"type":"Feature","properties":{"id":64621,"nach":0.46625926457443573},"geometry":{"type":"LineString","coordinates":[[-2.1139607,53.610854],[-2.1139278,53.6107953]]}},
{"type":"Feature","properties":{"id":69076,"nach":0.35794182135265745},"geometry":{"type":"LineString","coordinates":[[-2.1143782,53.6063665],[-2.1144951,53.6064005],[-2.1148119,53.6064731],[-2.11518,53.6065743],[-2.1153303,53.6066102],[-2.1154659,53.6066127],[-2.1155663,53.6065977],[-2.1157743,53.6065435],[-2.116228,53.6064189],[-2.1167307,53.606248200000017],[-2.1170309,53.6061438],[-2.1174844,53.606004]]}},
{"type":"Feature","properties":{"id":64629,"nach":0.46073944170035924},"geometry":{"type":"LineString","coordinates":[[-2.1136889,53.6109433],[-2.1135381,53.610921],[-2.1134745,53.6109316],[-2.1134361,53.6109471],[-2.1134199,53.610969900000022],[-2.1134185,53.6109979],[-2.1134347,53.6110259]]}},
{"type":"Feature","properties":{"id":64631,"nach":0.46073944170035924},"geometry":{"type":"LineString","coordinates":[[-2.113337,53.6110723],[-2.1135163,53.6110227],[-2.1136147,53.6109927],[-2.1136889,53.6109433]]}}
]
}
