{
"type": "FeatureCollection",
"name": "c468b44e86a4_visibility",
"crs": { "type": "name", "properties": { "name": "urn:ogc:def:crs:OGC:1.3:CRS84" } },
"features": [
{ "type": "Feature", "properties": { "visible_points": 4, "total_points": 61, "visibility_pct": 6.557377049180328 }, "geometry": { "type": "Point", "coordinates": [ -2.547922859337739, 53.596070557043241 ] } },
{ "type": "Feature", "properties": { "visible_points": 0, "total_points": 62, "visibility_pct": 0.0 }, "geometry": { "type": "Point", "coordinates": [ -2.547713511366735, 53.596071520348062 ] } },
{ "type": "Feature", "properties": { "visible_points": 2, "total_points": 70, "visibility_pct": 2.8571428571428572 }, "geometry": { "type": "Point", "coordinates": [ -2.548028925051872, 53.596177927820406 ] } },
{ "type": "Feature", "properties": { "visible_points": 0, "total_points": 72, "visibility_pct": 0.0 }, "geometry": { "type": "Point", "coordinates": [ -2.547819576558528, 53.596178891309584 ] } },
{ "type": "Feature", "properties": { "visible_points": 3, "total_points": 72, "visibility_pct": 4.1666666666666661 }, "geometry": { "type": "Point", "coordinates": [ -2.54761022805324, 53.596179854432449 ] } },
{ "type": "Feature", "properties": { "visible_points": 4, "total_points": 71, "visibility_pct": 5.6338028169014089 }, "geometry": { "type": "Point", "coordinates": [ -2.547400879536021, 53.596180817189001 ] } },
{ "type": "Feature", "properties": { "visible_points": 0, "total_points": 78, "visibility_pct": 0.0 }, "geometry": { "type": "Point", "coordinates": [ -2.548134991300286, 53.59628529850287 ] } },
{ "type": "Feature", "properties": { "visible_points": 0, "total_points": 82, "visibility_pct": 0.0 }, "geometry": { "type": "Point", "coordinates": [ -2.547925642284602, 53.596286262176392 ] } },
{ "type": "Feature", "properties": { "visible_points": 0, "total_points": 83, "visibility_pct": 0.0 }, "geometry": { "type": "Point", "coordinates": [ -2.547716293256972, 53.596287225483628 ] } },
{ "type": "Feature", "properties": { "visible_points": 0, "total_points": 83, "visibility_pct": 0.0 }, "geometry": { "type": "Point", "coordinates": [ -2.547506944217406, 53.596288188424516 ] } },
{ "type": "Feature", "properties": { "visible_points": 5, "total_points": 80, "visibility_pct": 6.25 }, "geometry": { "type": "Point", "coordinates": [ -2.547297595165905, 53.596289150999091 ] } },
{ "type": "Feature", "properties": { "visible_points": 0, "total_points": 83, "visibility_pct": 0.0 }, "geometry": { "type": "Point", "coordinates": [ -2.54824105808299, 53.596392669090612 ] } },
{ "type": "Feature", "properties": { "visible_points": 15, "total_points": 91, "visibility_pct": 16.483516483516482 }, "geometry": { "type": "Point", "coordinates": [ -2.548031708544963, 53.596393632948505 ] } },
{ "type": "Feature", "properties": { "visible_points": 0, "total_points": 94, "visibility_pct": 0.0 }, "geometry": { "type": "Point", "coordinates": [ -2.547822358994988, 53.596394596440078 ] } },
{ "type": "Feature", "properties": { "visible_points": 13, "total_points": 95, "visibility_pct": 13.684210526315791 }, "geometry": { "type": "Point", "coordinates": [ -2.547613009433076, 53.596395559565316 ] } },
{ "type": "Feature", "properties": { "visible_points": 11, "total_points": 93, "visibility_pct": 11.827956989247312 }, "geometry": { "type": "Point", "coordinates": [ -2.547403659859225, 53.596396522324255 ] } },
{ "type": "Feature", "properties": { "visible_points": 3, "total_points": 86, "visibility_pct": 3.4883720930232558 }, "geometry": { "type": "Point", "coordinates": [ -2.547194310273444, 53.596397484716846 ] } },
{ "type": "Feature", "properties": { "visible_points": 0, "total_points": 80, "visibility_pct": 0.0 }, "geometry": { "type": "Point", "coordinates": [ -2.548347125399985, 53.59650003958366 ] } },
{ "type": "Feature", "properties": { "visible_points": 19, "total_points": 93, "visibility_pct": 20.43010752688172 }, "geometry": { "type": "Point", "coordinates": [ -2.548137775339611, 53.596501003625896 ] } },
{ "type": "Feature", "properties": { "visible_points": 22, "total_points": 104, "visibility_pct": 21.153846153846153 }, "geometry": { "type": "Point", "coordinates": [ -2.547928425267294, 53.596501967301826 ] } },
{ "type": "Feature", "properties": { "visible_points": 19, "total_points": 106, "visibility_pct": 17.924528301886792 }, "geometry": { "type": "Point", "coordinates": [ -2.54771907518303, 53.596502930611415 ] } },
{ "type": "Feature", "properties": { "visible_points": 23, "total_points": 106, "visibility_pct": 21.69811320754717 }, "geometry": { "type": "Point", "coordinates": [ -2.547509725086829, 53.596503893554683 ] } },
{ "type": "Feature", "properties": { "visible_points": 0, "total_points": 98, "visibility_pct": 0.0 }, "geometry": { "type": "Point", "coordinates": [ -2.547300374978696, 53.596504856131645 ] } },
{ "type": "Feature", "properties": { "visible_points": 8, "total_points": 90, "visibility_pct": 8.8888888888888893 }, "geometry": { "type": "Point", "coordinates": [ -2.547091024858628, 53.59650581834228 ] } },
{ "type": "Feature", "properties": { "visible_points": 0, "total_points": 81, "visibility_pct": 0.0 }, "geometry": { "type": "Point", "coordinates": [ -2.546881674726643, 53.596506780186573 ] } },
{ "type": "Feature", "properties": { "visible_points": 0, "total_points": 61, "visibility_pct": 0.0 }, "geometry": { "type": "Point", "coordinates": [ -2.548662543822044, 53.596606445389035 ] } },
{ "type": "Feature", "properties": { "visible_points": 1, "total_points": 74, "visibility_pct": 1.3513513513513513 }, "geometry": { "type": "Point", "coordinates": [ -2.548453193251278, 53.596607409981964 ] } },
{ "type": "Feature", "properties": { "visible_points": 0, "total_points": 87, "visibility_pct": 0.0 }, "geometry": { "type": "Point", "coordinates": [ -2.548243842668563, 53.596608374208579 ] } },
{ "type": "Feature", "properties": { "visible_points": 20, "total_points": 100, "visibility_pct": 20.0 }, "geometry": { "type": "Point", "coordinates": [ -2.548034492073887, 53.596609338068852 ] } },
{ "type": "Feature", "properties": { "visible_points": 17, "total_points": 112, "visibility_pct": 15.178571428571427 }, "geometry": { "type": "Point", "coordinates": [ -2.547825141467278, 53.596610301562812 ] } },
{ "type": "Feature", "properties": { "visible_points": 21, "total_points": 114, "visibility_pct": 18.421052631578945 }, "geometry": { "type": "Point", "coordinates": [ -2.547615790848722, 53.596611264690438 ] } },
{ "type": "Feature", "properties": { "visible_points": 22, "total_points": 108, "visibility_pct": 20.37037037037037 }, "geometry": { "type": "Point", "coordinates": [ -2.547406440218229, 53.596612227451736 ] } },
{ "type": "Feature", "properties": { "visible_points": 0, "total_points": 101, "visibility_pct": 0.0 }, "geometry": { "type": "Point", "coordinates": [ -2.547197089575811, 53.596613189846714 ] } },
{ "type": "Feature", "properties": { "visible_points": 0, "total_points": 93, "visibility_pct": 0.0 }, "geometry": { "type": "Point", "coordinates": [ -2.546987738921457, 53.596614151875372 ] } },
{ "type": "Feature", "properties": { "visible_points": 0, "total_points": 84, "visibility_pct": 0.0 }, "geometry": { "type": "Point", "coordinates": [ -2.546778388255188, 53.596615113537688 ] } },
{ "type": "Feature", "properties": { "visible_points": 0, "total_points": 54, "visibility_pct": 0.0 }, "geometry": { "type": "Point", "coordinates": [ -2.548768612729985, 53.596713815508267 ] } },
{ "type": "Feature", "properties": { "visible_points": 2, "total_points": 66, "visibility_pct": 3.0303030303030303 }, "geometry": { "type": "Point", "coordinates": [ -2.548559261636869, 53.596714780285559 ] } },
{ "type": "Feature", "properties": { "visible_points": 1, "total_points": 79, "visibility_pct": 1.2658227848101267 }, "geometry": { "type": "Point", "coordinates": [ -2.548349910531807, 53.596715744696532 ] } },
{ "type": "Feature", "properties": { "visible_points": 0, "total_points": 92, "visibility_pct": 0.0 }, "geometry": { "type": "Point", "coordinates": [ -2.548140559414787, 53.59671670874117 ] } },
{ "type": "Feature", "properties": { "visible_points": 12, "total_points": 105, "visibility_pct": 11.428571428571429 }, "geometry": { "type": "Point", "coordinates": [ -2.547931208285819, 53.596717672419473 ] } },
{ "type": "Feature", "properties": { "visible_points": 12, "total_points": 116, "visibility_pct": 10.344827586206897 }, "geometry": { "type": "Point", "coordinates": [ -2.547721857144905, 53.596718635731456 ] } },
{ "type": "Feature", "properties": { "visible_points": 19, "total_points": 115, "visibility_pct": 16.521739130434781 }, "geometry": { "type": "Point", "coordinates": [ -2.547512505992057, 53.596719598677133 ] } },
{ "type": "Feature", "properties": { "visible_points": 31, "total_points": 110, "visibility_pct": 28.18181818181818 }, "geometry": { "type": "Point", "coordinates": [ -2.547303154827276, 53.596720561256447 ] } },
{ "type": "Feature", "properties": { "visible_points": 30, "total_points": 104, "visibility_pct": 28.846153846153843 }, "geometry": { "type": "Point", "coordinates": [ -2.547093803650565, 53.596721523469441 ] } },
{ "type": "Feature", "properties": { "visible_points": 0, "total_points": 96, "visibility_pct": 0.0 }, "geometry": { "type": "Point", "coordinates": [ -2.546884452461926, 53.596722485316143 ] } },
{ "type": "Feature", "properties": { "visible_points": 5, "total_points": 89, "visibility_pct": 5.6179775280898872 }, "geometry": { "type": "Point", "coordinates": [ -2.546675101261366, 53.596723446796467 ] } },
{ "type": "Feature", "properties": { "visible_points": 0, "total_points": 83, "visibility_pct": 0.0 }, "geometry": { "type": "Point", "coordinates": [ -2.546465750048894, 53.596724407910486 ] } },
{ "type": "Feature", "properties": { "visible_points": 0, "total_points": 70, "visibility_pct": 0.0 }, "geometry": { "type": "Point", "coordinates": [ -2.548455978929357, 53.596823115089762 ] } },
{ "type": "Feature", "properties": { "visible_points": 1, "total_points": 82, "visibility_pct": 1.2195121951219512 }, "geometry": { "type": "Point", "coordinates": [ -2.548246627289986, 53.596824079318765 ] } },
{ "type": "Feature", "properties": { "visible_points": 0, "total_points": 95, "visibility_pct": 0.0 }, "geometry": { "type": "Point", "coordinates": [ -2.54803727563866, 53.59682504318144 ] } },
{ "type": "Feature", "properties": { "visible_points": 12, "total_points": 107, "visibility_pct": 11.214953271028037 }, "geometry": { "type": "Point", "coordinates": [ -2.547827923975392, 53.596826006677766 ] } },
{ "type": "Feature", "properties": { "visible_points": 11, "total_points": 113, "visibility_pct": 9.7345132743362832 }, "geometry": { "type": "Point", "coordinates": [ -2.547618572300183, 53.596826969807793 ] } },
{ "type": "Feature", "properties": { "visible_points": 29, "total_points": 115, "visibility_pct": 25.217391304347824 }, "geometry": { "type": "Point", "coordinates": [ -2.547409220613034, 53.596827932571479 ] } },
{ "type": "Feature", "properties": { "visible_points": 38, "total_points": 113, "visibility_pct": 33.628318584070797 }, "geometry": { "type": "Point", "coordinates": [ -2.547199868913961, 53.59682889496883 ] } },
{ "type": "Feature", "properties": { "visible_points": 35, "total_points": 107, "visibility_pct": 32.710280373831772 }, "geometry": { "type": "Point", "coordinates": [ -2.546990517202954, 53.596829856999847 ] } },
{ "type": "Feature", "properties": { "visible_points": 33, "total_points": 100, "visibility_pct": 33.0 }, "geometry": { "type": "Point", "coordinates": [ -2.546781165480023, 53.596830818664543 ] } },
{ "type": "Feature", "properties": { "visible_points": 6, "total_points": 94, "visibility_pct": 6.3829787234042552 }, "geometry": { "type": "Point", "coordinates": [ -2.54657181374518, 53.596831779962891 ] } },
{ "type": "Feature", "properties": { "visible_points": 2, "total_points": 88, "visibility_pct": 2.2727272727272729 }, "geometry": { "type": "Point", "coordinates": [ -2.54636246199842, 53.596832740894946 ] } },
{ "type": "Feature", "properties": { "visible_points": 0, "total_points": 72, "visibility_pct": 0.0 }, "geometry": { "type": "Point", "coordinates": [ -2.548352695699489, 53.596931449801637 ] } },
{ "type": "Feature", "properties": { "visible_points": 0, "total_points": 84, "visibility_pct": 0.0 }, "geometry": { "type": "Point", "coordinates": [ -2.548143343525807, 53.596932413848677 ] } },
{ "type": "Feature", "properties": { "visible_points": 0, "total_points": 96, "visibility_pct": 0.0 }, "geometry": { "type": "Point", "coordinates": [ -2.547933991340179, 53.596933377529361 ] } },
{ "type": "Feature", "properties": { "visible_points": 14, "total_points": 104, "visibility_pct": 13.461538461538462 }, "geometry": { "type": "Point", "coordinates": [ -2.547724639142605, 53.596934340843745 ] } },
{ "type": "Feature", "properties": { "visible_points": 40, "total_points": 110, "visibility_pct": 36.363636363636367 }, "geometry": { "type": "Point", "coordinates": [ -2.547515286933094, 53.596935303791767 ] } },
{ "type": "Feature", "properties": { "visible_points": 34, "total_points": 114, "visibility_pct": 29.82456140350877 }, "geometry": { "type": "Point", "coordinates": [ -2.547305934711651, 53.596936266373483 ] } },
{ "type": "Feature", "properties": { "visible_points": 39, "total_points": 114, "visibility_pct": 34.210526315789473 }, "geometry": { "type": "Point", "coordinates": [ -2.547096582478272, 53.596937228588864 ] } },
{ "type": "Feature", "properties": { "visible_points": 39, "total_points": 109, "visibility_pct": 35.779816513761467 }, "geometry": { "type": "Point", "coordinates": [ -2.546887230232976, 53.596938190437911 ] } },
{ "type": "Feature", "properties": { "visible_points": 37, "total_points": 104, "visibility_pct": 35.57692307692308 }, "geometry": { "type": "Point", "coordinates": [ -2.546677877975754, 53.596939151920623 ] } },
{ "type": "Feature", "properties": { "visible_points": 0, "total_points": 99, "visibility_pct": 0.0 }, "geometry": { "type": "Point", "coordinates": [ -2.546468525706617, 53.596940113037007 ] } },
{ "type": "Feature", "properties": { "visible_points": 24, "total_points": 94, "visibility_pct": 25.531914893617021 }, "geometry": { "type": "Point", "coordinates": [ -2.546259173425568, 53.596941073787058 ] } },
{ "type": "Feature", "properties": { "visible_points": 5, "total_points": 88, "visibility_pct": 5.6818181818181817 }, "geometry": { "type": "Point", "coordinates": [ -2.546049821132613, 53.596942034170773 ] } },
{ "type": "Feature", "properties": { "visible_points": 0, "total_points": 84, "visibility_pct": 0.0 }, "geometry": { "type": "Point", "coordinates": [ -2.548040059239275, 53.597040748286254 ] } },
{ "type": "Feature", "properties": { "visible_points": 0, "total_points": 92, "visibility_pct": 0.0 }, "geometry": { "type": "Point", "coordinates": [ -2.54783070651933, 53.597041711784982 ] } },
{ "type": "Feature", "properties": { "visible_points": 38, "total_points": 100, "visibility_pct": 38.0 }, "geometry": { "type": "Point", "coordinates": [ -2.547621353787459, 53.597042674917361 ] } },
{ "type": "Feature", "properties": { "visible_points": 41, "total_points": 106, "visibility_pct": 38.679245283018872 }, "geometry": { "type": "Point", "coordinates": [ -2.547412001043641, 53.597043637683434 ] } },
{ "type": "Feature", "properties": { "visible_points": 39, "total_points": 112, "visibility_pct": 34.821428571428569 }, "geometry": { "type": "Point", "coordinates": [ -2.547202648287898, 53.597044600083173 ] } },
{ "type": "Feature", "properties": { "visible_points": 43, "total_points": 114, "visibility_pct": 37.719298245614034 }, "geometry": { "type": "Point", "coordinates": [ -2.546993295520219, 53.59704556211657 ] } },
{ "type": "Feature", "properties": { "visible_points": 43, "total_points": 112, "visibility_pct": 38.392857142857146 }, "geometry": { "type": "Point", "coordinates": [ -2.546783942740623, 53.597046523783632 ] } },
{ "type": "Feature", "properties": { "visible_points": 44, "total_points": 108, "visibility_pct": 40.74074074074074 }, "geometry": { "type": "Point", "coordinates": [ -2.546574589949109, 53.59704748508436 ] } },
{ "type": "Feature", "properties": { "visible_points": 45, "total_points": 104, "visibility_pct": 43.269230769230774 }, "geometry": { "type": "Point", "coordinates": [ -2.546365237145673, 53.597048446018761 ] } },
{ "type": "Feature", "properties": { "visible_points": 39, "total_points": 100, "visibility_pct": 39.0 }, "geometry": { "type": "Point", "coordinates": [ -2.546155884330339, 53.597049406586819 ] } },
{ "type": "Feature", "properties": { "visible_points": 4, "total_points": 93, "visibility_pct": 4.3010752688172049 }, "geometry": { "type": "Point", "coordinates": [ -2.545946531503094, 53.597050366788558 ] } },
{ "type": "Feature", "properties": { "visible_points": 2, "total_points": 67, "visibility_pct": 2.9850746268656714 }, "geometry": { "type": "Point", "coordinates": [ -2.54531847294998, 53.597053245195774 ] } },
{ "type": "Feature", "properties": { "visible_points": 0, "total_points": 80, "visibility_pct": 0.0 }, "geometry": { "type": "Point", "coordinates": [ -2.547936774430374, 53.597149082631503 ] } },
{ "type": "Feature", "properties": { "visible_points": 0, "total_points": 88, "visibility_pct": 0.0 }, "geometry": { "type": "Point", "coordinates": [ -2.547727421176124, 53.597150045948261 ] } },
{ "type": "Feature", "properties": { "visible_points": 36, "total_points": 96, "visibility_pct": 37.5 }, "geometry": { "type": "Point", "coordinates": [ -2.547518067909937, 53.59715100889867 ] } },
{ "type": "Feature", "properties": { "visible_points": 39, "total_points": 103, "visibility_pct": 37.864077669902912 }, "geometry": { "type": "Point", "coordinates": [ -2.54730871463182, 53.597151971482766 ] } },
{ "type": "Feature", "properties": { "visible_points": 40, "total_points": 109, "visibility_pct": 36.697247706422019 }, "geometry": { "type": "Point", "coordinates": [ -2.547099361341767, 53.597152933700507 ] } },
{ "type": "Feature", "properties": { "visible_points": 42, "total_points": 114, "visibility_pct": 36.84210526315789 }, "geometry": { "type": "Point", "coordinates": [ -2.54689000803979, 53.597153895551919 ] } },
{ "type": "Feature", "properties": { "visible_points": 44, "total_points": 114, "visibility_pct": 38.596491228070171 }, "geometry": { "type": "Point", "coordinates": [ -2.546680654725892, 53.597154857037019 ] } },
{ "type": "Feature", "properties": { "visible_points": 46, "total_points": 112, "visibility_pct": 41.071428571428569 }, "geometry": { "type": "Point", "coordinates": [ -2.546471301400083, 53.597155818155763 ] } },
{ "type": "Feature", "properties": { "visible_points": 43, "total_points": 109, "visibility_pct": 39.449541284403672 }, "geometry": { "type": "Point", "coordinates": [ -2.546261948062353, 53.597156778908179 ] } },
{ "type": "Feature", "properties": { "visible_points": 38, "total_points": 105, "visibility_pct": 36.19047619047619 }, "geometry": { "type": "Point", "coordinates": [ -2.54605259471272, 53.597157739294261 ] } },
{ "type": "Feature", "properties": { "visible_points": 34, "total_points": 97, "visibility_pct": 35.051546391752574 }, "geometry": { "type": "Point", "coordinates": [ -2.54584324135119, 53.597158699314001 ] } },
{ "type": "Feature", "properties": { "visible_points": 3, "total_points": 89, "visibility_pct": 3.3707865168539324 }, "geometry": { "type": "Point", "coordinates": [ -2.545633887977752, 53.597159658967421 ] } },
{ "type": "Feature", "properties": { "visible_points": 0, "total_points": 80, "visibility_pct": 0.0 }, "geometry": { "type": "Point", "coordinates": [ -2.545424534592432, 53.597160618254492 ] } },
{ "type": "Feature", "properties": { "visible_points": 5, "total_points": 85, "visibility_pct": 5.8823529411764701 }, "geometry": { "type": "Point", "coordinates": [ -2.547624135310546, 53.597258380019213 ] } },
{ "type": "Feature", "properties": { "visible_points": 0, "total_points": 93, "visibility_pct": 0.0 }, "geometry": { "type": "Point", "coordinates": [ -2.547414781510045, 53.597259342787645 ] } },
{ "type": "Feature", "properties": { "visible_points": 38, "total_points": 101, "visibility_pct": 37.623762376237622 }, "geometry": { "type": "Point", "coordinates": [ -2.547205427697619, 53.597260305189749 ] } },
{ "type": "Feature", "properties": { "visible_points": 40, "total_points": 108, "visibility_pct": 37.037037037037038 }, "geometry": { "type": "Point", "coordinates": [ -2.546996073873261, 53.597261267225505 ] } },
{ "type": "Feature", "properties": { "visible_points": 42, "total_points": 114, "visibility_pct": 36.84210526315789 }, "geometry": { "type": "Point", "coordinates": [ -2.546786720036981, 53.597262228894962 ] } },
{ "type": "Feature", "properties": { "visible_points": 46, "total_points": 115, "visibility_pct": 40.0 }, "geometry": { "type": "Point", "coordinates": [ -2.546577366188782, 53.597263190198063 ] } },
{ "type": "Feature", "properties": { "visible_points": 41, "total_points": 115, "visibility_pct": 35.652173913043477 }, "geometry": { "type": "Point", "coordinates": [ -2.546368012328668, 53.597264151134823 ] } },
{ "type": "Feature", "properties": { "visible_points": 43, "total_points": 113, "visibility_pct": 38.053097345132741 }, "geometry": { "type": "Point", "coordinates": [ -2.546158658456646, 53.597265111705262 ] } },
{ "type": "Feature", "properties": { "visible_points": 41, "total_points": 109, "visibility_pct": 37.61467889908257 }, "geometry": { "type": "Point", "coordinates": [ -2.545949304572715, 53.597266071909345 ] } },
{ "type": "Feature", "properties": { "visible_points": 33, "total_points": 101, "visibility_pct": 32.673267326732677 }, "geometry": { "type": "Point", "coordinates": [ -2.545739950676889, 53.597267031747116 ] } },
{ "type": "Feature", "properties": { "visible_points": 0, "total_points": 93, "visibility_pct": 0.0 }, "geometry": { "type": "Point", "coordinates": [ -2.545530596769164, 53.597267991218544 ] } },
{ "type": "Feature", "properties": { "visible_points": 2, "total_points": 85, "visibility_pct": 2.3529411764705883 }, "geometry": { "type": "Point", "coordinates": [ -2.545321242849551, 53.597268950323624 ] } },
{ "type": "Feature", "properties": { "visible_points": 2, "total_points": 91, "visibility_pct": 2.197802197802198 }, "geometry": { "type": "Point", "coordinates": [ -2.547311494587777, 53.59736767658427 ] } },
{ "type": "Feature", "properties": { "visible_points": 42, "total_points": 99, "visibility_pct": 42.424242424242422 }, "geometry": { "type": "Point", "coordinates": [ -2.547102140241037, 53.597368638804397 ] } },
{ "type": "Feature", "properties": { "visible_points": 44, "total_points": 107, "visibility_pct": 41.121495327102799 }, "geometry": { "type": "Point", "coordinates": [ -2.546892785882373, 53.597369600658183 ] } },
{ "type": "Feature", "properties": { "visible_points": 41, "total_points": 113, "visibility_pct": 36.283185840707965 }, "geometry": { "type": "Point", "coordinates": [ -2.546683431511784, 53.597370562145628 ] } },
{ "type": "Feature", "properties": { "visible_points": 40, "total_points": 117, "visibility_pct": 34.188034188034187 }, "geometry": { "type": "Point", "coordinates": [ -2.546474077129283, 53.597371523266766 ] } },
{ "type": "Feature", "properties": { "visible_points": 41, "total_points": 118, "visibility_pct": 34.745762711864408 }, "geometry": { "type": "Point", "coordinates": [ -2.546264722734867, 53.597372484021548 ] } },
{ "type": "Feature", "properties": { "visible_points": 40, "total_points": 117, "visibility_pct": 34.188034188034187 }, "geometry": { "type": "Point", "coordinates": [ -2.546055368328541, 53.597373444409989 ] } },
{ "type": "Feature", "properties": { "visible_points": 39, "total_points": 113, "visibility_pct": 34.513274336283182 }, "geometry": { "type": "Point", "coordinates": [ -2.545846013910317, 53.597374404432081 ] } },
{ "type": "Feature", "properties": { "visible_points": 32, "total_points": 105, "visibility_pct": 30.476190476190478 }, "geometry": { "type": "Point", "coordinates": [ -2.545636659480194, 53.59737536408786 ] } },
{ "type": "Feature", "properties": { "visible_points": 17, "total_points": 97, "visibility_pct": 17.525773195876287 }, "geometry": { "type": "Point", "coordinates": [ -2.545427305038176, 53.59737632337729 ] } },
{ "type": "Feature", "properties": { "visible_points": 0, "total_points": 89, "visibility_pct": 0.0 }, "geometry": { "type": "Point", "coordinates": [ -2.545217950584268, 53.597377282300386 ] } },
{ "type": "Feature", "properties": { "visible_points": 3, "total_points": 89, "visibility_pct": 3.3707865168539324 }, "geometry": { "type": "Point", "coordinates": [ -2.54720820714313, 53.597476010288574 ] } },
{ "type": "Feature", "properties": { "visible_points": 30, "total_points": 98, "visibility_pct": 30.612244897959183 }, "geometry": { "type": "Point", "coordinates": [ -2.546998852262075, 53.59747697232671 ] } },
{ "type": "Feature", "properties": { "visible_points": 43, "total_points": 106, "visibility_pct": 40.566037735849058 }, "geometry": { "type": "Point", "coordinates": [ -2.546789497369098, 53.597477933998512 ] } },
{ "type": "Feature", "properties": { "visible_points": 36, "total_points": 113, "visibility_pct": 31.858407079646017 }, "geometry": { "type": "Point", "coordinates": [ -2.546580142464204, 53.597478895303986 ] } },
{ "type": "Feature", "properties": { "visible_points": 34, "total_points": 118, "visibility_pct": 28.8135593220339 }, "geometry": { "type": "Point", "coordinates": [ -2.546370787547391, 53.597479856243112 ] } },
{ "type": "Feature", "properties": { "visible_points": 34, "total_points": 119, "visibility_pct": 28.571428571428569 }, "geometry": { "type": "Point", "coordinates": [ -2.546161432618672, 53.597480816815917 ] } },
{ "type": "Feature", "properties": { "visible_points": 33, "total_points": 119, "visibility_pct": 27.731092436974791 }, "geometry": { "type": "Point", "coordinates": [ -2.545952077678043, 53.597481777022367 ] } },
{ "type": "Feature", "properties": { "visible_points": 33, "total_points": 115, "visibility_pct": 28.695652173913043 }, "geometry": { "type": "Point", "coordinates": [ -2.54574272272552, 53.597482736862496 ] } },
{ "type": "Feature", "properties": { "visible_points": 30, "total_points": 109, "visibility_pct": 27.522935779816514 }, "geometry": { "type": "Point", "coordinates": [ -2.545533367761096, 53.597483696336255 ] } },
{ "type": "Feature", "properties": { "visible_points": 0, "total_points": 101, "visibility_pct": 0.0 }, "geometry": { "type": "Point", "coordinates": [ -2.545324012784783, 53.597484655443708 ] } },
{ "type": "Feature", "properties": { "visible_points": 0, "total_points": 93, "visibility_pct": 0.0 }, "geometry": { "type": "Point", "coordinates": [ -2.545114657796584, 53.597485614184805 ] } },
{ "type": "Feature", "properties": { "visible_points": 8, "total_points": 89, "visibility_pct": 8.9887640449438209 }, "geometry": { "type": "Point", "coordinates": [ -2.547104919176092, 53.597584343900529 ] } },
{ "type": "Feature", "properties": { "visible_points": 18, "total_points": 98, "visibility_pct": 18.367346938775512 }, "geometry": { "type": "Point", "coordinates": [ -2.54689556376072, 53.597585305756681 ] } },
{ "type": "Feature", "properties": { "visible_points": 34, "total_points": 106, "visibility_pct": 32.075471698113205 }, "geometry": { "type": "Point", "coordinates": [ -2.54668620833343, 53.59758626724652 ] } },
{ "type": "Feature", "properties": { "visible_points": 36, "total_points": 113, "visibility_pct": 31.858407079646017 }, "geometry": { "type": "Point", "coordinates": [ -2.546476852894224, 53.597587228369981 ] } },
{ "type": "Feature", "properties": { "visible_points": 28, "total_points": 118, "visibility_pct": 23.728813559322035 }, "geometry": { "type": "Point", "coordinates": [ -2.546267497443105, 53.597588189127137 ] } },
{ "type": "Feature", "properties": { "visible_points": 0, "total_points": 120, "visibility_pct": 0.0 }, "geometry": { "type": "Point", "coordinates": [ -2.546058141980076, 53.597589149517944 ] } },
{ "type": "Feature", "properties": { "visible_points": 22, "total_points": 120, "visibility_pct": 18.333333333333332 }, "geometry": { "type": "Point", "coordinates": [ -2.545848786505145, 53.597590109542416 ] } },
{ "type": "Feature", "properties": { "visible_points": 27, "total_points": 115, "visibility_pct": 23.478260869565219 }, "geometry": { "type": "Point", "coordinates": [ -2.545639431018315, 53.597591069200533 ] } },
{ "type": "Feature", "properties": { "visible_points": 25, "total_points": 110, "visibility_pct": 22.727272727272727 }, "geometry": { "type": "Point", "coordinates": [ -2.545430075519596, 53.597592028492322 ] } },
{ "type": "Feature", "properties": { "visible_points": 15, "total_points": 102, "visibility_pct": 14.705882352941178 }, "geometry": { "type": "Point", "coordinates": [ -2.545220720008982, 53.597592987417762 ] } },
{ "type": "Feature", "properties": { "visible_points": 0, "total_points": 94, "visibility_pct": 0.0 }, "geometry": { "type": "Point", "coordinates": [ -2.545011364486484, 53.597593945976861 ] } },
{ "type": "Feature", "properties": { "visible_points": 0, "total_points": 85, "visibility_pct": 0.0 }, "geometry": { "type": "Point", "coordinates": [ -2.544802008952108, 53.597594904169632 ] } },
{ "type": "Feature", "properties": { "visible_points": 8, "total_points": 90, "visibility_pct": 8.8888888888888893 }, "geometry": { "type": "Point", "coordinates": [ -2.547001630686661, 53.597692677420149 ] } },
{ "type": "Feature", "properties": { "visible_points": 0, "total_points": 99, "visibility_pct": 0.0 }, "geometry": { "type": "Point", "coordinates": [ -2.546792274736976, 53.597693639094324 ] } },
{ "type": "Feature", "properties": { "visible_points": 0, "total_points": 107, "visibility_pct": 0.0 }, "geometry": { "type": "Point", "coordinates": [ -2.546582918775369, 53.597694600402157 ] } },
{ "type": "Feature", "properties": { "visible_points": 24, "total_points": 114, "visibility_pct": 21.052631578947366 }, "geometry": { "type": "Point", "coordinates": [ -2.54637356280185, 53.597695561343656 ] } },
{ "type": "Feature", "properties": { "visible_points": 0, "total_points": 119, "visibility_pct": 0.0 }, "geometry": { "type": "Point", "coordinates": [ -2.546164206816416, 53.597696521918813 ] } },
{ "type": "Feature", "properties": { "visible_points": 0, "total_points": 120, "visibility_pct": 0.0 }, "geometry": { "type": "Point", "coordinates": [ -2.545954850819079, 53.597697482127629 ] } },
{ "type": "Feature", "properties": { "visible_points": 0, "total_points": 120, "visibility_pct": 0.0 }, "geometry": { "type": "Point", "coordinates": [ -2.545745494809842, 53.597698441970095 ] } },
{ "type": "Feature", "properties": { "visible_points": 15, "total_points": 116, "visibility_pct": 12.931034482758621 }, "geometry": { "type": "Point", "coordinates": [ -2.545536138788706, 53.597699401446235 ] } },
{ "type": "Feature", "properties": { "visible_points": 17, "total_points": 110, "visibility_pct": 15.454545454545453 }, "geometry": { "type": "Point", "coordinates": [ -2.54532678275568, 53.597700360556033 ] } },
{ "type": "Feature", "properties": { "visible_points": 14, "total_points": 103, "visibility_pct": 13.592233009708737 }, "geometry": { "type": "Point", "coordinates": [ -2.54511742671077, 53.597701319299453 ] } },
{ "type": "Feature", "properties": { "visible_points": 0, "total_points": 95, "visibility_pct": 0.0 }, "geometry": { "type": "Point", "coordinates": [ -2.544908070653972, 53.597702277676575 ] } },
{ "type": "Feature", "properties": { "visible_points": 0, "total_points": 86, "visibility_pct": 0.0 }, "geometry": { "type": "Point", "coordinates": [ -2.544698714585302, 53.597703235687341 ] } },
{ "type": "Feature", "properties": { "visible_points": 4, "total_points": 91, "visibility_pct": 4.395604395604396 }, "geometry": { "type": "Point", "coordinates": [ -2.54689834167484, 53.597801010847427 ] } },
{ "type": "Feature", "properties": { "visible_points": 0, "total_points": 101, "visibility_pct": 0.0 }, "geometry": { "type": "Point", "coordinates": [ -2.546688985190829, 53.597801972339617 ] } },
{ "type": "Feature", "properties": { "visible_points": 0, "total_points": 109, "visibility_pct": 0.0 }, "geometry": { "type": "Point", "coordinates": [ -2.546479628694908, 53.597802933465488 ] } },
{ "type": "Feature", "properties": { "visible_points": 0, "total_points": 115, "visibility_pct": 0.0 }, "geometry": { "type": "Point", "coordinates": [ -2.546270272187069, 53.597803894224974 ] } },
{ "type": "Feature", "properties": { "visible_points": 5, "total_points": 120, "visibility_pct": 4.1666666666666661 }, "geometry": { "type": "Point", "coordinates": [ -2.54606091566732, 53.59780485461814 ] } },
{ "type": "Feature", "properties": { "visible_points": 17, "total_points": 120, "visibility_pct": 14.166666666666666 }, "geometry": { "type": "Point", "coordinates": [ -2.545851559135671, 53.597805814644957 ] } },
{ "type": "Feature", "properties": { "visible_points": 0, "total_points": 120, "visibility_pct": 0.0 }, "geometry": { "type": "Point", "coordinates": [ -2.545642202592128, 53.597806774305432 ] } },
{ "type": "Feature", "properties": { "visible_points": 6, "total_points": 117, "visibility_pct": 5.1282051282051277 }, "geometry": { "type": "Point", "coordinates": [ -2.545432846036686, 53.597807733599574 ] } },
{ "type": "Feature", "properties": { "visible_points": 15, "total_points": 111, "visibility_pct": 13.513513513513514 }, "geometry": { "type": "Point", "coordinates": [ -2.545223489469353, 53.597808692527373 ] } },
{ "type": "Feature", "properties": { "visible_points": 15, "total_points": 105, "visibility_pct": 14.285714285714285 }, "geometry": { "type": "Point", "coordinates": [ -2.545014132890137, 53.597809651088816 ] } },
{ "type": "Feature", "properties": { "visible_points": 10, "total_points": 97, "visibility_pct": 10.309278350515463 }, "geometry": { "type": "Point", "coordinates": [ -2.54480477629904, 53.597810609283933 ] } },
{ "type": "Feature", "properties": { "visible_points": 0, "total_points": 89, "visibility_pct": 0.0 }, "geometry": { "type": "Point", "coordinates": [ -2.544595419696069, 53.5978115671127 ] } },
{ "type": "Feature", "properties": { "visible_points": 0, "total_points": 78, "visibility_pct": 0.0 }, "geometry": { "type": "Point", "coordinates": [ -2.544386063081228, 53.597812524575133 ] } },
{ "type": "Feature", "properties": { "visible_points": 3, "total_points": 93, "visibility_pct": 3.225806451612903 }, "geometry": { "type": "Point", "coordinates": [ -2.546795052140618, 53.597909344182384 ] } },
{ "type": "Feature", "properties": { "visible_points": 12, "total_points": 103, "visibility_pct": 11.650485436893204 }, "geometry": { "type": "Point", "coordinates": [ -2.546585695122284, 53.597910305492583 ] } },
{ "type": "Feature", "properties": { "visible_points": 0, "total_points": 111, "visibility_pct": 0.0 }, "geometry": { "type": "Point", "coordinates": [ -2.546376338092037, 53.597911266436427 ] } },
{ "type": "Feature", "properties": { "visible_points": 17, "total_points": 117, "visibility_pct": 14.529914529914532 }, "geometry": { "type": "Point", "coordinates": [ -2.546166981049883, 53.597912227013943 ] } },
{ "type": "Feature", "properties": { "visible_points": 20, "total_points": 120, "visibility_pct": 16.666666666666664 }, "geometry": { "type": "Point", "coordinates": [ -2.545957623995817, 53.597913187225117 ] } },
{ "type": "Feature", "properties": { "visible_points": 20, "total_points": 120, "visibility_pct": 16.666666666666664 }, "geometry": { "type": "Point", "coordinates": [ -2.545748266929857, 53.597914147069964 ] } },
{ "type": "Feature", "properties": { "visible_points": 15, "total_points": 120, "visibility_pct": 12.5 }, "geometry": { "type": "Point", "coordinates": [ -2.545538909851998, 53.597915106548434 ] } },
{ "type": "Feature", "properties": { "visible_points": 15, "total_points": 118, "visibility_pct": 12.711864406779661 }, "geometry": { "type": "Point", "coordinates": [ -2.545329552762245, 53.597916065660584 ] } },
{ "type": "Feature", "properties": { "visible_points": 6, "total_points": 113, "visibility_pct": 5.3097345132743365 }, "geometry": { "type": "Point", "coordinates": [ -2.545120195660606, 53.597917024406378 ] } },
{ "type": "Feature", "properties": { "visible_points": 11, "total_points": 107, "visibility_pct": 10.2803738317757 }, "geometry": { "type": "Point", "coordinates": [ -2.544910838547085, 53.59791798278583 ] } },
{ "type": "Feature", "properties": { "visible_points": 10, "total_points": 100, "visibility_pct": 10.0 }, "geometry": { "type": "Point", "coordinates": [ -2.544701481421685, 53.597918940798934 ] } },
{ "type": "Feature", "properties": { "visible_points": 4, "total_points": 90, "visibility_pct": 4.4444444444444446 }, "geometry": { "type": "Point", "coordinates": [ -2.544492124284415, 53.59791989844571 ] } },
{ "type": "Feature", "properties": { "visible_points": 1, "total_points": 79, "visibility_pct": 1.2658227848101267 }, "geometry": { "type": "Point", "coordinates": [ -2.544282767135269, 53.597920855726137 ] } },
{ "type": "Feature", "properties": { "visible_points": 5, "total_points": 95, "visibility_pct": 5.2631578947368416 }, "geometry": { "type": "Point", "coordinates": [ -2.546691762083988, 53.598017677424977 ] } },
{ "type": "Feature", "properties": { "visible_points": 20, "total_points": 105, "visibility_pct": 19.047619047619047 }, "geometry": { "type": "Point", "coordinates": [ -2.546482404531329, 53.598018638553185 ] } },
{ "type": "Feature", "properties": { "visible_points": 17, "total_points": 114, "visibility_pct": 14.912280701754385 }, "geometry": { "type": "Point", "coordinates": [ -2.546273046966759, 53.598019599315052 ] } },
{ "type": "Feature", "properties": { "visible_points": 15, "total_points": 119, "visibility_pct": 12.605042016806722 }, "geometry": { "type": "Point", "coordinates": [ -2.54606368939028, 53.598020559710591 ] } },
{ "type": "Feature", "properties": { "visible_points": 16, "total_points": 120, "visibility_pct": 13.333333333333334 }, "geometry": { "type": "Point", "coordinates": [ -2.545854331801903, 53.598021519739753 ] } },
{ "type": "Feature", "properties": { "visible_points": 21, "total_points": 120, "visibility_pct": 17.5 }, "geometry": { "type": "Point", "coordinates": [ -2.545644974201618, 53.598022479402587 ] } },
{ "type": "Feature", "properties": { "visible_points": 19, "total_points": 120, "visibility_pct": 15.833333333333332 }, "geometry": { "type": "Point", "coordinates": [ -2.545435616589451, 53.59802343869908 ] } },
{ "type": "Feature", "properties": { "visible_points": 13, "total_points": 119, "visibility_pct": 10.92436974789916 }, "geometry": { "type": "Point", "coordinates": [ -2.545226258965384, 53.598024397629224 ] } },
{ "type": "Feature", "properties": { "visible_points": 13, "total_points": 115, "visibility_pct": 11.304347826086957 }, "geometry": { "type": "Point", "coordinates": [ -2.545016901329434, 53.598025356193027 ] } },
{ "type": "Feature", "properties": { "visible_points": 7, "total_points": 109, "visibility_pct": 6.4220183486238538 }, "geometry": { "type": "Point", "coordinates": [ -2.544807543681608, 53.598026314390481 ] } },
{ "type": "Feature", "properties": { "visible_points": 8, "total_points": 101, "visibility_pct": 7.9207920792079207 }, "geometry": { "type": "Point", "coordinates": [ -2.544598186021899, 53.598027272221586 ] } },
{ "type": "Feature", "properties": { "visible_points": 8, "total_points": 91, "visibility_pct": 8.791208791208792 }, "geometry": { "type": "Point", "coordinates": [ -2.54438882835032, 53.598028229686349 ] } },
{ "type": "Feature", "properties": { "visible_points": 0, "total_points": 81, "visibility_pct": 0.0 }, "geometry": { "type": "Point", "coordinates": [ -2.544179470666879, 53.598029186784764 ] } },
{ "type": "Feature", "properties": { "visible_points": 0, "total_points": 72, "visibility_pct": 0.0 }, "geometry": { "type": "Point", "coordinates": [ -2.543970112971574, 53.59803014351683 ] } },
{ "type": "Feature", "properties": { "visible_points": 4, "total_points": 97, "visibility_pct": 4.1237113402061851 }, "geometry": { "type": "Point", "coordinates": [ -2.546588471504948, 53.598126010575228 ] } },
{ "type": "Feature", "properties": { "visible_points": 20, "total_points": 108, "visibility_pct": 18.518518518518519 }, "geometry": { "type": "Point", "coordinates": [ -2.546379113417964, 53.598126971521445 ] } },
{ "type": "Feature", "properties": { "visible_points": 17, "total_points": 117, "visibility_pct": 14.529914529914532 }, "geometry": { "type": "Point", "coordinates": [ -2.546169755319068, 53.598127932101328 ] } },
{ "type": "Feature", "properties": { "visible_points": 18, "total_points": 120, "visibility_pct": 15.0 }, "geometry": { "type": "Point", "coordinates": [ -2.545960397208268, 53.598128892314861 ] } },
{ "type": "Feature", "properties": { "visible_points": 14, "total_points": 120, "visibility_pct": 11.666666666666666 }, "geometry": { "type": "Point", "coordinates": [ -2.545751039085563, 53.598129852162039 ] } },
{ "type": "Feature", "properties": { "visible_points": 7, "total_points": 120, "visibility_pct": 5.833333333333333 }, "geometry": { "type": "Point", "coordinates": [ -2.545541680950967, 53.598130811642896 ] } },
{ "type": "Feature", "properties": { "visible_points": 10, "total_points": 120, "visibility_pct": 8.3333333333333321 }, "geometry": { "type": "Point", "coordinates": [ -2.545332322804476, 53.598131770757384 ] } },
{ "type": "Feature", "properties": { "visible_points": 0, "total_points": 120, "visibility_pct": 0.0 }, "geometry": { "type": "Point", "coordinates": [ -2.545122964646096, 53.598132729505522 ] } },
{ "type": "Feature", "properties": { "visible_points": 13, "total_points": 117, "visibility_pct": 11.111111111111111 }, "geometry": { "type": "Point", "coordinates": [ -2.544913606475839, 53.598133687887319 ] } },
{ "type": "Feature", "properties": { "visible_points": 2, "total_points": 111, "visibility_pct": 1.8018018018018018 }, "geometry": { "type": "Point", "coordinates": [ -2.544704248293694, 53.598134645902753 ] } },
{ "type": "Feature", "properties": { "visible_points": 0, "total_points": 102, "visibility_pct": 0.0 }, "geometry": { "type": "Point", "coordinates": [ -2.544494890099681, 53.598135603551867 ] } },
{ "type": "Feature", "properties": { "visible_points": 3, "total_points": 93, "visibility_pct": 3.225806451612903 }, "geometry": { "type": "Point", "coordinates": [ -2.544285531893801, 53.598136560834632 ] } },
{ "type": "Feature", "properties": { "visible_points": 0, "total_points": 84, "visibility_pct": 0.0 }, "geometry": { "type": "Point", "coordinates": [ -2.544076173676049, 53.598137517751042 ] } },
{ "type": "Feature", "properties": { "visible_points": 0, "total_points": 76, "visibility_pct": 0.0 }, "geometry": { "type": "Point", "coordinates": [ -2.543866815446443, 53.598138474301109 ] } },
{ "type": "Feature", "properties": { "visible_points": 8, "total_points": 88, "visibility_pct": 9.0909090909090917 }, "geometry": { "type": "Point", "coordinates": [ -2.546694539012899, 53.598233382502556 ] } },
{ "type": "Feature", "properties": { "visible_points": 10, "total_points": 100, "visibility_pct": 10.0 }, "geometry": { "type": "Point", "coordinates": [ -2.546485180403491, 53.598234343633138 ] } },
{ "type": "Feature", "properties": { "visible_points": 12, "total_points": 111, "visibility_pct": 10.810810810810811 }, "geometry": { "type": "Point", "coordinates": [ -2.546275821782181, 53.598235304397377 ] } },
{ "type": "Feature", "properties": { "visible_points": 14, "total_points": 119, "visibility_pct": 11.76470588235294 }, "geometry": { "type": "Point", "coordinates": [ -2.546066463148956, 53.598236264795261 ] } },
{ "type": "Feature", "properties": { "visible_points": 20, "total_points": 120, "visibility_pct": 16.666666666666664 }, "geometry": { "type": "Point", "coordinates": [ -2.545857104503829, 53.598237224826796 ] } },
{ "type": "Feature", "properties": { "visible_points": 14, "total_points": 120, "visibility_pct": 11.666666666666666 }, "geometry": { "type": "Point", "coordinates": [ -2.545647745846808, 53.598238184491983 ] } },
{ "type": "Feature", "properties": { "visible_points": 0, "total_points": 120, "visibility_pct": 0.0 }, "geometry": { "type": "Point", "coordinates": [ -2.545438387177882, 53.598239143790835 ] } },
{ "type": "Feature", "properties": { "visible_points": 8, "total_points": 120, "visibility_pct": 6.666666666666667 }, "geometry": { "type": "Point", "coordinates": [ -2.545229028497072, 53.598240102723331 ] } },
{ "type": "Feature", "properties": { "visible_points": 12, "total_points": 120, "visibility_pct": 10.0 }, "geometry": { "type": "Point", "coordinates": [ -2.545019669804379, 53.598241061289457 ] } },
{ "type": "Feature", "properties": { "visible_points": 0, "total_points": 119, "visibility_pct": 0.0 }, "geometry": { "type": "Point", "coordinates": [ -2.5448103110998, 53.598242019489263 ] } },
{ "type": "Feature", "properties": { "visible_points": 1, "total_points": 112, "visibility_pct": 0.89285714285714279 }, "geometry": { "type": "Point", "coordinates": [ -2.544600952383351, 53.598242977322712 ] } },
{ "type": "Feature", "properties": { "visible_points": 1, "total_points": 104, "visibility_pct": 0.96153846153846156 }, "geometry": { "type": "Point", "coordinates": [ -2.544391593655024, 53.598243934789814 ] } },
{ "type": "Feature", "properties": { "visible_points": 4, "total_points": 96, "visibility_pct": 4.1666666666666661 }, "geometry": { "type": "Point", "coordinates": [ -2.544182234914834, 53.598244891890573 ] } },
{ "type": "Feature", "properties": { "visible_points": 2, "total_points": 88, "visibility_pct": 2.2727272727272729 }, "geometry": { "type": "Point", "coordinates": [ -2.543972876162781, 53.59824584862497 ] } },
{ "type": "Feature", "properties": { "visible_points": 5, "total_points": 66, "visibility_pct": 7.5757575757575761 }, "geometry": { "type": "Point", "coordinates": [ -2.547009966175081, 53.598339792653874 ] } },
{ "type": "Feature", "properties": { "visible_points": 3, "total_points": 79, "visibility_pct": 3.79746835443038 }, "geometry": { "type": "Point", "coordinates": [ -2.546800607055181, 53.598340754335162 ] } },
{ "type": "Feature", "properties": { "visible_points": 0, "total_points": 91, "visibility_pct": 0.0 }, "geometry": { "type": "Point", "coordinates": [ -2.546591247923362, 53.598341715650115 ] } },
{ "type": "Feature", "properties": { "visible_points": 0, "total_points": 103, "visibility_pct": 0.0 }, "geometry": { "type": "Point", "coordinates": [ -2.546381888779623, 53.598342676598705 ] } },
{ "type": "Feature", "properties": { "visible_points": 7, "total_points": 113, "visibility_pct": 6.1946902654867255 }, "geometry": { "type": "Point", "coordinates": [ -2.546172529623973, 53.598343637180946 ] } },
{ "type": "Feature", "properties": { "visible_points": 11, "total_points": 120, "visibility_pct": 9.1666666666666661 }, "geometry": { "type": "Point", "coordinates": [ -2.545963170456424, 53.598344597396832 ] } },
{ "type": "Feature", "properties": { "visible_points": 19, "total_points": 120, "visibility_pct": 15.833333333333332 }, "geometry": { "type": "Point", "coordinates": [ -2.545753811276968, 53.59834555724639 ] } },
{ "type": "Feature", "properties": { "visible_points": 12, "total_points": 120, "visibility_pct": 10.0 }, "geometry": { "type": "Point", "coordinates": [ -2.545544452085614, 53.598346516729571 ] } },
{ "type": "Feature", "properties": { "visible_points": 0, "total_points": 120, "visibility_pct": 0.0 }, "geometry": { "type": "Point", "coordinates": [ -2.54533509288237, 53.598347475846403 ] } },
{ "type": "Feature", "properties": { "visible_points": 12, "total_points": 120, "visibility_pct": 10.0 }, "geometry": { "type": "Point", "coordinates": [ -2.545125733667242, 53.598348434596907 ] } },
{ "type": "Feature", "properties": { "visible_points": 11, "total_points": 120, "visibility_pct": 9.1666666666666661 }, "geometry": { "type": "Point", "coordinates": [ -2.544916374440226, 53.598349392981049 ] } },
{ "type": "Feature", "properties": { "visible_points": 0, "total_points": 119, "visibility_pct": 0.0 }, "geometry": { "type": "Point", "coordinates": [ -2.544707015201332, 53.598350350998849 ] } },
{ "type": "Feature", "properties": { "visible_points": 0, "total_points": 113, "visibility_pct": 0.0 }, "geometry": { "type": "Point", "coordinates": [ -2.544497655950561, 53.598351308650287 ] } },
{ "type": "Feature", "properties": { "visible_points": 0, "total_points": 106, "visibility_pct": 0.0 }, "geometry": { "type": "Point", "coordinates": [ -2.544288296687927, 53.598352265935397 ] } },
{ "type": "Feature", "properties": { "visible_points": 3, "total_points": 99, "visibility_pct": 3.0303030303030303 }, "geometry": { "type": "Point", "coordinates": [ -2.544078937413425, 53.598353222854122 ] } },
{ "type": "Feature", "properties": { "visible_points": 0, "total_points": 91, "visibility_pct": 0.0 }, "geometry": { "type": "Point", "coordinates": [ -2.543869578127057, 53.59835417940652 ] } },
{ "type": "Feature", "properties": { "visible_points": 1, "total_points": 69, "visibility_pct": 1.4492753623188406 }, "geometry": { "type": "Point", "coordinates": [ -2.546906675631804, 53.598448126073087 ] } },
{ "type": "Feature", "properties": { "visible_points": 1, "total_points": 82, "visibility_pct": 1.2195121951219512 }, "geometry": { "type": "Point", "coordinates": [ -2.546697315977564, 53.598449087572391 ] } },
{ "type": "Feature", "properties": { "visible_points": 3, "total_points": 94, "visibility_pct": 3.1914893617021276 }, "geometry": { "type": "Point", "coordinates": [ -2.546487956311403, 53.598450048705331 ] } },
{ "type": "Feature", "properties": { "visible_points": 6, "total_points": 105, "visibility_pct": 5.7142857142857144 }, "geometry": { "type": "Point", "coordinates": [ -2.546278596633327, 53.598451009471923 ] } },
{ "type": "Feature", "properties": { "visible_points": 0, "total_points": 115, "visibility_pct": 0.0 }, "geometry": { "type": "Point", "coordinates": [ -2.546069236943348, 53.59845196987218 ] } },
{ "type": "Feature", "properties": { "visible_points": 14, "total_points": 120, "visibility_pct": 11.666666666666666 }, "geometry": { "type": "Point", "coordinates": [ -2.545859877241458, 53.598452929906067 ] } },
{ "type": "Feature", "properties": { "visible_points": 17, "total_points": 120, "visibility_pct": 14.166666666666666 }, "geometry": { "type": "Point", "coordinates": [ -2.545650517527676, 53.598453889573605 ] } },
{ "type": "Feature", "properties": { "visible_points": 18, "total_points": 120, "visibility_pct": 15.0 }, "geometry": { "type": "Point", "coordinates": [ -2.545441157801991, 53.598454848874802 ] } },
{ "type": "Feature", "properties": { "visible_points": 8, "total_points": 120, "visibility_pct": 6.666666666666667 }, "geometry": { "type": "Point", "coordinates": [ -2.545231798064425, 53.59845580780965 ] } },
{ "type": "Feature", "properties": { "visible_points": 10, "total_points": 120, "visibility_pct": 8.3333333333333321 }, "geometry": { "type": "Point", "coordinates": [ -2.545022438314966, 53.598456766378142 ] } },
{ "type": "Feature", "properties": { "visible_points": 0, "total_points": 120, "visibility_pct": 0.0 }, "geometry": { "type": "Point", "coordinates": [ -2.544813078553629, 53.598457724580278 ] } },
{ "type": "Feature", "properties": { "visible_points": 0, "total_points": 118, "visibility_pct": 0.0 }, "geometry": { "type": "Point", "coordinates": [ -2.544603718780418, 53.598458682416066 ] } },
{ "type": "Feature", "properties": { "visible_points": 1, "total_points": 108, "visibility_pct": 0.92592592592592582 }, "geometry": { "type": "Point", "coordinates": [ -2.54418499919838, 53.598460596988616 ] } },
{ "type": "Feature", "properties": { "visible_points": 1, "total_points": 102, "visibility_pct": 0.98039215686274506 }, "geometry": { "type": "Point", "coordinates": [ -2.543975639389562, 53.598461553725329 ] } },
{ "type": "Feature", "properties": { "visible_points": 0, "total_points": 84, "visibility_pct": 0.0 }, "geometry": { "type": "Point", "coordinates": [ -2.546594024377522, 53.598557420717256 ] } },
{ "type": "Feature", "properties": { "visible_points": 0, "total_points": 96, "visibility_pct": 0.0 }, "geometry": { "type": "Point", "coordinates": [ -2.546384664177018, 53.598558381668205 ] } },
{ "type": "Feature", "properties": { "visible_points": 0, "total_points": 107, "visibility_pct": 0.0 }, "geometry": { "type": "Point", "coordinates": [ -2.546175303964608, 53.598559342252798 ] } },
{ "type": "Feature", "properties": { "visible_points": 0, "total_points": 115, "visibility_pct": 0.0 }, "geometry": { "type": "Point", "coordinates": [ -2.545965943740282, 53.59856030247105 ] } },
{ "type": "Feature", "properties": { "visible_points": 14, "total_points": 120, "visibility_pct": 11.666666666666666 }, "geometry": { "type": "Point", "coordinates": [ -2.545756583504066, 53.598561262322946 ] } },
{ "type": "Feature", "properties": { "visible_points": 17, "total_points": 120, "visibility_pct": 14.166666666666666 }, "geometry": { "type": "Point", "coordinates": [ -2.545547223255947, 53.5985622218085 ] } },
{ "type": "Feature", "properties": { "visible_points": 13, "total_points": 120, "visibility_pct": 10.833333333333334 }, "geometry": { "type": "Point", "coordinates": [ -2.545337862995936, 53.598563180927691 ] } },
{ "type": "Feature", "properties": { "visible_points": 7, "total_points": 120, "visibility_pct": 5.833333333333333 }, "geometry": { "type": "Point", "coordinates": [ -2.545128502724034, 53.598564139680519 ] } },
{ "type": "Feature", "properties": { "visible_points": 0, "total_points": 120, "visibility_pct": 0.0 }, "geometry": { "type": "Point", "coordinates": [ -2.544919142440254, 53.59856509806702 ] } },
{ "type": "Feature", "properties": { "visible_points": 0, "total_points": 119, "visibility_pct": 0.0 }, "geometry": { "type": "Point", "coordinates": [ -2.544709782144592, 53.598566056087165 ] } },
{ "type": "Feature", "properties": { "visible_points": 0, "total_points": 116, "visibility_pct": 0.0 }, "geometry": { "type": "Point", "coordinates": [ -2.544500421837057, 53.598567013740933 ] } },
{ "type": "Feature", "properties": { "visible_points": 1, "total_points": 113, "visibility_pct": 0.88495575221238942 }, "geometry": { "type": "Point", "coordinates": [ -2.544291061517652, 53.598567971028373 ] } },
{ "type": "Feature", "properties": { "visible_points": 0, "total_points": 107, "visibility_pct": 0.0 }, "geometry": { "type": "Point", "coordinates": [ -2.544081701186379, 53.598568927949444 ] } },
{ "type": "Feature", "properties": { "visible_points": 1, "total_points": 100, "visibility_pct": 1.0 }, "geometry": { "type": "Point", "coordinates": [ -2.54387234084325, 53.598569884504165 ] } },
{ "type": "Feature", "properties": { "visible_points": 0, "total_points": 86, "visibility_pct": 0.0 }, "geometry": { "type": "Point", "coordinates": [ -2.546490732255053, 53.598665753769751 ] } },
{ "type": "Feature", "properties": { "visible_points": 0, "total_points": 98, "visibility_pct": 0.0 }, "geometry": { "type": "Point", "coordinates": [ -2.546281371520207, 53.59866671453873 ] } },
{ "type": "Feature", "properties": { "visible_points": 0, "total_points": 107, "visibility_pct": 0.0 }, "geometry": { "type": "Point", "coordinates": [ -2.546072010773451, 53.598667674941325 ] } },
{ "type": "Feature", "properties": { "visible_points": 0, "total_points": 115, "visibility_pct": 0.0 }, "geometry": { "type": "Point", "coordinates": [ -2.545862650014787, 53.598668634977578 ] } },
{ "type": "Feature", "properties": { "visible_points": 14, "total_points": 120, "visibility_pct": 11.666666666666666 }, "geometry": { "type": "Point", "coordinates": [ -2.545653289244233, 53.59866959464749 ] } },
{ "type": "Feature", "properties": { "visible_points": 14, "total_points": 120, "visibility_pct": 11.666666666666666 }, "geometry": { "type": "Point", "coordinates": [ -2.545443928461776, 53.598670553951038 ] } },
{ "type": "Feature", "properties": { "visible_points": 6, "total_points": 120, "visibility_pct": 5.0 }, "geometry": { "type": "Point", "coordinates": [ -2.545234567667433, 53.598671512888231 ] } },
{ "type": "Feature", "properties": { "visible_points": 0, "total_points": 118, "visibility_pct": 0.0 }, "geometry": { "type": "Point", "coordinates": [ -2.545025206861206, 53.598672471459068 ] } },
{ "type": "Feature", "properties": { "visible_points": 0, "total_points": 116, "visibility_pct": 0.0 }, "geometry": { "type": "Point", "coordinates": [ -2.544815846043091, 53.598673429663535 ] } },
{ "type": "Feature", "properties": { "visible_points": 0, "total_points": 106, "visibility_pct": 0.0 }, "geometry": { "type": "Point", "coordinates": [ -2.544187763517516, 53.598676302078864 ] } },
{ "type": "Feature", "properties": { "visible_points": 0, "total_points": 102, "visibility_pct": 0.0 }, "geometry": { "type": "Point", "coordinates": [ -2.543978402651926, 53.598677258817943 ] } },
{ "type": "Feature", "properties": { "visible_points": 6, "total_points": 93, "visibility_pct": 6.4516129032258061 }, "geometry": { "type": "Point", "coordinates": [ -2.543769041774475, 53.598678215190652 ] } },
{ "type": "Feature", "properties": { "visible_points": 5, "total_points": 81, "visibility_pct": 6.1728395061728394 }, "geometry": { "type": "Point", "coordinates": [ -2.543559680885175, 53.598679171197027 ] } },
{ "type": "Feature", "properties": { "visible_points": 5, "total_points": 70, "visibility_pct": 7.1428571428571423 }, "geometry": { "type": "Point", "coordinates": [ -2.543350319984021, 53.598680126837024 ] } },
{ "type": "Feature", "properties": { "visible_points": 0, "total_points": 59, "visibility_pct": 0.0 }, "geometry": { "type": "Point", "coordinates": [ -2.543140959071023, 53.598681082110673 ] } },
{ "type": "Feature", "properties": { "visible_points": 2, "total_points": 47, "visibility_pct": 4.2553191489361701 }, "geometry": { "type": "Point", "coordinates": [ -2.542931598146188, 53.598682037017973 ] } },
{ "type": "Feature", "properties": { "visible_points": 0, "total_points": 87, "visibility_pct": 0.0 }, "geometry": { "type": "Point", "coordinates": [ -2.546387439610152, 53.598774086729939 ] } },
{ "type": "Feature", "properties": { "visible_points": 1, "total_points": 97, "visibility_pct": 1.0309278350515463 }, "geometry": { "type": "Point", "coordinates": [ -2.546178078340957, 53.598775047316892 ] } },
{ "type": "Feature", "properties": { "visible_points": 1, "total_points": 106, "visibility_pct": 0.94339622641509435 }, "geometry": { "type": "Point", "coordinates": [ -2.545968717059859, 53.598776007537509 ] } },
{ "type": "Feature", "properties": { "visible_points": 0, "total_points": 114, "visibility_pct": 0.0 }, "geometry": { "type": "Point", "coordinates": [ -2.545759355766855, 53.59877696739175 ] } },
{ "type": "Feature", "properties": { "visible_points": 5, "total_points": 119, "visibility_pct": 4.2016806722689077 }, "geometry": { "type": "Point", "coordinates": [ -2.54554999446196, 53.598777926879656 ] } },
{ "type": "Feature", "properties": { "visible_points": 0, "total_points": 117, "visibility_pct": 0.0 }, "geometry": { "type": "Point", "coordinates": [ -2.545340633145164, 53.598778886001206 ] } },
{ "type": "Feature", "properties": { "visible_points": 0, "total_points": 114, "visibility_pct": 0.0 }, "geometry": { "type": "Point", "coordinates": [ -2.545131271816488, 53.598779844756393 ] } },
{ "type": "Feature", "properties": { "visible_points": 0, "total_points": 111, "visibility_pct": 0.0 }, "geometry": { "type": "Point", "coordinates": [ -2.54492191047592, 53.598780803145232 ] } },
{ "type": "Feature", "properties": { "visible_points": 0, "total_points": 99, "visibility_pct": 0.0 }, "geometry": { "type": "Point", "coordinates": [ -2.544084464994924, 53.598784633037013 ] } },
{ "type": "Feature", "properties": { "visible_points": 0, "total_points": 93, "visibility_pct": 0.0 }, "geometry": { "type": "Point", "coordinates": [ -2.543875103595009, 53.598785589594065 ] } },
{ "type": "Feature", "properties": { "visible_points": 8, "total_points": 82, "visibility_pct": 9.7560975609756095 }, "geometry": { "type": "Point", "coordinates": [ -2.543665742183242, 53.598786545784769 ] } },
{ "type": "Feature", "properties": { "visible_points": 7, "total_points": 71, "visibility_pct": 9.8591549295774641 }, "geometry": { "type": "Point", "coordinates": [ -2.543456380759622, 53.59878750160911 ] } },
{ "type": "Feature", "properties": { "visible_points": 6, "total_points": 61, "visibility_pct": 9.8360655737704921 }, "geometry": { "type": "Point", "coordinates": [ -2.543247019324149, 53.598788457067101 ] } },
{ "type": "Feature", "properties": { "visible_points": 7, "total_points": 51, "visibility_pct": 13.725490196078432 }, "geometry": { "type": "Point", "coordinates": [ -2.543037657876842, 53.59878941215873 ] } },
{ "type": "Feature", "properties": { "visible_points": 0, "total_points": 85, "visibility_pct": 0.0 }, "geometry": { "type": "Point", "coordinates": [ -2.546284146442814, 53.59888241959775 ] } },
{ "type": "Feature", "properties": { "visible_points": 1, "total_points": 94, "visibility_pct": 1.0638297872340425 }, "geometry": { "type": "Point", "coordinates": [ -2.54607478463927, 53.598883380002732 ] } },
{ "type": "Feature", "properties": { "visible_points": 0, "total_points": 101, "visibility_pct": 0.0 }, "geometry": { "type": "Point", "coordinates": [ -2.545865422823824, 53.59888434004133 ] } },
{ "type": "Feature", "properties": { "visible_points": 2, "total_points": 107, "visibility_pct": 1.8691588785046727 }, "geometry": { "type": "Point", "coordinates": [ -2.545656060996479, 53.598885299713594 ] } },
{ "type": "Feature", "properties": { "visible_points": 0, "total_points": 110, "visibility_pct": 0.0 }, "geometry": { "type": "Point", "coordinates": [ -2.545446699157236, 53.59888625901948 ] } },
{ "type": "Feature", "properties": { "visible_points": 0, "total_points": 108, "visibility_pct": 0.0 }, "geometry": { "type": "Point", "coordinates": [ -2.545237337306106, 53.598887217959039 ] } },
{ "type": "Feature", "properties": { "visible_points": 0, "total_points": 105, "visibility_pct": 0.0 }, "geometry": { "type": "Point", "coordinates": [ -2.545027975443086, 53.598888176532213 ] } },
{ "type": "Feature", "properties": { "visible_points": 0, "total_points": 103, "visibility_pct": 0.0 }, "geometry": { "type": "Point", "coordinates": [ -2.544818613568188, 53.598889134739046 ] } },
{ "type": "Feature", "properties": { "visible_points": 0, "total_points": 89, "visibility_pct": 0.0 }, "geometry": { "type": "Point", "coordinates": [ -2.543981165949864, 53.59889296390277 ] } },
{ "type": "Feature", "properties": { "visible_points": 1, "total_points": 82, "visibility_pct": 1.2195121951219512 }, "geometry": { "type": "Point", "coordinates": [ -2.543771804015631, 53.598893920277824 ] } },
{ "type": "Feature", "properties": { "visible_points": 7, "total_points": 72, "visibility_pct": 9.7222222222222232 }, "geometry": { "type": "Point", "coordinates": [ -2.543562442069537, 53.598894876286501 ] } },
{ "type": "Feature", "properties": { "visible_points": 6, "total_points": 62, "visibility_pct": 9.67741935483871 }, "geometry": { "type": "Point", "coordinates": [ -2.543353080111594, 53.598895831928836 ] } },
{ "type": "Feature", "properties": { "visible_points": 2, "total_points": 53, "visibility_pct": 3.7735849056603774 }, "geometry": { "type": "Point", "coordinates": [ -2.543143718141805, 53.598896787204808 ] } },
{ "type": "Feature", "properties": { "visible_points": 1, "total_points": 45, "visibility_pct": 2.2222222222222223 }, "geometry": { "type": "Point", "coordinates": [ -2.542934356160184, 53.598897742114431 ] } },
{ "type": "Feature", "properties": { "visible_points": 0, "total_points": 81, "visibility_pct": 0.0 }, "geometry": { "type": "Point", "coordinates": [ -2.546180852753034, 53.598990752373226 ] } },
{ "type": "Feature", "properties": { "visible_points": 0, "total_points": 88, "visibility_pct": 0.0 }, "geometry": { "type": "Point", "coordinates": [ -2.545971490415138, 53.598991712596195 ] } },
{ "type": "Feature", "properties": { "visible_points": 0, "total_points": 94, "visibility_pct": 0.0 }, "geometry": { "type": "Point", "coordinates": [ -2.545762128065346, 53.598992672452816 ] } },
{ "type": "Feature", "properties": { "visible_points": 0, "total_points": 98, "visibility_pct": 0.0 }, "geometry": { "type": "Point", "coordinates": [ -2.545552765703654, 53.598993631943074 ] } },
{ "type": "Feature", "properties": { "visible_points": 0, "total_points": 97, "visibility_pct": 0.0 }, "geometry": { "type": "Point", "coordinates": [ -2.545134040944592, 53.598995549824501 ] } },
{ "type": "Feature", "properties": { "visible_points": 0, "total_points": 95, "visibility_pct": 0.0 }, "geometry": { "type": "Point", "coordinates": [ -2.544924678547232, 53.598996508215677 ] } },
{ "type": "Feature", "properties": { "visible_points": 1, "total_points": 92, "visibility_pct": 1.0869565217391304 }, "geometry": { "type": "Point", "coordinates": [ -2.544715316137998, 53.598997466240512 ] } },
{ "type": "Feature", "properties": { "visible_points": 5, "total_points": 79, "visibility_pct": 6.3291139240506329 }, "geometry": { "type": "Point", "coordinates": [ -2.543877866382343, 53.599001294676214 ] } },
{ "type": "Feature", "properties": { "visible_points": 7, "total_points": 72, "visibility_pct": 9.7222222222222232 }, "geometry": { "type": "Point", "coordinates": [ -2.543668503913779, 53.599002250869219 ] } },
{ "type": "Feature", "properties": { "visible_points": 0, "total_points": 75, "visibility_pct": 0.0 }, "geometry": { "type": "Point", "coordinates": [ -2.54607755854081, 53.599099085056359 ] } },
{ "type": "Feature", "properties": { "visible_points": 2, "total_points": 81, "visibility_pct": 2.4691358024691357 }, "geometry": { "type": "Point", "coordinates": [ -2.545868195668563, 53.599100045097323 ] } },
{ "type": "Feature", "properties": { "visible_points": 0, "total_points": 85, "visibility_pct": 0.0 }, "geometry": { "type": "Point", "coordinates": [ -2.545658832784414, 53.599101004771939 ] } },
{ "type": "Feature", "properties": { "visible_points": 4, "total_points": 86, "visibility_pct": 4.6511627906976747 }, "geometry": { "type": "Point", "coordinates": [ -2.545030744060618, 53.599103881597614 ] } },
{ "type": "Feature", "properties": { "visible_points": 5, "total_points": 83, "visibility_pct": 6.024096385542169 }, "geometry": { "type": "Point", "coordinates": [ -2.544821381128915, 53.599104839806785 ] } },
{ "type": "Feature", "properties": { "visible_points": 3, "total_points": 68, "visibility_pct": 4.4117647058823533 }, "geometry": { "type": "Point", "coordinates": [ -2.545974263806132, 53.599207417647122 ] } },
{ "type": "Feature", "properties": { "visible_points": 0, "total_points": 72, "visibility_pct": 0.0 }, "geometry": { "type": "Point", "coordinates": [ -2.545764900399532, 53.599208377506088 ] } },
{ "type": "Feature", "properties": { "visible_points": 2, "total_points": 75, "visibility_pct": 2.666666666666667 }, "geometry": { "type": "Point", "coordinates": [ -2.54555553698103, 53.599209336998712 ] } },
{ "type": "Feature", "properties": { "visible_points": 3, "total_points": 63, "visibility_pct": 4.7619047619047619 }, "geometry": { "type": "Point", "coordinates": [ -2.54566160460804, 53.599316709822524 ] } },
{ "type": "Feature", "properties": { "visible_points": 2, "total_points": 64, "visibility_pct": 3.125 }, "geometry": { "type": "Point", "coordinates": [ -2.545452240655184, 53.599317669133121 ] } }
]
}
