{
"type": "FeatureCollection",
"name": "FYLDE_32_walking",
"crs": { "type": "name", "properties": { "name": "urn:ogc:def:crs:OGC:1.3:CRS84" } },
"features": [
{"type":"Feature","properties":{"highway":"footway","name":null,"category":"Footpath (pedestrian only)"},"geometry":{"type":"MultiLineString","coordinates":[[[-2.8741726,53.782636],[-2.873386,53.7827543],[-2.8733732,53.7826959],[-2.873348,53.7824917],[-2.8732917,53.782371],[-2.8733445,53.7823631],[-2.8733195,53.78231]]]}},
{"type":"Feature","properties":{"highway":"footway","name":null,"category":"Footpath (pedestrian only)"},"geometry":{"type":"MultiLineString","coordinates":[[[-2.8695221,53.7831305],[-2.8699462,53.783532],[-2.870296,53.7834422]]]}},
{"type":"Feature","properties":{"highway":"footway","name":null,"category":"Footpath (pedestrian only)"},"geometry":{"type":"MultiLineString","coordinates":[[[-2.8736758,53.7839439],[-2.8737,53.7839249],[-2.8737549,53.7838758],[-2.8738086,53.7838037],[-2.8738421,53.7837435],[-2.8738233,53.7836856],[-2.873784,53.7836365],[-2.8736019,53.7834104],[-2.8736167,53.7833042],[-2.8741692,53.7830934],[-2.8743173,53.7830301],[-2.874424,53.7829809],[-2.874239,53.7828129],[-2.8742332,53.7827973],[-2.8741778,53.7826499],[-2.8741726,53.782636],[-2.8741506,53.7825773],[-2.8740859,53.7823658]]]}},
{"type":"Feature","properties":{"highway":"footway","name":null,"category":"Footpath (pedestrian only)"},"geometry":{"type":"MultiLineString","coordinates":[[[-2.8745181,53.78345],[-2.8744604,53.783463],[-2.873784,53.7836365],[-2.8723365,53.7840285],[-2.8714992,53.7842607]]]}},
{"type":"Feature","properties":{"highway":"footway","name":null,"category":"Footpath (pedestrian only)"},"geometry":{"type":"MultiLineString","coordinates":[[[-2.8750163,53.7833188],[-2.8749795,53.7832775],[-2.8747461,53.7832014],[-2.8743948,53.783035],[-2.8743173,53.7830301],[-2.8742446,53.7830255],[-2.8740543,53.783058],[-2.8735678,53.783158],[-2.8730162,53.7832029],[-2.872949,53.7831665]]]}},
{"type":"Feature","properties":{"highway":"path","name":null,"category":"Shared path"},"geometry":{"type":"MultiLineString","coordinates":[[[-2.8807907,53.7791011],[-2.8807532,53.7788945],[-2.8805806,53.778909],[-2.8803956,53.7789297],[-2.8802655,53.7789563],[-2.8801855,53.7789592],[-2.8800805,53.7789415],[-2.879966,53.7789097]]]}},
{"type":"Feature","properties":{"highway":"path","name":null,"category":"Shared path"},"geometry":{"type":"MultiLineString","coordinates":[[[-2.8801855,53.7789592],[-2.8800555,53.7789888],[-2.8798304,53.7789799],[-2.8795853,53.7789858],[-2.8794009,53.7789281]]]}},
{"type":"Feature","properties":{"highway":"path","name":null,"category":"Shared path"},"geometry":{"type":"MultiLineString","coordinates":[[[-2.8811941,53.7790758],[-2.8807907,53.7791011],[-2.8806344,53.7793172]]]}},
{"type":"Feature","properties":{"highway":"path","name":null,"category":"Shared path"},"geometry":{"type":"MultiLineString","coordinates":[[[-2.8711441,53.7789535],[-2.8710061,53.7788847]]]}},
{"type":"Feature","properties":{"highway":"track","name":null,"category":"Track"},"geometry":{"type":"MultiLineString","coordinates":[[[-2.8699572,53.7790711],[-2.8710061,53.7788847]]]}},
{"type":"Feature","properties":{"highway":"path","name":"Union Passage","category":"Shared path"},"geometry":{"type":"MultiLineString","coordinates":[[[-2.8748574,53.7820964],[-2.8748237,53.7820303]]]}},
{"type":"Feature","properties":{"highway":"path","name":"Chestnut Close","category":"Shared path"},"geometry":{"type":"MultiLineString","coordinates":[[[-2.8730385,53.7810313],[-2.87222,53.7811309],[-2.8721901,53.7809491]]]}},
{"type":"Feature","properties":{"highway":"path","name":null,"category":"Shared path"},"geometry":{"type":"MultiLineString","coordinates":[[[-2.8819829,53.7838884],[-2.8820223,53.7839742],[-2.8822985,53.7844247]]]}},
{"type":"Feature","properties":{"highway":"path","name":null,"category":"Shared path"},"geometry":{"type":"MultiLineString","coordinates":[[[-2.8811581,53.7827793],[-2.8818956,53.7827284]]]}},
{"type":"Feature","properties":{"highway":"footway","name":null,"category":"Footpath (pedestrian only)"},"geometry":{"type":"MultiLineString","coordinates":[[[-2.8823286,53.7853351],[-2.8820147,53.7855006],[-2.882063,53.7860045],[-2.8822507,53.7864134],[-2.8820871,53.7866067],[-2.8815721,53.7867176],[-2.8808131,53.786659],[-2.88057,53.7865567]]]}},
{"type":"Feature","properties":{"highway":"track","name":null,"category":"Track"},"geometry":{"type":"MultiLineString","coordinates":[[[-2.8714992,53.7842607],[-2.871583,53.7845784],[-2.8715882,53.7845983],[-2.8716498,53.7848318],[-2.8717207,53.7851004],[-2.8717241,53.7851132]]]}},
{"type":"Feature","properties":{"highway":"track","name":null,"category":"Track"},"geometry":{"type":"MultiLineString","coordinates":[[[-2.8715882,53.7845983],[-2.871469,53.7846684],[-2.8709618,53.784897],[-2.8707555,53.785024]]]}},
{"type":"Feature","properties":{"highway":"footway","name":null,"category":"Footpath (pedestrian only)"},"geometry":{"type":"MultiLineString","coordinates":[[[-2.879177,53.7789659],[-2.8791815,53.7788859],[-2.87917,53.7788534],[-2.8790142,53.7786367],[-2.8788928,53.7785094],[-2.8785283,53.7782175]]]}},
{"type":"Feature","properties":{"highway":"footway","name":null,"category":"Footpath (pedestrian only)"},"geometry":{"type":"MultiLineString","coordinates":[[[-2.8710974,53.7834149],[-2.8710171,53.7834187]]]}},
{"type":"Feature","properties":{"highway":"footway","name":null,"category":"Footpath (pedestrian only)"},"geometry":{"type":"MultiLineString","coordinates":[[[-2.8710171,53.7834187],[-2.8708588,53.78343]]]}},
{"type":"Feature","properties":{"highway":"footway","name":null,"category":"Footpath (pedestrian only)"},"geometry":{"type":"MultiLineString","coordinates":[[[-2.8708588,53.78343],[-2.8706344,53.7834817]]]}},
{"type":"Feature","properties":{"highway":"footway","name":null,"category":"Footpath (pedestrian only)"},"geometry":{"type":"MultiLineString","coordinates":[[[-2.8695221,53.7831305],[-2.8694983,53.7829457],[-2.8695427,53.7828225],[-2.8693518,53.7827919],[-2.869374,53.7826687],[-2.8692596,53.7826444]]]}},
{"type":"Feature","properties":{"highway":"footway","name":null,"category":"Footpath (pedestrian only)"},"geometry":{"type":"MultiLineString","coordinates":[[[-2.8711314,53.7838192],[-2.8711324,53.7842248]]]}},
{"type":"Feature","properties":{"highway":"footway","name":null,"category":"Footpath (pedestrian only)"},"geometry":{"type":"MultiLineString","coordinates":[[[-2.8783328,53.7846431],[-2.8787921,53.7846407]]]}},
{"type":"Feature","properties":{"highway":"path","name":"Bryning Fern Lane","category":"Shared path"},"geometry":{"type":"MultiLineString","coordinates":[[[-2.8844009,53.7792145],[-2.8844457,53.7791043]]]}},
{"type":"Feature","properties":{"highway":"footway","name":null,"category":"Footpath (pedestrian only)"},"geometry":{"type":"MultiLineString","coordinates":[[[-2.8723075,53.7826654],[-2.8723561,53.7829431]]]}},
{"type":"Feature","properties":{"highway":"footway","name":null,"category":"Footpath (pedestrian only)"},"geometry":{"type":"MultiLineString","coordinates":[[[-2.8722569,53.7825469],[-2.8723075,53.7826654]]]}},
{"type":"Feature","properties":{"highway":"footway","name":null,"category":"Footpath (pedestrian only)"},"geometry":{"type":"MultiLineString","coordinates":[[[-2.8722072,53.7824386],[-2.8722569,53.7825469]]]}},
{"type":"Feature","properties":{"highway":"footway","name":null,"category":"Footpath (pedestrian only)"},"geometry":{"type":"MultiLineString","coordinates":[[[-2.8740544,53.7822748],[-2.8740328,53.7822144]]]}},
{"type":"Feature","properties":{"highway":"footway","name":null,"category":"Footpath (pedestrian only)"},"geometry":{"type":"MultiLineString","coordinates":[[[-2.8740859,53.7823658],[-2.8740544,53.7822748]]]}},
{"type":"Feature","properties":{"highway":"path","name":"Union Passage","category":"Shared path"},"geometry":{"type":"MultiLineString","coordinates":[[[-2.8748237,53.7820303],[-2.8747227,53.7818084]]]}},
{"type":"Feature","properties":{"highway":"footway","name":null,"category":"Footpath (pedestrian only)"},"geometry":{"type":"MultiLineString","coordinates":[[[-2.8749208,53.7788697],[-2.874683,53.7789184],[-2.8745475,53.7788947],[-2.8744322,53.7788503],[-2.8742445,53.778752],[-2.8741398,53.7787148],[-2.8739963,53.7787132],[-2.8738435,53.7787211],[-2.8736629,53.7787401]]]}},
{"type":"Feature","properties":{"highway":"footway","name":null,"category":"Footpath (pedestrian only)"},"geometry":{"type":"MultiLineString","coordinates":[[[-2.8749745,53.7788795],[-2.8749204,53.7789588],[-2.8748707,53.7790262],[-2.8747246,53.7791237],[-2.8743276,53.7791387],[-2.8742297,53.779092],[-2.8740875,53.779176],[-2.8739829,53.7791847],[-2.8740084,53.7793353],[-2.8739911,53.7793668]]]}},
{"type":"Feature","properties":{"highway":"footway","name":null,"category":"Footpath (pedestrian only)"},"geometry":{"type":"MultiLineString","coordinates":[[[-2.8763874,53.7819551],[-2.8763595,53.7819001],[-2.8763325,53.7818323]]]}},
{"type":"Feature","properties":{"highway":"footway","name":null,"category":"Footpath (pedestrian only)"},"geometry":{"type":"MultiLineString","coordinates":[[[-2.8768555,53.7817531],[-2.8768821,53.7818072],[-2.8769024,53.7818561]]]}},
{"type":"Feature","properties":{"highway":"footway","name":null,"category":"Footpath (pedestrian only)"},"geometry":{"type":"MultiLineString","coordinates":[[[-2.8766744,53.7817237],[-2.8766865,53.7817531],[-2.876708,53.7817649],[-2.8767294,53.7817697],[-2.8767629,53.7817689],[-2.8768555,53.7817531]]]}},
{"type":"Feature","properties":{"highway":"footway","name":null,"category":"Footpath (pedestrian only)"},"geometry":{"type":"MultiLineString","coordinates":[[[-2.8764853,53.7817578],[-2.8765711,53.7817411],[-2.8766744,53.7817237]]]}},
{"type":"Feature","properties":{"highway":"footway","name":null,"category":"Footpath (pedestrian only)"},"geometry":{"type":"MultiLineString","coordinates":[[[-2.8763325,53.7818323],[-2.8764062,53.7818244],[-2.8764518,53.7818085],[-2.8764733,53.7817927],[-2.8764853,53.7817578]]]}},
{"type":"Feature","properties":{"highway":"footway","name":null,"category":"Footpath (pedestrian only)"},"geometry":{"type":"MultiLineString","coordinates":[[[-2.8765953,53.7819884],[-2.8765457,53.7819678],[-2.8764907,53.7819551],[-2.8764236,53.7819543],[-2.8763874,53.7819551]]]}},
{"type":"Feature","properties":{"highway":"footway","name":null,"category":"Footpath (pedestrian only)"},"geometry":{"type":"MultiLineString","coordinates":[[[-2.876826,53.7819052],[-2.8766534,53.7819206],[-2.8765953,53.7819884]]]}},
{"type":"Feature","properties":{"highway":"footway","name":null,"category":"Footpath (pedestrian only)"},"geometry":{"type":"MultiLineString","coordinates":[[[-2.8769024,53.7818561],[-2.8768582,53.7818648],[-2.87683,53.7818791],[-2.8768229,53.7818926],[-2.876826,53.7819052]]]}}
]
}
