{
"type": "FeatureCollection",
"name": "FYLDE_44_cycling",
"crs": { "type": "name", "properties": { "name": "urn:ogc:def:crs:OGC:1.3:CRS84" } },
"features": [
{"type":"Feature","properties":{"highway":"path","name":null,"category":"Shared path"},"geometry":{"type":"MultiLineString","coordinates":[[[-3.0092821,53.8305206],[-3.0093413,53.8304501],[-3.0093636,53.830374]]]}},
{"type":"Feature","properties":{"highway":"path","name":null,"category":"Shared path"},"geometry":{"type":"MultiLineString","coordinates":[[[-2.9972811,53.798876],[-2.9972524,53.7992976]]]}},
{"type":"Feature","properties":{"highway":"path","name":null,"category":"Shared path"},"geometry":{"type":"MultiLineString","coordinates":[[[-2.9920424,53.8165645],[-2.992114,53.8164266]]]}},
{"type":"Feature","properties":{"highway":"cycleway","name":null,"category":"Dedicated cycleway"},"geometry":{"type":"MultiLineString","coordinates":[[[-3.0089259,53.8171272],[-3.008561,53.8171235],[-3.008399,53.8171056],[-3.008196,53.817066],[-3.0080111,53.8170111],[-3.0078819,53.8170428],[-3.0077914,53.8169398],[-3.0077115,53.8168335],[-3.0075498,53.816562],[-3.007403,53.8162759],[-3.0073455,53.8161041],[-3.0073372,53.8159215],[-3.0073557,53.8156399],[-3.0075019,53.8154759],[-3.0079965,53.8151289],[-3.0092135,53.8141199],[-3.0094495,53.8139488],[-3.0095997,53.8138855],[-3.0097606,53.8138918],[-3.0103936,53.8139552],[-3.0108443,53.8140122],[-3.0116704,53.8142149],[-3.0119601,53.8142212],[-3.0121317,53.8141896],[-3.0122605,53.8140755],[-3.0124858,53.8135815],[-3.012636,53.8133344],[-3.0128184,53.813176],[-3.0128802,53.8131192],[-3.0129295,53.813068],[-3.0129576,53.8130175],[-3.0130054,53.8129231],[-3.0131439,53.8127602],[-3.0126952,53.8120239],[-3.0125078,53.8118521],[-3.013739,53.8115406],[-3.0143967,53.8116065],[-3.0148037,53.8115987],[-3.0154904,53.8102937],[-3.0160633,53.8093619]]]}},
{"type":"Feature","properties":{"highway":"cycleway","name":null,"category":"Dedicated cycleway"},"geometry":{"type":"MultiLineString","coordinates":[[[-3.0078246,53.8217999],[-3.0080869,53.8219294],[-3.008313,53.8220515],[-3.0084291,53.8221152],[-3.0085093,53.8221661],[-3.0085724,53.8222132],[-3.0086273,53.822259],[-3.0086968,53.8223248],[-3.0087709,53.8224056],[-3.0088285,53.8224658],[-3.0088859,53.8225071],[-3.0089252,53.8225295],[-3.0091363,53.8226609],[-3.0091632,53.8226833],[-3.0091944,53.8227011],[-3.0092448,53.8227327],[-3.0092776,53.8227478],[-3.0094687,53.822834],[-3.0095015,53.8228476],[-3.0095398,53.8228682],[-3.0095665,53.8228826],[-3.0095926,53.8228994],[-3.0096822,53.822978],[-3.0098367,53.8231225],[-3.0099047,53.8231756],[-3.0099567,53.8232181],[-3.0100034,53.8232491],[-3.0100366,53.8232635],[-3.0100689,53.8232779],[-3.0101289,53.8232987],[-3.0102197,53.8233315],[-3.01029,53.8233489],[-3.0103597,53.8233647],[-3.0104142,53.8233762],[-3.0105338,53.8233971],[-3.0106626,53.8234355],[-3.0107754,53.8234859],[-3.0108376,53.8235286],[-3.0108641,53.8235654],[-3.0109044,53.8236533],[-3.0109181,53.8236788],[-3.0109549,53.8237019],[-3.0113223,53.8238009],[-3.0115117,53.8239003]]]}},
{"type":"Feature","properties":{"highway":"path","name":null,"category":"Shared path"},"geometry":{"type":"MultiLineString","coordinates":[[[-3.0125078,53.8118521],[-3.0119928,53.8117634],[-3.008817,53.8113073],[-3.0075725,53.811206],[-3.0062623,53.8109976],[-3.0055787,53.8110801],[-3.0055769,53.8110793],[-3.0048045,53.8119408],[-2.9995259,53.8120168],[-2.9982813,53.8118648],[-2.9960926,53.8119408],[-2.9958877,53.8120401],[-2.9958202,53.812114],[-2.995752,53.8122543],[-2.9961356,53.8128657],[-2.9968222,53.8132711],[-2.9968007,53.8137652],[-2.9970388,53.8147296]]]}},
{"type":"Feature","properties":{"highway":"path","name":null,"category":"Shared path"},"geometry":{"type":"MultiLineString","coordinates":[[[-3.0060725,53.822216],[-3.0060339,53.8222766],[-3.0059373,53.8223556],[-3.0060776,53.8225491],[-3.0060896,53.8225701]]]}},
{"type":"Feature","properties":{"highway":"path","name":null,"category":"Shared path"},"geometry":{"type":"MultiLineString","coordinates":[[[-3.0113352,53.818935],[-3.0113034,53.8188873],[-3.011076,53.8186333],[-3.0108617,53.8184941],[-3.0105832,53.8183628],[-3.0101902,53.8182164],[-3.0096384,53.8180206],[-3.0093275,53.8178897],[-3.0091833,53.8177916],[-3.0090515,53.8177073],[-3.0088535,53.8175889],[-3.0086774,53.8174637],[-3.0085821,53.817338]]]}},
{"type":"Feature","properties":{"highway":"cycleway","name":null,"category":"Dedicated cycleway"},"geometry":{"type":"MultiLineString","coordinates":[[[-3.0118191,53.8174555],[-3.0114772,53.817424],[-3.0110409,53.8173704],[-3.0103385,53.8172496],[-3.0094728,53.8171278],[-3.0092351,53.8171117],[-3.0089259,53.8171272],[-3.0088301,53.8171889],[-3.0086045,53.817325],[-3.0085821,53.817338],[-3.008296,53.8174453],[-3.0080627,53.8175593],[-3.0079527,53.817648],[-3.0076764,53.8178475],[-3.0074028,53.8180549],[-3.0073197,53.8181483],[-3.0071802,53.818473],[-3.0072178,53.8187263],[-3.0073224,53.8189258],[-3.0074163,53.8190525],[-3.0075075,53.8191665],[-3.0077033,53.8193628],[-3.0077408,53.8194547],[-3.0076818,53.8195323],[-3.007537,53.8196162],[-3.0070273,53.819936],[-3.0067886,53.8201688],[-3.0067564,53.8202733],[-3.0068584,53.8204934],[-3.0071159,53.8208781],[-3.007604,53.82138],[-3.0078615,53.8216223],[-3.0078246,53.8217999],[-3.0077354,53.8218867],[-3.0075316,53.8219991],[-3.0072097,53.8220973],[-3.006904,53.8221543],[-3.0064265,53.8222445],[-3.0060725,53.822216],[-3.0058418,53.8221717],[-3.005595,53.8220355],[-3.0053402,53.8217869],[-3.0050908,53.8214655],[-3.0048145,53.821095],[-3.0046563,53.8208718],[-3.0045034,53.8207784],[-3.0041815,53.8205614],[-3.0035968,53.8198489],[-3.0032642,53.819385],[-3.0028887,53.8189195],[-3.0026768,53.8187168],[-3.0024998,53.8185284],[-3.0024059,53.8183099],[-3.0024032,53.8182291],[-3.0023791,53.8175799],[-3.0023925,53.817469],[-3.0024139,53.8173598],[-3.0023657,53.8172664],[-3.0023067,53.8172141],[-3.0020572,53.8171714],[-3.0016334,53.8171476],[-3.0012928,53.817108],[-3.0005605,53.8170257],[-3.0002226,53.8170193],[-2.9999409,53.8169544],[-2.99967,53.8169085],[-2.9991604,53.8168705],[-2.9983638,53.8168847],[-2.9981385,53.8168721],[-2.9978005,53.8167486],[-2.9975672,53.8166456],[-2.9973741,53.8165316],[-2.9972265,53.8163859],[-2.997197,53.8160249],[-2.9972212,53.8156195],[-2.9972561,53.8154738],[-2.9972963,53.815382],[-2.9973768,53.815203],[-2.9973848,53.8151064],[-2.9972261,53.8148473],[-2.9971675,53.8147296],[-2.9970388,53.8147296],[-2.9968108,53.8147074],[-2.9963119,53.8145918],[-2.9959954,53.8145284],[-2.9957674,53.8144556],[-2.9956467,53.814454],[-2.9954912,53.8144825],[-2.9953678,53.8145395],[-2.9952337,53.8146583],[-2.9949494,53.8149883],[-2.9948947,53.8150319],[-2.9948298,53.8150707]]]}},
{"type":"Feature","properties":{"highway":"path","name":null,"category":"Shared path"},"geometry":{"type":"MultiLineString","coordinates":[[[-2.9900835,53.7993053],[-2.9900858,53.7991969],[-2.9900723,53.7991144],[-2.9900013,53.7990332],[-2.9899214,53.7989581],[-2.9898707,53.7989022],[-2.9898493,53.7988457],[-2.9898346,53.7987552],[-2.9898549,53.7986342],[-2.9898865,53.7985473]]]}},
{"type":"Feature","properties":{"highway":"path","name":null,"category":"Shared path"},"geometry":{"type":"MultiLineString","coordinates":[[[-2.9920059,53.8010698],[-2.9919743,53.8009268],[-2.9920566,53.8008691]]]}},
{"type":"Feature","properties":{"highway":"path","name":null,"category":"Shared path"},"geometry":{"type":"MultiLineString","coordinates":[[[-2.9908109,53.7993376],[-2.9905441,53.7992926],[-2.9902885,53.7992634],[-2.9901556,53.7992753],[-2.9900835,53.7993053],[-2.9897417,53.7995211]]]}},
{"type":"Feature","properties":{"highway":"cycleway","name":null,"category":"Dedicated cycleway"},"geometry":{"type":"MultiLineString","coordinates":[[[-3.0171861,53.8234794],[-3.0171421,53.8234368],[-3.0172142,53.8233923],[-3.0172402,53.8233677],[-3.0172749,53.8233172],[-3.0173247,53.823183],[-3.0173505,53.8230794],[-3.0173064,53.8229744]]]}},
{"type":"Feature","properties":{"highway":"cycleway","name":null,"category":"Dedicated cycleway"},"geometry":{"type":"MultiLineString","coordinates":[[[-3.0187594,53.8228306],[-3.0188115,53.8228979],[-3.0184448,53.8230364],[-3.0183435,53.8230748],[-3.0182753,53.8231071],[-3.0182394,53.8231356],[-3.0182239,53.8231688],[-3.0182047,53.8232977],[-3.0182054,53.8233833],[-3.0182185,53.8234547],[-3.0182387,53.8235092],[-3.0183352,53.8235975],[-3.0184054,53.8236595],[-3.0183809,53.8237304]]]}},
{"type":"Feature","properties":{"highway":"cycleway","name":null,"category":"Dedicated cycleway"},"geometry":{"type":"MultiLineString","coordinates":[[[-3.0174867,53.8223459],[-3.0175605,53.8225655],[-3.0176268,53.8226947],[-3.0176611,53.8227614],[-3.0177193,53.822851],[-3.0177846,53.8229056],[-3.0178754,53.8229382],[-3.0179414,53.8229526],[-3.0180186,53.8229647],[-3.0180858,53.822965],[-3.0181649,53.8229537],[-3.0183156,53.8229088],[-3.0184869,53.8228472],[-3.0185533,53.8229061]]]}},
{"type":"Feature","properties":{"highway":"cycleway","name":null,"category":"Dedicated cycleway"},"geometry":{"type":"MultiLineString","coordinates":[[[-3.0183161,53.8238181],[-3.0182567,53.823835],[-3.0180882,53.8236982],[-3.0178693,53.8235189],[-3.0175647,53.8234927],[-3.017437,53.8234994],[-3.0171301,53.8235567],[-3.0170821,53.8235258]]]}},
{"type":"Feature","properties":{"highway":"path","name":null,"category":"Shared path"},"geometry":{"type":"MultiLineString","coordinates":[[[-2.9957868,53.7976296],[-2.9950647,53.7975272]]]}},
{"type":"Feature","properties":{"highway":"cycleway","name":"Clifton Avenue","category":"Dedicated cycleway"},"geometry":{"type":"MultiLineString","coordinates":[[[-3.0000508,53.8007218],[-3.0000163,53.8007222],[-2.9998929,53.8007236]]]}},
{"type":"Feature","properties":{"highway":"path","name":null,"category":"Shared path"},"geometry":{"type":"MultiLineString","coordinates":[[[-2.9966049,53.8013417],[-2.9976609,53.8014843]]]}},
{"type":"Feature","properties":{"highway":"track","name":null,"category":"Track"},"geometry":{"type":"MultiLineString","coordinates":[[[-2.9840156,53.7973412],[-2.9839465,53.7976366],[-2.9837311,53.7983449],[-2.9838205,53.7984698]]]}},
{"type":"Feature","properties":{"highway":"path","name":null,"category":"Shared path"},"geometry":{"type":"MultiLineString","coordinates":[[[-3.0044051,53.8245378],[-3.004427,53.8245481],[-3.0046419,53.8246489],[-3.0046501,53.8246553],[-3.0047197,53.8247095],[-3.0047483,53.8247352],[-3.0047905,53.8247732],[-3.0048825,53.824838],[-3.0049887,53.8248944],[-3.005063,53.8249111],[-3.0051621,53.8248965],[-3.0051957,53.8248934],[-3.0053992,53.8249874],[-3.0054224,53.8250302]]]}},
{"type":"Feature","properties":{"highway":"path","name":null,"category":"Shared path"},"geometry":{"type":"MultiLineString","coordinates":[[[-3.0052092,53.8248723],[-3.0051957,53.8248934]]]}},
{"type":"Feature","properties":{"highway":"path","name":null,"category":"Shared path"},"geometry":{"type":"MultiLineString","coordinates":[[[-3.0065373,53.8235942],[-3.0065548,53.8235974],[-3.0067265,53.8236396],[-3.0069033,53.8236756],[-3.0070598,53.8236768],[-3.0072407,53.823654],[-3.00769,53.8233505],[-3.0078445,53.8232197],[-3.0079095,53.8231885],[-3.008189,53.8231961]]]}},
{"type":"Feature","properties":{"highway":"path","name":null,"category":"Shared path"},"geometry":{"type":"MultiLineString","coordinates":[[[-3.0091744,53.8240141],[-3.0091295,53.824134],[-3.0090464,53.824274],[-3.0090216,53.8243492],[-3.0088995,53.8244703],[-3.0088536,53.8245485]]]}},
{"type":"Feature","properties":{"highway":"path","name":null,"category":"Shared path"},"geometry":{"type":"MultiLineString","coordinates":[[[-3.0087231,53.8302631],[-3.0088618,53.8302615],[-3.0089329,53.8302647],[-3.0090331,53.8302977],[-3.0091227,53.8303403],[-3.009135,53.8303698],[-3.0091886,53.8303943],[-3.0092277,53.8304093],[-3.0093413,53.8304501]]]}},
{"type":"Feature","properties":{"highway":"path","name":null,"category":"Shared path"},"geometry":{"type":"MultiLineString","coordinates":[[[-3.0049773,53.8245561],[-3.0047741,53.8244582],[-3.0047489,53.8244461]]]}},
{"type":"Feature","properties":{"highway":"path","name":null,"category":"Shared path"},"geometry":{"type":"MultiLineString","coordinates":[[[-3.0100034,53.8232491],[-3.0098549,53.8233382],[-3.0098187,53.823318],[-3.0097966,53.8233508]]]}},
{"type":"Feature","properties":{"highway":"path","name":null,"category":"Shared path"},"geometry":{"type":"MultiLineString","coordinates":[[[-3.0163094,53.8278902],[-3.0159399,53.8277337]]]}},
{"type":"Feature","properties":{"highway":"path","name":null,"category":"Shared path"},"geometry":{"type":"MultiLineString","coordinates":[[[-3.0169469,53.8227607],[-3.0168202,53.8228373],[-3.0166165,53.8227204],[-3.0165307,53.8226711],[-3.0162856,53.8228215],[-3.0163594,53.8228683]]]}},
{"type":"Feature","properties":{"highway":"path","name":null,"category":"Shared path"},"geometry":{"type":"MultiLineString","coordinates":[[[-3.0166165,53.8227204],[-3.0167448,53.8226444]]]}},
{"type":"Feature","properties":{"highway":"path","name":null,"category":"Shared path"},"geometry":{"type":"MultiLineString","coordinates":[[[-3.0105406,53.8031619],[-3.010468,53.8028929],[-3.0101404,53.8029215],[-3.0097995,53.8029512],[-3.0093069,53.8029922],[-3.008885,53.8030286],[-3.0089475,53.803275],[-3.0093798,53.8032408],[-3.0098706,53.803202],[-3.0102092,53.8031811],[-3.0102723,53.8031785]]]}},
{"type":"Feature","properties":{"highway":"path","name":null,"category":"Shared path"},"geometry":{"type":"MultiLineString","coordinates":[[[-3.0102092,53.8031811],[-3.0101404,53.8029215],[-3.010074,53.8026709],[-3.0097373,53.802703],[-3.0092466,53.8027439],[-3.0088144,53.8027816],[-3.008885,53.8030286]]]}},
{"type":"Feature","properties":{"highway":"path","name":null,"category":"Shared path"},"geometry":{"type":"MultiLineString","coordinates":[[[-3.0088144,53.8027816],[-3.008732,53.8025023]]]}},
{"type":"Feature","properties":{"highway":"path","name":null,"category":"Shared path"},"geometry":{"type":"MultiLineString","coordinates":[[[-3.0110492,53.8028452],[-3.0108114,53.8028647],[-3.010468,53.8028929],[-3.0104037,53.8026449],[-3.010074,53.8026709]]]}},
{"type":"Feature","properties":{"highway":"path","name":null,"category":"Shared path"},"geometry":{"type":"MultiLineString","coordinates":[[[-3.0104037,53.8026449],[-3.0107613,53.8026155],[-3.0108114,53.8028647],[-3.0108905,53.8031883]]]}},
{"type":"Feature","properties":{"highway":"path","name":null,"category":"Shared path"},"geometry":{"type":"MultiLineString","coordinates":[[[-3.0103601,53.8032828],[-3.0104026,53.8034819],[-3.0099556,53.8035188],[-3.0090158,53.8035964],[-3.0089475,53.803275]]]}},
{"type":"Feature","properties":{"highway":"path","name":null,"category":"Shared path"},"geometry":{"type":"MultiLineString","coordinates":[[[-3.0099556,53.8035188],[-3.0098706,53.803202]]]}},
{"type":"Feature","properties":{"highway":"path","name":null,"category":"Shared path"},"geometry":{"type":"MultiLineString","coordinates":[[[-3.0098706,53.803202],[-3.0097995,53.8029512],[-3.0097373,53.802703]]]}},
{"type":"Feature","properties":{"highway":"path","name":null,"category":"Shared path"},"geometry":{"type":"MultiLineString","coordinates":[[[-3.0093798,53.8032408],[-3.0093069,53.8029922],[-3.0092466,53.8027439]]]}},
{"type":"Feature","properties":{"highway":"path","name":null,"category":"Shared path"},"geometry":{"type":"MultiLineString","coordinates":[[[-2.9979516,53.8135521],[-2.998018,53.813554],[-2.9980645,53.813558],[-2.9981176,53.8135658],[-2.9981774,53.8135815],[-2.9982487,53.8136021],[-2.9983218,53.8136246],[-2.9983965,53.8136413],[-2.9984662,53.813654],[-2.998541,53.8136677],[-2.9986223,53.8136766],[-2.9986871,53.8136795],[-2.9987518,53.8136824],[-2.9991337,53.8136952],[-2.9992183,53.8136864],[-2.9993777,53.8136501]]]}},
{"type":"Feature","properties":{"highway":"path","name":null,"category":"Shared path"},"geometry":{"type":"MultiLineString","coordinates":[[[-2.999831,53.8142059],[-2.9997745,53.8142098],[-2.9997098,53.8142079],[-2.9996583,53.814202],[-2.9996035,53.8141922],[-2.9995521,53.8141824],[-2.9995072,53.8141745],[-2.9994508,53.8141716],[-2.999396,53.8141667],[-2.9993512,53.8141677],[-2.999318,53.8141657],[-2.9992848,53.8141598],[-2.9992399,53.8141481],[-2.9992017,53.8141294],[-2.9991752,53.8141138],[-2.999132,53.8141049],[-2.9991005,53.8140902],[-2.9990805,53.8140647],[-2.9990888,53.814004],[-2.9991337,53.8136952]]]}},
{"type":"Feature","properties":{"highway":"path","name":null,"category":"Shared path"},"geometry":{"type":"MultiLineString","coordinates":[[[-2.9986024,53.8143157],[-2.9986456,53.8142971],[-2.9986887,53.8142784],[-2.9987169,53.8142608],[-2.9987369,53.8142392],[-2.9987501,53.8142118],[-2.9987518,53.8141883],[-2.9987518,53.8141363],[-2.9987518,53.8136824]]]}},
{"type":"Feature","properties":{"highway":"path","name":null,"category":"Shared path"},"geometry":{"type":"MultiLineString","coordinates":[[[-2.9992266,53.8147727],[-2.9991004,53.8144924],[-2.9990623,53.8144149],[-2.9990423,53.8143571],[-2.9990374,53.8142993],[-2.999039,53.8142522],[-2.9990606,53.8141973],[-2.9990706,53.8141415],[-2.9990805,53.8140647]]]}},
{"type":"Feature","properties":{"highway":"path","name":null,"category":"Shared path"},"geometry":{"type":"MultiLineString","coordinates":[[[-3.0054508,53.8131668],[-3.0047808,53.8131748],[-3.0045215,53.8131907],[-3.0042791,53.8131947],[-3.0038616,53.8131907],[-3.0037235,53.8131947],[-3.0035283,53.8132185],[-3.0033835,53.8132225],[-3.0031781,53.8132185],[-3.0029492,53.8132285],[-3.0028414,53.8132265],[-3.0024374,53.8131927],[-3.002269,53.8131907],[-3.0020468,53.8132424]]]}},
{"type":"Feature","properties":{"highway":"path","name":null,"category":"Shared path"},"geometry":{"type":"MultiLineString","coordinates":[[[-3.0028381,53.8133418],[-3.0029492,53.8132285]]]}},
{"type":"Feature","properties":{"highway":"path","name":null,"category":"Shared path"},"geometry":{"type":"MultiLineString","coordinates":[[[-3.0046966,53.8128508],[-3.0046999,53.8129184],[-3.0047033,53.8129661],[-3.004673,53.8130217],[-3.0046764,53.8130794],[-3.0047235,53.813137],[-3.0047808,53.8131748]]]}},
{"type":"Feature","properties":{"highway":"path","name":null,"category":"Shared path"},"geometry":{"type":"MultiLineString","coordinates":[[[-3.0126672,53.8305523],[-3.0127846,53.8306406],[-3.0127926,53.8307079],[-3.0127215,53.8307609]]]}},
{"type":"Feature","properties":{"highway":"path","name":null,"category":"Shared path"},"geometry":{"type":"MultiLineString","coordinates":[[[-3.0085801,53.806213],[-3.0089108,53.8062412],[-3.0088752,53.80616]]]}},
{"type":"Feature","properties":{"highway":"path","name":null,"category":"Shared path"},"geometry":{"type":"MultiLineString","coordinates":[[[-3.0081843,53.8061761],[-3.0079197,53.8061504],[-3.0077333,53.8061323],[-3.0077571,53.8062459]]]}},
{"type":"Feature","properties":{"highway":"path","name":null,"category":"Shared path"},"geometry":{"type":"MultiLineString","coordinates":[[[-3.0079197,53.8061504],[-3.0079425,53.8060485]]]}},
{"type":"Feature","properties":{"highway":"path","name":null,"category":"Shared path"},"geometry":{"type":"MultiLineString","coordinates":[[[-3.0084958,53.8062052],[-3.0084233,53.8064986],[-3.0082466,53.8064451]]]}},
{"type":"Feature","properties":{"highway":"path","name":null,"category":"Shared path"},"geometry":{"type":"MultiLineString","coordinates":[[[-3.0157888,53.8235804],[-3.0158011,53.8234652],[-3.0157256,53.8234696],[-3.0156769,53.8234494],[-3.0156477,53.8234193],[-3.0156648,53.823369],[-3.0157232,53.8233489],[-3.0158059,53.8233604],[-3.0158473,53.823392],[-3.0158352,53.8234394],[-3.0158011,53.8234652]]]}},
{"type":"Feature","properties":{"highway":"path","name":null,"category":"Shared path"},"geometry":{"type":"MultiLineString","coordinates":[[[-3.0158473,53.823392],[-3.0158571,53.8233546],[-3.0160382,53.8232842]]]}},
{"type":"Feature","properties":{"highway":"path","name":null,"category":"Shared path"},"geometry":{"type":"MultiLineString","coordinates":[[[-3.0161432,53.8234395],[-3.0162273,53.8234845]]]}},
{"type":"Feature","properties":{"highway":"cycleway","name":null,"category":"Dedicated cycleway"},"geometry":{"type":"MultiLineString","coordinates":[[[-3.0159517,53.8172491],[-3.0159534,53.8172239],[-3.0160922,53.8172128],[-3.0162297,53.8171938],[-3.0163405,53.8171597]]]}},
{"type":"Feature","properties":{"highway":"cycleway","name":null,"category":"Dedicated cycleway"},"geometry":{"type":"MultiLineString","coordinates":[[[-3.016316,53.8173385],[-3.0162112,53.8173043],[-3.0161216,53.8172928],[-3.0159747,53.8172936],[-3.0159082,53.8172963],[-3.0146139,53.8173487],[-3.013006,53.8174239],[-3.0120283,53.8174651],[-3.0118191,53.8174555]]]}},
{"type":"Feature","properties":{"highway":"cycleway","name":null,"category":"Dedicated cycleway"},"geometry":{"type":"MultiLineString","coordinates":[[[-2.9912713,53.7962802],[-2.9912942,53.7962215],[-2.9913133,53.7961671],[-2.990663,53.7961071],[-2.9904162,53.7960944],[-2.9899334,53.7960833],[-2.9896636,53.7960899],[-2.9895839,53.7960943]]]}},
{"type":"Feature","properties":{"highway":"cycleway","name":null,"category":"Dedicated cycleway"},"geometry":{"type":"MultiLineString","coordinates":[[[-2.9967707,53.8025672],[-2.9967476,53.8026199],[-2.9967157,53.8026868],[-2.9966031,53.802663],[-2.9965859,53.8026967],[-2.9965508,53.8027636],[-2.996709,53.8027921],[-2.9967573,53.8028103],[-2.9967774,53.8028365],[-2.9967761,53.8028515],[-2.9968709,53.8028632],[-2.996945,53.8028745],[-2.9969182,53.8029331],[-2.9969793,53.8029425],[-2.9970631,53.8029584]]]}},
{"type":"Feature","properties":{"highway":"cycleway","name":null,"category":"Dedicated cycleway"},"geometry":{"type":"MultiLineString","coordinates":[[[-2.9968301,53.802958],[-2.9967506,53.8029418],[-2.9967761,53.8028515]]]}},
{"type":"Feature","properties":{"highway":"cycleway","name":null,"category":"Dedicated cycleway"},"geometry":{"type":"MultiLineString","coordinates":[[[-2.9965508,53.8027636],[-2.9964126,53.8027367],[-2.9963871,53.8027177],[-2.9964125,53.8026617]]]}},
{"type":"Feature","properties":{"highway":"cycleway","name":null,"category":"Dedicated cycleway"},"geometry":{"type":"MultiLineString","coordinates":[[[-2.9963796,53.8025446],[-2.9964153,53.8024896],[-2.9967707,53.8025672]]]}},
{"type":"Feature","properties":{"highway":"cycleway","name":null,"category":"Dedicated cycleway"},"geometry":{"type":"MultiLineString","coordinates":[[[-2.9974622,53.802848],[-2.9974278,53.8029315],[-2.9972575,53.8029101],[-2.9971945,53.8028998],[-2.9971355,53.802907],[-2.997102,53.8029196],[-2.9970805,53.8029355],[-2.9970631,53.8029584],[-2.9970403,53.8030012],[-2.9970108,53.8030083],[-2.9969499,53.8030025]]]}},
{"type":"Feature","properties":{"highway":"cycleway","name":null,"category":"Dedicated cycleway"},"geometry":{"type":"MultiLineString","coordinates":[[[-3.0140224,53.8250744],[-3.0139138,53.8251298],[-3.0138857,53.8251338],[-3.0138575,53.8251362],[-3.0138293,53.8251275],[-3.0137878,53.8251045],[-3.0137587,53.8251217]]]}},
{"type":"Feature","properties":{"highway":"cycleway","name":null,"category":"Dedicated cycleway"},"geometry":{"type":"MultiLineString","coordinates":[[[-3.0141592,53.8251568],[-3.0139715,53.825262],[-3.0139581,53.8252763],[-3.0139661,53.8253008],[-3.013941,53.8253143]]]}},
{"type":"Feature","properties":{"highway":"path","name":null,"category":"Shared path"},"geometry":{"type":"MultiLineString","coordinates":[[[-3.0159399,53.8277337],[-3.0154282,53.8276526],[-3.0149594,53.8277857]]]}}
]
}
