{
"type": "FeatureCollection",
"name": "TRAFF_47_walking",
"crs": { "type": "name", "properties": { "name": "urn:ogc:def:crs:OGC:1.3:CRS84" } },
"features": [
{"type":"Feature","properties":{"highway":"footway","name":"Jack Lane","category":"Footpath (pedestrian only)"},"geometry":{"type":"MultiLineString","coordinates":[[[-2.4005171,53.4460265],[-2.40056,53.4459643],[-2.4006283,53.4458652],[-2.4006042,53.44571],[-2.4003797,53.4450179],[-2.4016101,53.4448078],[-2.4032219,53.4446798],[-2.4032086,53.4440352],[-2.4032799,53.4439759]]]}},
{"type":"Feature","properties":{"highway":"footway","name":null,"category":"Footpath (pedestrian only)"},"geometry":{"type":"MultiLineString","coordinates":[[[-2.397989,53.4477944],[-2.3980169,53.4472044],[-2.3979771,53.4465937],[-2.3979855,53.4465135],[-2.3979948,53.4464246],[-2.3980361,53.4462978],[-2.3981878,53.4462179],[-2.3983632,53.446138],[-2.3984616,53.4459736],[-2.3985894,53.4456421]]]}},
{"type":"Feature","properties":{"highway":"footway","name":null,"category":"Footpath (pedestrian only)"},"geometry":{"type":"MultiLineString","coordinates":[[[-2.3990743,53.4528612],[-2.3988761,53.4529395],[-2.3987153,53.4530906],[-2.3974339,53.4542948],[-2.3974247,53.4543034],[-2.3972552,53.454462],[-2.3972015,53.4544766],[-2.3970782,53.4545931]]]}},
{"type":"Feature","properties":{"highway":"footway","name":null,"category":"Footpath (pedestrian only)"},"geometry":{"type":"MultiLineString","coordinates":[[[-2.4010768,53.4512199],[-2.4010901,53.4512436],[-2.4010901,53.4512655],[-2.4008103,53.4515312],[-2.4007152,53.4516187],[-2.4003924,53.4519164],[-2.4002637,53.452035],[-2.3993157,53.4528082],[-2.3992624,53.4528363],[-2.3991967,53.4528396]]]}},
{"type":"Feature","properties":{"highway":"footway","name":null,"category":"Footpath (pedestrian only)"},"geometry":{"type":"MultiLineString","coordinates":[[[-2.4007554,53.4515185],[-2.4008103,53.4515312]]]}},
{"type":"Feature","properties":{"highway":"footway","name":null,"category":"Footpath (pedestrian only)"},"geometry":{"type":"MultiLineString","coordinates":[[[-2.4003217,53.4518906],[-2.4003924,53.4519164]]]}},
{"type":"Feature","properties":{"highway":"footway","name":null,"category":"Footpath (pedestrian only)"},"geometry":{"type":"MultiLineString","coordinates":[[[-2.4002637,53.452035],[-2.4001997,53.4520118]]]}},
{"type":"Feature","properties":{"highway":"footway","name":null,"category":"Footpath (pedestrian only)"},"geometry":{"type":"MultiLineString","coordinates":[[[-2.4007152,53.4516187],[-2.4006754,53.4515956]]]}},
{"type":"Feature","properties":{"highway":"footway","name":null,"category":"Footpath (pedestrian only)"},"geometry":{"type":"MultiLineString","coordinates":[[[-2.3992411,53.4458237],[-2.3991604,53.4458041],[-2.3989586,53.4457729],[-2.3988973,53.4457861],[-2.3986758,53.4457358],[-2.3985894,53.4456421]]]}},
{"type":"Feature","properties":{"highway":"footway","name":null,"category":"Footpath (pedestrian only)"},"geometry":{"type":"MultiLineString","coordinates":[[[-2.3985894,53.4456421],[-2.3985757,53.4456366],[-2.3983386,53.4455406],[-2.3982961,53.4455234],[-2.3976603,53.4454656],[-2.3974924,53.4454529],[-2.3968935,53.4454078],[-2.3959908,53.4453442],[-2.395588,53.4452806],[-2.3952677,53.4452025],[-2.3949037,53.4450609],[-2.3944038,53.4448383],[-2.3936613,53.4445868],[-2.3934671,53.4448383],[-2.3932536,53.4450349],[-2.3930352,53.4451389],[-2.3928362,53.445165],[-2.3926324,53.4451707],[-2.3924188,53.4451447],[-2.3922781,53.4450754],[-2.3921955,53.4449966],[-2.3921269,53.4449701],[-2.3920849,53.4449683],[-2.3919244,53.4449744],[-2.3917923,53.4449987],[-2.3915847,53.4450424],[-2.3913811,53.445101],[-2.3911755,53.4451381],[-2.390983,53.4451573]]]}},
{"type":"Feature","properties":{"highway":"footway","name":null,"category":"Footpath (pedestrian only)"},"geometry":{"type":"MultiLineString","coordinates":[[[-2.3949418,53.442901],[-2.3957442,53.443169],[-2.3960385,53.443226],[-2.3966932,53.443226],[-2.3976053,53.4431865],[-2.3977827,53.4431865],[-2.3979878,53.4431865],[-2.3984136,53.4432134],[-2.3984733,53.4432172],[-2.3989,53.4432041],[-2.3993928,53.4431384],[-2.3997827,53.4430902],[-2.3999403,53.4430508],[-2.4000108,53.4430332],[-2.400077,53.4429587],[-2.4001432,53.4428667],[-2.4001137,53.442709],[-2.4015555,53.4426871],[-2.4031492,53.4428634]]]}},
{"type":"Feature","properties":{"highway":"footway","name":null,"category":"Footpath (pedestrian only)"},"geometry":{"type":"MultiLineString","coordinates":[[[-2.4001137,53.442709],[-2.4000439,53.4427144],[-2.3999916,53.4427211],[-2.3995752,53.4425102],[-2.3990917,53.4423748],[-2.3987651,53.442287],[-2.398509,53.4421726],[-2.3980767,53.4419514],[-2.3978803,53.441839],[-2.3979455,53.4416564],[-2.3979249,53.4415711]]]}},
{"type":"Feature","properties":{"highway":"footway","name":null,"category":"Footpath (pedestrian only)"},"geometry":{"type":"MultiLineString","coordinates":[[[-2.4000108,53.4430332],[-2.4002947,53.4449389],[-2.4003797,53.4450179]]]}},
{"type":"Feature","properties":{"highway":"footway","name":null,"category":"Footpath (pedestrian only)"},"geometry":{"type":"MultiLineString","coordinates":[[[-2.3905793,53.4516645],[-2.3905111,53.4516679],[-2.3901213,53.4516866],[-2.3897198,53.4516967]]]}},
{"type":"Feature","properties":{"highway":"footway","name":null,"category":"Footpath (pedestrian only)"},"geometry":{"type":"MultiLineString","coordinates":[[[-2.4008069,53.4462861],[-2.4007958,53.4462048],[-2.4008413,53.446067],[-2.4008668,53.4460409],[-2.4010423,53.4458614],[-2.401112,53.4457201]]]}},
{"type":"Feature","properties":{"highway":"footway","name":null,"category":"Footpath (pedestrian only)"},"geometry":{"type":"MultiLineString","coordinates":[[[-2.40056,53.4459643],[-2.4008668,53.4460409]]]}},
{"type":"Feature","properties":{"highway":"footway","name":null,"category":"Footpath (pedestrian only)"},"geometry":{"type":"MultiLineString","coordinates":[[[-2.4018129,53.446515],[-2.4020915,53.4465532],[-2.4023136,53.4465633],[-2.4023761,53.446586],[-2.4030988,53.4466117],[-2.4031759,53.4466651],[-2.4033181,53.446799],[-2.403366,53.4468421]]]}},
{"type":"Feature","properties":{"highway":"track","name":null,"category":"Track"},"geometry":{"type":"MultiLineString","coordinates":[[[-2.4083562,53.445551],[-2.4083728,53.4457321],[-2.4082968,53.4462828],[-2.4082642,53.4463364],[-2.4082363,53.446427],[-2.4082446,53.4464597],[-2.408274,53.4464862],[-2.4083357,53.4465072],[-2.4083771,53.446522],[-2.4083974,53.4465507],[-2.4083952,53.4465861],[-2.4083432,53.4467749],[-2.408286,53.4469009],[-2.4081754,53.447035]]]}},
{"type":"Feature","properties":{"highway":"track","name":null,"category":"Track"},"geometry":{"type":"MultiLineString","coordinates":[[[-2.408563,53.4455383],[-2.4083239,53.4444942],[-2.4082208,53.4443888],[-2.4081726,53.4443049],[-2.4081267,53.4441686],[-2.408077,53.4439542]]]}},
{"type":"Feature","properties":{"highway":"path","name":null,"category":"Shared path"},"geometry":{"type":"MultiLineString","coordinates":[[[-2.3912183,53.4509023],[-2.3913855,53.45129],[-2.391414,53.4513618]]]}},
{"type":"Feature","properties":{"highway":"path","name":null,"category":"Shared path"},"geometry":{"type":"MultiLineString","coordinates":[[[-2.3932928,53.4529956],[-2.393143,53.4531182],[-2.392998,53.4532644],[-2.3929394,53.453427]]]}},
{"type":"Feature","properties":{"highway":"path","name":null,"category":"Shared path"},"geometry":{"type":"MultiLineString","coordinates":[[[-2.393143,53.4531182],[-2.3926769,53.452873]]]}},
{"type":"Feature","properties":{"highway":"path","name":null,"category":"Shared path"},"geometry":{"type":"MultiLineString","coordinates":[[[-2.3928141,53.4537792],[-2.3932516,53.4538376],[-2.3942842,53.4542149],[-2.3936447,53.4548162],[-2.3931753,53.4548703]]]}},
{"type":"Feature","properties":{"highway":"footway","name":null,"category":"Footpath (pedestrian only)"},"geometry":{"type":"MultiLineString","coordinates":[[[-2.3937395,53.4522062],[-2.3933951,53.4521406],[-2.3932553,53.452114],[-2.3927326,53.4520144]]]}},
{"type":"Feature","properties":{"highway":"footway","name":null,"category":"Footpath (pedestrian only)"},"geometry":{"type":"MultiLineString","coordinates":[[[-2.3940544,53.4520858],[-2.3939795,53.4520117],[-2.3935474,53.4519236],[-2.3933788,53.4518892],[-2.3933124,53.4518757],[-2.3931749,53.4518479],[-2.3929492,53.4518024],[-2.3929267,53.4517931],[-2.3929076,53.4517794],[-2.3929001,53.4517635],[-2.3929017,53.4517466],[-2.3930703,53.4514351],[-2.3935872,53.4515402],[-2.3941845,53.4516616]]]}},
{"type":"Feature","properties":{"highway":"footway","name":null,"category":"Footpath (pedestrian only)"},"geometry":{"type":"MultiLineString","coordinates":[[[-2.3933124,53.4518757],[-2.3933646,53.4520424],[-2.3933951,53.4521406]]]}},
{"type":"Feature","properties":{"highway":"footway","name":null,"category":"Footpath (pedestrian only)"},"geometry":{"type":"MultiLineString","coordinates":[[[-2.3935474,53.4519236],[-2.3933646,53.4520424],[-2.3932553,53.452114]]]}},
{"type":"Feature","properties":{"highway":"footway","name":null,"category":"Footpath (pedestrian only)"},"geometry":{"type":"MultiLineString","coordinates":[[[-2.3942169,53.4516062],[-2.3942036,53.4516289],[-2.3941845,53.4516616],[-2.3941131,53.4517835],[-2.3939795,53.4520117]]]}},
{"type":"Feature","properties":{"highway":"footway","name":null,"category":"Footpath (pedestrian only)"},"geometry":{"type":"MultiLineString","coordinates":[[[-2.3941845,53.4516616],[-2.3939288,53.4517174],[-2.3937658,53.4517452],[-2.3936304,53.4517659],[-2.3935624,53.4517776],[-2.393504,53.451795],[-2.393454,53.4518237],[-2.3934112,53.4518565],[-2.3933788,53.4518892]]]}},
{"type":"Feature","properties":{"highway":"footway","name":null,"category":"Footpath (pedestrian only)"},"geometry":{"type":"MultiLineString","coordinates":[[[-2.3937658,53.4517452],[-2.3937467,53.4517183],[-2.3937205,53.4516916],[-2.3936452,53.4517198],[-2.3935561,53.451735],[-2.393476,53.451735],[-2.393455,53.4517332],[-2.3933803,53.4517218],[-2.3933221,53.451706],[-2.3932763,53.45168]]]}},
{"type":"Feature","properties":{"highway":"footway","name":null,"category":"Footpath (pedestrian only)"},"geometry":{"type":"MultiLineString","coordinates":[[[-2.3931808,53.4518371],[-2.3931749,53.4518479]]]}},
{"type":"Feature","properties":{"highway":"footway","name":null,"category":"Footpath (pedestrian only)"},"geometry":{"type":"MultiLineString","coordinates":[[[-2.393476,53.451735],[-2.3935872,53.4515402]]]}},
{"type":"Feature","properties":{"highway":"footway","name":null,"category":"Footpath (pedestrian only)"},"geometry":{"type":"MultiLineString","coordinates":[[[-2.3933528,53.4529244],[-2.3932268,53.4527962],[-2.3933116,53.4526568],[-2.3934555,53.4524131],[-2.3935034,53.4523415],[-2.3935276,53.4522735]]]}},
{"type":"Feature","properties":{"highway":"footway","name":null,"category":"Footpath (pedestrian only)"},"geometry":{"type":"MultiLineString","coordinates":[[[-2.3934555,53.4524131],[-2.39334,53.4523638]]]}},
{"type":"Feature","properties":{"highway":"footway","name":null,"category":"Footpath (pedestrian only)"},"geometry":{"type":"MultiLineString","coordinates":[[[-2.3934555,53.4524131],[-2.3935473,53.452579],[-2.394147,53.4523789],[-2.3942372,53.452348]]]}},
{"type":"Feature","properties":{"highway":"footway","name":null,"category":"Footpath (pedestrian only)"},"geometry":{"type":"MultiLineString","coordinates":[[[-2.3935473,53.452579],[-2.3934709,53.4526045],[-2.3933116,53.4526568]]]}},
{"type":"Feature","properties":{"highway":"path","name":null,"category":"Shared path"},"geometry":{"type":"MultiLineString","coordinates":[[[-2.3950549,53.4545426],[-2.3945412,53.4550317]]]}},
{"type":"Feature","properties":{"highway":"path","name":null,"category":"Shared path"},"geometry":{"type":"MultiLineString","coordinates":[[[-2.3954728,53.4540978],[-2.3969775,53.4546855]]]}},
{"type":"Feature","properties":{"highway":"path","name":null,"category":"Shared path"},"geometry":{"type":"MultiLineString","coordinates":[[[-2.3937566,53.4534604],[-2.395347,53.4540615]]]}},
{"type":"Feature","properties":{"highway":"path","name":null,"category":"Shared path"},"geometry":{"type":"MultiLineString","coordinates":[[[-2.3950897,53.4565569],[-2.3952768,53.4565218],[-2.3952202,53.4564402],[-2.3952356,53.456428],[-2.3954247,53.4562196],[-2.3957962,53.4560919]]]}},
{"type":"Feature","properties":{"highway":"footway","name":null,"category":"Footpath (pedestrian only)"},"geometry":{"type":"MultiLineString","coordinates":[[[-2.3959303,53.4562851],[-2.3957962,53.4560919],[-2.3956504,53.4558798]]]}},
{"type":"Feature","properties":{"highway":"path","name":null,"category":"Shared path"},"geometry":{"type":"MultiLineString","coordinates":[[[-2.3942842,53.4542149],[-2.3944983,53.4541877],[-2.3947319,53.4541355]]]}},
{"type":"Feature","properties":{"highway":"path","name":null,"category":"Shared path"},"geometry":{"type":"MultiLineString","coordinates":[[[-2.3947319,53.4541355],[-2.3948341,53.4541498],[-2.3951881,53.4542728]]]}},
{"type":"Feature","properties":{"highway":"path","name":null,"category":"Shared path"},"geometry":{"type":"MultiLineString","coordinates":[[[-2.3936447,53.4548162],[-2.3939557,53.4549466]]]}},
{"type":"Feature","properties":{"highway":"footway","name":null,"category":"Footpath (pedestrian only)"},"geometry":{"type":"MultiLineString","coordinates":[[[-2.3951541,53.4559081],[-2.3944868,53.4559905]]]}},
{"type":"Feature","properties":{"highway":"footway","name":null,"category":"Footpath (pedestrian only)"},"geometry":{"type":"MultiLineString","coordinates":[[[-2.3955235,53.4486352],[-2.3955023,53.4485229],[-2.3954834,53.4484994],[-2.3952834,53.4482513],[-2.395255,53.447949]]]}},
{"type":"Feature","properties":{"highway":"footway","name":null,"category":"Footpath (pedestrian only)"},"geometry":{"type":"MultiLineString","coordinates":[[[-2.3952834,53.4482513],[-2.3948491,53.4482738]]]}},
{"type":"Feature","properties":{"highway":"footway","name":null,"category":"Footpath (pedestrian only)"},"geometry":{"type":"MultiLineString","coordinates":[[[-2.3952603,53.4485115],[-2.3954834,53.4484994],[-2.3955829,53.4484924],[-2.3960784,53.4484571],[-2.3961514,53.4484999],[-2.3963474,53.4484884],[-2.3970355,53.4484678]]]}},
{"type":"Feature","properties":{"highway":"path","name":null,"category":"Shared path"},"geometry":{"type":"MultiLineString","coordinates":[[[-2.3977827,53.4431865],[-2.3977645,53.4433873],[-2.3976947,53.4435739],[-2.3976067,53.4436838],[-2.3974962,53.4438212]]]}},
{"type":"Feature","properties":{"highway":"path","name":null,"category":"Shared path"},"geometry":{"type":"MultiLineString","coordinates":[[[-2.3984136,53.4432134],[-2.3985418,53.4433406],[-2.398692,53.443485],[-2.398825,53.4437336],[-2.3988872,53.4439215],[-2.3989055,53.4441094],[-2.3988947,53.4442461],[-2.3989065,53.4443445],[-2.3989275,53.4444947],[-2.3988609,53.4446902],[-2.3988931,53.4448155],[-2.3988202,53.4449484],[-2.3988366,53.4451731],[-2.3988438,53.4452717],[-2.3988068,53.4453593],[-2.3987443,53.4455314],[-2.3985757,53.4456366]]]}},
{"type":"Feature","properties":{"highway":"path","name":null,"category":"Shared path"},"geometry":{"type":"MultiLineString","coordinates":[[[-2.3974962,53.4438212],[-2.3975627,53.4439995],[-2.3975091,53.4444327],[-2.3975327,53.444549],[-2.3975134,53.4450551],[-2.3974924,53.4454529]]]}},
{"type":"Feature","properties":{"highway":"path","name":null,"category":"Shared path"},"geometry":{"type":"MultiLineString","coordinates":[[[-2.3999403,53.4430508],[-2.3999341,53.4430446],[-2.3998818,53.4429917],[-2.399885,53.4429495],[-2.3999916,53.4427211]]]}},
{"type":"Feature","properties":{"highway":"track","name":null,"category":"Track"},"geometry":{"type":"MultiLineString","coordinates":[[[-2.4089638,53.4444048],[-2.4088686,53.4443247],[-2.408835,53.4442456],[-2.4088314,53.4441687],[-2.4088403,53.4440875],[-2.4088686,53.4440316],[-2.4089441,53.4440088]]]}},
{"type":"Feature","properties":{"highway":"path","name":null,"category":"Shared path"},"geometry":{"type":"MultiLineString","coordinates":[[[-2.3988366,53.4451731],[-2.3987355,53.4451947],[-2.3983694,53.4454975],[-2.3983386,53.4455406]]]}},
{"type":"Feature","properties":{"highway":"path","name":null,"category":"Shared path"},"geometry":{"type":"MultiLineString","coordinates":[[[-2.3974924,53.4454529],[-2.3977642,53.4458293],[-2.3978272,53.4459842],[-2.397878,53.4461719],[-2.397876,53.4463293],[-2.3979207,53.4464249],[-2.3979855,53.4465135]]]}},
{"type":"Feature","properties":{"highway":"path","name":null,"category":"Shared path"},"geometry":{"type":"MultiLineString","coordinates":[[[-2.3988451,53.4488864],[-2.3985845,53.4489639],[-2.39878,53.449204]]]}},
{"type":"Feature","properties":{"highway":"path","name":null,"category":"Shared path"},"geometry":{"type":"MultiLineString","coordinates":[[[-2.3957156,53.4519078],[-2.3959559,53.4517676],[-2.3962313,53.4518814],[-2.3965085,53.4519312],[-2.3967018,53.451966]]]}},
{"type":"Feature","properties":{"highway":"track","name":null,"category":"Track"},"geometry":{"type":"MultiLineString","coordinates":[[[-2.4050699,53.4485841],[-2.4050681,53.4486143],[-2.4050956,53.4486558],[-2.4052316,53.4488544]]]}},
{"type":"Feature","properties":{"highway":"track","name":null,"category":"Track"},"geometry":{"type":"MultiLineString","coordinates":[[[-2.4027325,53.4488929],[-2.4027154,53.4489558],[-2.4026838,53.4489804],[-2.4025581,53.4490199],[-2.4024173,53.4490383]]]}},
{"type":"Feature","properties":{"highway":"path","name":null,"category":"Shared path"},"geometry":{"type":"MultiLineString","coordinates":[[[-2.3970953,53.4500658],[-2.3967946,53.4500239]]]}},
{"type":"Feature","properties":{"highway":"path","name":null,"category":"Shared path"},"geometry":{"type":"MultiLineString","coordinates":[[[-2.401812,53.4498876],[-2.4022248,53.4497032]]]}},
{"type":"Feature","properties":{"highway":"path","name":null,"category":"Shared path"},"geometry":{"type":"MultiLineString","coordinates":[[[-2.3962313,53.4518814],[-2.3961332,53.4519954],[-2.3963131,53.4521089],[-2.3958692,53.4525253]]]}},
{"type":"Feature","properties":{"highway":"path","name":null,"category":"Shared path"},"geometry":{"type":"MultiLineString","coordinates":[[[-2.3963131,53.4521089],[-2.3965085,53.4519312],[-2.3967466,53.4517147]]]}},
{"type":"Feature","properties":{"highway":"path","name":null,"category":"Shared path"},"geometry":{"type":"MultiLineString","coordinates":[[[-2.3944849,53.4518977],[-2.3944977,53.4519604],[-2.3945421,53.4520454],[-2.3946385,53.452158],[-2.3945106,53.4521983]]]}},
{"type":"Feature","properties":{"highway":"path","name":null,"category":"Shared path"},"geometry":{"type":"MultiLineString","coordinates":[[[-2.3946997,53.4524525],[-2.3946598,53.4524301],[-2.3944746,53.4522311],[-2.394528,53.4522118]]]}},
{"type":"Feature","properties":{"highway":"path","name":null,"category":"Shared path"},"geometry":{"type":"MultiLineString","coordinates":[[[-2.3977214,53.4527871],[-2.3975195,53.4529703]]]}},
{"type":"Feature","properties":{"highway":"path","name":null,"category":"Shared path"},"geometry":{"type":"MultiLineString","coordinates":[[[-2.3973936,53.4526564],[-2.3971895,53.4528494]]]}},
{"type":"Feature","properties":{"highway":"path","name":null,"category":"Shared path"},"geometry":{"type":"MultiLineString","coordinates":[[[-2.3973936,53.4526564],[-2.3976206,53.4524497],[-2.3979087,53.4525558]]]}},
{"type":"Feature","properties":{"highway":"path","name":null,"category":"Shared path"},"geometry":{"type":"MultiLineString","coordinates":[[[-2.3967916,53.4524916],[-2.3967136,53.4523266],[-2.396436,53.4522235]]]}},
{"type":"Feature","properties":{"highway":"path","name":null,"category":"Shared path"},"geometry":{"type":"MultiLineString","coordinates":[[[-2.3987153,53.4530906],[-2.3984762,53.4530031],[-2.398226,53.4530529]]]}},
{"type":"Feature","properties":{"highway":"path","name":null,"category":"Shared path"},"geometry":{"type":"MultiLineString","coordinates":[[[-2.3971254,53.4541266],[-2.3971548,53.454209],[-2.3974247,53.4543034]]]}},
{"type":"Feature","properties":{"highway":"path","name":null,"category":"Shared path"},"geometry":{"type":"MultiLineString","coordinates":[[[-2.39669,53.4537631],[-2.3965071,53.453936]]]}},
{"type":"Feature","properties":{"highway":"path","name":null,"category":"Shared path"},"geometry":{"type":"MultiLineString","coordinates":[[[-2.3964883,53.4539289],[-2.396434,53.4539868],[-2.396294,53.4541245],[-2.3960113,53.4540125]]]}},
{"type":"Feature","properties":{"highway":"path","name":null,"category":"Shared path"},"geometry":{"type":"MultiLineString","coordinates":[[[-2.3956234,53.4535527],[-2.3954943,53.4535761],[-2.3954109,53.4535723],[-2.3951406,53.4534689]]]}},
{"type":"Feature","properties":{"highway":"footway","name":null,"category":"Footpath (pedestrian only)"},"geometry":{"type":"MultiLineString","coordinates":[[[-2.4038284,53.4421984],[-2.4026098,53.441829],[-2.402313,53.4416629],[-2.4015298,53.4413071],[-2.4014153,53.4412091],[-2.4012781,53.4410545]]]}}
]
}
