{
"type": "FeatureCollection",
"name": "TRAFF_38_walking",
"crs": { "type": "name", "properties": { "name": "urn:ogc:def:crs:OGC:1.3:CRS84" } },
"features": [
{"type":"Feature","properties":{"highway":"path","name":null,"category":"Shared path"},"geometry":{"type":"MultiLineString","coordinates":[[[-2.3441574,53.3928842],[-2.3442157,53.3929313],[-2.3441174,53.393148],[-2.3440475,53.3931654]]]}},
{"type":"Feature","properties":{"highway":"footway","name":null,"category":"Footpath (pedestrian only)"},"geometry":{"type":"MultiLineString","coordinates":[[[-2.3586121,53.3860465],[-2.3581415,53.3852363]]]}},
{"type":"Feature","properties":{"highway":"footway","name":null,"category":"Footpath (pedestrian only)"},"geometry":{"type":"MultiLineString","coordinates":[[[-2.35105,53.3870005],[-2.3506462,53.3868583],[-2.3505762,53.3868336]]]}},
{"type":"Feature","properties":{"highway":"footway","name":null,"category":"Footpath (pedestrian only)"},"geometry":{"type":"MultiLineString","coordinates":[[[-2.3518761,53.3865503],[-2.3517741,53.3865129]]]}},
{"type":"Feature","properties":{"highway":"footway","name":"Mount Terrace","category":"Footpath (pedestrian only)"},"geometry":{"type":"MultiLineString","coordinates":[[[-2.3516132,53.3864542],[-2.3512724,53.3863293],[-2.3511927,53.3863001]]]}},
{"type":"Feature","properties":{"highway":"path","name":null,"category":"Shared path"},"geometry":{"type":"MultiLineString","coordinates":[[[-2.3503663,53.3884412],[-2.3502928,53.3885739]]]}},
{"type":"Feature","properties":{"highway":"footway","name":null,"category":"Footpath (pedestrian only)"},"geometry":{"type":"MultiLineString","coordinates":[[[-2.3490189,53.3893384],[-2.34901,53.3892967],[-2.3489416,53.388975],[-2.3489204,53.3888793],[-2.3489008,53.3888607],[-2.3488707,53.3888321]]]}},
{"type":"Feature","properties":{"highway":"footway","name":null,"category":"Footpath (pedestrian only)"},"geometry":{"type":"MultiLineString","coordinates":[[[-2.3486084,53.3903991],[-2.3485625,53.3903384]]]}},
{"type":"Feature","properties":{"highway":"footway","name":null,"category":"Footpath (pedestrian only)"},"geometry":{"type":"MultiLineString","coordinates":[[[-2.3499038,53.3865599],[-2.349861,53.3865458],[-2.3498058,53.3866429],[-2.3497764,53.3866368],[-2.3498392,53.3865171]]]}},
{"type":"Feature","properties":{"highway":"footway","name":null,"category":"Footpath (pedestrian only)"},"geometry":{"type":"MultiLineString","coordinates":[[[-2.3505861,53.3862607],[-2.3505422,53.3861863],[-2.3507021,53.3860101]]]}},
{"type":"Feature","properties":{"highway":"footway","name":null,"category":"Footpath (pedestrian only)"},"geometry":{"type":"MultiLineString","coordinates":[[[-2.3512996,53.3862094],[-2.3507703,53.3860329],[-2.3507021,53.3860101]]]}},
{"type":"Feature","properties":{"highway":"footway","name":"The Causeway","category":"Footpath (pedestrian only)"},"geometry":{"type":"MultiLineString","coordinates":[[[-2.3508911,53.3865517],[-2.3508469,53.386534]]]}},
{"type":"Feature","properties":{"highway":"footway","name":null,"category":"Footpath (pedestrian only)"},"geometry":{"type":"MultiLineString","coordinates":[[[-2.3504573,53.3863782],[-2.3503646,53.3863421],[-2.3502553,53.386346],[-2.3500687,53.3862161],[-2.3500331,53.3861704]]]}},
{"type":"Feature","properties":{"highway":"footway","name":null,"category":"Footpath (pedestrian only)"},"geometry":{"type":"MultiLineString","coordinates":[[[-2.3483527,53.3883328],[-2.3478434,53.3881475]]]}},
{"type":"Feature","properties":{"highway":"footway","name":"Bridge Place","category":"Footpath (pedestrian only)"},"geometry":{"type":"MultiLineString","coordinates":[[[-2.3478504,53.3881408],[-2.3478434,53.3881475]]]}},
{"type":"Feature","properties":{"highway":"footway","name":"Bridge Place","category":"Footpath (pedestrian only)"},"geometry":{"type":"MultiLineString","coordinates":[[[-2.3478434,53.3881475],[-2.3477766,53.3882138]]]}},
{"type":"Feature","properties":{"highway":"footway","name":"Bridge Place","category":"Footpath (pedestrian only)"},"geometry":{"type":"MultiLineString","coordinates":[[[-2.3476108,53.388317],[-2.347622,53.3883209],[-2.3476315,53.3883241],[-2.3476991,53.3882573],[-2.3477766,53.3882138]]]}},
{"type":"Feature","properties":{"highway":"footway","name":null,"category":"Footpath (pedestrian only)"},"geometry":{"type":"MultiLineString","coordinates":[[[-2.3466288,53.3894697],[-2.3463912,53.3895316]]]}},
{"type":"Feature","properties":{"highway":"footway","name":null,"category":"Footpath (pedestrian only)"},"geometry":{"type":"MultiLineString","coordinates":[[[-2.3454619,53.3898279],[-2.3455611,53.3898373],[-2.3456198,53.3898666],[-2.3456928,53.3899162],[-2.3457043,53.3899425],[-2.3457085,53.3899724],[-2.3457037,53.3899949],[-2.3456866,53.3900277],[-2.3456498,53.3900687],[-2.3455685,53.3901389],[-2.34546,53.3901216]]]}},
{"type":"Feature","properties":{"highway":"footway","name":"Stockport Road Footbridge","category":"Footpath (pedestrian only)"},"geometry":{"type":"MultiLineString","coordinates":[[[-2.3463912,53.3895316],[-2.3463251,53.3896555],[-2.3462745,53.3896456],[-2.3460492,53.3900765],[-2.3457882,53.3900259],[-2.3457499,53.3900189]]]}},
{"type":"Feature","properties":{"highway":"footway","name":null,"category":"Footpath (pedestrian only)"},"geometry":{"type":"MultiLineString","coordinates":[[[-2.3457729,53.3898819],[-2.3458078,53.3898879],[-2.3457972,53.3899123],[-2.3457905,53.3899281]]]}},
{"type":"Feature","properties":{"highway":"footway","name":null,"category":"Footpath (pedestrian only)"},"geometry":{"type":"MultiLineString","coordinates":[[[-2.3479746,53.3969399],[-2.3477972,53.3972088],[-2.3477089,53.3972189]]]}},
{"type":"Feature","properties":{"highway":"footway","name":null,"category":"Footpath (pedestrian only)"},"geometry":{"type":"MultiLineString","coordinates":[[[-2.3509457,53.3957018],[-2.3509256,53.3961895]]]}},
{"type":"Feature","properties":{"highway":"footway","name":null,"category":"Footpath (pedestrian only)"},"geometry":{"type":"MultiLineString","coordinates":[[[-2.35793,53.3933978],[-2.3573314,53.3930634]]]}},
{"type":"Feature","properties":{"highway":"footway","name":null,"category":"Footpath (pedestrian only)"},"geometry":{"type":"MultiLineString","coordinates":[[[-2.3544873,53.3918466],[-2.3540248,53.3916055]]]}},
{"type":"Feature","properties":{"highway":"footway","name":"Church Walk","category":"Footpath (pedestrian only)"},"geometry":{"type":"MultiLineString","coordinates":[[[-2.3518221,53.38979],[-2.3518431,53.3898063],[-2.3519669,53.3898863],[-2.3520715,53.3899552],[-2.3523585,53.3902124],[-2.3524157,53.3902426],[-2.3525151,53.3902929]]]}},
{"type":"Feature","properties":{"highway":"footway","name":null,"category":"Footpath (pedestrian only)"},"geometry":{"type":"MultiLineString","coordinates":[[[-2.35793,53.3933978],[-2.3581336,53.3935034],[-2.3581422,53.3935392],[-2.358216,53.393576],[-2.358599,53.393646],[-2.359232,53.393925],[-2.35964,53.393986],[-2.3597108,53.3940243]]]}},
{"type":"Feature","properties":{"highway":"footway","name":null,"category":"Footpath (pedestrian only)"},"geometry":{"type":"MultiLineString","coordinates":[[[-2.3597108,53.3940243],[-2.3597773,53.394073],[-2.3601724,53.3943215],[-2.3602813,53.39439],[-2.3602757,53.3944806]]]}},
{"type":"Feature","properties":{"highway":"footway","name":null,"category":"Footpath (pedestrian only)"},"geometry":{"type":"MultiLineString","coordinates":[[[-2.3664302,53.3931204],[-2.3662112,53.3931572],[-2.3660782,53.3931748],[-2.3658986,53.3931287]]]}},
{"type":"Feature","properties":{"highway":"footway","name":null,"category":"Footpath (pedestrian only)"},"geometry":{"type":"MultiLineString","coordinates":[[[-2.3659527,53.3935294],[-2.3659511,53.3934831],[-2.3659497,53.3934412],[-2.3659434,53.3932853],[-2.3659239,53.393242],[-2.3658986,53.3931287]]]}},
{"type":"Feature","properties":{"highway":"footway","name":null,"category":"Footpath (pedestrian only)"},"geometry":{"type":"MultiLineString","coordinates":[[[-2.3661898,53.392394],[-2.3660721,53.3924223],[-2.3658844,53.392421],[-2.3658262,53.3924066],[-2.3657764,53.3923943],[-2.3657415,53.392391],[-2.3657044,53.3923787],[-2.3656564,53.3923598],[-2.3656105,53.3923312],[-2.3655069,53.3922264],[-2.3654698,53.3921984],[-2.3654003,53.3922043]]]}},
{"type":"Feature","properties":{"highway":"footway","name":null,"category":"Footpath (pedestrian only)"},"geometry":{"type":"MultiLineString","coordinates":[[[-2.3658844,53.392421],[-2.3658809,53.3924538],[-2.3658809,53.3924794],[-2.3658784,53.3925148],[-2.3658631,53.3925545],[-2.3658391,53.392589],[-2.3658042,53.392656],[-2.3657951,53.3926842],[-2.3657865,53.3927251],[-2.3658037,53.3927712],[-2.3658209,53.3928121],[-2.3658466,53.3928428],[-2.3658552,53.3928787],[-2.3658809,53.3929094],[-2.3658981,53.3929401],[-2.3659078,53.3929749],[-2.3659135,53.3930059],[-2.3658986,53.3931287]]]}},
{"type":"Feature","properties":{"highway":"footway","name":null,"category":"Footpath (pedestrian only)"},"geometry":{"type":"MultiLineString","coordinates":[[[-2.3570186,53.3907309],[-2.3567553,53.3908451],[-2.3563776,53.3909219],[-2.3561201,53.390927],[-2.3563518,53.3917456],[-2.3565119,53.3922816],[-2.3565026,53.3923049]]]}},
{"type":"Feature","properties":{"highway":"footway","name":null,"category":"Footpath (pedestrian only)"},"geometry":{"type":"MultiLineString","coordinates":[[[-2.3564039,53.3923361],[-2.3564487,53.3923155],[-2.3565026,53.3923049],[-2.3565588,53.3923056],[-2.3566116,53.3923173],[-2.3566549,53.3923387],[-2.356684,53.3923674],[-2.3566955,53.3924002],[-2.3566883,53.3924335],[-2.356663,53.3924635],[-2.3566308,53.3924833],[-2.3565907,53.3924971],[-2.3565459,53.3925038],[-2.3565009,53.3925032],[-2.3564579,53.3924955],[-2.3564198,53.3924812],[-2.3563894,53.3924615],[-2.3563653,53.3924309],[-2.3563597,53.3923973],[-2.356373,53.3923644],[-2.3564039,53.3923361]]]}},
{"type":"Feature","properties":{"highway":"footway","name":null,"category":"Footpath (pedestrian only)"},"geometry":{"type":"MultiLineString","coordinates":[[[-2.3558247,53.3926414],[-2.3558823,53.3926627],[-2.3559114,53.3926735],[-2.3560022,53.3927312],[-2.3560333,53.3928323]]]}},
{"type":"Feature","properties":{"highway":"footway","name":null,"category":"Footpath (pedestrian only)"},"geometry":{"type":"MultiLineString","coordinates":[[[-2.356663,53.3924635],[-2.3567952,53.3924774],[-2.3568752,53.3924728],[-2.3569353,53.3924572],[-2.3570089,53.3924309],[-2.3570826,53.3923962],[-2.3571665,53.3923593],[-2.3575869,53.3921624],[-2.3576494,53.3921433],[-2.3577383,53.3921162],[-2.3580816,53.3919831],[-2.3581589,53.3919165],[-2.3581932,53.391891],[-2.3582276,53.3918602],[-2.3582408,53.3918111],[-2.3581654,53.3916711],[-2.3579277,53.3915529],[-2.3577554,53.3913883],[-2.3575881,53.3913495],[-2.3572103,53.3913787],[-2.3570496,53.3913587],[-2.3569155,53.3911828],[-2.3568288,53.3911381],[-2.3568199,53.3910925],[-2.3568199,53.3910515],[-2.3568376,53.390997],[-2.3570055,53.3908266],[-2.3570186,53.3907309]]]}},
{"type":"Feature","properties":{"highway":"footway","name":null,"category":"Footpath (pedestrian only)"},"geometry":{"type":"MultiLineString","coordinates":[[[-2.3561371,53.392659],[-2.3560333,53.3928323],[-2.3558456,53.3930285],[-2.3556999,53.3931404],[-2.3557326,53.3931808],[-2.3557855,53.3931992],[-2.3557624,53.3932362]]]}},
{"type":"Feature","properties":{"highway":"footway","name":null,"category":"Footpath (pedestrian only)"},"geometry":{"type":"MultiLineString","coordinates":[[[-2.3539666,53.3924036],[-2.3538844,53.3923724],[-2.3535654,53.3923799],[-2.3534721,53.3923715],[-2.3534052,53.3923487],[-2.353412,53.3923101],[-2.3534978,53.392264],[-2.3535659,53.3922076],[-2.3536437,53.3921821],[-2.353721,53.3921514],[-2.3537561,53.3921305],[-2.3537725,53.3921207],[-2.3538326,53.3921156],[-2.3538559,53.3920888],[-2.3538412,53.3920388],[-2.3536237,53.391891],[-2.3536313,53.3918462],[-2.3536481,53.3918173]]]}},
{"type":"Feature","properties":{"highway":"footway","name":null,"category":"Footpath (pedestrian only)"},"geometry":{"type":"MultiLineString","coordinates":[[[-2.3536914,53.3918155],[-2.3539012,53.3916703],[-2.3539611,53.3916398],[-2.3540248,53.3916055]]]}},
{"type":"Feature","properties":{"highway":"footway","name":null,"category":"Footpath (pedestrian only)"},"geometry":{"type":"MultiLineString","coordinates":[[[-2.3539666,53.3924036],[-2.353942,53.3923743],[-2.3539317,53.3922761],[-2.3538878,53.392213],[-2.3537561,53.3921305],[-2.353528,53.391994],[-2.3535179,53.3919116],[-2.3535541,53.3918666],[-2.353601,53.3918193],[-2.3536481,53.3918173],[-2.3536914,53.3918155]]]}},
{"type":"Feature","properties":{"highway":"footway","name":null,"category":"Footpath (pedestrian only)"},"geometry":{"type":"MultiLineString","coordinates":[[[-2.3560417,53.3906858],[-2.3561232,53.39067],[-2.356252,53.3906137],[-2.3563739,53.3905745]]]}},
{"type":"Feature","properties":{"highway":"footway","name":null,"category":"Footpath (pedestrian only)"},"geometry":{"type":"MultiLineString","coordinates":[[[-2.354708,53.3915219],[-2.3547097,53.3915229],[-2.3547104,53.3915211],[-2.3549661,53.3909981],[-2.3550589,53.3908031],[-2.3551018,53.3907622],[-2.3555138,53.3906854],[-2.3558056,53.3906393],[-2.3560288,53.3906393],[-2.3560417,53.3906858],[-2.3561201,53.390927]]]}},
{"type":"Feature","properties":{"highway":"footway","name":null,"category":"Footpath (pedestrian only)"},"geometry":{"type":"MultiLineString","coordinates":[[[-2.365263,53.3928633],[-2.3654516,53.3929584],[-2.365751,53.3930441],[-2.3658986,53.3931287]]]}},
{"type":"Feature","properties":{"highway":"footway","name":null,"category":"Footpath (pedestrian only)"},"geometry":{"type":"MultiLineString","coordinates":[[[-2.3575667,53.3916197],[-2.3572148,53.3918602],[-2.3572062,53.3918654],[-2.3572062,53.3918858],[-2.3572281,53.3918984],[-2.3576494,53.3921433]]]}},
{"type":"Feature","properties":{"highway":"footway","name":null,"category":"Footpath (pedestrian only)"},"geometry":{"type":"MultiLineString","coordinates":[[[-2.3568288,53.3911381],[-2.3566823,53.3913346],[-2.3565625,53.3914141],[-2.3564366,53.3916074],[-2.3563518,53.3917456]]]}},
{"type":"Feature","properties":{"highway":"footway","name":null,"category":"Footpath (pedestrian only)"},"geometry":{"type":"MultiLineString","coordinates":[[[-2.3658986,53.3931287],[-2.3657545,53.3932066],[-2.365744,53.3932216],[-2.3657011,53.3932677],[-2.3655895,53.3933751],[-2.3655294,53.3934263],[-2.3654779,53.3934468],[-2.365435,53.3934519]]]}},
{"type":"Feature","properties":{"highway":"footway","name":null,"category":"Footpath (pedestrian only)"},"geometry":{"type":"MultiLineString","coordinates":[[[-2.3669959,53.3893899],[-2.3672145,53.3893805],[-2.3673155,53.3893994],[-2.3675568,53.3894496],[-2.3677129,53.3895069],[-2.3680996,53.3895833],[-2.3681682,53.3896243],[-2.3681956,53.3896523],[-2.3682283,53.3896857],[-2.3683227,53.3897164],[-2.3683914,53.3897676],[-2.3684429,53.3898444],[-2.3684515,53.3899365],[-2.3684772,53.3900491],[-2.3685287,53.3901464],[-2.3686403,53.3902129],[-2.368841,53.3902289],[-2.3689407,53.390218],[-2.3691467,53.3901925],[-2.3692669,53.3901617],[-2.3693269,53.3901361],[-2.3695072,53.3901208],[-2.3695673,53.3901361],[-2.3696359,53.3901515],[-2.3696649,53.3901521],[-2.3700636,53.3900956]]]}},
{"type":"Feature","properties":{"highway":"footway","name":null,"category":"Footpath (pedestrian only)"},"geometry":{"type":"MultiLineString","coordinates":[[[-2.3681956,53.3896523],[-2.3682111,53.389614]]]}},
{"type":"Feature","properties":{"highway":"footway","name":null,"category":"Footpath (pedestrian only)"},"geometry":{"type":"MultiLineString","coordinates":[[[-2.3640275,53.3914417],[-2.3640132,53.3914598]]]}},
{"type":"Feature","properties":{"highway":"footway","name":null,"category":"Footpath (pedestrian only)"},"geometry":{"type":"MultiLineString","coordinates":[[[-2.3639211,53.3915399],[-2.3634393,53.3919596],[-2.3629514,53.3923651],[-2.3613109,53.3937028],[-2.3605823,53.3942199],[-2.3606381,53.3942523]]]}},
{"type":"Feature","properties":{"highway":"footway","name":null,"category":"Footpath (pedestrian only)"},"geometry":{"type":"MultiLineString","coordinates":[[[-2.3700398,53.3860635],[-2.3698037,53.3860579],[-2.3697265,53.3860681],[-2.3695033,53.38615],[-2.3691428,53.3862165],[-2.3688252,53.3863189],[-2.3678897,53.3865032],[-2.3675807,53.3865237],[-2.3672374,53.3866414],[-2.3666623,53.386708],[-2.366113,53.3868667],[-2.3660819,53.3869094],[-2.3660561,53.3869448]]]}},
{"type":"Feature","properties":{"highway":"path","name":null,"category":"Shared path"},"geometry":{"type":"MultiLineString","coordinates":[[[-2.3580747,53.3954756],[-2.3579063,53.3952446]]]}},
{"type":"Feature","properties":{"highway":"footway","name":"The Narrows","category":"Footpath (pedestrian only)"},"geometry":{"type":"MultiLineString","coordinates":[[[-2.3568705,53.3843301],[-2.3572717,53.3840495],[-2.3580158,53.3835291],[-2.358239,53.3833653],[-2.3583535,53.3832558]]]}},
{"type":"Feature","properties":{"highway":"footway","name":null,"category":"Footpath (pedestrian only)"},"geometry":{"type":"MultiLineString","coordinates":[[[-2.3643709,53.3914672],[-2.3641785,53.3912858],[-2.364089,53.3912051],[-2.3639836,53.3911252]]]}},
{"type":"Feature","properties":{"highway":"footway","name":null,"category":"Footpath (pedestrian only)"},"geometry":{"type":"MultiLineString","coordinates":[[[-2.3639515,53.3910276],[-2.3638928,53.3911017],[-2.3638539,53.3911183],[-2.3638328,53.3911273],[-2.3637984,53.3911375],[-2.3637126,53.3911631],[-2.3635667,53.3911836],[-2.3634894,53.391199],[-2.3634329,53.3912002],[-2.3632577,53.3912041],[-2.3631633,53.3912194],[-2.3630404,53.3912561]]]}},
{"type":"Feature","properties":{"highway":"footway","name":null,"category":"Footpath (pedestrian only)"},"geometry":{"type":"MultiLineString","coordinates":[[[-2.3639583,53.3911642],[-2.3638539,53.3911183]]]}},
{"type":"Feature","properties":{"highway":"footway","name":null,"category":"Footpath (pedestrian only)"},"geometry":{"type":"MultiLineString","coordinates":[[[-2.3639583,53.3911642],[-2.364089,53.3912051]]]}},
{"type":"Feature","properties":{"highway":"footway","name":null,"category":"Footpath (pedestrian only)"},"geometry":{"type":"MultiLineString","coordinates":[[[-2.3483053,53.3883071],[-2.3482298,53.3883801],[-2.3482226,53.3883871]]]}},
{"type":"Feature","properties":{"highway":"footway","name":null,"category":"Footpath (pedestrian only)"},"geometry":{"type":"MultiLineString","coordinates":[[[-2.3682455,53.389527],[-2.3682673,53.3894896]]]}},
{"type":"Feature","properties":{"highway":"footway","name":"Stamford Passage","category":"Footpath (pedestrian only)"},"geometry":{"type":"MultiLineString","coordinates":[[[-2.3489018,53.3886309],[-2.3489726,53.3886898]]]}},
{"type":"Feature","properties":{"highway":"footway","name":null,"category":"Footpath (pedestrian only)"},"geometry":{"type":"MultiLineString","coordinates":[[[-2.3640892,53.391448],[-2.3641785,53.3912858]]]}},
{"type":"Feature","properties":{"highway":"footway","name":null,"category":"Footpath (pedestrian only)"},"geometry":{"type":"MultiLineString","coordinates":[[[-2.3634329,53.3912002],[-2.3633347,53.3912991]]]}},
{"type":"Feature","properties":{"highway":"footway","name":null,"category":"Footpath (pedestrian only)"},"geometry":{"type":"MultiLineString","coordinates":[[[-2.3565459,53.3925038],[-2.3564292,53.3927623],[-2.3563262,53.3929415],[-2.3563042,53.3929599],[-2.3562833,53.3929773],[-2.3560344,53.3931206],[-2.3559743,53.3931462],[-2.3558971,53.3931564],[-2.3557855,53.3931616],[-2.3556999,53.3931404]]]}},
{"type":"Feature","properties":{"highway":"footway","name":null,"category":"Footpath (pedestrian only)"},"geometry":{"type":"MultiLineString","coordinates":[[[-2.3563042,53.3929599],[-2.3565408,53.3929415],[-2.3565837,53.3929671],[-2.3566352,53.3930285],[-2.3566953,53.3930848],[-2.3567897,53.3931053],[-2.356927,53.3930745],[-2.3570214,53.393049],[-2.3571759,53.3930234],[-2.3572189,53.3929773],[-2.3571845,53.3927675],[-2.3570214,53.3926088],[-2.3567983,53.3925985],[-2.3567725,53.3926139],[-2.3567554,53.3926856],[-2.3567039,53.392747],[-2.3566009,53.3927675],[-2.356558,53.3928238],[-2.3565923,53.3928903],[-2.3565408,53.3929415]]]}},
{"type":"Feature","properties":{"highway":"footway","name":null,"category":"Footpath (pedestrian only)"},"geometry":{"type":"MultiLineString","coordinates":[[[-2.3567983,53.3925985],[-2.356663,53.3924635]]]}},
{"type":"Feature","properties":{"highway":"footway","name":null,"category":"Footpath (pedestrian only)"},"geometry":{"type":"MultiLineString","coordinates":[[[-2.3558823,53.3926627],[-2.3557512,53.3927163],[-2.355734,53.3927316],[-2.3557082,53.3927675]]]}},
{"type":"Feature","properties":{"highway":"footway","name":null,"category":"Footpath (pedestrian only)"},"geometry":{"type":"MultiLineString","coordinates":[[[-2.3555542,53.3926261],[-2.3555366,53.3926702],[-2.3555709,53.3927521]]]}},
{"type":"Feature","properties":{"highway":"footway","name":null,"category":"Footpath (pedestrian only)"},"geometry":{"type":"MultiLineString","coordinates":[[[-2.3570186,53.3907309],[-2.3568159,53.3906353],[-2.3567212,53.3906091],[-2.3566265,53.3905841],[-2.356509,53.3905572],[-2.3563739,53.3905745]]]}},
{"type":"Feature","properties":{"highway":"footway","name":null,"category":"Footpath (pedestrian only)"},"geometry":{"type":"MultiLineString","coordinates":[[[-2.3549191,53.3925902],[-2.3549308,53.3925113],[-2.3549787,53.3921891],[-2.3544294,53.3921686],[-2.3544014,53.392491],[-2.3543954,53.3925606]]]}},
{"type":"Feature","properties":{"highway":"footway","name":null,"category":"Footpath (pedestrian only)"},"geometry":{"type":"MultiLineString","coordinates":[[[-2.3544014,53.392491],[-2.3549308,53.3925113]]]}},
{"type":"Feature","properties":{"highway":"footway","name":null,"category":"Footpath (pedestrian only)"},"geometry":{"type":"MultiLineString","coordinates":[[[-2.354708,53.3915219],[-2.3546954,53.3915186],[-2.3545839,53.3914827]]]}},
{"type":"Feature","properties":{"highway":"footway","name":null,"category":"Footpath (pedestrian only)"},"geometry":{"type":"MultiLineString","coordinates":[[[-2.3561727,53.3878486],[-2.356088,53.3876935]]]}},
{"type":"Feature","properties":{"highway":"footway","name":null,"category":"Footpath (pedestrian only)"},"geometry":{"type":"MultiLineString","coordinates":[[[-2.3438499,53.3911818],[-2.3438569,53.3911155]]]}},
{"type":"Feature","properties":{"highway":"footway","name":null,"category":"Footpath (pedestrian only)"},"geometry":{"type":"MultiLineString","coordinates":[[[-2.3432731,53.3913872],[-2.3437144,53.3913877],[-2.3439611,53.3914197],[-2.3441703,53.3913365],[-2.3442743,53.3912219]]]}},
{"type":"Feature","properties":{"highway":"footway","name":null,"category":"Footpath (pedestrian only)"},"geometry":{"type":"MultiLineString","coordinates":[[[-2.3432731,53.3913872],[-2.3424323,53.3913921]]]}},
{"type":"Feature","properties":{"highway":"footway","name":null,"category":"Footpath (pedestrian only)"},"geometry":{"type":"MultiLineString","coordinates":[[[-2.3420696,53.3908346],[-2.3421216,53.3907002],[-2.3421143,53.3906393],[-2.3420517,53.3903176],[-2.34204,53.3902959],[-2.3420181,53.3902863],[-2.3419715,53.3902802],[-2.3411941,53.3901604]]]}},
{"type":"Feature","properties":{"highway":"footway","name":"Tarran Place","category":"Footpath (pedestrian only)"},"geometry":{"type":"MultiLineString","coordinates":[[[-2.3453977,53.3945817],[-2.3449142,53.3945153],[-2.3449479,53.3944209],[-2.3454534,53.3944899],[-2.3455168,53.3945432]]]}},
{"type":"Feature","properties":{"highway":"footway","name":"Tarran Place","category":"Footpath (pedestrian only)"},"geometry":{"type":"MultiLineString","coordinates":[[[-2.3455168,53.3945432],[-2.3455911,53.3946088],[-2.3455325,53.3947695],[-2.3453333,53.3947424],[-2.3453977,53.3945817],[-2.3455168,53.3945432]]]}},
{"type":"Feature","properties":{"highway":"footway","name":null,"category":"Footpath (pedestrian only)"},"geometry":{"type":"MultiLineString","coordinates":[[[-2.3440344,53.3913284],[-2.3441703,53.3913365]]]}},
{"type":"Feature","properties":{"highway":"footway","name":null,"category":"Footpath (pedestrian only)"},"geometry":{"type":"MultiLineString","coordinates":[[[-2.343873,53.3913315],[-2.3438732,53.3912557]]]}},
{"type":"Feature","properties":{"highway":"footway","name":null,"category":"Footpath (pedestrian only)"},"geometry":{"type":"MultiLineString","coordinates":[[[-2.3440409,53.3911078],[-2.3442394,53.3910952]]]}},
{"type":"Feature","properties":{"highway":"footway","name":"Altrincham Station Footbridge","category":"Footpath (pedestrian only)"},"geometry":{"type":"MultiLineString","coordinates":[[[-2.3474338,53.387704],[-2.3474127,53.387702],[-2.3471898,53.3876537],[-2.3469308,53.387598],[-2.3469395,53.387579]]]}},
{"type":"Feature","properties":{"highway":"footway","name":null,"category":"Footpath (pedestrian only)"},"geometry":{"type":"MultiLineString","coordinates":[[[-2.3457972,53.3899123],[-2.3457545,53.3899074],[-2.3456928,53.3899162]]]}},
{"type":"Feature","properties":{"highway":"footway","name":null,"category":"Footpath (pedestrian only)"},"geometry":{"type":"MultiLineString","coordinates":[[[-2.3457882,53.3900259],[-2.3459462,53.3896957],[-2.3459059,53.3896896],[-2.3458175,53.389868],[-2.3456827,53.3898446],[-2.3456724,53.3898641],[-2.3457729,53.3898819]]]}},
{"type":"Feature","properties":{"highway":"footway","name":null,"category":"Footpath (pedestrian only)"},"geometry":{"type":"MultiLineString","coordinates":[[[-2.3489295,53.3860885],[-2.3488121,53.3861871],[-2.3482374,53.3865415],[-2.348154,53.3866071],[-2.3481073,53.3866602],[-2.348085,53.3866953],[-2.3480536,53.3867531],[-2.3480153,53.386839],[-2.348007,53.3868935],[-2.3479249,53.3870399],[-2.3479203,53.3870736],[-2.3478948,53.3871218]]]}},
{"type":"Feature","properties":{"highway":"footway","name":null,"category":"Footpath (pedestrian only)"},"geometry":{"type":"MultiLineString","coordinates":[[[-2.347692,53.3870488],[-2.3477705,53.3869544],[-2.3478275,53.3868795],[-2.3479525,53.3867094]]]}},
{"type":"Feature","properties":{"highway":"footway","name":null,"category":"Footpath (pedestrian only)"},"geometry":{"type":"MultiLineString","coordinates":[[[-2.3478275,53.3868795],[-2.347737,53.3868549]]]}},
{"type":"Feature","properties":{"highway":"footway","name":null,"category":"Footpath (pedestrian only)"},"geometry":{"type":"MultiLineString","coordinates":[[[-2.355913,53.3866869],[-2.3558773,53.3865585],[-2.3558802,53.3864413],[-2.3557306,53.3864311],[-2.3556338,53.3863931]]]}},
{"type":"Feature","properties":{"highway":"footway","name":null,"category":"Footpath (pedestrian only)"},"geometry":{"type":"MultiLineString","coordinates":[[[-2.3558773,53.3865585],[-2.3563988,53.3863466]]]}},
{"type":"Feature","properties":{"highway":"footway","name":null,"category":"Footpath (pedestrian only)"},"geometry":{"type":"MultiLineString","coordinates":[[[-2.3455464,53.3910666],[-2.3457568,53.3910958]]]}},
{"type":"Feature","properties":{"highway":"footway","name":null,"category":"Footpath (pedestrian only)"},"geometry":{"type":"MultiLineString","coordinates":[[[-2.3459462,53.3910946],[-2.3459492,53.3911636]]]}},
{"type":"Feature","properties":{"highway":"footway","name":null,"category":"Footpath (pedestrian only)"},"geometry":{"type":"MultiLineString","coordinates":[[[-2.3457376,53.3913143],[-2.3457823,53.3914933]]]}},
{"type":"Feature","properties":{"highway":"footway","name":null,"category":"Footpath (pedestrian only)"},"geometry":{"type":"MultiLineString","coordinates":[[[-2.3460048,53.3912398],[-2.3459994,53.3913143]]]}},
{"type":"Feature","properties":{"highway":"path","name":null,"category":"Shared path"},"geometry":{"type":"MultiLineString","coordinates":[[[-2.3627175,53.3861258],[-2.3624047,53.3863727],[-2.3623743,53.3863967]]]}},
{"type":"Feature","properties":{"highway":"footway","name":null,"category":"Footpath (pedestrian only)"},"geometry":{"type":"MultiLineString","coordinates":[[[-2.3695789,53.3858001],[-2.3693164,53.3857201],[-2.3690393,53.3857775],[-2.3687622,53.3858384],[-2.3685463,53.3858471],[-2.3681818,53.3858645],[-2.3679134,53.3859202],[-2.3675751,53.3860019],[-2.367263,53.3860837],[-2.3669567,53.3862316],[-2.366735,53.3863638],[-2.3664317,53.3865708],[-2.3662013,53.3867134],[-2.3660411,53.3867495],[-2.3659224,53.3867527],[-2.3658082,53.386771]]]}},
{"type":"Feature","properties":{"highway":"footway","name":"Wharf Road","category":"Footpath (pedestrian only)"},"geometry":{"type":"MultiLineString","coordinates":[[[-2.3507595,53.3984538],[-2.3475293,53.3993487],[-2.3468604,53.3995577],[-2.3465164,53.3996749]]]}},
{"type":"Feature","properties":{"highway":"footway","name":null,"category":"Footpath (pedestrian only)"},"geometry":{"type":"MultiLineString","coordinates":[[[-2.3469485,53.387751],[-2.3468606,53.3877294]]]}},
{"type":"Feature","properties":{"highway":"footway","name":null,"category":"Footpath (pedestrian only)"},"geometry":{"type":"MultiLineString","coordinates":[[[-2.3536159,53.4000254],[-2.3528635,53.4000261]]]}},
{"type":"Feature","properties":{"highway":"footway","name":null,"category":"Footpath (pedestrian only)"},"geometry":{"type":"MultiLineString","coordinates":[[[-2.3528635,53.4000261],[-2.3527661,53.4000235],[-2.3526987,53.4000304]]]}},
{"type":"Feature","properties":{"highway":"path","name":null,"category":"Shared path"},"geometry":{"type":"MultiLineString","coordinates":[[[-2.3526026,53.3975673],[-2.3526621,53.3976216],[-2.352693,53.397631],[-2.3527373,53.397652],[-2.3527627,53.3976921]]]}},
{"type":"Feature","properties":{"highway":"footway","name":null,"category":"Footpath (pedestrian only)"},"geometry":{"type":"MultiLineString","coordinates":[[[-2.352943,53.3998038],[-2.3528049,53.3998045],[-2.352721,53.3997911],[-2.3525819,53.3997925]]]}},
{"type":"Feature","properties":{"highway":"footway","name":null,"category":"Footpath (pedestrian only)"},"geometry":{"type":"MultiLineString","coordinates":[[[-2.3526987,53.4000304],[-2.352508,53.4000512]]]}},
{"type":"Feature","properties":{"highway":"footway","name":null,"category":"Footpath (pedestrian only)"},"geometry":{"type":"MultiLineString","coordinates":[[[-2.3482264,53.3871376],[-2.34842,53.387184],[-2.348588,53.3872243]]]}},
{"type":"Feature","properties":{"highway":"path","name":null,"category":"Shared path"},"geometry":{"type":"MultiLineString","coordinates":[[[-2.3472456,53.3967717],[-2.347221,53.3968386],[-2.3472197,53.3969168],[-2.3471755,53.3969488],[-2.3471528,53.397117],[-2.3465558,53.39788],[-2.346442,53.3979188],[-2.3463444,53.3979309],[-2.3462021,53.3979406],[-2.346007,53.3979575],[-2.3458281,53.3979818],[-2.3456777,53.3980278],[-2.3454012,53.3981078],[-2.3453576,53.3981249],[-2.3453045,53.3980831]]]}},
{"type":"Feature","properties":{"highway":"footway","name":null,"category":"Footpath (pedestrian only)"},"geometry":{"type":"MultiLineString","coordinates":[[[-2.3532058,53.3989382],[-2.3533638,53.3989308],[-2.3542295,53.3988816],[-2.3542726,53.3988792]]]}},
{"type":"Feature","properties":{"highway":"footway","name":null,"category":"Footpath (pedestrian only)"},"geometry":{"type":"MultiLineString","coordinates":[[[-2.3532039,53.3994003],[-2.3531807,53.3992548],[-2.3531651,53.3991568]]]}},
{"type":"Feature","properties":{"highway":"footway","name":null,"category":"Footpath (pedestrian only)"},"geometry":{"type":"MultiLineString","coordinates":[[[-2.3522281,53.3977875],[-2.3520652,53.3978099]]]}},
{"type":"Feature","properties":{"highway":"footway","name":null,"category":"Footpath (pedestrian only)"},"geometry":{"type":"MultiLineString","coordinates":[[[-2.3561371,53.392659],[-2.3558247,53.3926414],[-2.3555542,53.3926261],[-2.3549191,53.3925902],[-2.3543954,53.3925606],[-2.3543335,53.3925571],[-2.3540893,53.3924815],[-2.3539666,53.3924036]]]}},
{"type":"Feature","properties":{"highway":"footway","name":"The Causeway","category":"Footpath (pedestrian only)"},"geometry":{"type":"MultiLineString","coordinates":[[[-2.3506838,53.3864688],[-2.3504573,53.3863782]]]}},
{"type":"Feature","properties":{"highway":"footway","name":"The Causeway","category":"Footpath (pedestrian only)"},"geometry":{"type":"MultiLineString","coordinates":[[[-2.3508469,53.386534],[-2.3506838,53.3864688]]]}},
{"type":"Feature","properties":{"highway":"footway","name":null,"category":"Footpath (pedestrian only)"},"geometry":{"type":"MultiLineString","coordinates":[[[-2.3469395,53.387579],[-2.3469493,53.3875599],[-2.3469751,53.3875668],[-2.3470418,53.3875845]]]}},
{"type":"Feature","properties":{"highway":"footway","name":null,"category":"Footpath (pedestrian only)"},"geometry":{"type":"MultiLineString","coordinates":[[[-2.3474395,53.3875315],[-2.3474836,53.3875394],[-2.3475433,53.3875639],[-2.3476232,53.387598],[-2.3476286,53.3876332],[-2.3476608,53.3876828],[-2.3474338,53.387704]]]}},
{"type":"Feature","properties":{"highway":"footway","name":null,"category":"Footpath (pedestrian only)"},"geometry":{"type":"MultiLineString","coordinates":[[[-2.3472065,53.3876164],[-2.3471898,53.3876537],[-2.3471781,53.3876732]]]}},
{"type":"Feature","properties":{"highway":"footway","name":null,"category":"Footpath (pedestrian only)"},"geometry":{"type":"MultiLineString","coordinates":[[[-2.3467791,53.3880584],[-2.3466196,53.388021],[-2.3465026,53.3879961]]]}},
{"type":"Feature","properties":{"highway":"path","name":null,"category":"Shared path"},"geometry":{"type":"MultiLineString","coordinates":[[[-2.3520394,53.3985881],[-2.352109,53.3985591],[-2.352357,53.3984463]]]}},
{"type":"Feature","properties":{"highway":"footway","name":null,"category":"Footpath (pedestrian only)"},"geometry":{"type":"MultiLineString","coordinates":[[[-2.3517993,53.3986213],[-2.3517389,53.3985908],[-2.3516563,53.3984306]]]}},
{"type":"Feature","properties":{"highway":"path","name":null,"category":"Shared path"},"geometry":{"type":"MultiLineString","coordinates":[[[-2.3527427,53.399551],[-2.3527973,53.3995951],[-2.3528717,53.3996235],[-2.3530487,53.3996911],[-2.3530435,53.3998065]]]}},
{"type":"Feature","properties":{"highway":"footway","name":null,"category":"Footpath (pedestrian only)"},"geometry":{"type":"MultiLineString","coordinates":[[[-2.3526738,53.3994954],[-2.3526282,53.399508],[-2.3525454,53.3995125],[-2.3524946,53.399512],[-2.3524976,53.3995475],[-2.3524186,53.3995499],[-2.3523077,53.3995533]]]}},
{"type":"Feature","properties":{"highway":"footway","name":null,"category":"Footpath (pedestrian only)"},"geometry":{"type":"MultiLineString","coordinates":[[[-2.3484048,53.3874405],[-2.3483468,53.3874171]]]}},
{"type":"Feature","properties":{"highway":"footway","name":null,"category":"Footpath (pedestrian only)"},"geometry":{"type":"MultiLineString","coordinates":[[[-2.3475135,53.387853],[-2.34757,53.3879012],[-2.347628,53.387951]]]}},
{"type":"Feature","properties":{"highway":"footway","name":null,"category":"Footpath (pedestrian only)"},"geometry":{"type":"MultiLineString","coordinates":[[[-2.3472551,53.3880247],[-2.3472128,53.388076],[-2.3471796,53.3881353],[-2.3469315,53.3885786],[-2.3469977,53.3886848]]]}},
{"type":"Feature","properties":{"highway":"footway","name":null,"category":"Footpath (pedestrian only)"},"geometry":{"type":"MultiLineString","coordinates":[[[-2.3469977,53.3886848],[-2.3470834,53.3887123]]]}},
{"type":"Feature","properties":{"highway":"footway","name":null,"category":"Footpath (pedestrian only)"},"geometry":{"type":"MultiLineString","coordinates":[[[-2.3471796,53.3881353],[-2.3472443,53.3881594],[-2.3473288,53.3881907],[-2.3474029,53.3882182],[-2.3474383,53.3882313]]]}},
{"type":"Feature","properties":{"highway":"footway","name":null,"category":"Footpath (pedestrian only)"},"geometry":{"type":"MultiLineString","coordinates":[[[-2.3482264,53.3871376],[-2.3481919,53.387153],[-2.3481188,53.3871683]]]}},
{"type":"Feature","properties":{"highway":"footway","name":null,"category":"Footpath (pedestrian only)"},"geometry":{"type":"MultiLineString","coordinates":[[[-2.348007,53.3868935],[-2.3480663,53.3868335]]]}},
{"type":"Feature","properties":{"highway":"footway","name":null,"category":"Footpath (pedestrian only)"},"geometry":{"type":"MultiLineString","coordinates":[[[-2.3482146,53.3866136],[-2.3482297,53.3865951]]]}},
{"type":"Feature","properties":{"highway":"footway","name":null,"category":"Footpath (pedestrian only)"},"geometry":{"type":"MultiLineString","coordinates":[[[-2.3478699,53.3874055],[-2.3477519,53.3876043],[-2.3476608,53.3876828],[-2.3474718,53.387816],[-2.3472551,53.3880247]]]}},
{"type":"Feature","properties":{"highway":"footway","name":null,"category":"Footpath (pedestrian only)"},"geometry":{"type":"MultiLineString","coordinates":[[[-2.3475135,53.387853],[-2.3474718,53.387816]]]}},
{"type":"Feature","properties":{"highway":"path","name":"Juliana Way","category":"Shared path"},"geometry":{"type":"MultiLineString","coordinates":[[[-2.3592324,53.3967305],[-2.3586191,53.3968656],[-2.3583998,53.396519],[-2.3587536,53.3964384]]]}},
{"type":"Feature","properties":{"highway":"path","name":"Juliana Way","category":"Shared path"},"geometry":{"type":"MultiLineString","coordinates":[[[-2.362073,53.3960234],[-2.3620402,53.3960669],[-2.3619805,53.3960965],[-2.3609057,53.3963494],[-2.3608339,53.3962394]]]}},
{"type":"Feature","properties":{"highway":"footway","name":null,"category":"Footpath (pedestrian only)"},"geometry":{"type":"MultiLineString","coordinates":[[[-2.3484891,53.3887745],[-2.348354,53.3887248],[-2.3482926,53.3887022],[-2.3482587,53.3886898],[-2.347834,53.3885335]]]}},
{"type":"Feature","properties":{"highway":"footway","name":null,"category":"Footpath (pedestrian only)"},"geometry":{"type":"MultiLineString","coordinates":[[[-2.3482926,53.3887022],[-2.3483685,53.3886235]]]}},
{"type":"Feature","properties":{"highway":"footway","name":null,"category":"Footpath (pedestrian only)"},"geometry":{"type":"MultiLineString","coordinates":[[[-2.3488973,53.3886534],[-2.3488257,53.3886254],[-2.3488426,53.3886099],[-2.3485398,53.3885012],[-2.3484552,53.388587],[-2.3484197,53.3885742],[-2.3483351,53.3885436],[-2.3484217,53.3884606],[-2.3482226,53.3883871],[-2.3479714,53.3882944]]]}},
{"type":"Feature","properties":{"highway":"footway","name":null,"category":"Footpath (pedestrian only)"},"geometry":{"type":"MultiLineString","coordinates":[[[-2.3484249,53.3885682],[-2.3484197,53.3885742]]]}},
{"type":"Feature","properties":{"highway":"footway","name":null,"category":"Footpath (pedestrian only)"},"geometry":{"type":"MultiLineString","coordinates":[[[-2.3483685,53.3886235],[-2.348392,53.3886009],[-2.3484197,53.3885742]]]}},
{"type":"Feature","properties":{"highway":"footway","name":"Stamford Passage","category":"Footpath (pedestrian only)"},"geometry":{"type":"MultiLineString","coordinates":[[[-2.3489726,53.3886898],[-2.3491128,53.3887475]]]}},
{"type":"Feature","properties":{"highway":"footway","name":"Stamford Passage","category":"Footpath (pedestrian only)"},"geometry":{"type":"MultiLineString","coordinates":[[[-2.3488797,53.3886142],[-2.3489018,53.3886309]]]}},
{"type":"Feature","properties":{"highway":"footway","name":null,"category":"Footpath (pedestrian only)"},"geometry":{"type":"MultiLineString","coordinates":[[[-2.3489801,53.3886237],[-2.3490218,53.3886383],[-2.3490633,53.3886529]]]}},
{"type":"Feature","properties":{"highway":"footway","name":null,"category":"Footpath (pedestrian only)"},"geometry":{"type":"MultiLineString","coordinates":[[[-2.3490633,53.3886529],[-2.3493286,53.3883935],[-2.3493719,53.3883512],[-2.3493855,53.3883379]]]}},
{"type":"Feature","properties":{"highway":"footway","name":null,"category":"Footpath (pedestrian only)"},"geometry":{"type":"MultiLineString","coordinates":[[[-2.3493286,53.3883935],[-2.3492887,53.3883783],[-2.3492446,53.3883615]]]}},
{"type":"Feature","properties":{"highway":"footway","name":null,"category":"Footpath (pedestrian only)"},"geometry":{"type":"MultiLineString","coordinates":[[[-2.349671,53.3880755],[-2.349581,53.3880925],[-2.3495253,53.3881032]]]}},
{"type":"Feature","properties":{"highway":"footway","name":null,"category":"Footpath (pedestrian only)"},"geometry":{"type":"MultiLineString","coordinates":[[[-2.3495253,53.3881032],[-2.3495053,53.3881088],[-2.3494929,53.3881157],[-2.3494806,53.3881247],[-2.3494496,53.3881548]]]}},
{"type":"Feature","properties":{"highway":"footway","name":null,"category":"Footpath (pedestrian only)"},"geometry":{"type":"MultiLineString","coordinates":[[[-2.3498153,53.3880717],[-2.3499137,53.3881048]]]}},
{"type":"Feature","properties":{"highway":"footway","name":null,"category":"Footpath (pedestrian only)"},"geometry":{"type":"MultiLineString","coordinates":[[[-2.3501533,53.3877239],[-2.3500549,53.3876916],[-2.349764,53.388017],[-2.3498248,53.3880379],[-2.3498111,53.3880537]]]}},
{"type":"Feature","properties":{"highway":"footway","name":null,"category":"Footpath (pedestrian only)"},"geometry":{"type":"MultiLineString","coordinates":[[[-2.3502429,53.3877534],[-2.3501924,53.3877371],[-2.3501533,53.3877239]]]}},
{"type":"Feature","properties":{"highway":"footway","name":null,"category":"Footpath (pedestrian only)"},"geometry":{"type":"MultiLineString","coordinates":[[[-2.3476313,53.3883235],[-2.3475174,53.3882845]]]}},
{"type":"Feature","properties":{"highway":"footway","name":null,"category":"Footpath (pedestrian only)"},"geometry":{"type":"MultiLineString","coordinates":[[[-2.3493752,53.3882253],[-2.3493022,53.3882925],[-2.3493028,53.3883039],[-2.3492446,53.3883615],[-2.3489801,53.3886237]]]}},
{"type":"Feature","properties":{"highway":"footway","name":null,"category":"Footpath (pedestrian only)"},"geometry":{"type":"MultiLineString","coordinates":[[[-2.3489801,53.3886237],[-2.348924,53.3886363],[-2.3488973,53.3886534]]]}},
{"type":"Feature","properties":{"highway":"footway","name":null,"category":"Footpath (pedestrian only)"},"geometry":{"type":"MultiLineString","coordinates":[[[-2.3511658,53.3870404],[-2.35105,53.3870005]]]}},
{"type":"Feature","properties":{"highway":"footway","name":null,"category":"Footpath (pedestrian only)"},"geometry":{"type":"MultiLineString","coordinates":[[[-2.351281,53.3870807],[-2.3511658,53.3870404]]]}},
{"type":"Feature","properties":{"highway":"footway","name":null,"category":"Footpath (pedestrian only)"},"geometry":{"type":"MultiLineString","coordinates":[[[-2.349701,53.3864333],[-2.3496455,53.3863929]]]}},
{"type":"Feature","properties":{"highway":"footway","name":null,"category":"Footpath (pedestrian only)"},"geometry":{"type":"MultiLineString","coordinates":[[[-2.3498392,53.3865171],[-2.349701,53.3864333]]]}},
{"type":"Feature","properties":{"highway":"footway","name":null,"category":"Footpath (pedestrian only)"},"geometry":{"type":"MultiLineString","coordinates":[[[-2.3527427,53.399551],[-2.3527171,53.3995288],[-2.3526738,53.3994954],[-2.3526954,53.3994138],[-2.3526884,53.3993193]]]}},
{"type":"Feature","properties":{"highway":"footway","name":null,"category":"Footpath (pedestrian only)"},"geometry":{"type":"MultiLineString","coordinates":[[[-2.3605896,53.394178],[-2.3604494,53.3941886],[-2.3601724,53.3943215]]]}},
{"type":"Feature","properties":{"highway":"footway","name":null,"category":"Footpath (pedestrian only)"},"geometry":{"type":"MultiLineString","coordinates":[[[-2.3531253,53.3985963],[-2.3530169,53.3986062]]]}},
{"type":"Feature","properties":{"highway":"path","name":null,"category":"Shared path"},"geometry":{"type":"MultiLineString","coordinates":[[[-2.355621,53.3985567],[-2.3556084,53.398505],[-2.355557,53.3983991],[-2.3554901,53.3982615],[-2.3553871,53.3980497],[-2.355286,53.3980668],[-2.3552284,53.3980765]]]}},
{"type":"Feature","properties":{"highway":"footway","name":null,"category":"Footpath (pedestrian only)"},"geometry":{"type":"MultiLineString","coordinates":[[[-2.3477024,53.3881808],[-2.3476394,53.3881589],[-2.3475672,53.3881338]]]}},
{"type":"Feature","properties":{"highway":"footway","name":null,"category":"Footpath (pedestrian only)"},"geometry":{"type":"MultiLineString","coordinates":[[[-2.3419319,53.3910903],[-2.3416545,53.3910933],[-2.3414697,53.3911016],[-2.3414446,53.3910736]]]}},
{"type":"Feature","properties":{"highway":"footway","name":null,"category":"Footpath (pedestrian only)"},"geometry":{"type":"MultiLineString","coordinates":[[[-2.341969,53.3908239],[-2.3419319,53.3910903]]]}},
{"type":"Feature","properties":{"highway":"footway","name":null,"category":"Footpath (pedestrian only)"},"geometry":{"type":"MultiLineString","coordinates":[[[-2.3479724,53.3910814],[-2.3479395,53.3910248],[-2.3479177,53.3909874],[-2.3478562,53.3910003],[-2.3478287,53.3909622],[-2.3477853,53.390902]]]}},
{"type":"Feature","properties":{"highway":"footway","name":null,"category":"Footpath (pedestrian only)"},"geometry":{"type":"MultiLineString","coordinates":[[[-2.3473998,53.3909749],[-2.3474232,53.391039],[-2.3474446,53.3910752],[-2.3473565,53.3910896],[-2.3473809,53.3911318],[-2.3474012,53.3911709]]]}},
{"type":"Feature","properties":{"highway":"footway","name":null,"category":"Footpath (pedestrian only)"},"geometry":{"type":"MultiLineString","coordinates":[[[-2.3477089,53.3908816],[-2.3475497,53.3909186],[-2.347441,53.3909463],[-2.3473998,53.3909749]]]}},
{"type":"Feature","properties":{"highway":"footway","name":null,"category":"Footpath (pedestrian only)"},"geometry":{"type":"MultiLineString","coordinates":[[[-2.3505132,53.3902602],[-2.3504271,53.3902738],[-2.3503354,53.3902874],[-2.350295,53.39031],[-2.3502337,53.3903435],[-2.3501985,53.3903486],[-2.3501425,53.3903247],[-2.3500682,53.3902914]]]}},
{"type":"Feature","properties":{"highway":"footway","name":null,"category":"Footpath (pedestrian only)"},"geometry":{"type":"MultiLineString","coordinates":[[[-2.3502907,53.3904933],[-2.3502387,53.3904092],[-2.3501985,53.3903486]]]}},
{"type":"Feature","properties":{"highway":"footway","name":null,"category":"Footpath (pedestrian only)"},"geometry":{"type":"MultiLineString","coordinates":[[[-2.3502346,53.3905403],[-2.3502684,53.3905104],[-2.3502907,53.3904933],[-2.3503768,53.3904762],[-2.3505126,53.3904482],[-2.3506025,53.3904278]]]}},
{"type":"Feature","properties":{"highway":"footway","name":null,"category":"Footpath (pedestrian only)"},"geometry":{"type":"MultiLineString","coordinates":[[[-2.3505707,53.3903782],[-2.3505473,53.3903261],[-2.3505132,53.3902602],[-2.3504656,53.3901524],[-2.3504468,53.390106]]]}},
{"type":"Feature","properties":{"highway":"footway","name":null,"category":"Footpath (pedestrian only)"},"geometry":{"type":"MultiLineString","coordinates":[[[-2.3506025,53.3904278],[-2.3505707,53.3903782],[-2.3508338,53.3902917],[-2.3508461,53.3902753],[-2.350819,53.3902262],[-2.3507911,53.3901712],[-2.3507446,53.3900912],[-2.3507172,53.3900829],[-2.3504468,53.390106]]]}},
{"type":"Feature","properties":{"highway":"path","name":null,"category":"Shared path"},"geometry":{"type":"MultiLineString","coordinates":[[[-2.3499137,53.3881048],[-2.3500229,53.3881414],[-2.3502338,53.3882121]]]}},
{"type":"Feature","properties":{"highway":"path","name":null,"category":"Shared path"},"geometry":{"type":"MultiLineString","coordinates":[[[-2.3503041,53.3882348],[-2.3504455,53.3882818]]]}},
{"type":"Feature","properties":{"highway":"path","name":null,"category":"Shared path"},"geometry":{"type":"MultiLineString","coordinates":[[[-2.3476313,53.3883235],[-2.3476795,53.3883408],[-2.3476564,53.3883655],[-2.3476787,53.3883739],[-2.3477776,53.3884094]]]}},
{"type":"Feature","properties":{"highway":"footway","name":null,"category":"Footpath (pedestrian only)"},"geometry":{"type":"MultiLineString","coordinates":[[[-2.3473949,53.3907106],[-2.3475527,53.3907359],[-2.3476629,53.3908721],[-2.3477089,53.3908816],[-2.3477853,53.390902],[-2.3478697,53.3909095],[-2.3480105,53.3908792],[-2.3481329,53.3908995]]]}},
{"type":"Feature","properties":{"highway":"footway","name":null,"category":"Footpath (pedestrian only)"},"geometry":{"type":"MultiLineString","coordinates":[[[-2.3476015,53.3911924],[-2.3477308,53.3911599],[-2.3478837,53.3911236]]]}},
{"type":"Feature","properties":{"highway":"footway","name":null,"category":"Footpath (pedestrian only)"},"geometry":{"type":"MultiLineString","coordinates":[[[-2.3472492,53.3909112],[-2.3473365,53.390947],[-2.3473998,53.3909749]]]}},
{"type":"Feature","properties":{"highway":"footway","name":null,"category":"Footpath (pedestrian only)"},"geometry":{"type":"MultiLineString","coordinates":[[[-2.3473949,53.3907106],[-2.3472911,53.3908077],[-2.3472492,53.3909112],[-2.3471365,53.3909921],[-2.3468891,53.3910272],[-2.3467704,53.391122]]]}},
{"type":"Feature","properties":{"highway":"footway","name":null,"category":"Footpath (pedestrian only)"},"geometry":{"type":"MultiLineString","coordinates":[[[-2.3478262,53.3912976],[-2.3476739,53.3912774],[-2.3476015,53.3911924],[-2.3475237,53.3911606],[-2.3474012,53.3911709],[-2.347054,53.3912124],[-2.3468894,53.3911879]]]}},
{"type":"Feature","properties":{"highway":"footway","name":null,"category":"Footpath (pedestrian only)"},"geometry":{"type":"MultiLineString","coordinates":[[[-2.3482107,53.3909638],[-2.3479724,53.3910814],[-2.3478837,53.3911236],[-2.3478609,53.3911747],[-2.3479006,53.391237],[-2.3478363,53.3913126]]]}},
{"type":"Feature","properties":{"highway":"path","name":null,"category":"Shared path"},"geometry":{"type":"MultiLineString","coordinates":[[[-2.3498881,53.39416],[-2.3497903,53.394194],[-2.3495845,53.3943359],[-2.349357,53.3944944],[-2.3493286,53.3945617]]]}},
{"type":"Feature","properties":{"highway":"path","name":null,"category":"Shared path"},"geometry":{"type":"MultiLineString","coordinates":[[[-2.3542056,53.3969024],[-2.3542416,53.396974]]]}},
{"type":"Feature","properties":{"highway":"path","name":null,"category":"Shared path"},"geometry":{"type":"MultiLineString","coordinates":[[[-2.3542416,53.396974],[-2.3543841,53.3972836]]]}},
{"type":"Feature","properties":{"highway":"path","name":null,"category":"Shared path"},"geometry":{"type":"MultiLineString","coordinates":[[[-2.3485518,53.3923081],[-2.3484361,53.3923343],[-2.3483669,53.3923486],[-2.3483003,53.3923578],[-2.3482306,53.3923584],[-2.348188,53.3923556],[-2.3481363,53.3923476],[-2.3481028,53.3923441],[-2.3480485,53.3923473],[-2.3479484,53.3923575],[-2.3478517,53.3923445]]]}},
{"type":"Feature","properties":{"highway":"path","name":null,"category":"Shared path"},"geometry":{"type":"MultiLineString","coordinates":[[[-2.3534824,53.3995872],[-2.3534819,53.3995624],[-2.3534435,53.3994047]]]}},
{"type":"Feature","properties":{"highway":"path","name":null,"category":"Shared path"},"geometry":{"type":"MultiLineString","coordinates":[[[-2.3529007,53.3995988],[-2.3528717,53.3996235]]]}},
{"type":"Feature","properties":{"highway":"path","name":null,"category":"Shared path"},"geometry":{"type":"MultiLineString","coordinates":[[[-2.3586191,53.3968656],[-2.3583306,53.3969328],[-2.3582522,53.3968518],[-2.3581518,53.3968455]]]}},
{"type":"Feature","properties":{"highway":"path","name":null,"category":"Shared path"},"geometry":{"type":"MultiLineString","coordinates":[[[-2.3583998,53.396519],[-2.3581375,53.3961248],[-2.3580916,53.396136]]]}},
{"type":"Feature","properties":{"highway":"path","name":null,"category":"Shared path"},"geometry":{"type":"MultiLineString","coordinates":[[[-2.3523211,53.3927494],[-2.3522006,53.392748],[-2.352155,53.3927397],[-2.3519844,53.3927348],[-2.3519164,53.3926815]]]}},
{"type":"Feature","properties":{"highway":"path","name":null,"category":"Shared path"},"geometry":{"type":"MultiLineString","coordinates":[[[-2.3523417,53.3920318],[-2.3523882,53.3921063],[-2.3524322,53.3922918],[-2.3524395,53.3923504],[-2.3524391,53.3923836],[-2.3524274,53.3924078],[-2.3523928,53.3924467],[-2.3523484,53.3924869],[-2.3522793,53.3924977],[-2.3522025,53.3925098]]]}},
{"type":"Feature","properties":{"highway":"path","name":null,"category":"Shared path"},"geometry":{"type":"MultiLineString","coordinates":[[[-2.3579944,53.3957743],[-2.3581763,53.3960603]]]}},
{"type":"Feature","properties":{"highway":"path","name":null,"category":"Shared path"},"geometry":{"type":"MultiLineString","coordinates":[[[-2.3581375,53.3961248],[-2.3581081,53.3960753]]]}},
{"type":"Feature","properties":{"highway":"path","name":null,"category":"Shared path"},"geometry":{"type":"MultiLineString","coordinates":[[[-2.3511367,53.3912042],[-2.3509799,53.3912534]]]}},
{"type":"Feature","properties":{"highway":"path","name":null,"category":"Shared path"},"geometry":{"type":"MultiLineString","coordinates":[[[-2.3509746,53.3910208],[-2.3508099,53.3910698]]]}},
{"type":"Feature","properties":{"highway":"path","name":null,"category":"Shared path"},"geometry":{"type":"MultiLineString","coordinates":[[[-2.3510302,53.3904039],[-2.3509762,53.3904133]]]}},
{"type":"Feature","properties":{"highway":"path","name":null,"category":"Shared path"},"geometry":{"type":"MultiLineString","coordinates":[[[-2.3507876,53.3904492],[-2.350652,53.3904028],[-2.35064,53.3903964],[-2.3506235,53.3903939],[-2.3505707,53.3903782]]]}},
{"type":"Feature","properties":{"highway":"path","name":null,"category":"Shared path"},"geometry":{"type":"MultiLineString","coordinates":[[[-2.3510302,53.3904039],[-2.3510917,53.3903739],[-2.3509639,53.3901996],[-2.3508907,53.3902164],[-2.3508509,53.3901562]]]}},
{"type":"Feature","properties":{"highway":"path","name":null,"category":"Shared path"},"geometry":{"type":"MultiLineString","coordinates":[[[-2.3518431,53.3898063],[-2.3517495,53.3898373],[-2.3513811,53.3899374],[-2.3513646,53.3899214],[-2.3509494,53.3900351],[-2.3509273,53.3900543],[-2.3508126,53.3900862],[-2.3508509,53.3901562]]]}},
{"type":"Feature","properties":{"highway":"path","name":null,"category":"Shared path"},"geometry":{"type":"MultiLineString","coordinates":[[[-2.3509273,53.3900543],[-2.3508811,53.3900266],[-2.3507553,53.3900324],[-2.350716,53.3898979],[-2.3508354,53.3898942],[-2.3508811,53.3900266]]]}},
{"type":"Feature","properties":{"highway":"path","name":null,"category":"Shared path"},"geometry":{"type":"MultiLineString","coordinates":[[[-2.3502044,53.3895849],[-2.3500495,53.3895813],[-2.3499248,53.3895876]]]}},
{"type":"Feature","properties":{"highway":"path","name":null,"category":"Shared path"},"geometry":{"type":"MultiLineString","coordinates":[[[-2.3502499,53.388655],[-2.3502198,53.3887105]]]}},
{"type":"Feature","properties":{"highway":"path","name":null,"category":"Shared path"},"geometry":{"type":"MultiLineString","coordinates":[[[-2.3502928,53.3885739],[-2.3502499,53.388655]]]}},
{"type":"Feature","properties":{"highway":"path","name":null,"category":"Shared path"},"geometry":{"type":"MultiLineString","coordinates":[[[-2.3629257,53.392566],[-2.3629784,53.392461],[-2.3629883,53.3924031],[-2.3629676,53.3923783],[-2.3629514,53.3923651],[-2.36293,53.3923556],[-2.3628535,53.3923259]]]}},
{"type":"Feature","properties":{"highway":"track","name":null,"category":"Track"},"geometry":{"type":"MultiLineString","coordinates":[[[-2.3602283,53.3915718],[-2.3602842,53.3916351],[-2.3603013,53.3916527],[-2.3603303,53.3916889],[-2.3603404,53.3917268],[-2.3603092,53.3917645],[-2.3602619,53.3917951],[-2.3600544,53.3918926]]]}},
{"type":"Feature","properties":{"highway":"path","name":null,"category":"Shared path"},"geometry":{"type":"MultiLineString","coordinates":[[[-2.3518045,53.3850086],[-2.3519328,53.3850551]]]}},
{"type":"Feature","properties":{"highway":"path","name":null,"category":"Shared path"},"geometry":{"type":"MultiLineString","coordinates":[[[-2.3519328,53.3850551],[-2.3520986,53.3851152]]]}},
{"type":"Feature","properties":{"highway":"path","name":null,"category":"Shared path"},"geometry":{"type":"MultiLineString","coordinates":[[[-2.3517128,53.3849754],[-2.3518045,53.3850086]]]}},
{"type":"Feature","properties":{"highway":"path","name":null,"category":"Shared path"},"geometry":{"type":"MultiLineString","coordinates":[[[-2.3505841,53.3852857],[-2.3505945,53.385265],[-2.3507553,53.3851833]]]}},
{"type":"Feature","properties":{"highway":"path","name":null,"category":"Shared path"},"geometry":{"type":"MultiLineString","coordinates":[[[-2.350301,53.3853461],[-2.3502963,53.3853366]]]}},
{"type":"Feature","properties":{"highway":"path","name":null,"category":"Shared path"},"geometry":{"type":"MultiLineString","coordinates":[[[-2.3541742,53.3850763],[-2.3539171,53.3849515]]]}},
{"type":"Feature","properties":{"highway":"footway","name":"The Narrows","category":"Footpath (pedestrian only)"},"geometry":{"type":"MultiLineString","coordinates":[[[-2.355387,53.3849474],[-2.3560277,53.3846541],[-2.3566082,53.3843533],[-2.3566742,53.3843184]]]}},
{"type":"Feature","properties":{"highway":"path","name":null,"category":"Shared path"},"geometry":{"type":"MultiLineString","coordinates":[[[-2.3576903,53.384174],[-2.3573456,53.3840724]]]}},
{"type":"Feature","properties":{"highway":"path","name":"Racefield Road","category":"Shared path"},"geometry":{"type":"MultiLineString","coordinates":[[[-2.3584258,53.3871662],[-2.3584186,53.38718],[-2.3584107,53.3871943],[-2.3583723,53.3872617],[-2.3583848,53.387288],[-2.3584096,53.3873275]]]}},
{"type":"Feature","properties":{"highway":"path","name":null,"category":"Shared path"},"geometry":{"type":"MultiLineString","coordinates":[[[-2.3565009,53.387775],[-2.3565815,53.3877547],[-2.356543,53.3876876]]]}},
{"type":"Feature","properties":{"highway":"path","name":null,"category":"Shared path"},"geometry":{"type":"MultiLineString","coordinates":[[[-2.3564993,53.3876131],[-2.356543,53.3876876]]]}},
{"type":"Feature","properties":{"highway":"path","name":null,"category":"Shared path"},"geometry":{"type":"MultiLineString","coordinates":[[[-2.3577747,53.3880634],[-2.3576929,53.3881081],[-2.3575954,53.3881419]]]}},
{"type":"Feature","properties":{"highway":"path","name":null,"category":"Shared path"},"geometry":{"type":"MultiLineString","coordinates":[[[-2.3627175,53.3861258],[-2.3627583,53.3861415],[-2.3628054,53.3861485],[-2.3628538,53.386146],[-2.3628983,53.3861343],[-2.362934,53.3861147],[-2.3629572,53.3860893],[-2.3629653,53.3860607],[-2.3629576,53.3860321],[-2.3629347,53.3860066],[-2.3628992,53.3859868],[-2.3628549,53.3859749],[-2.3628066,53.3859722],[-2.3627757,53.3859755],[-2.3627467,53.3859826],[-2.3627209,53.3859932],[-2.3626993,53.3860068],[-2.3626831,53.3860228],[-2.3626728,53.3860405],[-2.362669,53.386059],[-2.3626719,53.3860777],[-2.3626812,53.3860955],[-2.3626967,53.3861118],[-2.3627175,53.3861258]]]}},
{"type":"Feature","properties":{"highway":"path","name":null,"category":"Shared path"},"geometry":{"type":"MultiLineString","coordinates":[[[-2.3519802,53.399746],[-2.352101,53.3997379]]]}},
{"type":"Feature","properties":{"highway":"path","name":null,"category":"Shared path"},"geometry":{"type":"MultiLineString","coordinates":[[[-2.3528019,53.4002253],[-2.3527645,53.400222],[-2.3525438,53.4002275]]]}},
{"type":"Feature","properties":{"highway":"footway","name":null,"category":"Footpath (pedestrian only)"},"geometry":{"type":"MultiLineString","coordinates":[[[-2.352027,53.3869412],[-2.3520883,53.3869635]]]}},
{"type":"Feature","properties":{"highway":"path","name":null,"category":"Shared path"},"geometry":{"type":"MultiLineString","coordinates":[[[-2.3605278,53.3964348],[-2.3598645,53.3965838]]]}},
{"type":"Feature","properties":{"highway":"path","name":null,"category":"Shared path"},"geometry":{"type":"MultiLineString","coordinates":[[[-2.3619546,53.3863958],[-2.3621755,53.3863822],[-2.3622511,53.3863797],[-2.3623005,53.3863823],[-2.3623368,53.3863839],[-2.3623743,53.3863967],[-2.3624261,53.3864423],[-2.362455,53.3865083],[-2.3624767,53.3865779]]]}},
{"type":"Feature","properties":{"highway":"path","name":null,"category":"Shared path"},"geometry":{"type":"MultiLineString","coordinates":[[[-2.3523619,53.3859459],[-2.352409,53.3859115]]]}},
{"type":"Feature","properties":{"highway":"footway","name":null,"category":"Footpath (pedestrian only)"},"geometry":{"type":"MultiLineString","coordinates":[[[-2.3479203,53.3870736],[-2.3482264,53.3871376]]]}},
{"type":"Feature","properties":{"highway":"footway","name":null,"category":"Footpath (pedestrian only)"},"geometry":{"type":"MultiLineString","coordinates":[[[-2.3481188,53.3871683],[-2.3479878,53.3872068],[-2.3478699,53.3874055]]]}},
{"type":"Feature","properties":{"highway":"footway","name":null,"category":"Footpath (pedestrian only)"},"geometry":{"type":"MultiLineString","coordinates":[[[-2.3540248,53.3916055],[-2.3537346,53.3914625],[-2.3536089,53.3914006]]]}},
{"type":"Feature","properties":{"highway":"footway","name":null,"category":"Footpath (pedestrian only)"},"geometry":{"type":"MultiLineString","coordinates":[[[-2.3539666,53.3924036],[-2.3539682,53.3923482],[-2.3541654,53.3921166],[-2.354469,53.3918949],[-2.3544788,53.3918691],[-2.3544873,53.3918466],[-2.3544935,53.3918302],[-2.3545436,53.3916977],[-2.3545793,53.3916601],[-2.354708,53.3915219]]]}},
{"type":"Feature","properties":{"highway":"footway","name":null,"category":"Footpath (pedestrian only)"},"geometry":{"type":"MultiLineString","coordinates":[[[-2.3563894,53.3924615],[-2.3561371,53.392659]]]}},
{"type":"Feature","properties":{"highway":"pedestrian","name":"George Street","category":"Pedestrian area/street"},"geometry":{"type":"MultiLineString","coordinates":[[[-2.3519,53.3856939],[-2.3518489,53.3857378],[-2.3518207,53.385762],[-2.3512996,53.3862094],[-2.3511927,53.3863001],[-2.3508911,53.3865517],[-2.3505762,53.3868336],[-2.3502635,53.3871259]]]}},
{"type":"Feature","properties":{"highway":"pedestrian","name":"George Street","category":"Pedestrian area/street"},"geometry":{"type":"MultiLineString","coordinates":[[[-2.3483237,53.3883609],[-2.3476731,53.3881247]]]}},
{"type":"Feature","properties":{"highway":"pedestrian","name":"Pott Street","category":"Pedestrian area/street"},"geometry":{"type":"MultiLineString","coordinates":[[[-2.3520368,53.3870087],[-2.3522963,53.3871155],[-2.3525756,53.3872305]]]}},
{"type":"Feature","properties":{"highway":"pedestrian","name":"Greenwood Street","category":"Pedestrian area/street"},"geometry":{"type":"MultiLineString","coordinates":[[[-2.3520368,53.3870087],[-2.3518738,53.3871469],[-2.3515122,53.3874532],[-2.3514509,53.3875052]]]}},
{"type":"Feature","properties":{"highway":"pedestrian","name":"Shaw's Road","category":"Pedestrian area/street"},"geometry":{"type":"MultiLineString","coordinates":[[[-2.3520106,53.3877042],[-2.3519501,53.3876827],[-2.3517853,53.3876241],[-2.3514509,53.3875052],[-2.3510845,53.3873826],[-2.3509798,53.3873475],[-2.3505047,53.3871997]]]}},
{"type":"Feature","properties":{"highway":"pedestrian","name":"Central Way","category":"Pedestrian area/street"},"geometry":{"type":"MultiLineString","coordinates":[[[-2.3509798,53.3873475],[-2.3510132,53.3873176],[-2.3511171,53.3872246],[-2.351281,53.3870807],[-2.3516141,53.3867828]]]}},
{"type":"Feature","properties":{"highway":"pedestrian","name":"Cross Street","category":"Pedestrian area/street"},"geometry":{"type":"MultiLineString","coordinates":[[[-2.3501825,53.3872061],[-2.3501059,53.387187],[-2.3498637,53.3871268],[-2.3497542,53.3870989]]]}},
{"type":"Feature","properties":{"highway":"pedestrian","name":null,"category":"Pedestrian area/street"},"geometry":{"type":"MultiLineString","coordinates":[[[-2.3507021,53.3860101],[-2.3504754,53.3859342]]]}},
{"type":"Feature","properties":{"highway":"pedestrian","name":null,"category":"Pedestrian area/street"},"geometry":{"type":"MultiLineString","coordinates":[[[-2.3476274,53.3891971],[-2.3474639,53.3893573],[-2.3474382,53.3894223]]]}},
{"type":"Feature","properties":{"highway":"pedestrian","name":"Goose Green","category":"Pedestrian area/street"},"geometry":{"type":"MultiLineString","coordinates":[[[-2.3512782,53.3854278],[-2.3511118,53.3853895],[-2.3505975,53.3852856]]]}},
{"type":"Feature","properties":{"highway":"pedestrian","name":"Albert Street","category":"Pedestrian area/street"},"geometry":{"type":"MultiLineString","coordinates":[[[-2.3521288,53.3858157],[-2.3521763,53.385777],[-2.3523685,53.3855999]]]}},
{"type":"Feature","properties":{"highway":"pedestrian","name":null,"category":"Pedestrian area/street"},"geometry":{"type":"MultiLineString","coordinates":[[[-2.3505135,53.3877578],[-2.3504466,53.3877197],[-2.3504091,53.3876733],[-2.3503704,53.3876397],[-2.3503176,53.3876095],[-2.3502642,53.3875869],[-2.349986,53.3874997],[-2.3499155,53.3874776]]]}},
{"type":"Feature","properties":{"highway":"pedestrian","name":"Cross Street","category":"Pedestrian area/street"},"geometry":{"type":"MultiLineString","coordinates":[[[-2.3497542,53.3870989],[-2.3496786,53.3870804],[-2.3496223,53.3870667],[-2.3495296,53.387044],[-2.3493123,53.3869967]]]}},
{"type":"Feature","properties":{"highway":"pedestrian","name":"Greenwood Street","category":"Pedestrian area/street"},"geometry":{"type":"MultiLineString","coordinates":[[[-2.3524368,53.3866594],[-2.3520883,53.3869635],[-2.3520368,53.3870087]]]}},
{"type":"Feature","properties":{"highway":"pedestrian","name":"Shaw's Road","category":"Pedestrian area/street"},"geometry":{"type":"MultiLineString","coordinates":[[[-2.3505047,53.3871997],[-2.3503495,53.3871522],[-2.3502635,53.3871259]]]}},
{"type":"Feature","properties":{"highway":"pedestrian","name":"Moss Lane","category":"Pedestrian area/street"},"geometry":{"type":"MultiLineString","coordinates":[[[-2.3482178,53.3865904],[-2.3482297,53.3865951],[-2.3484164,53.3866749]]]}},
{"type":"Feature","properties":{"highway":"pedestrian","name":"Goose Green","category":"Pedestrian area/street"},"geometry":{"type":"MultiLineString","coordinates":[[[-2.3505975,53.3852856],[-2.3505841,53.3852857],[-2.3505615,53.3852858],[-2.3505162,53.3853033],[-2.3504669,53.385318],[-2.3503277,53.3853419]]]}},
{"type":"Feature","properties":{"highway":"pedestrian","name":"The Causeway","category":"Pedestrian area/street"},"geometry":{"type":"MultiLineString","coordinates":[[[-2.3497673,53.3869726],[-2.3496786,53.3870804]]]}},
{"type":"Feature","properties":{"highway":"pedestrian","name":"Brewery Street","category":"Pedestrian area/street"},"geometry":{"type":"MultiLineString","coordinates":[[[-2.3495296,53.387044],[-2.349456,53.3871229]]]}},
{"type":"Feature","properties":{"highway":"pedestrian","name":null,"category":"Pedestrian area/street"},"geometry":{"type":"MultiLineString","coordinates":[[[-2.3516141,53.3867828],[-2.352027,53.3869412]]]}},
{"type":"Feature","properties":{"highway":"pedestrian","name":null,"category":"Pedestrian area/street"},"geometry":{"type":"MultiLineString","coordinates":[[[-2.352409,53.3859115],[-2.3525915,53.3856819]]]}},
{"type":"Feature","properties":{"highway":"pedestrian","name":null,"category":"Pedestrian area/street"},"geometry":{"type":"MultiLineString","coordinates":[[[-2.3525915,53.3856819],[-2.3523685,53.3855999],[-2.3523302,53.385584],[-2.352089,53.3854836]]]}},
{"type":"Feature","properties":{"highway":"pedestrian","name":null,"category":"Pedestrian area/street"},"geometry":{"type":"MultiLineString","coordinates":[[[-2.3625266,53.3866967],[-2.3625338,53.3866873],[-2.3625291,53.3866686],[-2.362517,53.3866499],[-2.3625002,53.3866439],[-2.3624457,53.3866607],[-2.3623673,53.3866708],[-2.3622932,53.3866734],[-2.3622251,53.3866713],[-2.3621774,53.3866647],[-2.3621391,53.3866556],[-2.362082,53.3866419],[-2.3620497,53.3866403],[-2.3620241,53.3866464],[-2.3620088,53.3866586],[-2.3620063,53.3866744],[-2.3620199,53.3866891],[-2.3620403,53.3866988],[-2.3620855,53.3867038],[-2.3625266,53.3866967]]]}},
{"type":"Feature","properties":{"highway":"pedestrian","name":null,"category":"Pedestrian area/street"},"geometry":{"type":"MultiLineString","coordinates":[[[-2.3525915,53.3856819],[-2.3526262,53.3856652],[-2.352637,53.3856599]]]}},
{"type":"Feature","properties":{"highway":"pedestrian","name":"George Street","category":"Pedestrian area/street"},"geometry":{"type":"MultiLineString","coordinates":[[[-2.3501825,53.3872061],[-2.3500878,53.3873024],[-2.3499155,53.3874776],[-2.3495854,53.3878335],[-2.3494293,53.3879905],[-2.3489644,53.3884581]]]}},
{"type":"Feature","properties":{"highway":"pedestrian","name":"George Street","category":"Pedestrian area/street"},"geometry":{"type":"MultiLineString","coordinates":[[[-2.3502635,53.3871259],[-2.3501825,53.3872061]]]}}
]
}
