{
"type": "FeatureCollection",
"name": "a501e887aa34_visibility",
"crs": { "type": "name", "properties": { "name": "urn:ogc:def:crs:OGC:1.3:CRS84" } },
"features": [
{ "type": "Feature", "properties": { "visible_points": 10, "total_points": 52, "visibility_pct": 19.230769230769234 }, "geometry": { "type": "Point", "coordinates": [ -2.626880839892997, 53.643013629927182 ] } },
{ "type": "Feature", "properties": { "visible_points": 4, "total_points": 55, "visibility_pct": 7.2727272727272725 }, "geometry": { "type": "Point", "coordinates": [ -2.626671260233224, 53.643014725895462 ] } },
{ "type": "Feature", "properties": { "visible_points": 7, "total_points": 55, "visibility_pct": 12.727272727272727 }, "geometry": { "type": "Point", "coordinates": [ -2.626461680559599, 53.643015821496995 ] } },
{ "type": "Feature", "properties": { "visible_points": 8, "total_points": 54, "visibility_pct": 14.814814814814813 }, "geometry": { "type": "Point", "coordinates": [ -2.626252100872107, 53.643016916731746 ] } },
{ "type": "Feature", "properties": { "visible_points": 14, "total_points": 55, "visibility_pct": 25.454545454545453 }, "geometry": { "type": "Point", "coordinates": [ -2.626987227624155, 53.643120935601075 ] } },
{ "type": "Feature", "properties": { "visible_points": 13, "total_points": 59, "visibility_pct": 22.033898305084744 }, "geometry": { "type": "Point", "coordinates": [ -2.626777647433933, 53.643122031763099 ] } },
{ "type": "Feature", "properties": { "visible_points": 13, "total_points": 59, "visibility_pct": 22.033898305084744 }, "geometry": { "type": "Point", "coordinates": [ -2.626568067229851, 53.643123127558354 ] } },
{ "type": "Feature", "properties": { "visible_points": 9, "total_points": 59, "visibility_pct": 15.254237288135593 }, "geometry": { "type": "Point", "coordinates": [ -2.626358487011902, 53.643124222986842 ] } },
{ "type": "Feature", "properties": { "visible_points": 11, "total_points": 57, "visibility_pct": 19.298245614035086 }, "geometry": { "type": "Point", "coordinates": [ -2.6261489067801, 53.643125318048533 ] } },
{ "type": "Feature", "properties": { "visible_points": 12, "total_points": 54, "visibility_pct": 22.222222222222221 }, "geometry": { "type": "Point", "coordinates": [ -2.627093615899631, 53.643228241170824 ] } },
{ "type": "Feature", "properties": { "visible_points": 14, "total_points": 59, "visibility_pct": 23.728813559322035 }, "geometry": { "type": "Point", "coordinates": [ -2.626884035178953, 53.643229337526591 ] } },
{ "type": "Feature", "properties": { "visible_points": 8, "total_points": 59, "visibility_pct": 13.559322033898304 }, "geometry": { "type": "Point", "coordinates": [ -2.626674454444412, 53.643230433515591 ] } },
{ "type": "Feature", "properties": { "visible_points": 11, "total_points": 59, "visibility_pct": 18.64406779661017 }, "geometry": { "type": "Point", "coordinates": [ -2.626464873696009, 53.643231529137793 ] } },
{ "type": "Feature", "properties": { "visible_points": 7, "total_points": 59, "visibility_pct": 11.864406779661017 }, "geometry": { "type": "Point", "coordinates": [ -2.626255292933744, 53.643232624393242 ] } },
{ "type": "Feature", "properties": { "visible_points": 9, "total_points": 56, "visibility_pct": 16.071428571428573 }, "geometry": { "type": "Point", "coordinates": [ -2.626045712157625, 53.643233719281902 ] } },
{ "type": "Feature", "properties": { "visible_points": 12, "total_points": 58, "visibility_pct": 20.689655172413794 }, "geometry": { "type": "Point", "coordinates": [ -2.6269904234683, 53.643336643185968 ] } },
{ "type": "Feature", "properties": { "visible_points": 13, "total_points": 59, "visibility_pct": 22.033898305084744 }, "geometry": { "type": "Point", "coordinates": [ -2.626780842203296, 53.643337739368718 ] } },
{ "type": "Feature", "properties": { "visible_points": 9, "total_points": 59, "visibility_pct": 15.254237288135593 }, "geometry": { "type": "Point", "coordinates": [ -2.626571260924429, 53.643338835184672 ] } },
{ "type": "Feature", "properties": { "visible_points": 10, "total_points": 59, "visibility_pct": 16.949152542372879 }, "geometry": { "type": "Point", "coordinates": [ -2.626361679631702, 53.643339930633843 ] } },
{ "type": "Feature", "properties": { "visible_points": 9, "total_points": 58, "visibility_pct": 15.517241379310345 }, "geometry": { "type": "Point", "coordinates": [ -2.626152098325115, 53.643341025716246 ] } },
{ "type": "Feature", "properties": { "visible_points": 10, "total_points": 52, "visibility_pct": 19.230769230769234 }, "geometry": { "type": "Point", "coordinates": [ -2.625942517004681, 53.643342120431868 ] } },
{ "type": "Feature", "properties": { "visible_points": 11, "total_points": 57, "visibility_pct": 19.298245614035086 }, "geometry": { "type": "Point", "coordinates": [ -2.626887230506504, 53.64344504511773 ] } },
{ "type": "Feature", "properties": { "visible_points": 8, "total_points": 59, "visibility_pct": 13.559322033898304 }, "geometry": { "type": "Point", "coordinates": [ -2.626677648697171, 53.643446141127406 ] } },
{ "type": "Feature", "properties": { "visible_points": 10, "total_points": 59, "visibility_pct": 16.949152542372879 }, "geometry": { "type": "Point", "coordinates": [ -2.626468066873973, 53.643447236770328 ] } },
{ "type": "Feature", "properties": { "visible_points": 9, "total_points": 58, "visibility_pct": 15.517241379310345 }, "geometry": { "type": "Point", "coordinates": [ -2.626258485036922, 53.643448332046461 ] } },
{ "type": "Feature", "properties": { "visible_points": 4, "total_points": 53, "visibility_pct": 7.5471698113207548 }, "geometry": { "type": "Point", "coordinates": [ -2.626048903186013, 53.643449426955812 ] } },
{ "type": "Feature", "properties": { "visible_points": 13, "total_points": 54, "visibility_pct": 24.074074074074073 }, "geometry": { "type": "Point", "coordinates": [ -2.626784037014238, 53.643553446966045 ] } },
{ "type": "Feature", "properties": { "visible_points": 9, "total_points": 55, "visibility_pct": 16.363636363636363 }, "geometry": { "type": "Point", "coordinates": [ -2.626574454660573, 53.643554542802697 ] } },
{ "type": "Feature", "properties": { "visible_points": 5, "total_points": 54, "visibility_pct": 9.2592592592592595 }, "geometry": { "type": "Point", "coordinates": [ -2.626364872293048, 53.643555638272574 ] } }
]
}
