{
"type": "FeatureCollection",
"name": "d3cf47dbd0e0_visibility",
"crs": { "type": "name", "properties": { "name": "urn:ogc:def:crs:OGC:1.3:CRS84" } },
"features": [
{ "type": "Feature", "properties": { "visible_points": 0, "total_points": 62, "visibility_pct": 0.0 }, "geometry": { "type": "Point", "coordinates": [ -2.566306518466467, 53.702975072993212 ] } },
{ "type": "Feature", "properties": { "visible_points": 4, "total_points": 57, "visibility_pct": 7.0175438596491224 }, "geometry": { "type": "Point", "coordinates": [ -2.566096638910863, 53.702976065156221 ] } },
{ "type": "Feature", "properties": { "visible_points": 4, "total_points": 52, "visibility_pct": 7.6923076923076925 }, "geometry": { "type": "Point", "coordinates": [ -2.565886759342686, 53.702977056951511 ] } },
{ "type": "Feature", "properties": { "visible_points": 5, "total_points": 72, "visibility_pct": 6.9444444444444446 }, "geometry": { "type": "Point", "coordinates": [ -2.566412906935303, 53.703082427355781 ] } },
{ "type": "Feature", "properties": { "visible_points": 5, "total_points": 67, "visibility_pct": 7.4626865671641784 }, "geometry": { "type": "Point", "coordinates": [ -2.566203026846102, 53.703083419705372 ] } },
{ "type": "Feature", "properties": { "visible_points": 0, "total_points": 61, "visibility_pct": 0.0 }, "geometry": { "type": "Point", "coordinates": [ -2.565993146744324, 53.703084411687243 ] } },
{ "type": "Feature", "properties": { "visible_points": 0, "total_points": 54, "visibility_pct": 0.0 }, "geometry": { "type": "Point", "coordinates": [ -2.565783266629964, 53.703085403301387 ] } },
{ "type": "Feature", "properties": { "visible_points": 0, "total_points": 84, "visibility_pct": 0.0 }, "geometry": { "type": "Point", "coordinates": [ -2.56672917656052, 53.703188788717888 ] } },
{ "type": "Feature", "properties": { "visible_points": 7, "total_points": 83, "visibility_pct": 8.4337349397590362 }, "geometry": { "type": "Point", "coordinates": [ -2.566519295950316, 53.703189781621759 ] } },
{ "type": "Feature", "properties": { "visible_points": 4, "total_points": 77, "visibility_pct": 5.1948051948051948 }, "geometry": { "type": "Point", "coordinates": [ -2.566309415327518, 53.703190774157939 ] } },
{ "type": "Feature", "properties": { "visible_points": 2, "total_points": 70, "visibility_pct": 2.8571428571428572 }, "geometry": { "type": "Point", "coordinates": [ -2.566099534692132, 53.703191766326384 ] } },
{ "type": "Feature", "properties": { "visible_points": 0, "total_points": 63, "visibility_pct": 0.0 }, "geometry": { "type": "Point", "coordinates": [ -2.565889654044168, 53.703192758127095 ] } },
{ "type": "Feature", "properties": { "visible_points": 0, "total_points": 82, "visibility_pct": 0.0 }, "geometry": { "type": "Point", "coordinates": [ -2.567045447786523, 53.703295149242507 ] } },
{ "type": "Feature", "properties": { "visible_points": 0, "total_points": 90, "visibility_pct": 0.0 }, "geometry": { "type": "Point", "coordinates": [ -2.566835566655314, 53.703296142700701 ] } },
{ "type": "Feature", "properties": { "visible_points": 12, "total_points": 92, "visibility_pct": 13.043478260869565 }, "geometry": { "type": "Point", "coordinates": [ -2.566625685511507, 53.703297135791153 ] } },
{ "type": "Feature", "properties": { "visible_points": 10, "total_points": 87, "visibility_pct": 11.494252873563218 }, "geometry": { "type": "Point", "coordinates": [ -2.566415804355108, 53.703298128513886 ] } },
{ "type": "Feature", "properties": { "visible_points": 6, "total_points": 80, "visibility_pct": 7.5 }, "geometry": { "type": "Point", "coordinates": [ -2.566205923186121, 53.703299120868905 ] } },
{ "type": "Feature", "properties": { "visible_points": 0, "total_points": 72, "visibility_pct": 0.0 }, "geometry": { "type": "Point", "coordinates": [ -2.565996042004547, 53.703300112856198 ] } },
{ "type": "Feature", "properties": { "visible_points": 0, "total_points": 79, "visibility_pct": 0.0 }, "geometry": { "type": "Point", "coordinates": [ -2.567361720613305, 53.703401508929659 ] } },
{ "type": "Feature", "properties": { "visible_points": 0, "total_points": 87, "visibility_pct": 0.0 }, "geometry": { "type": "Point", "coordinates": [ -2.5671518389611, 53.703402502942133 ] } },
{ "type": "Feature", "properties": { "visible_points": 11, "total_points": 94, "visibility_pct": 11.702127659574469 }, "geometry": { "type": "Point", "coordinates": [ -2.566941957296295, 53.703403496586901 ] } },
{ "type": "Feature", "properties": { "visible_points": 13, "total_points": 97, "visibility_pct": 13.402061855670103 }, "geometry": { "type": "Point", "coordinates": [ -2.566732075618885, 53.703404489863942 ] } },
{ "type": "Feature", "properties": { "visible_points": 12, "total_points": 95, "visibility_pct": 12.631578947368421 }, "geometry": { "type": "Point", "coordinates": [ -2.566522193928881, 53.703405482773263 ] } },
{ "type": "Feature", "properties": { "visible_points": 9, "total_points": 90, "visibility_pct": 10.0 }, "geometry": { "type": "Point", "coordinates": [ -2.566312312226283, 53.703406475314843 ] } },
{ "type": "Feature", "properties": { "visible_points": 0, "total_points": 81, "visibility_pct": 0.0 }, "geometry": { "type": "Point", "coordinates": [ -2.566102430511105, 53.703407467488695 ] } },
{ "type": "Feature", "properties": { "visible_points": 3, "total_points": 83, "visibility_pct": 3.6144578313253009 }, "geometry": { "type": "Point", "coordinates": [ -2.567468112867679, 53.703508862346091 ] } },
{ "type": "Feature", "properties": { "visible_points": 0, "total_points": 91, "visibility_pct": 0.0 }, "geometry": { "type": "Point", "coordinates": [ -2.567258230681874, 53.703509856545168 ] } },
{ "type": "Feature", "properties": { "visible_points": 2, "total_points": 99, "visibility_pct": 2.0202020202020203 }, "geometry": { "type": "Point", "coordinates": [ -2.567048348483463, 53.703510850376503 ] } },
{ "type": "Feature", "properties": { "visible_points": 11, "total_points": 101, "visibility_pct": 10.891089108910892 }, "geometry": { "type": "Point", "coordinates": [ -2.566838466272452, 53.703511843840126 ] } },
{ "type": "Feature", "properties": { "visible_points": 13, "total_points": 99, "visibility_pct": 13.131313131313133 }, "geometry": { "type": "Point", "coordinates": [ -2.566628584048842, 53.703512836936014 ] } },
{ "type": "Feature", "properties": { "visible_points": 0, "total_points": 94, "visibility_pct": 0.0 }, "geometry": { "type": "Point", "coordinates": [ -2.566418701812636, 53.703513829664168 ] } },
{ "type": "Feature", "properties": { "visible_points": 0, "total_points": 86, "visibility_pct": 0.0 }, "geometry": { "type": "Point", "coordinates": [ -2.566208819563841, 53.703514822024601 ] } },
{ "type": "Feature", "properties": { "visible_points": 2, "total_points": 88, "visibility_pct": 2.2727272727272729 }, "geometry": { "type": "Point", "coordinates": [ -2.567574505668253, 53.703616215665932 ] } },
{ "type": "Feature", "properties": { "visible_points": 3, "total_points": 95, "visibility_pct": 3.1578947368421053 }, "geometry": { "type": "Point", "coordinates": [ -2.567364622948844, 53.703617210051576 ] } },
{ "type": "Feature", "properties": { "visible_points": 0, "total_points": 103, "visibility_pct": 0.0 }, "geometry": { "type": "Point", "coordinates": [ -2.567154740216835, 53.7036182040695 ] } },
{ "type": "Feature", "properties": { "visible_points": 14, "total_points": 104, "visibility_pct": 13.461538461538462 }, "geometry": { "type": "Point", "coordinates": [ -2.56694485747221, 53.703619197719682 ] } },
{ "type": "Feature", "properties": { "visible_points": 12, "total_points": 102, "visibility_pct": 11.76470588235294 }, "geometry": { "type": "Point", "coordinates": [ -2.566734974714987, 53.703620191002159 ] } },
{ "type": "Feature", "properties": { "visible_points": 10, "total_points": 96, "visibility_pct": 10.416666666666668 }, "geometry": { "type": "Point", "coordinates": [ -2.566525091945177, 53.703621183916894 ] } },
{ "type": "Feature", "properties": { "visible_points": 0, "total_points": 88, "visibility_pct": 0.0 }, "geometry": { "type": "Point", "coordinates": [ -2.56631520916277, 53.703622176463909 ] } },
{ "type": "Feature", "properties": { "visible_points": 0, "total_points": 84, "visibility_pct": 0.0 }, "geometry": { "type": "Point", "coordinates": [ -2.567890782255421, 53.703722573949193 ] } },
{ "type": "Feature", "properties": { "visible_points": 0, "total_points": 92, "visibility_pct": 0.0 }, "geometry": { "type": "Point", "coordinates": [ -2.567680899015029, 53.703723568889146 ] } },
{ "type": "Feature", "properties": { "visible_points": 13, "total_points": 100, "visibility_pct": 13.0 }, "geometry": { "type": "Point", "coordinates": [ -2.567471015762023, 53.703724563461378 ] } },
{ "type": "Feature", "properties": { "visible_points": 0, "total_points": 107, "visibility_pct": 0.0 }, "geometry": { "type": "Point", "coordinates": [ -2.567261132496398, 53.703725557665869 ] } },
{ "type": "Feature", "properties": { "visible_points": 18, "total_points": 108, "visibility_pct": 16.666666666666664 }, "geometry": { "type": "Point", "coordinates": [ -2.567051249218169, 53.703726551502655 ] } },
{ "type": "Feature", "properties": { "visible_points": 12, "total_points": 105, "visibility_pct": 11.428571428571429 }, "geometry": { "type": "Point", "coordinates": [ -2.56684136592734, 53.703727544971699 ] } },
{ "type": "Feature", "properties": { "visible_points": 14, "total_points": 98, "visibility_pct": 14.285714285714285 }, "geometry": { "type": "Point", "coordinates": [ -2.566631482623912, 53.703728538073022 ] } },
{ "type": "Feature", "properties": { "visible_points": 0, "total_points": 88, "visibility_pct": 0.0 }, "geometry": { "type": "Point", "coordinates": [ -2.566421599307887, 53.703729530806619 ] } },
{ "type": "Feature", "properties": { "visible_points": 0, "total_points": 86, "visibility_pct": 0.0 }, "geometry": { "type": "Point", "coordinates": [ -2.567997176674556, 53.703829926886549 ] } },
{ "type": "Feature", "properties": { "visible_points": 0, "total_points": 96, "visibility_pct": 0.0 }, "geometry": { "type": "Point", "coordinates": [ -2.567787292908017, 53.703830922015761 ] } },
{ "type": "Feature", "properties": { "visible_points": 0, "total_points": 104, "visibility_pct": 0.0 }, "geometry": { "type": "Point", "coordinates": [ -2.567577409121402, 53.703831916774575 ] } },
{ "type": "Feature", "properties": { "visible_points": 25, "total_points": 110, "visibility_pct": 22.727272727272727 }, "geometry": { "type": "Point", "coordinates": [ -2.567367525322171, 53.703832911165648 ] } },
{ "type": "Feature", "properties": { "visible_points": 23, "total_points": 110, "visibility_pct": 20.909090909090907 }, "geometry": { "type": "Point", "coordinates": [ -2.567157641510333, 53.703833905189029 ] } },
{ "type": "Feature", "properties": { "visible_points": 19, "total_points": 106, "visibility_pct": 17.924528301886792 }, "geometry": { "type": "Point", "coordinates": [ -2.56694775768589, 53.703834898844654 ] } },
{ "type": "Feature", "properties": { "visible_points": 15, "total_points": 97, "visibility_pct": 15.463917525773196 }, "geometry": { "type": "Point", "coordinates": [ -2.566737873848841, 53.703835892132552 ] } },
{ "type": "Feature", "properties": { "visible_points": 0, "total_points": 87, "visibility_pct": 0.0 }, "geometry": { "type": "Point", "coordinates": [ -2.566527989999202, 53.703836885052716 ] } },
{ "type": "Feature", "properties": { "visible_points": 0, "total_points": 87, "visibility_pct": 0.0 }, "geometry": { "type": "Point", "coordinates": [ -2.568103571619359, 53.703937279712719 ] } },
{ "type": "Feature", "properties": { "visible_points": 0, "total_points": 98, "visibility_pct": 0.0 }, "geometry": { "type": "Point", "coordinates": [ -2.567893687347219, 53.703938275045758 ] } },
{ "type": "Feature", "properties": { "visible_points": 25, "total_points": 107, "visibility_pct": 23.364485981308412 }, "geometry": { "type": "Point", "coordinates": [ -2.567683803026996, 53.70393926999116 ] } },
{ "type": "Feature", "properties": { "visible_points": 29, "total_points": 112, "visibility_pct": 25.892857142857146 }, "geometry": { "type": "Point", "coordinates": [ -2.567473918694157, 53.703940264568836 ] } },
{ "type": "Feature", "properties": { "visible_points": 24, "total_points": 111, "visibility_pct": 21.621621621621621 }, "geometry": { "type": "Point", "coordinates": [ -2.567264034348702, 53.703941258778784 ] } },
{ "type": "Feature", "properties": { "visible_points": 23, "total_points": 105, "visibility_pct": 21.904761904761905 }, "geometry": { "type": "Point", "coordinates": [ -2.567054149990643, 53.70394225262099 ] } },
{ "type": "Feature", "properties": { "visible_points": 23, "total_points": 96, "visibility_pct": 23.958333333333336 }, "geometry": { "type": "Point", "coordinates": [ -2.566844265619981, 53.70394324609547 ] } },
{ "type": "Feature", "properties": { "visible_points": 0, "total_points": 86, "visibility_pct": 0.0 }, "geometry": { "type": "Point", "coordinates": [ -2.566634381236719, 53.703944239202208 ] } },
{ "type": "Feature", "properties": { "visible_points": 0, "total_points": 73, "visibility_pct": 0.0 }, "geometry": { "type": "Point", "coordinates": [ -2.568419851814069, 53.704043636460675 ] } },
{ "type": "Feature", "properties": { "visible_points": 0, "total_points": 86, "visibility_pct": 0.0 }, "geometry": { "type": "Point", "coordinates": [ -2.568209967099193, 53.704044632419638 ] } },
{ "type": "Feature", "properties": { "visible_points": 0, "total_points": 98, "visibility_pct": 0.0 }, "geometry": { "type": "Point", "coordinates": [ -2.568000082324787, 53.704045627976015 ] } },
{ "type": "Feature", "properties": { "visible_points": 22, "total_points": 108, "visibility_pct": 20.37037037037037 }, "geometry": { "type": "Point", "coordinates": [ -2.567790197478807, 53.70404662311114 ] } },
{ "type": "Feature", "properties": { "visible_points": 26, "total_points": 113, "visibility_pct": 23.008849557522122 }, "geometry": { "type": "Point", "coordinates": [ -2.567580312612355, 53.704047617875396 ] } },
{ "type": "Feature", "properties": { "visible_points": 25, "total_points": 111, "visibility_pct": 22.522522522522522 }, "geometry": { "type": "Point", "coordinates": [ -2.567370427733287, 53.704048612271926 ] } },
{ "type": "Feature", "properties": { "visible_points": 22, "total_points": 104, "visibility_pct": 21.153846153846153 }, "geometry": { "type": "Point", "coordinates": [ -2.567160542841608, 53.704049606300721 ] } },
{ "type": "Feature", "properties": { "visible_points": 23, "total_points": 95, "visibility_pct": 24.210526315789473 }, "geometry": { "type": "Point", "coordinates": [ -2.566950657937323, 53.704050599961775 ] } },
{ "type": "Feature", "properties": { "visible_points": 0, "total_points": 85, "visibility_pct": 0.0 }, "geometry": { "type": "Point", "coordinates": [ -2.56674077302044, 53.704051593255109 ] } },
{ "type": "Feature", "properties": { "visible_points": 4, "total_points": 69, "visibility_pct": 5.7971014492753623 }, "geometry": { "type": "Point", "coordinates": [ -2.568526248360527, 53.704150988871412 ] } },
{ "type": "Feature", "properties": { "visible_points": 12, "total_points": 82, "visibility_pct": 14.634146341463413 }, "geometry": { "type": "Point", "coordinates": [ -2.568316363109638, 53.704151985019948 ] } },
{ "type": "Feature", "properties": { "visible_points": 9, "total_points": 95, "visibility_pct": 9.4736842105263168 }, "geometry": { "type": "Point", "coordinates": [ -2.568106477829437, 53.704152980793637 ] } },
{ "type": "Feature", "properties": { "visible_points": 21, "total_points": 108, "visibility_pct": 19.444444444444446 }, "geometry": { "type": "Point", "coordinates": [ -2.567896592476841, 53.704153976134485 ] } },
{ "type": "Feature", "properties": { "visible_points": 26, "total_points": 113, "visibility_pct": 23.008849557522122 }, "geometry": { "type": "Point", "coordinates": [ -2.567686707076772, 53.704154971085345 ] } },
{ "type": "Feature", "properties": { "visible_points": 22, "total_points": 110, "visibility_pct": 20.0 }, "geometry": { "type": "Point", "coordinates": [ -2.567476821664086, 53.704155965668456 ] } },
{ "type": "Feature", "properties": { "visible_points": 21, "total_points": 102, "visibility_pct": 20.588235294117645 }, "geometry": { "type": "Point", "coordinates": [ -2.567266936238789, 53.704156959883839 ] } },
{ "type": "Feature", "properties": { "visible_points": 21, "total_points": 93, "visibility_pct": 22.58064516129032 }, "geometry": { "type": "Point", "coordinates": [ -2.56705705080088, 53.704157953731475 ] } },
{ "type": "Feature", "properties": { "visible_points": 0, "total_points": 83, "visibility_pct": 0.0 }, "geometry": { "type": "Point", "coordinates": [ -2.566847165350373, 53.704158947211397 ] } },
{ "type": "Feature", "properties": { "visible_points": 8, "total_points": 64, "visibility_pct": 12.5 }, "geometry": { "type": "Point", "coordinates": [ -2.56863264545567, 53.704258341182531 ] } },
{ "type": "Feature", "properties": { "visible_points": 17, "total_points": 77, "visibility_pct": 22.077922077922079 }, "geometry": { "type": "Point", "coordinates": [ -2.568422759668765, 53.704259337520625 ] } },
{ "type": "Feature", "properties": { "visible_points": 24, "total_points": 90, "visibility_pct": 26.666666666666668 }, "geometry": { "type": "Point", "coordinates": [ -2.568212873869177, 53.704260333491021 ] } },
{ "type": "Feature", "properties": { "visible_points": 24, "total_points": 102, "visibility_pct": 23.52941176470588 }, "geometry": { "type": "Point", "coordinates": [ -2.568002988012909, 53.704261329057601 ] } },
{ "type": "Feature", "properties": { "visible_points": 25, "total_points": 110, "visibility_pct": 22.727272727272727 }, "geometry": { "type": "Point", "coordinates": [ -2.567793102087417, 53.704262324198673 ] } },
{ "type": "Feature", "properties": { "visible_points": 25, "total_points": 108, "visibility_pct": 23.148148148148149 }, "geometry": { "type": "Point", "coordinates": [ -2.567583216141105, 53.70426331896838 ] } },
{ "type": "Feature", "properties": { "visible_points": 21, "total_points": 100, "visibility_pct": 21.0 }, "geometry": { "type": "Point", "coordinates": [ -2.56737333018219, 53.704264313370352 ] } },
{ "type": "Feature", "properties": { "visible_points": 24, "total_points": 91, "visibility_pct": 26.373626373626376 }, "geometry": { "type": "Point", "coordinates": [ -2.567163444210656, 53.704265307404576 ] } },
{ "type": "Feature", "properties": { "visible_points": 0, "total_points": 81, "visibility_pct": 0.0 }, "geometry": { "type": "Point", "coordinates": [ -2.56695355822652, 53.704266301071065 ] } },
{ "type": "Feature", "properties": { "visible_points": 3, "total_points": 69, "visibility_pct": 4.3478260869565215 }, "geometry": { "type": "Point", "coordinates": [ -2.568529156776576, 53.704366689921663 ] } },
{ "type": "Feature", "properties": { "visible_points": 22, "total_points": 81, "visibility_pct": 27.160493827160494 }, "geometry": { "type": "Point", "coordinates": [ -2.56831927044097, 53.704367686081618 ] } },
{ "type": "Feature", "properties": { "visible_points": 25, "total_points": 91, "visibility_pct": 27.472527472527474 }, "geometry": { "type": "Point", "coordinates": [ -2.568109384077433, 53.704368681866612 ] } },
{ "type": "Feature", "properties": { "visible_points": 25, "total_points": 98, "visibility_pct": 25.510204081632654 }, "geometry": { "type": "Point", "coordinates": [ -2.567899497644288, 53.704369677215404 ] } },
{ "type": "Feature", "properties": { "visible_points": 25, "total_points": 101, "visibility_pct": 24.752475247524753 }, "geometry": { "type": "Point", "coordinates": [ -2.567689611164357, 53.704370672171684 ] } },
{ "type": "Feature", "properties": { "visible_points": 26, "total_points": 96, "visibility_pct": 27.083333333333332 }, "geometry": { "type": "Point", "coordinates": [ -2.56747972467181, 53.704371666760245 ] } },
{ "type": "Feature", "properties": { "visible_points": 12, "total_points": 88, "visibility_pct": 13.636363636363635 }, "geometry": { "type": "Point", "coordinates": [ -2.567269838166655, 53.704372660981072 ] } },
{ "type": "Feature", "properties": { "visible_points": 0, "total_points": 79, "visibility_pct": 0.0 }, "geometry": { "type": "Point", "coordinates": [ -2.567059951648888, 53.704373654834143 ] } },
{ "type": "Feature", "properties": { "visible_points": 16, "total_points": 71, "visibility_pct": 22.535211267605636 }, "geometry": { "type": "Point", "coordinates": [ -2.568425667561455, 53.704475038572575 ] } },
{ "type": "Feature", "properties": { "visible_points": 22, "total_points": 80, "visibility_pct": 27.5 }, "geometry": { "type": "Point", "coordinates": [ -2.568215780677137, 53.704476034554418 ] } },
{ "type": "Feature", "properties": { "visible_points": 25, "total_points": 86, "visibility_pct": 29.069767441860467 }, "geometry": { "type": "Point", "coordinates": [ -2.568005893738922, 53.704477030131336 ] } },
{ "type": "Feature", "properties": { "visible_points": 27, "total_points": 89, "visibility_pct": 30.337078651685395 }, "geometry": { "type": "Point", "coordinates": [ -2.567796006733838, 53.704478025278391 ] } },
{ "type": "Feature", "properties": { "visible_points": 19, "total_points": 88, "visibility_pct": 21.59090909090909 }, "geometry": { "type": "Point", "coordinates": [ -2.567586119707667, 53.704479020053533 ] } },
{ "type": "Feature", "properties": { "visible_points": 0, "total_points": 83, "visibility_pct": 0.0 }, "geometry": { "type": "Point", "coordinates": [ -2.567376232668879, 53.704480014460948 ] } },
{ "type": "Feature", "properties": { "visible_points": 12, "total_points": 68, "visibility_pct": 17.647058823529413 }, "geometry": { "type": "Point", "coordinates": [ -2.568322177810287, 53.704583387135308 ] } },
{ "type": "Feature", "properties": { "visible_points": 24, "total_points": 74, "visibility_pct": 32.432432432432435 }, "geometry": { "type": "Point", "coordinates": [ -2.568112290363344, 53.704584382931628 ] } },
{ "type": "Feature", "properties": { "visible_points": 25, "total_points": 77, "visibility_pct": 32.467532467532465 }, "geometry": { "type": "Point", "coordinates": [ -2.567902402849553, 53.704585378288471 ] } },
{ "type": "Feature", "properties": { "visible_points": 0, "total_points": 78, "visibility_pct": 0.0 }, "geometry": { "type": "Point", "coordinates": [ -2.567692515289753, 53.704586373250216 ] } },
{ "type": "Feature", "properties": { "visible_points": 0, "total_points": 75, "visibility_pct": 0.0 }, "geometry": { "type": "Point", "coordinates": [ -2.567482627717334, 53.704587367844219 ] } },
{ "type": "Feature", "properties": { "visible_points": 0, "total_points": 62, "visibility_pct": 0.0 }, "geometry": { "type": "Point", "coordinates": [ -2.568218687523086, 53.704691735609821 ] } },
{ "type": "Feature", "properties": { "visible_points": 18, "total_points": 66, "visibility_pct": 27.27272727272727 }, "geometry": { "type": "Point", "coordinates": [ -2.568008799502825, 53.704692731197206 ] } },
{ "type": "Feature", "properties": { "visible_points": 0, "total_points": 67, "visibility_pct": 0.0 }, "geometry": { "type": "Point", "coordinates": [ -2.567798911418079, 53.704693726350271 ] } },
{ "type": "Feature", "properties": { "visible_points": 2, "total_points": 57, "visibility_pct": 3.5087719298245612 }, "geometry": { "type": "Point", "coordinates": [ -2.567905308092648, 53.704801079353714 ] } }
]
}
