{
"type": "FeatureCollection",
"name": "c9d105dc4ecc_visibility",
"crs": { "type": "name", "properties": { "name": "urn:ogc:def:crs:OGC:1.3:CRS84" } },
"features": [
{ "type": "Feature", "properties": { "visible_points": 34, "total_points": 65, "visibility_pct": 52.307692307692314 }, "geometry": { "type": "Point", "coordinates": [ -2.207012861373696, 53.806290682413504 ] } },
{ "type": "Feature", "properties": { "visible_points": 36, "total_points": 60, "visibility_pct": 60.0 }, "geometry": { "type": "Point", "coordinates": [ -2.206802456925577, 53.806291045402943 ] } },
{ "type": "Feature", "properties": { "visible_points": 28, "total_points": 53, "visibility_pct": 52.830188679245282 }, "geometry": { "type": "Point", "coordinates": [ -2.206592052472888, 53.806291408023213 ] } },
{ "type": "Feature", "properties": { "visible_points": 30, "total_points": 77, "visibility_pct": 38.961038961038966 }, "geometry": { "type": "Point", "coordinates": [ -2.207539408462738, 53.806397627979592 ] } },
{ "type": "Feature", "properties": { "visible_points": 31, "total_points": 81, "visibility_pct": 38.271604938271601 }, "geometry": { "type": "Point", "coordinates": [ -2.207329003489521, 53.80639799189283 ] } },
{ "type": "Feature", "properties": { "visible_points": 36, "total_points": 77, "visibility_pct": 46.753246753246749 }, "geometry": { "type": "Point", "coordinates": [ -2.207118598511712, 53.806398355436919 ] } },
{ "type": "Feature", "properties": { "visible_points": 35, "total_points": 71, "visibility_pct": 49.295774647887328 }, "geometry": { "type": "Point", "coordinates": [ -2.206908193529318, 53.806398718611888 ] } },
{ "type": "Feature", "properties": { "visible_points": 38, "total_points": 65, "visibility_pct": 58.461538461538467 }, "geometry": { "type": "Point", "coordinates": [ -2.206697788542351, 53.806399081417709 ] } },
{ "type": "Feature", "properties": { "visible_points": 32, "total_points": 57, "visibility_pct": 56.140350877192979 }, "geometry": { "type": "Point", "coordinates": [ -2.206487383550807, 53.806399443854403 ] } },
{ "type": "Feature", "properties": { "visible_points": 20, "total_points": 61, "visibility_pct": 32.786885245901637 }, "geometry": { "type": "Point", "coordinates": [ -2.208065958209342, 53.806504571231827 ] } },
{ "type": "Feature", "properties": { "visible_points": 24, "total_points": 71, "visibility_pct": 33.802816901408448 }, "geometry": { "type": "Point", "coordinates": [ -2.207855552711039, 53.806504936068855 ] } },
{ "type": "Feature", "properties": { "visible_points": 30, "total_points": 81, "visibility_pct": 37.037037037037038 }, "geometry": { "type": "Point", "coordinates": [ -2.207645147208143, 53.806505300536756 ] } },
{ "type": "Feature", "properties": { "visible_points": 34, "total_points": 90, "visibility_pct": 37.777777777777779 }, "geometry": { "type": "Point", "coordinates": [ -2.207434741700647, 53.80650566463553 ] } },
{ "type": "Feature", "properties": { "visible_points": 41, "total_points": 90, "visibility_pct": 45.555555555555557 }, "geometry": { "type": "Point", "coordinates": [ -2.20722433618857, 53.806506028365142 ] } },
{ "type": "Feature", "properties": { "visible_points": 41, "total_points": 84, "visibility_pct": 48.80952380952381 }, "geometry": { "type": "Point", "coordinates": [ -2.2070139306719, 53.806506391725641 ] } },
{ "type": "Feature", "properties": { "visible_points": 42, "total_points": 77, "visibility_pct": 54.54545454545454 }, "geometry": { "type": "Point", "coordinates": [ -2.20680352515065, 53.806506754716999 ] } },
{ "type": "Feature", "properties": { "visible_points": 37, "total_points": 68, "visibility_pct": 54.411764705882348 }, "geometry": { "type": "Point", "coordinates": [ -2.206593119624824, 53.80650711733923 ] } },
{ "type": "Feature", "properties": { "visible_points": 0, "total_points": 61, "visibility_pct": 0.0 }, "geometry": { "type": "Point", "coordinates": [ -2.208171698562137, 53.806612243322711 ] } },
{ "type": "Feature", "properties": { "visible_points": 23, "total_points": 72, "visibility_pct": 31.944444444444443 }, "geometry": { "type": "Point", "coordinates": [ -2.207961292529569, 53.806612608345276 ] } },
{ "type": "Feature", "properties": { "visible_points": 31, "total_points": 83, "visibility_pct": 37.349397590361441 }, "geometry": { "type": "Point", "coordinates": [ -2.207750886492397, 53.806612972998707 ] } },
{ "type": "Feature", "properties": { "visible_points": 36, "total_points": 94, "visibility_pct": 38.297872340425535 }, "geometry": { "type": "Point", "coordinates": [ -2.207540480450631, 53.806613337283025 ] } },
{ "type": "Feature", "properties": { "visible_points": 36, "total_points": 101, "visibility_pct": 35.64356435643564 }, "geometry": { "type": "Point", "coordinates": [ -2.207330074404269, 53.806613701198188 ] } },
{ "type": "Feature", "properties": { "visible_points": 43, "total_points": 97, "visibility_pct": 44.329896907216494 }, "geometry": { "type": "Point", "coordinates": [ -2.207119668353321, 53.80661406474421 ] } },
{ "type": "Feature", "properties": { "visible_points": 43, "total_points": 89, "visibility_pct": 48.314606741573037 }, "geometry": { "type": "Point", "coordinates": [ -2.206909262297792, 53.806614427921104 ] } },
{ "type": "Feature", "properties": { "visible_points": 44, "total_points": 80, "visibility_pct": 55.000000000000007 }, "geometry": { "type": "Point", "coordinates": [ -2.206698856237681, 53.806614790728879 ] } },
{ "type": "Feature", "properties": { "visible_points": 31, "total_points": 70, "visibility_pct": 44.285714285714285 }, "geometry": { "type": "Point", "coordinates": [ -2.206488450172994, 53.806615153167485 ] } },
{ "type": "Feature", "properties": { "visible_points": 15, "total_points": 72, "visibility_pct": 20.833333333333336 }, "geometry": { "type": "Point", "coordinates": [ -2.20806703288695, 53.806720280526484 ] } },
{ "type": "Feature", "properties": { "visible_points": 26, "total_points": 84, "visibility_pct": 30.952380952380953 }, "geometry": { "type": "Point", "coordinates": [ -2.207856626315505, 53.806720645365466 ] } },
{ "type": "Feature", "properties": { "visible_points": 35, "total_points": 95, "visibility_pct": 36.84210526315789 }, "geometry": { "type": "Point", "coordinates": [ -2.207646219739464, 53.806721009835307 ] } },
{ "type": "Feature", "properties": { "visible_points": 39, "total_points": 106, "visibility_pct": 36.79245283018868 }, "geometry": { "type": "Point", "coordinates": [ -2.20743581315882, 53.806721373936007 ] } },
{ "type": "Feature", "properties": { "visible_points": 46, "total_points": 107, "visibility_pct": 42.990654205607477 }, "geometry": { "type": "Point", "coordinates": [ -2.207225406573594, 53.806721737667594 ] } },
{ "type": "Feature", "properties": { "visible_points": 46, "total_points": 101, "visibility_pct": 45.544554455445549 }, "geometry": { "type": "Point", "coordinates": [ -2.20701499998377, 53.806722101030019 ] } },
{ "type": "Feature", "properties": { "visible_points": 47, "total_points": 92, "visibility_pct": 51.086956521739133 }, "geometry": { "type": "Point", "coordinates": [ -2.206804593389381, 53.806722464023309 ] } },
{ "type": "Feature", "properties": { "visible_points": 41, "total_points": 81, "visibility_pct": 50.617283950617285 }, "geometry": { "type": "Point", "coordinates": [ -2.2065941867904, 53.806722826647452 ] } },
{ "type": "Feature", "properties": { "visible_points": 0, "total_points": 70, "visibility_pct": 0.0 }, "geometry": { "type": "Point", "coordinates": [ -2.208172773783199, 53.806827952612494 ] } },
{ "type": "Feature", "properties": { "visible_points": 23, "total_points": 82, "visibility_pct": 28.04878048780488 }, "geometry": { "type": "Point", "coordinates": [ -2.207962366677473, 53.80682831763702 ] } },
{ "type": "Feature", "properties": { "visible_points": 30, "total_points": 95, "visibility_pct": 31.578947368421051 }, "geometry": { "type": "Point", "coordinates": [ -2.207751959567152, 53.806828682292398 ] } },
{ "type": "Feature", "properties": { "visible_points": 37, "total_points": 107, "visibility_pct": 34.579439252336449 }, "geometry": { "type": "Point", "coordinates": [ -2.207541552452227, 53.806829046578635 ] } },
{ "type": "Feature", "properties": { "visible_points": 40, "total_points": 114, "visibility_pct": 35.087719298245609 }, "geometry": { "type": "Point", "coordinates": [ -2.207331145332714, 53.806829410495752 ] } },
{ "type": "Feature", "properties": { "visible_points": 46, "total_points": 110, "visibility_pct": 41.818181818181813 }, "geometry": { "type": "Point", "coordinates": [ -2.207120738208609, 53.806829774043713 ] } },
{ "type": "Feature", "properties": { "visible_points": 43, "total_points": 100, "visibility_pct": 43.0 }, "geometry": { "type": "Point", "coordinates": [ -2.206910331079923, 53.806830137222541 ] } },
{ "type": "Feature", "properties": { "visible_points": 43, "total_points": 89, "visibility_pct": 48.314606741573037 }, "geometry": { "type": "Point", "coordinates": [ -2.206699923946658, 53.806830500032234 ] } },
{ "type": "Feature", "properties": { "visible_points": 33, "total_points": 76, "visibility_pct": 43.421052631578952 }, "geometry": { "type": "Point", "coordinates": [ -2.206489516808821, 53.806830862472786 ] } },
{ "type": "Feature", "properties": { "visible_points": 0, "total_points": 80, "visibility_pct": 0.0 }, "geometry": { "type": "Point", "coordinates": [ -2.208068107578302, 53.806935989813347 ] } },
{ "type": "Feature", "properties": { "visible_points": 24, "total_points": 93, "visibility_pct": 25.806451612903224 }, "geometry": { "type": "Point", "coordinates": [ -2.207857699933697, 53.80693635465429 ] } },
{ "type": "Feature", "properties": { "visible_points": 32, "total_points": 105, "visibility_pct": 30.476190476190478 }, "geometry": { "type": "Point", "coordinates": [ -2.207647292284492, 53.806936719126057 ] } },
{ "type": "Feature", "properties": { "visible_points": 39, "total_points": 115, "visibility_pct": 33.913043478260867 }, "geometry": { "type": "Point", "coordinates": [ -2.20743688463069, 53.806937083228718 ] } },
{ "type": "Feature", "properties": { "visible_points": 41, "total_points": 115, "visibility_pct": 35.652173913043477 }, "geometry": { "type": "Point", "coordinates": [ -2.207226476972299, 53.806937446962223 ] } },
{ "type": "Feature", "properties": { "visible_points": 37, "total_points": 106, "visibility_pct": 34.905660377358487 }, "geometry": { "type": "Point", "coordinates": [ -2.207016069309321, 53.806937810326595 ] } },
{ "type": "Feature", "properties": { "visible_points": 43, "total_points": 95, "visibility_pct": 45.263157894736842 }, "geometry": { "type": "Point", "coordinates": [ -2.206805661641763, 53.806938173321811 ] } },
{ "type": "Feature", "properties": { "visible_points": 35, "total_points": 82, "visibility_pct": 42.68292682926829 }, "geometry": { "type": "Point", "coordinates": [ -2.206595253969624, 53.8069385359479 ] } },
{ "type": "Feature", "properties": { "visible_points": 0, "total_points": 88, "visibility_pct": 0.0 }, "geometry": { "type": "Point", "coordinates": [ -2.207963440839114, 53.80704402692097 ] } },
{ "type": "Feature", "properties": { "visible_points": 0, "total_points": 100, "visibility_pct": 0.0 }, "geometry": { "type": "Point", "coordinates": [ -2.207753032655621, 53.807044391578309 ] } },
{ "type": "Feature", "properties": { "visible_points": 33, "total_points": 110, "visibility_pct": 30.0 }, "geometry": { "type": "Point", "coordinates": [ -2.20754262446753, 53.807044755866485 ] } },
{ "type": "Feature", "properties": { "visible_points": 34, "total_points": 115, "visibility_pct": 29.565217391304348 }, "geometry": { "type": "Point", "coordinates": [ -2.207332216274847, 53.807045119785521 ] } },
{ "type": "Feature", "properties": { "visible_points": 40, "total_points": 111, "visibility_pct": 36.036036036036037 }, "geometry": { "type": "Point", "coordinates": [ -2.207121808077576, 53.807045483335422 ] } },
{ "type": "Feature", "properties": { "visible_points": 41, "total_points": 100, "visibility_pct": 41.0 }, "geometry": { "type": "Point", "coordinates": [ -2.206911399875718, 53.807045846516189 ] } },
{ "type": "Feature", "properties": { "visible_points": 41, "total_points": 89, "visibility_pct": 46.067415730337082 }, "geometry": { "type": "Point", "coordinates": [ -2.206700991669286, 53.807046209327815 ] } },
{ "type": "Feature", "properties": { "visible_points": 35, "total_points": 76, "visibility_pct": 46.05263157894737 }, "geometry": { "type": "Point", "coordinates": [ -2.206490583458273, 53.807046571770293 ] } },
{ "type": "Feature", "properties": { "visible_points": 0, "total_points": 92, "visibility_pct": 0.0 }, "geometry": { "type": "Point", "coordinates": [ -2.207858773565618, 53.807152063935312 ] } },
{ "type": "Feature", "properties": { "visible_points": 4, "total_points": 104, "visibility_pct": 3.8461538461538463 }, "geometry": { "type": "Point", "coordinates": [ -2.207648364843234, 53.807152428409047 ] } },
{ "type": "Feature", "properties": { "visible_points": 31, "total_points": 113, "visibility_pct": 27.43362831858407 }, "geometry": { "type": "Point", "coordinates": [ -2.207437956116258, 53.807152792513641 ] } },
{ "type": "Feature", "properties": { "visible_points": 36, "total_points": 114, "visibility_pct": 31.578947368421051 }, "geometry": { "type": "Point", "coordinates": [ -2.20722754738469, 53.807153156249072 ] } },
{ "type": "Feature", "properties": { "visible_points": 37, "total_points": 106, "visibility_pct": 34.905660377358487 }, "geometry": { "type": "Point", "coordinates": [ -2.207017138648536, 53.807153519615383 ] } },
{ "type": "Feature", "properties": { "visible_points": 41, "total_points": 95, "visibility_pct": 43.15789473684211 }, "geometry": { "type": "Point", "coordinates": [ -2.206806729907803, 53.807153882612532 ] } },
{ "type": "Feature", "properties": { "visible_points": 37, "total_points": 82, "visibility_pct": 45.121951219512198 }, "geometry": { "type": "Point", "coordinates": [ -2.206596321162486, 53.80715424524054 ] } },
{ "type": "Feature", "properties": { "visible_points": 3, "total_points": 85, "visibility_pct": 3.5294117647058822 }, "geometry": { "type": "Point", "coordinates": [ -2.207964515014488, 53.807259736197139 ] } },
{ "type": "Feature", "properties": { "visible_points": 0, "total_points": 97, "visibility_pct": 0.0 }, "geometry": { "type": "Point", "coordinates": [ -2.207754105757813, 53.807260100856411 ] } },
{ "type": "Feature", "properties": { "visible_points": 25, "total_points": 107, "visibility_pct": 23.364485981308412 }, "geometry": { "type": "Point", "coordinates": [ -2.207543696496538, 53.807260465146541 ] } },
{ "type": "Feature", "properties": { "visible_points": 32, "total_points": 114, "visibility_pct": 28.07017543859649 }, "geometry": { "type": "Point", "coordinates": [ -2.207333287230672, 53.80726082906753 ] } },
{ "type": "Feature", "properties": { "visible_points": 38, "total_points": 111, "visibility_pct": 34.234234234234236 }, "geometry": { "type": "Point", "coordinates": [ -2.207122877960217, 53.807261192619364 ] } },
{ "type": "Feature", "properties": { "visible_points": 40, "total_points": 100, "visibility_pct": 40.0 }, "geometry": { "type": "Point", "coordinates": [ -2.20691246868518, 53.807261555802064 ] } },
{ "type": "Feature", "properties": { "visible_points": 32, "total_points": 89, "visibility_pct": 35.955056179775283 }, "geometry": { "type": "Point", "coordinates": [ -2.206702059405563, 53.807261918615602 ] } },
{ "type": "Feature", "properties": { "visible_points": 0, "total_points": 89, "visibility_pct": 0.0 }, "geometry": { "type": "Point", "coordinates": [ -2.207859847211262, 53.807367773208568 ] } },
{ "type": "Feature", "properties": { "visible_points": 1, "total_points": 101, "visibility_pct": 0.99009900990099009 }, "geometry": { "type": "Point", "coordinates": [ -2.207649437415694, 53.80736813768425 ] } },
{ "type": "Feature", "properties": { "visible_points": 28, "total_points": 111, "visibility_pct": 25.225225225225223 }, "geometry": { "type": "Point", "coordinates": [ -2.207439027615521, 53.807368501790783 ] } },
{ "type": "Feature", "properties": { "visible_points": 34, "total_points": 113, "visibility_pct": 30.088495575221241 }, "geometry": { "type": "Point", "coordinates": [ -2.20722861781077, 53.80736886552814 ] } },
{ "type": "Feature", "properties": { "visible_points": 31, "total_points": 106, "visibility_pct": 29.245283018867923 }, "geometry": { "type": "Point", "coordinates": [ -2.20701820800142, 53.807369228896391 ] } },
{ "type": "Feature", "properties": { "visible_points": 28, "total_points": 95, "visibility_pct": 29.473684210526311 }, "geometry": { "type": "Point", "coordinates": [ -2.206807798187498, 53.807369591895487 ] } },
{ "type": "Feature", "properties": { "visible_points": 18, "total_points": 82, "visibility_pct": 21.951219512195124 }, "geometry": { "type": "Point", "coordinates": [ -2.206597388369, 53.807369954525413 ] } },
{ "type": "Feature", "properties": { "visible_points": 3, "total_points": 81, "visibility_pct": 3.7037037037037033 }, "geometry": { "type": "Point", "coordinates": [ -2.207965589203595, 53.807475445465521 ] } },
{ "type": "Feature", "properties": { "visible_points": 0, "total_points": 93, "visibility_pct": 0.0 }, "geometry": { "type": "Point", "coordinates": [ -2.207755178873721, 53.807475810126746 ] } },
{ "type": "Feature", "properties": { "visible_points": 15, "total_points": 105, "visibility_pct": 14.285714285714285 }, "geometry": { "type": "Point", "coordinates": [ -2.207544768539251, 53.807476174418809 ] } },
{ "type": "Feature", "properties": { "visible_points": 21, "total_points": 112, "visibility_pct": 18.75 }, "geometry": { "type": "Point", "coordinates": [ -2.207334358200189, 53.807476538341739 ] } },
{ "type": "Feature", "properties": { "visible_points": 31, "total_points": 111, "visibility_pct": 27.927927927927925 }, "geometry": { "type": "Point", "coordinates": [ -2.207123947856538, 53.807476901895512 ] } },
{ "type": "Feature", "properties": { "visible_points": 21, "total_points": 100, "visibility_pct": 21.0 }, "geometry": { "type": "Point", "coordinates": [ -2.206913537508304, 53.807477265080138 ] } },
{ "type": "Feature", "properties": { "visible_points": 22, "total_points": 88, "visibility_pct": 25.0 }, "geometry": { "type": "Point", "coordinates": [ -2.206703127155492, 53.807477627895622 ] } },
{ "type": "Feature", "properties": { "visible_points": 0, "total_points": 86, "visibility_pct": 0.0 }, "geometry": { "type": "Point", "coordinates": [ -2.207860920870634, 53.807583482474037 ] } },
{ "type": "Feature", "properties": { "visible_points": 12, "total_points": 98, "visibility_pct": 12.244897959183673 }, "geometry": { "type": "Point", "coordinates": [ -2.207650510001859, 53.807583846951658 ] } },
{ "type": "Feature", "properties": { "visible_points": 12, "total_points": 108, "visibility_pct": 11.111111111111111 }, "geometry": { "type": "Point", "coordinates": [ -2.207440099128493, 53.807584211060117 ] } },
{ "type": "Feature", "properties": { "visible_points": 22, "total_points": 112, "visibility_pct": 19.642857142857142 }, "geometry": { "type": "Point", "coordinates": [ -2.207229688250525, 53.807584574799442 ] } },
{ "type": "Feature", "properties": { "visible_points": 26, "total_points": 105, "visibility_pct": 24.761904761904763 }, "geometry": { "type": "Point", "coordinates": [ -2.207019277367983, 53.807584938169619 ] } },
{ "type": "Feature", "properties": { "visible_points": 23, "total_points": 94, "visibility_pct": 24.468085106382979 }, "geometry": { "type": "Point", "coordinates": [ -2.206808866480852, 53.807585301170633 ] } },
{ "type": "Feature", "properties": { "visible_points": 13, "total_points": 81, "visibility_pct": 16.049382716049383 }, "geometry": { "type": "Point", "coordinates": [ -2.206598455589146, 53.807585663802499 ] } },
{ "type": "Feature", "properties": { "visible_points": 6, "total_points": 78, "visibility_pct": 7.6923076923076925 }, "geometry": { "type": "Point", "coordinates": [ -2.207966663406434, 53.807691154726115 ] } },
{ "type": "Feature", "properties": { "visible_points": 15, "total_points": 90, "visibility_pct": 16.666666666666664 }, "geometry": { "type": "Point", "coordinates": [ -2.207756252003354, 53.807691519389294 ] } },
{ "type": "Feature", "properties": { "visible_points": 10, "total_points": 102, "visibility_pct": 9.8039215686274517 }, "geometry": { "type": "Point", "coordinates": [ -2.207545840595672, 53.80769188368329 ] } },
{ "type": "Feature", "properties": { "visible_points": 8, "total_points": 110, "visibility_pct": 7.2727272727272725 }, "geometry": { "type": "Point", "coordinates": [ -2.207335429183402, 53.807692247608166 ] } },
{ "type": "Feature", "properties": { "visible_points": 23, "total_points": 109, "visibility_pct": 21.100917431192663 }, "geometry": { "type": "Point", "coordinates": [ -2.207125017766534, 53.80769261116388 ] } },
{ "type": "Feature", "properties": { "visible_points": 21, "total_points": 99, "visibility_pct": 21.212121212121211 }, "geometry": { "type": "Point", "coordinates": [ -2.206914606345092, 53.807692974350445 ] } },
{ "type": "Feature", "properties": { "visible_points": 17, "total_points": 87, "visibility_pct": 19.540229885057471 }, "geometry": { "type": "Point", "coordinates": [ -2.206704194919065, 53.807693337167855 ] } },
{ "type": "Feature", "properties": { "visible_points": 0, "total_points": 82, "visibility_pct": 0.0 }, "geometry": { "type": "Point", "coordinates": [ -2.207861994543735, 53.807799191731711 ] } },
{ "type": "Feature", "properties": { "visible_points": 13, "total_points": 94, "visibility_pct": 13.829787234042554 }, "geometry": { "type": "Point", "coordinates": [ -2.207651582601742, 53.807799556211279 ] } },
{ "type": "Feature", "properties": { "visible_points": 14, "total_points": 106, "visibility_pct": 13.20754716981132 }, "geometry": { "type": "Point", "coordinates": [ -2.207441170655154, 53.807799920321678 ] } },
{ "type": "Feature", "properties": { "visible_points": 11, "total_points": 109, "visibility_pct": 10.091743119266056 }, "geometry": { "type": "Point", "coordinates": [ -2.207230758703974, 53.807800284062928 ] } },
{ "type": "Feature", "properties": { "visible_points": 12, "total_points": 104, "visibility_pct": 11.538461538461538 }, "geometry": { "type": "Point", "coordinates": [ -2.20702034674821, 53.807800647435037 ] } },
{ "type": "Feature", "properties": { "visible_points": 19, "total_points": 92, "visibility_pct": 20.652173913043477 }, "geometry": { "type": "Point", "coordinates": [ -2.206809934787864, 53.807801010437998 ] } },
{ "type": "Feature", "properties": { "visible_points": 16, "total_points": 79, "visibility_pct": 20.253164556962027 }, "geometry": { "type": "Point", "coordinates": [ -2.206599522822937, 53.80780137307179 ] } },
{ "type": "Feature", "properties": { "visible_points": 8, "total_points": 86, "visibility_pct": 9.3023255813953494 }, "geometry": { "type": "Point", "coordinates": [ -2.207757325146706, 53.807907228644041 ] } },
{ "type": "Feature", "properties": { "visible_points": 0, "total_points": 98, "visibility_pct": 0.0 }, "geometry": { "type": "Point", "coordinates": [ -2.207546912665798, 53.807907592940005 ] } },
{ "type": "Feature", "properties": { "visible_points": 0, "total_points": 106, "visibility_pct": 0.0 }, "geometry": { "type": "Point", "coordinates": [ -2.2073365001803, 53.807907956866806 ] } },
{ "type": "Feature", "properties": { "visible_points": 0, "total_points": 105, "visibility_pct": 0.0 }, "geometry": { "type": "Point", "coordinates": [ -2.207126087690212, 53.80790832042446 ] } },
{ "type": "Feature", "properties": { "visible_points": 2, "total_points": 96, "visibility_pct": 2.083333333333333 }, "geometry": { "type": "Point", "coordinates": [ -2.206915675195542, 53.807908683612958 ] } },
{ "type": "Feature", "properties": { "visible_points": 8, "total_points": 84, "visibility_pct": 9.5238095238095237 }, "geometry": { "type": "Point", "coordinates": [ -2.206705262696292, 53.807909046432293 ] } },
{ "type": "Feature", "properties": { "visible_points": 10, "total_points": 77, "visibility_pct": 12.987012987012985 }, "geometry": { "type": "Point", "coordinates": [ -2.207863068230564, 53.808014900981618 ] } },
{ "type": "Feature", "properties": { "visible_points": 10, "total_points": 89, "visibility_pct": 11.235955056179774 }, "geometry": { "type": "Point", "coordinates": [ -2.207652655215333, 53.808015265463119 ] } },
{ "type": "Feature", "properties": { "visible_points": 0, "total_points": 100, "visibility_pct": 0.0 }, "geometry": { "type": "Point", "coordinates": [ -2.207442242195519, 53.808015629575458 ] } },
{ "type": "Feature", "properties": { "visible_points": 0, "total_points": 102, "visibility_pct": 0.0 }, "geometry": { "type": "Point", "coordinates": [ -2.207231829171106, 53.808015993318655 ] } },
{ "type": "Feature", "properties": { "visible_points": 0, "total_points": 100, "visibility_pct": 0.0 }, "geometry": { "type": "Point", "coordinates": [ -2.20702141614211, 53.808016356692704 ] } },
{ "type": "Feature", "properties": { "visible_points": 6, "total_points": 89, "visibility_pct": 6.7415730337078648 }, "geometry": { "type": "Point", "coordinates": [ -2.206811003108532, 53.808016719697584 ] } },
{ "type": "Feature", "properties": { "visible_points": 19, "total_points": 76, "visibility_pct": 25.0 }, "geometry": { "type": "Point", "coordinates": [ -2.206600590070374, 53.808017082333308 ] } },
{ "type": "Feature", "properties": { "visible_points": 11, "total_points": 80, "visibility_pct": 13.75 }, "geometry": { "type": "Point", "coordinates": [ -2.207758398303775, 53.808122937891021 ] } },
{ "type": "Feature", "properties": { "visible_points": 12, "total_points": 92, "visibility_pct": 13.043478260869565 }, "geometry": { "type": "Point", "coordinates": [ -2.207547984749632, 53.808123302188925 ] } },
{ "type": "Feature", "properties": { "visible_points": 9, "total_points": 97, "visibility_pct": 9.2783505154639183 }, "geometry": { "type": "Point", "coordinates": [ -2.207337571190895, 53.808123666117659 ] } },
{ "type": "Feature", "properties": { "visible_points": 0, "total_points": 98, "visibility_pct": 0.0 }, "geometry": { "type": "Point", "coordinates": [ -2.207127157627569, 53.808124029677245 ] } },
{ "type": "Feature", "properties": { "visible_points": 11, "total_points": 93, "visibility_pct": 11.827956989247312 }, "geometry": { "type": "Point", "coordinates": [ -2.206916744059661, 53.808124392867683 ] } },
{ "type": "Feature", "properties": { "visible_points": 1, "total_points": 81, "visibility_pct": 1.2345679012345678 }, "geometry": { "type": "Point", "coordinates": [ -2.206706330487167, 53.808124755688951 ] } },
{ "type": "Feature", "properties": { "visible_points": 12, "total_points": 82, "visibility_pct": 14.634146341463413 }, "geometry": { "type": "Point", "coordinates": [ -2.207653727842647, 53.808230974707179 ] } },
{ "type": "Feature", "properties": { "visible_points": 17, "total_points": 90, "visibility_pct": 18.888888888888889 }, "geometry": { "type": "Point", "coordinates": [ -2.207443313749582, 53.808231338821464 ] } },
{ "type": "Feature", "properties": { "visible_points": 8, "total_points": 93, "visibility_pct": 8.6021505376344098 }, "geometry": { "type": "Point", "coordinates": [ -2.207232899651923, 53.808231702566601 ] } },
{ "type": "Feature", "properties": { "visible_points": 14, "total_points": 91, "visibility_pct": 15.384615384615385 }, "geometry": { "type": "Point", "coordinates": [ -2.207022485549681, 53.808232065942569 ] } },
{ "type": "Feature", "properties": { "visible_points": 8, "total_points": 85, "visibility_pct": 9.4117647058823533 }, "geometry": { "type": "Point", "coordinates": [ -2.206812071442858, 53.808232428949374 ] } },
{ "type": "Feature", "properties": { "visible_points": 13, "total_points": 82, "visibility_pct": 15.853658536585366 }, "geometry": { "type": "Point", "coordinates": [ -2.207549056847171, 53.808339011430043 ] } },
{ "type": "Feature", "properties": { "visible_points": 13, "total_points": 86, "visibility_pct": 15.11627906976744 }, "geometry": { "type": "Point", "coordinates": [ -2.207338642215179, 53.808339375360738 ] } },
{ "type": "Feature", "properties": { "visible_points": 13, "total_points": 86, "visibility_pct": 15.11627906976744 }, "geometry": { "type": "Point", "coordinates": [ -2.207128227578603, 53.808339738922257 ] } },
{ "type": "Feature", "properties": { "visible_points": 17, "total_points": 83, "visibility_pct": 20.481927710843372 }, "geometry": { "type": "Point", "coordinates": [ -2.206917812937441, 53.808340102114613 ] } },
{ "type": "Feature", "properties": { "visible_points": 1, "total_points": 76, "visibility_pct": 1.3157894736842104 }, "geometry": { "type": "Point", "coordinates": [ -2.207444385317345, 53.808447048059662 ] } },
{ "type": "Feature", "properties": { "visible_points": 8, "total_points": 77, "visibility_pct": 10.38961038961039 }, "geometry": { "type": "Point", "coordinates": [ -2.207233970146425, 53.808447411806746 ] } },
{ "type": "Feature", "properties": { "visible_points": 17, "total_points": 76, "visibility_pct": 22.368421052631579 }, "geometry": { "type": "Point", "coordinates": [ -2.207023554970926, 53.808447775184668 ] } },
{ "type": "Feature", "properties": { "visible_points": 6, "total_points": 72, "visibility_pct": 8.3333333333333321 }, "geometry": { "type": "Point", "coordinates": [ -2.206813139790843, 53.808448138193405 ] } },
{ "type": "Feature", "properties": { "visible_points": 10, "total_points": 65, "visibility_pct": 15.384615384615385 }, "geometry": { "type": "Point", "coordinates": [ -2.207550128981372, 53.808554720710028 ] } },
{ "type": "Feature", "properties": { "visible_points": 8, "total_points": 68, "visibility_pct": 11.76470588235294 }, "geometry": { "type": "Point", "coordinates": [ -2.207339713275894, 53.80855508464407 ] } },
{ "type": "Feature", "properties": { "visible_points": 12, "total_points": 68, "visibility_pct": 17.647058823529413 }, "geometry": { "type": "Point", "coordinates": [ -2.207129297565818, 53.808555448208949 ] } },
{ "type": "Feature", "properties": { "visible_points": 9, "total_points": 65, "visibility_pct": 13.846153846153847 }, "geometry": { "type": "Point", "coordinates": [ -2.206918881851148, 53.808555811404695 ] } },
{ "type": "Feature", "properties": { "visible_points": 0, "total_points": 58, "visibility_pct": 0.0 }, "geometry": { "type": "Point", "coordinates": [ -2.207445457028527, 53.808662757476881 ] } },
{ "type": "Feature", "properties": { "visible_points": 0, "total_points": 60, "visibility_pct": 0.0 }, "geometry": { "type": "Point", "coordinates": [ -2.207235040782282, 53.808663121230857 ] } },
{ "type": "Feature", "properties": { "visible_points": 10, "total_points": 58, "visibility_pct": 17.241379310344829 }, "geometry": { "type": "Point", "coordinates": [ -2.207024624531431, 53.808663484615685 ] } },
{ "type": "Feature", "properties": { "visible_points": 5, "total_points": 51, "visibility_pct": 9.8039215686274517 }, "geometry": { "type": "Point", "coordinates": [ -2.207340784565666, 53.808770794206261 ] } },
{ "type": "Feature", "properties": { "visible_points": 6, "total_points": 51, "visibility_pct": 11.76470588235294 }, "geometry": { "type": "Point", "coordinates": [ -2.207130367777919, 53.808771157781038 ] } }
]
}
