{
"type": "FeatureCollection",
"name": "CHEWE_569_NACH_800m",
"crs": { "type": "name", "properties": { "name": "urn:ogc:def:crs:OGC:1.3:CRS84" } },
"features": [
{ "type": "Feature", "properties": { "id": 41394, "nach": 0.27608963856489926 }, "geometry": { "type": "LineString", "coordinates": [ [ -2.8708137, 53.1021217 ], [ -2.8708024, 53.1015456 ], [ -2.8706814, 53.0998309 ], [ -2.8707336, 53.0995273 ], [ -2.8708427, 53.0991651 ], [ -2.8712059, 53.0983179 ] ] } },
{ "type": "Feature", "properties": { "id": 4098, "nach": 0.21068482850959713 }, "geometry": { "type": "LineString", "coordinates": [ [ -2.8726582, 53.0960514 ], [ -2.872154, 53.0966233 ], [ -2.8715488, 53.097531100000012 ], [ -2.8712059, 53.0983179 ] ] } },
{ "type": "Feature", "properties": { "id": 10242, "nach": 0.20571897218209767 }, "geometry": { "type": "LineString", "coordinates": [ [ -2.8694333, 53.095444300000011 ], [ -2.8706198, 53.0964262 ], [ -2.8708368, 53.0969573 ], [ -2.8710509, 53.098144 ], [ -2.8711324, 53.0982662 ], [ -2.8712059, 53.0983179 ] ] } },
{ "type": "Feature", "properties": { "id": 151982, "nach": 0.070202464224007735 }, "geometry": { "type": "LineString", "coordinates": [ [ -2.8738575, 53.0894916 ], [ -2.8738333, 53.089582700000015 ], [ -2.8737865, 53.0899689 ], [ -2.8736035, 53.090822 ], [ -2.8735247, 53.091310900000011 ], [ -2.8733333, 53.091862100000014 ], [ -2.8732969, 53.0921159 ], [ -2.8728094, 53.0930501 ], [ -2.8726705, 53.0932678 ], [ -2.8720307, 53.094417 ], [ -2.8723936, 53.0953183 ], [ -2.8724602, 53.0956648 ], [ -2.8725593, 53.0960243 ], [ -2.8726582, 53.0960514 ] ] } },
{ "type": "Feature", "properties": { "id": 4101, "nach": 0.22734162726195875 }, "geometry": { "type": "LineString", "coordinates": [ [ -2.8740929, 53.09468170000001 ], [ -2.8734808, 53.0952725 ], [ -2.8730348, 53.0956296 ], [ -2.8726582, 53.0960514 ] ] } },
{ "type": "Feature", "properties": { "id": 122003, "nach": 0.21050791416663336 }, "geometry": { "type": "LineString", "coordinates": [ [ -2.8692333, 53.0954884 ], [ -2.8694333, 53.095444300000011 ] ] } },
{ "type": "Feature", "properties": { "id": 62788, "nach": 0.24596225415293413 }, "geometry": { "type": "LineString", "coordinates": [ [ -2.868404, 53.0940679 ], [ -2.8687953, 53.0945034 ], [ -2.8691057, 53.0948326 ], [ -2.8694333, 53.095444300000011 ] ] } },
{ "type": "Feature", "properties": { "id": 151981, "nach": 0.3178329773061489 }, "geometry": { "type": "LineString", "coordinates": [ [ -2.8738575, 53.0894916 ], [ -2.8736232, 53.089030500000014 ] ] } },
{ "type": "Feature", "properties": { "id": 151983, "nach": 0.29470225265406524 }, "geometry": { "type": "LineString", "coordinates": [ [ -2.8738575, 53.0894916 ], [ -2.8744939, 53.0893599 ], [ -2.8745771, 53.0892729 ], [ -2.8746603, 53.0891971 ], [ -2.874765, 53.089149 ], [ -2.8750115, 53.0891157 ], [ -2.8751409, 53.0890657 ], [ -2.8752601, 53.0890372 ], [ -2.8755097, 53.0889989 ], [ -2.8755783, 53.0889885 ], [ -2.8756462, 53.0889565 ], [ -2.8756863, 53.0889288 ], [ -2.875788, 53.08891770000001 ], [ -2.875902, 53.0889251 ], [ -2.8759543, 53.08895840000001 ], [ -2.8760344, 53.0889769 ], [ -2.8761515, 53.0889769 ], [ -2.8767739, 53.0888418 ], [ -2.8768663, 53.088782600000016 ], [ -2.8769372, 53.0887234 ], [ -2.8769587, 53.0886864 ], [ -2.8769803, 53.0886475 ], [ -2.877005, 53.08853830000001 ], [ -2.8770204, 53.0884847 ], [ -2.8770728, 53.0884569 ], [ -2.8772052, 53.088431 ], [ -2.8774182, 53.08842580000001 ] ] } },
{ "type": "Feature", "properties": { "id": 10173, "nach": 0.14059036480984349 }, "geometry": { "type": "LineString", "coordinates": [ [ -2.8734594, 53.1003302 ], [ -2.8738102, 53.1000107 ], [ -2.8738561, 53.0999263 ], [ -2.8738692, 53.0994712 ], [ -2.8738593, 53.099038199999988 ], [ -2.8740749, 53.097777 ], [ -2.8740678, 53.0968626 ], [ -2.8742748, 53.095538699999985 ], [ -2.8743402, 53.0952081 ], [ -2.874348, 53.0950396 ], [ -2.8742986, 53.0948826 ], [ -2.8742259, 53.0947721 ], [ -2.8741573, 53.0947133 ], [ -2.8740929, 53.09468170000001 ] ] } },
{ "type": "Feature", "properties": { "id": 144645, "nach": 0.26691275639738715 }, "geometry": { "type": "LineString", "coordinates": [ [ -2.8756368, 53.0926296 ], [ -2.8755522, 53.0927856 ], [ -2.8754034, 53.0930301 ], [ -2.8743383, 53.0943515 ], [ -2.8740929, 53.09468170000001 ] ] } },
{ "type": "Feature", "properties": { "id": 114358, "nach": 0.26508799126134425 }, "geometry": { "type": "LineString", "coordinates": [ [ -2.8716124, 53.100292 ], [ -2.8725713, 53.1002979 ], [ -2.8734594, 53.1003302 ] ] } },
{ "type": "Feature", "properties": { "id": 144644, "nach": 0.3454826052548341 }, "geometry": { "type": "LineString", "coordinates": [ [ -2.8756368, 53.0926296 ], [ -2.8757335, 53.0924513 ] ] } },
{ "type": "Feature", "properties": { "id": 144652, "nach": 0.26681051988780569 }, "geometry": { "type": "LineString", "coordinates": [ [ -2.879325, 53.092856500000011 ], [ -2.8775221, 53.0928095 ], [ -2.8761971, 53.0926743 ], [ -2.8759128, 53.0926742 ], [ -2.8756368, 53.0926296 ] ] } },
{ "type": "Feature", "properties": { "id": 116984, "nach": 0.42123783882652632 }, "geometry": { "type": "LineString", "coordinates": [ [ -2.8738038, 53.088988400000012 ], [ -2.8736232, 53.089030500000014 ] ] } },
{ "type": "Feature", "properties": { "id": 105180, "nach": 0.41607621974609998 }, "geometry": { "type": "LineString", "coordinates": [ [ -2.8735341, 53.0881324 ], [ -2.873529, 53.08834190000001 ], [ -2.8736232, 53.089030500000014 ] ] } },
{ "type": "Feature", "properties": { "id": 116983, "nach": 0.43614765645198683 }, "geometry": { "type": "LineString", "coordinates": [ [ -2.8738038, 53.088988400000012 ], [ -2.8745047, 53.088805 ] ] } },
{ "type": "Feature", "properties": { "id": 154353, "nach": 0.35240863120553334 }, "geometry": { "type": "LineString", "coordinates": [ [ -2.8736937, 53.0887933 ], [ -2.8737468, 53.0888953 ], [ -2.8738038, 53.088988400000012 ] ] } },
{ "type": "Feature", "properties": { "id": 154352, "nach": 0.35086551224719986 }, "geometry": { "type": "LineString", "coordinates": [ [ -2.8739733, 53.089209899999986 ], [ -2.8739132, 53.0891334 ], [ -2.8738424, 53.0890441 ], [ -2.8738038, 53.088988400000012 ] ] } },
{ "type": "Feature", "properties": { "id": 105179, "nach": 0.46424524410152346 }, "geometry": { "type": "LineString", "coordinates": [ [ -2.8735341, 53.0881324 ], [ -2.8735412, 53.0878431 ] ] } },
{ "type": "Feature", "properties": { "id": 105181, "nach": 0.4244852547403743 }, "geometry": { "type": "LineString", "coordinates": [ [ -2.8735341, 53.0881324 ], [ -2.8739074, 53.0880665 ], [ -2.8741479, 53.0880272 ], [ -2.8745005, 53.088009 ], [ -2.8752967, 53.0879782 ], [ -2.8756517, 53.0879571 ] ] } },
{ "type": "Feature", "properties": { "id": 122005, "nach": 0.0 }, "geometry": { "type": "LineString", "coordinates": [ [ -2.8692333, 53.0954884 ], [ -2.8691406, 53.0954091 ], [ -2.869021, 53.0953556 ], [ -2.8688949, 53.0953475 ], [ -2.8688681, 53.0954152 ], [ -2.868903, 53.0955231 ], [ -2.86897, 53.0955472 ], [ -2.8692333, 53.0954884 ] ] } },
{ "type": "Feature", "properties": { "id": 125673, "nach": 0.26852619284251361 }, "geometry": { "type": "LineString", "coordinates": [ [ -2.8673226, 53.09094120000001 ], [ -2.8672504, 53.0915403 ], [ -2.867628, 53.0926674 ], [ -2.8680301, 53.0934768 ], [ -2.868404, 53.0940679 ] ] } },
{ "type": "Feature", "properties": { "id": 62793, "nach": 0.26035053444331319 }, "geometry": { "type": "LineString", "coordinates": [ [ -2.8672532, 53.0941874 ], [ -2.8678076, 53.0941402 ], [ -2.868404, 53.0940679 ] ] } },
{ "type": "Feature", "properties": { "id": 53629, "nach": 0.0 }, "geometry": { "type": "LineString", "coordinates": [ [ -2.8550287, 53.1003076 ], [ -2.8550088, 53.0991507 ], [ -2.85489, 53.098615 ], [ -2.8548246, 53.0979894 ], [ -2.854813, 53.097735 ], [ -2.8549107, 53.0971471 ], [ -2.854704, 53.096018 ], [ -2.854318, 53.09514 ], [ -2.8541091, 53.0945111 ], [ -2.853836, 53.092914 ], [ -2.853841, 53.092402 ], [ -2.8538321, 53.0917718 ], [ -2.8538166, 53.091439499999986 ], [ -2.8536428, 53.091122400000017 ] ] } },
{ "type": "Feature", "properties": { "id": 49128, "nach": 0.1529247465613531 }, "geometry": { "type": "LineString", "coordinates": [ [ -2.8483837, 53.0913519 ], [ -2.8484912, 53.0913894 ], [ -2.84952, 53.0913909 ], [ -2.8503203, 53.0914818 ], [ -2.851537, 53.0913609 ], [ -2.85301, 53.091149 ], [ -2.8536428, 53.091122400000017 ] ] } },
{ "type": "Feature", "properties": { "id": 49113, "nach": 0.19426253353727074 }, "geometry": { "type": "LineString", "coordinates": [ [ -2.8529896, 53.089847399999989 ], [ -2.8532847, 53.0904532 ], [ -2.8534614, 53.0908704 ], [ -2.8536428, 53.091122400000017 ] ] } },
{ "type": "Feature", "properties": { "id": 51886, "nach": 0.0 }, "geometry": { "type": "LineString", "coordinates": [ [ -2.8675525, 53.089024200000011 ], [ -2.8673924, 53.0890312 ], [ -2.8668775, 53.0890356 ], [ -2.8659306, 53.0890233 ], [ -2.864967, 53.089044 ], [ -2.8641952, 53.0891086 ], [ -2.8634871, 53.0891557 ], [ -2.8626396, 53.0892245 ], [ -2.8616672, 53.0892587 ], [ -2.8608128, 53.0892571 ], [ -2.8586215, 53.0892415 ], [ -2.8580253, 53.089412 ], [ -2.8566653, 53.089653100000014 ], [ -2.8554732, 53.0898689 ], [ -2.8537184, 53.0898743 ], [ -2.8531574, 53.089871600000016 ], [ -2.8529896, 53.089847399999989 ] ] } },
{ "type": "Feature", "properties": { "id": 51885, "nach": 0.31109825736808466 }, "geometry": { "type": "LineString", "coordinates": [ [ -2.8675525, 53.089024200000011 ], [ -2.8677294, 53.0881503 ] ] } },
{ "type": "Feature", "properties": { "id": 125674, "nach": 0.27214794712959217 }, "geometry": { "type": "LineString", "coordinates": [ [ -2.8673226, 53.09094120000001 ], [ -2.8675006, 53.089463 ], [ -2.8675525, 53.089024200000011 ] ] } },
{ "type": "Feature", "properties": { "id": 135608, "nach": 0.28022918468606423 }, "geometry": { "type": "LineString", "coordinates": [ [ -2.8675285, 53.0862609 ], [ -2.867516, 53.0865858 ], [ -2.8675454, 53.0868114 ], [ -2.8676731, 53.0872742 ], [ -2.8677294, 53.0881503 ] ] } },
{ "type": "Feature", "properties": { "id": 51883, "nach": 0.34439914429952434 }, "geometry": { "type": "LineString", "coordinates": [ [ -2.8735412, 53.0878431 ], [ -2.8732504, 53.0878714 ], [ -2.8728856, 53.0878928 ], [ -2.8724886, 53.0879101 ], [ -2.8718878, 53.087936200000016 ], [ -2.8709973, 53.0879745 ], [ -2.869903, 53.088019600000017 ], [ -2.8689589, 53.0880776 ], [ -2.8679289, 53.088142 ], [ -2.8677294, 53.0881503 ] ] } },
{ "type": "Feature", "properties": { "id": 135616, "nach": 0.30238235472960828 }, "geometry": { "type": "LineString", "coordinates": [ [ -2.867564, 53.0859077 ], [ -2.8673844, 53.0859486 ], [ -2.8672074, 53.0861064 ], [ -2.8672074, 53.0861612 ], [ -2.8673093, 53.0862128 ], [ -2.8675285, 53.0862609 ] ] } },
{ "type": "Feature", "properties": { "id": 51896, "nach": 0.45829854826208005 }, "geometry": { "type": "LineString", "coordinates": [ [ -2.8736669, 53.0871641 ], [ -2.8735524, 53.08763960000001 ], [ -2.8735412, 53.0878431 ] ] } },
{ "type": "Feature", "properties": { "id": 125676, "nach": 0.27726649392612512 }, "geometry": { "type": "LineString", "coordinates": [ [ -2.8681107, 53.0909876 ], [ -2.8673226, 53.09094120000001 ] ] } },
{ "type": "Feature", "properties": { "id": 62792, "nach": 0.20537584661439959 }, "geometry": { "type": "LineString", "coordinates": [ [ -2.8672532, 53.0941874 ], [ -2.8666425, 53.0942394 ] ] } },
{ "type": "Feature", "properties": { "id": 62795, "nach": 0.20005580028156861 }, "geometry": { "type": "LineString", "coordinates": [ [ -2.8660005, 53.0945949 ], [ -2.8666881, 53.0945615 ], [ -2.8667686, 53.094539 ], [ -2.866906, 53.09438320000001 ], [ -2.8670616, 53.0942866 ], [ -2.8672532, 53.0941874 ] ] } },
{ "type": "Feature", "properties": { "id": 95263, "nach": 0.43509033227302418 }, "geometry": { "type": "LineString", "coordinates": [ [ -2.8765158, 53.0910874 ], [ -2.8765655, 53.0910077 ], [ -2.8771357, 53.0899858 ] ] } },
{ "type": "Feature", "properties": { "id": 151979, "nach": 0.4728506598917297 }, "geometry": { "type": "LineString", "coordinates": [ [ -2.8774182, 53.08842580000001 ], [ -2.8773374, 53.088637200000022 ], [ -2.8772854, 53.0888562 ], [ -2.8772564, 53.089069500000015 ], [ -2.8772403, 53.089636899999988 ], [ -2.8771357, 53.0899858 ] ] } },
{ "type": "Feature", "properties": { "id": 95261, "nach": 0.41425886551358082 }, "geometry": { "type": "LineString", "coordinates": [ [ -2.8763996, 53.0900791 ], [ -2.8764553, 53.0900537 ], [ -2.8765026, 53.0900284 ], [ -2.8765768, 53.0899838 ], [ -2.8766274, 53.0899615 ], [ -2.8767186, 53.089942300000011 ], [ -2.8768434, 53.0899342 ], [ -2.8769177, 53.0899368 ], [ -2.8769329, 53.0899562 ], [ -2.8770257, 53.0899694 ], [ -2.8771357, 53.0899858 ] ] } },
{ "type": "Feature", "properties": { "id": 95275, "nach": 0.37943541051371155 }, "geometry": { "type": "LineString", "coordinates": [ [ -2.8757335, 53.0924513 ], [ -2.8758037, 53.092322 ], [ -2.8759684, 53.0919929 ], [ -2.8765158, 53.0910874 ] ] } },
{ "type": "Feature", "properties": { "id": 95267, "nach": 0.39612668244920646 }, "geometry": { "type": "LineString", "coordinates": [ [ -2.8769125, 53.0911953 ], [ -2.8768198, 53.0911607 ], [ -2.8765158, 53.0910874 ] ] } },
{ "type": "Feature", "properties": { "id": 95260, "nach": 0.33598766328590912 }, "geometry": { "type": "LineString", "coordinates": [ [ -2.8763996, 53.0900791 ], [ -2.8762984, 53.0900993 ], [ -2.87616, 53.090121600000018 ], [ -2.8759777, 53.0901358 ], [ -2.8758343, 53.0901237 ], [ -2.8756942, 53.0901034 ], [ -2.875593, 53.0900689 ], [ -2.8756909, 53.089996 ] ] } },
{ "type": "Feature", "properties": { "id": 95259, "nach": 0.34895208532600408 }, "geometry": { "type": "LineString", "coordinates": [ [ -2.8763996, 53.0900791 ], [ -2.8763404, 53.0900195 ] ] } },
{ "type": "Feature", "properties": { "id": 128386, "nach": 0.30294735095679565 }, "geometry": { "type": "LineString", "coordinates": [ [ -2.8776837, 53.0921841 ], [ -2.8776418, 53.09220530000001 ], [ -2.8776069, 53.0922597 ], [ -2.8775581, 53.0926196 ], [ -2.8775455, 53.092669 ], [ -2.8774715, 53.0927075 ], [ -2.8773927, 53.09271780000001 ], [ -2.877272, 53.092703 ], [ -2.8768778, 53.092651299999986 ], [ -2.8765599, 53.0926261 ], [ -2.8763012, 53.092615700000017 ], [ -2.8757335, 53.0924513 ] ] } },
{ "type": "Feature", "properties": { "id": 95268, "nach": 0.32630920031541633 }, "geometry": { "type": "LineString", "coordinates": [ [ -2.8769125, 53.0911953 ], [ -2.877101, 53.0911069 ], [ -2.8774188, 53.091169 ] ] } },
{ "type": "Feature", "properties": { "id": 95271, "nach": 0.32476349435969171 }, "geometry": { "type": "LineString", "coordinates": [ [ -2.8777032, 53.0914196 ], [ -2.8771796, 53.0912953 ], [ -2.8769125, 53.0911953 ] ] } },
{ "type": "Feature", "properties": { "id": 95270, "nach": 0.0 }, "geometry": { "type": "LineString", "coordinates": [ [ -2.8777032, 53.0914196 ], [ -2.8777467, 53.09145 ], [ -2.8778129, 53.0914719 ], [ -2.8778652, 53.0914646 ], [ -2.8778878, 53.09143430000001 ], [ -2.8778565, 53.0914008 ], [ -2.8777851, 53.0913935 ], [ -2.8777032, 53.0914196 ] ] } },
{ "type": "Feature", "properties": { "id": 128387, "nach": 0.22683192956189968 }, "geometry": { "type": "LineString", "coordinates": [ [ -2.8776837, 53.0921841 ], [ -2.8777498, 53.0921635 ], [ -2.877931, 53.0921342 ], [ -2.8780912, 53.0921258 ], [ -2.8785024, 53.0921509 ], [ -2.8786243, 53.0921509 ], [ -2.8787045, 53.0921174 ], [ -2.8787498, 53.0920693 ], [ -2.8787846, 53.0917805 ], [ -2.8787811, 53.0915797 ] ] } },
{ "type": "Feature", "properties": { "id": 128389, "nach": 0.23373597827505743 }, "geometry": { "type": "LineString", "coordinates": [ [ -2.8775144, 53.091660100000013 ], [ -2.8777571, 53.091673 ], [ -2.8776837, 53.0921841 ] ] } },
{ "type": "Feature", "properties": { "id": 105155, "nach": 0.35180194511237212 }, "geometry": { "type": "LineString", "coordinates": [ [ -2.8738279, 53.0883512 ], [ -2.87363, 53.088355100000022 ] ] } },
{ "type": "Feature", "properties": { "id": 116976, "nach": 0.32972804555546908 }, "geometry": { "type": "LineString", "coordinates": [ [ -2.8744583, 53.0885964 ], [ -2.8743731, 53.0885803 ], [ -2.8742832, 53.0885479 ], [ -2.8741572, 53.0884785 ], [ -2.8740131, 53.0883857 ], [ -2.8739487, 53.0883676 ], [ -2.8738837, 53.0883568 ], [ -2.8738279, 53.0883512 ] ] } },
{ "type": "Feature", "properties": { "id": 154322, "nach": 0.36967605849581342 }, "geometry": { "type": "LineString", "coordinates": [ [ -2.8756555, 53.0879901 ], [ -2.8751963, 53.0880166 ], [ -2.8747186, 53.0880435 ], [ -2.8741759, 53.0880716 ], [ -2.8739828, 53.088094699999985 ], [ -2.8739198, 53.0881179 ], [ -2.873875, 53.0881521 ], [ -2.8738527, 53.08819 ], [ -2.8738303, 53.0882351 ], [ -2.8738283, 53.0882583 ], [ -2.8738263, 53.0882779 ], [ -2.8738279, 53.0883512 ] ] } },
{ "type": "Feature", "properties": { "id": 116977, "nach": 0.45943540833285018 }, "geometry": { "type": "LineString", "coordinates": [ [ -2.8744583, 53.0885964 ], [ -2.8745113, 53.0885964 ], [ -2.8745877, 53.0885889 ], [ -2.8752425, 53.0885506 ], [ -2.8753081, 53.0885424 ], [ -2.8753687, 53.0885278 ] ] } },
{ "type": "Feature", "properties": { "id": 116981, "nach": 0.45245865046135553 }, "geometry": { "type": "LineString", "coordinates": [ [ -2.8745047, 53.088805 ], [ -2.8744805, 53.0887575 ], [ -2.8744704, 53.088708800000013 ], [ -2.8744583, 53.0885964 ] ] } },
{ "type": "Feature", "properties": { "id": 105163, "nach": 0.35683571345619242 }, "geometry": { "type": "LineString", "coordinates": [ [ -2.8755073, 53.08888850000001 ], [ -2.8755164, 53.0889641 ] ] } },
{ "type": "Feature", "properties": { "id": 105165, "nach": 0.42560195326009026 }, "geometry": { "type": "LineString", "coordinates": [ [ -2.8755073, 53.08888850000001 ], [ -2.8754926, 53.0887953 ], [ -2.8754866, 53.0887573 ], [ -2.8754622, 53.0886498 ], [ -2.8754338, 53.0885937 ], [ -2.8753687, 53.0885278 ] ] } },
{ "type": "Feature", "properties": { "id": 105164, "nach": 0.35299375700149876 }, "geometry": { "type": "LineString", "coordinates": [ [ -2.8755073, 53.08888850000001 ], [ -2.8759476, 53.0888695 ] ] } },
{ "type": "Feature", "properties": { "id": 105167, "nach": 0.49311962195343967 }, "geometry": { "type": "LineString", "coordinates": [ [ -2.8756822, 53.088224600000011 ], [ -2.8756142, 53.0882398 ], [ -2.8755517, 53.0882775 ], [ -2.8755233, 53.0883302 ], [ -2.875511, 53.0883861 ], [ -2.8754744, 53.0884496 ], [ -2.8754256, 53.0884985 ], [ -2.8753687, 53.0885278 ] ] } },
{ "type": "Feature", "properties": { "id": 116982, "nach": 0.35704376533083548 }, "geometry": { "type": "LineString", "coordinates": [ [ -2.8746229, 53.088957 ], [ -2.8745047, 53.088805 ] ] } },
{ "type": "Feature", "properties": { "id": 125678, "nach": 0.21903419968308119 }, "geometry": { "type": "LineString", "coordinates": [ [ -2.8681066, 53.0912855 ], [ -2.8681107, 53.0909876 ] ] } },
{ "type": "Feature", "properties": { "id": 125679, "nach": 0.21022238792514267 }, "geometry": { "type": "LineString", "coordinates": [ [ -2.8684237, 53.0907361 ], [ -2.8683912, 53.0909729 ], [ -2.8681107, 53.0909876 ] ] } },
{ "type": "Feature", "properties": { "id": 144650, "nach": 0.15297053769372018 }, "geometry": { "type": "LineString", "coordinates": [ [ -2.8604364, 53.0997579 ], [ -2.8608119, 53.0998223 ], [ -2.8614128, 53.0998738 ], [ -2.8623784, 53.099796499999989 ], [ -2.8631616, 53.0997708 ], [ -2.8638268, 53.099661200000014 ], [ -2.8649157, 53.0995901 ], [ -2.865302, 53.0996609 ], [ -2.8669006, 53.1001956 ], [ -2.868247, 53.1007306 ], [ -2.868651, 53.100826 ], [ -2.8687037, 53.1009231 ], [ -2.868707, 53.100986399999989 ], [ -2.8686738, 53.1011835 ], [ -2.8686531, 53.101448399999988 ], [ -2.8686508, 53.1014761 ] ] } },
{ "type": "Feature", "properties": { "id": 154348, "nach": 0.35944194006348551 }, "geometry": { "type": "LineString", "coordinates": [ [ -2.8740542, 53.0879248 ], [ -2.8743105, 53.0879026 ], [ -2.8745307, 53.0878901 ], [ -2.874682, 53.0878828 ] ] } }
]
}
