{
"type": "FeatureCollection",
"name": "CHEWE_70_NACH_800m",
"crs": { "type": "name", "properties": { "name": "urn:ogc:def:crs:OGC:1.3:CRS84" } },
"features": [
{ "type": "Feature", "properties": { "id": 69994, "nach": 0.45956318195159829 }, "geometry": { "type": "LineString", "coordinates": [ [ -2.7701312, 53.191058 ], [ -2.7700428, 53.1910422 ] ] } },
{ "type": "Feature", "properties": { "id": 134579, "nach": 0.44837473698558183 }, "geometry": { "type": "LineString", "coordinates": [ [ -2.770567, 53.1900712 ], [ -2.7704378, 53.1903628 ], [ -2.7702515, 53.1906926 ], [ -2.7700428, 53.1910422 ] ] } },
{ "type": "Feature", "properties": { "id": 40383, "nach": 0.23208827992084979 }, "geometry": { "type": "LineString", "coordinates": [ [ -2.762774, 53.1898638 ], [ -2.7648107, 53.1901899 ], [ -2.7700428, 53.1910422 ] ] } },
{ "type": "Feature", "properties": { "id": 69995, "nach": 0.47023172252949375 }, "geometry": { "type": "LineString", "coordinates": [ [ -2.7701312, 53.191058 ], [ -2.7700543, 53.1911887 ], [ -2.7700244, 53.1912364 ] ] } },
{ "type": "Feature", "properties": { "id": 70037, "nach": 0.34731289149572758 }, "geometry": { "type": "LineString", "coordinates": [ [ -2.7767283, 53.19459890000001 ], [ -2.7762591, 53.1941882 ], [ -2.7754293, 53.1934668 ], [ -2.7747139, 53.1928701 ], [ -2.7743538, 53.19260160000001 ], [ -2.7738676, 53.1922944 ], [ -2.7732853, 53.19198930000001 ], [ -2.7726845, 53.191731599999983 ], [ -2.7720841, 53.1915176 ], [ -2.7713567, 53.1913089 ], [ -2.7707099, 53.191166 ], [ -2.7701312, 53.191058 ] ] } },
{ "type": "Feature", "properties": { "id": 151320, "nach": 0.43969598895959078 }, "geometry": { "type": "LineString", "coordinates": [ [ -2.770679, 53.189840500000017 ], [ -2.7705938, 53.1900107 ], [ -2.770567, 53.1900712 ] ] } },
{ "type": "Feature", "properties": { "id": 134582, "nach": 0.27565242777777094 }, "geometry": { "type": "LineString", "coordinates": [ [ -2.767198, 53.1884455 ], [ -2.7673204, 53.1886675 ], [ -2.7674707, 53.1888058 ], [ -2.7676909, 53.188914699999984 ], [ -2.7681314, 53.1891325 ], [ -2.7687081, 53.1894592 ], [ -2.7692849, 53.189727300000015 ], [ -2.7699246, 53.1899431 ], [ -2.770567, 53.1900712 ] ] } },
{ "type": "Feature", "properties": { "id": 40381, "nach": 0.44841347077505067 }, "geometry": { "type": "LineString", "coordinates": [ [ -2.762774, 53.1898638 ], [ -2.7627856, 53.1898065 ], [ -2.7628701, 53.1898164 ], [ -2.7628721, 53.1897545 ], [ -2.7628578, 53.1895799 ] ] } },
{ "type": "Feature", "properties": { "id": 40380, "nach": 0.48328674062567162 }, "geometry": { "type": "LineString", "coordinates": [ [ -2.762774, 53.1898638 ], [ -2.7627543, 53.1899206 ], [ -2.7628103, 53.1899371 ], [ -2.7628299, 53.1899663 ], [ -2.7628225, 53.1900324 ], [ -2.7628446, 53.1901386 ] ] } },
{ "type": "Feature", "properties": { "id": 70008, "nach": 0.43797110414169765 }, "geometry": { "type": "LineString", "coordinates": [ [ -2.7604999, 53.1894114 ], [ -2.7615563, 53.18963870000001 ], [ -2.7621702, 53.1897534 ], [ -2.762774, 53.1898638 ] ] } },
{ "type": "Feature", "properties": { "id": 69993, "nach": 0.26191094456908881 }, "geometry": { "type": "LineString", "coordinates": [ [ -2.7585683, 53.1888857 ], [ -2.7586553, 53.1887772 ] ] } },
{ "type": "Feature", "properties": { "id": 40368, "nach": 0.37686830198750126 }, "geometry": { "type": "LineString", "coordinates": [ [ -2.7591478, 53.1881656 ], [ -2.7588349, 53.1885326 ], [ -2.7586553, 53.1887772 ] ] } },
{ "type": "Feature", "properties": { "id": 1509, "nach": 0.3951682165056663 }, "geometry": { "type": "LineString", "coordinates": [ [ -2.7586553, 53.1887772 ], [ -2.75969, 53.189128 ], [ -2.7603522, 53.1893331 ], [ -2.7604999, 53.1894114 ] ] } },
{ "type": "Feature", "properties": { "id": 40377, "nach": 0.36084075662748599 }, "geometry": { "type": "LineString", "coordinates": [ [ -2.7579095, 53.1885049 ], [ -2.7586553, 53.1887772 ] ] } },
{ "type": "Feature", "properties": { "id": 69992, "nach": 0.38460456030024709 }, "geometry": { "type": "LineString", "coordinates": [ [ -2.7585683, 53.1888857 ], [ -2.7578053, 53.1886114 ] ] } },
{ "type": "Feature", "properties": { "id": 70007, "nach": 0.37724518078809355 }, "geometry": { "type": "LineString", "coordinates": [ [ -2.7604999, 53.1894114 ], [ -2.7603098, 53.1893994 ], [ -2.7596581, 53.189219200000011 ], [ -2.7589417, 53.1890037 ], [ -2.7585683, 53.1888857 ] ] } },
{ "type": "Feature", "properties": { "id": 40369, "nach": 0.36879623381843846 }, "geometry": { "type": "LineString", "coordinates": [ [ -2.7588871, 53.1880492 ], [ -2.7591478, 53.1881656 ] ] } },
{ "type": "Feature", "properties": { "id": 40374, "nach": 0.33263221965906276 }, "geometry": { "type": "LineString", "coordinates": [ [ -2.7595014, 53.1877588 ], [ -2.7591478, 53.1881656 ] ] } },
{ "type": "Feature", "properties": { "id": 1510, "nach": 0.37649687054971392 }, "geometry": { "type": "LineString", "coordinates": [ [ -2.7573675, 53.1882912 ], [ -2.7579095, 53.1885049 ] ] } },
{ "type": "Feature", "properties": { "id": 70024, "nach": 0.29103986363433498 }, "geometry": { "type": "LineString", "coordinates": [ [ -2.7572601, 53.1884049 ], [ -2.757271, 53.1883933 ], [ -2.7573425, 53.1883176 ], [ -2.7573675, 53.1882912 ] ] } },
{ "type": "Feature", "properties": { "id": 40386, "nach": 0.34960245997425987 }, "geometry": { "type": "LineString", "coordinates": [ [ -2.7555483, 53.1875508 ], [ -2.7567164, 53.1880376 ], [ -2.7573675, 53.1882912 ] ] } },
{ "type": "Feature", "properties": { "id": 40379, "nach": 0.47536894498963367 }, "geometry": { "type": "LineString", "coordinates": [ [ -2.7579095, 53.1885049 ], [ -2.757966, 53.1884528 ], [ -2.7581153, 53.1884277 ], [ -2.7582506, 53.18838310000001 ], [ -2.7583081, 53.1883625 ], [ -2.7585023, 53.1882776 ], [ -2.7588871, 53.1880492 ] ] } },
{ "type": "Feature", "properties": { "id": 134543, "nach": 0.47635169056570825 }, "geometry": { "type": "LineString", "coordinates": [ [ -2.7578053, 53.1886114 ], [ -2.7579095, 53.1885049 ] ] } },
{ "type": "Feature", "properties": { "id": 70023, "nach": 0.35094172672343144 }, "geometry": { "type": "LineString", "coordinates": [ [ -2.7572601, 53.1884049 ], [ -2.7569295, 53.1886948 ], [ -2.7568719, 53.188773 ], [ -2.7568359, 53.1888836 ] ] } },
{ "type": "Feature", "properties": { "id": 70025, "nach": 0.34296144499930903 }, "geometry": { "type": "LineString", "coordinates": [ [ -2.7572601, 53.1884049 ], [ -2.7566055, 53.1881278 ], [ -2.7557984, 53.1877422 ], [ -2.7554858, 53.1875978 ] ] } },
{ "type": "Feature", "properties": { "id": 134544, "nach": 0.38186469899897008 }, "geometry": { "type": "LineString", "coordinates": [ [ -2.7578053, 53.1886114 ], [ -2.7577293, 53.188585900000014 ], [ -2.7572601, 53.1884049 ] ] } },
{ "type": "Feature", "properties": { "id": 1517, "nach": 0.24438840972117362 }, "geometry": { "type": "LineString", "coordinates": [ [ -2.7467999, 53.1839397 ], [ -2.7480357, 53.184672 ], [ -2.7484081, 53.1848619 ], [ -2.7488807, 53.1850607 ], [ -2.7500987, 53.185469 ], [ -2.7524767, 53.1862634 ] ] } },
{ "type": "Feature", "properties": { "id": 70032, "nach": 0.27187261463021412 }, "geometry": { "type": "LineString", "coordinates": [ [ -2.7554141, 53.1875223 ], [ -2.7548861, 53.1872702 ], [ -2.7541677, 53.1869426 ], [ -2.7535697, 53.1866852 ], [ -2.7524767, 53.1862634 ] ] } },
{ "type": "Feature", "properties": { "id": 40351, "nach": 0.26178862711086381 }, "geometry": { "type": "LineString", "coordinates": [ [ -2.7551764, 53.1878051 ], [ -2.754605, 53.187459 ], [ -2.754062, 53.187174 ], [ -2.753714, 53.186979 ], [ -2.7533916, 53.186797 ], [ -2.752899, 53.186597 ], [ -2.7524114, 53.1863567 ], [ -2.7524767, 53.1862634 ] ] } },
{ "type": "Feature", "properties": { "id": 70002, "nach": 0.32215223727883419 }, "geometry": { "type": "LineString", "coordinates": [ [ -2.7554858, 53.1875978 ], [ -2.7554141, 53.1875223 ] ] } },
{ "type": "Feature", "properties": { "id": 70031, "nach": 0.30131435592279643 }, "geometry": { "type": "LineString", "coordinates": [ [ -2.7554141, 53.1875223 ], [ -2.7555483, 53.1875508 ] ] } },
{ "type": "Feature", "properties": { "id": 40353, "nach": 0.38502287825315618 }, "geometry": { "type": "LineString", "coordinates": [ [ -2.7565645, 53.1888819 ], [ -2.7551764, 53.1878051 ] ] } },
{ "type": "Feature", "properties": { "id": 70003, "nach": 0.36891215046376419 }, "geometry": { "type": "LineString", "coordinates": [ [ -2.7554858, 53.1875978 ], [ -2.7554289, 53.1876329 ], [ -2.7551764, 53.1878051 ] ] } },
{ "type": "Feature", "properties": { "id": 64543, "nach": 0.26564577641194759 }, "geometry": { "type": "LineString", "coordinates": [ [ -2.7461534, 53.1843748 ], [ -2.7459835, 53.184754699999985 ], [ -2.7460076, 53.1847903 ], [ -2.7461298, 53.1848283 ], [ -2.7463079, 53.1848914 ], [ -2.7464426, 53.1849474 ], [ -2.7474425, 53.1851668 ] ] } },
{ "type": "Feature", "properties": { "id": 47605, "nach": 0.37797370278962206 }, "geometry": { "type": "LineString", "coordinates": [ [ -2.7603549, 53.1992835 ], [ -2.7605181, 53.1991946 ], [ -2.7606617, 53.1990963 ], [ -2.7605643, 53.198878400000012 ], [ -2.7604775, 53.1988381 ], [ -2.760411, 53.1986763 ], [ -2.7603705, 53.198349 ], [ -2.7603552, 53.1983175 ], [ -2.760316, 53.1982079 ], [ -2.7602152, 53.1980255 ], [ -2.760192, 53.1976382 ], [ -2.7601915, 53.1976264 ] ] } },
{ "type": "Feature", "properties": { "id": 135977, "nach": 0.55156470262617741 }, "geometry": { "type": "LineString", "coordinates": [ [ -2.7633736, 53.1976843 ], [ -2.7632778, 53.1976766 ] ] } },
{ "type": "Feature", "properties": { "id": 1647, "nach": 0.55432839724165772 }, "geometry": { "type": "LineString", "coordinates": [ [ -2.7630092, 53.1973041 ], [ -2.7631696, 53.1975777 ], [ -2.7632216, 53.1976456 ], [ -2.7632778, 53.1976766 ] ] } },
{ "type": "Feature", "properties": { "id": 9486, "nach": 0.53106209094954804 }, "geometry": { "type": "LineString", "coordinates": [ [ -2.7627935, 53.1980258 ], [ -2.7630211, 53.19787680000001 ], [ -2.7632349, 53.1977248 ], [ -2.7632778, 53.1976766 ] ] } },
{ "type": "Feature", "properties": { "id": 135978, "nach": 0.55007809089866799 }, "geometry": { "type": "LineString", "coordinates": [ [ -2.7633736, 53.1976843 ], [ -2.7634558, 53.1976835 ], [ -2.763634, 53.19764760000001 ] ] } },
{ "type": "Feature", "properties": { "id": 135980, "nach": 0.367113225507954 }, "geometry": { "type": "LineString", "coordinates": [ [ -2.7636492, 53.1981949 ], [ -2.7635886, 53.1982123 ], [ -2.7635232, 53.198206 ], [ -2.7634662, 53.198141199999988 ], [ -2.7634241, 53.1980781 ], [ -2.7634251, 53.1980288 ], [ -2.7634612, 53.1979699 ], [ -2.7634364, 53.1979339 ], [ -2.7633259, 53.197788 ], [ -2.7633736, 53.1976843 ] ] } },
{ "type": "Feature", "properties": { "id": 151909, "nach": 0.54485647278774918 }, "geometry": { "type": "LineString", "coordinates": [ [ -2.7629866, 53.1972105 ], [ -2.7630092, 53.1973041 ] ] } },
{ "type": "Feature", "properties": { "id": 151334, "nach": 0.44386721358970027 }, "geometry": { "type": "LineString", "coordinates": [ [ -2.7623856, 53.1973289 ], [ -2.7628336, 53.1973118 ], [ -2.7630092, 53.1973041 ] ] } },
{ "type": "Feature", "properties": { "id": 9485, "nach": 0.52672986092410601 }, "geometry": { "type": "LineString", "coordinates": [ [ -2.7627935, 53.1980258 ], [ -2.762667, 53.1981242 ], [ -2.7625187, 53.1982445 ] ] } },
{ "type": "Feature", "properties": { "id": 9487, "nach": 0.36423930529204473 }, "geometry": { "type": "LineString", "coordinates": [ [ -2.7618216, 53.1980935 ], [ -2.762081, 53.1981122 ], [ -2.7622251, 53.1980625 ], [ -2.762403, 53.1979602 ], [ -2.7625696, 53.1979229 ], [ -2.7627935, 53.1980258 ] ] } },
{ "type": "Feature", "properties": { "id": 151908, "nach": 0.54071502683472572 }, "geometry": { "type": "LineString", "coordinates": [ [ -2.7629866, 53.1972105 ], [ -2.7629641, 53.197117700000014 ] ] } },
{ "type": "Feature", "properties": { "id": 151907, "nach": 0.44122333680289227 }, "geometry": { "type": "LineString", "coordinates": [ [ -2.7629866, 53.1972105 ], [ -2.7633889, 53.1971671 ] ] } },
{ "type": "Feature", "properties": { "id": 151340, "nach": 0.40744227705285879 }, "geometry": { "type": "LineString", "coordinates": [ [ -2.7617043, 53.197440299999982 ], [ -2.7621079, 53.197434899999983 ], [ -2.7623078, 53.1973944 ], [ -2.7622984, 53.1973322 ], [ -2.7623856, 53.1973289 ] ] } },
{ "type": "Feature", "properties": { "id": 151338, "nach": 0.33463516183331982 }, "geometry": { "type": "LineString", "coordinates": [ [ -2.7621764, 53.1972008 ], [ -2.7623789, 53.1972892 ], [ -2.7623856, 53.1973289 ] ] } },
{ "type": "Feature", "properties": { "id": 134557, "nach": 0.49214237004282402 }, "geometry": { "type": "LineString", "coordinates": [ [ -2.7596832, 53.1914345 ], [ -2.7591154, 53.1908954 ] ] } },
{ "type": "Feature", "properties": { "id": 90087, "nach": 0.49842495250679331 }, "geometry": { "type": "LineString", "coordinates": [ [ -2.7588465, 53.1906732 ], [ -2.7589462, 53.190752 ], [ -2.7591154, 53.1908954 ] ] } },
{ "type": "Feature", "properties": { "id": 124351, "nach": 0.46128108699934794 }, "geometry": { "type": "LineString", "coordinates": [ [ -2.7597718, 53.1907365 ], [ -2.759544, 53.1907525 ], [ -2.7591154, 53.1908954 ] ] } },
{ "type": "Feature", "properties": { "id": 134559, "nach": 0.45533291764008671 }, "geometry": { "type": "LineString", "coordinates": [ [ -2.7596832, 53.1914345 ], [ -2.7598898, 53.191376 ], [ -2.7599632, 53.191355200000011 ] ] } },
{ "type": "Feature", "properties": { "id": 139613, "nach": 0.51421258685535365 }, "geometry": { "type": "LineString", "coordinates": [ [ -2.7602386, 53.1920446 ], [ -2.7599384, 53.1916769 ], [ -2.7596832, 53.1914345 ] ] } },
{ "type": "Feature", "properties": { "id": 90088, "nach": 0.35105952913363581 }, "geometry": { "type": "LineString", "coordinates": [ [ -2.7588465, 53.1906732 ], [ -2.7592515, 53.1904783 ], [ -2.7592853, 53.1904149 ], [ -2.758545, 53.1897335 ] ] } },
{ "type": "Feature", "properties": { "id": 134573, "nach": 0.49378293999495626 }, "geometry": { "type": "LineString", "coordinates": [ [ -2.7578136, 53.1899027 ], [ -2.7584975, 53.1903973 ], [ -2.7588465, 53.1906732 ] ] } },
{ "type": "Feature", "properties": { "id": 124350, "nach": 0.43247531983470228 }, "geometry": { "type": "LineString", "coordinates": [ [ -2.7597718, 53.1907365 ], [ -2.7599393, 53.19071240000001 ] ] } },
{ "type": "Feature", "properties": { "id": 124355, "nach": 0.40808323031083787 }, "geometry": { "type": "LineString", "coordinates": [ [ -2.7599672, 53.1898878 ], [ -2.7598611, 53.1899418 ], [ -2.7597297, 53.190016400000012 ], [ -2.7596121, 53.190115900000023 ], [ -2.7595567, 53.1901988 ], [ -2.7595394, 53.1902982 ], [ -2.7595706, 53.1903873 ], [ -2.7596605, 53.1905137 ], [ -2.7597435, 53.1906256 ], [ -2.7597718, 53.1907365 ] ] } },
{ "type": "Feature", "properties": { "id": 40352, "nach": 0.44723744812718963 }, "geometry": { "type": "LineString", "coordinates": [ [ -2.7565645, 53.1888819 ], [ -2.7568412, 53.189008500000014 ] ] } },
{ "type": "Feature", "properties": { "id": 134535, "nach": 0.47175372921964287 }, "geometry": { "type": "LineString", "coordinates": [ [ -2.7568777, 53.1890932 ], [ -2.7568412, 53.189008500000014 ] ] } },
{ "type": "Feature", "properties": { "id": 62478, "nach": 0.36909569849848173 }, "geometry": { "type": "LineString", "coordinates": [ [ -2.7568359, 53.1888836 ], [ -2.7568412, 53.189008500000014 ] ] } },
{ "type": "Feature", "properties": { "id": 62477, "nach": 0.24426671595432001 }, "geometry": { "type": "LineString", "coordinates": [ [ -2.7568359, 53.1888836 ], [ -2.7565645, 53.1888819 ] ] } },
{ "type": "Feature", "properties": { "id": 134570, "nach": 0.40985587721708788 }, "geometry": { "type": "LineString", "coordinates": [ [ -2.7561371, 53.1886418 ], [ -2.7563771, 53.1888336 ], [ -2.7564595, 53.188869600000011 ], [ -2.7565645, 53.1888819 ] ] } },
{ "type": "Feature", "properties": { "id": 134536, "nach": 0.45487205142355247 }, "geometry": { "type": "LineString", "coordinates": [ [ -2.7568777, 53.1890932 ], [ -2.7568901, 53.1891219 ], [ -2.7569525, 53.1892176 ] ] } },
{ "type": "Feature", "properties": { "id": 134538, "nach": 0.46356548413616439 }, "geometry": { "type": "LineString", "coordinates": [ [ -2.7570308, 53.1890506 ], [ -2.7568777, 53.1890932 ] ] } },
{ "type": "Feature", "properties": { "id": 134566, "nach": 0.41202081419530195 }, "geometry": { "type": "LineString", "coordinates": [ [ -2.7566687, 53.1891831 ], [ -2.7568777, 53.1890932 ] ] } },
{ "type": "Feature", "properties": { "id": 127172, "nach": 0.32117583709790687 }, "geometry": { "type": "LineString", "coordinates": [ [ -2.7652782, 53.1806209 ], [ -2.7652467, 53.1808187 ], [ -2.7650166, 53.181332800000014 ], [ -2.764438, 53.1823652 ], [ -2.7643409, 53.1826815 ] ] } },
{ "type": "Feature", "properties": { "id": 4902, "nach": 0.36055038076160933 }, "geometry": { "type": "LineString", "coordinates": [ [ -2.7610737, 53.1924876 ], [ -2.7611592, 53.1925928 ], [ -2.7614666, 53.193008 ], [ -2.7621243, 53.1936687 ] ] } },
{ "type": "Feature", "properties": { "id": 4982, "nach": 0.50761989958324205 }, "geometry": { "type": "LineString", "coordinates": [ [ -2.7607791, 53.1926475 ], [ -2.7610737, 53.1924876 ] ] } },
{ "type": "Feature", "properties": { "id": 4906, "nach": 0.50390722226897366 }, "geometry": { "type": "LineString", "coordinates": [ [ -2.761941, 53.1921432 ], [ -2.7615112, 53.1922853 ], [ -2.7612725, 53.1923753 ], [ -2.7610737, 53.1924876 ] ] } },
{ "type": "Feature", "properties": { "id": 42474, "nach": 0.52083947007421294 }, "geometry": { "type": "LineString", "coordinates": [ [ -2.7604791, 53.1923295 ], [ -2.7607791, 53.1926475 ] ] } },
{ "type": "Feature", "properties": { "id": 100713, "nach": 0.49831849252255345 }, "geometry": { "type": "LineString", "coordinates": [ [ -2.761681, 53.1934789 ], [ -2.7615925, 53.1933971 ], [ -2.7611314, 53.1929684 ], [ -2.7607791, 53.1926475 ] ] } },
{ "type": "Feature", "properties": { "id": 38373, "nach": 0.50679853269447117 }, "geometry": { "type": "LineString", "coordinates": [ [ -2.762582, 53.1919412 ], [ -2.761941, 53.1921432 ] ] } },
{ "type": "Feature", "properties": { "id": 4938, "nach": 0.4834411255697138 }, "geometry": { "type": "LineString", "coordinates": [ [ -2.76257, 53.1927786 ], [ -2.761941, 53.1921432 ] ] } },
{ "type": "Feature", "properties": { "id": 151314, "nach": 0.50915807935309099 }, "geometry": { "type": "LineString", "coordinates": [ [ -2.7628531, 53.1918336 ], [ -2.762582, 53.1919412 ] ] } },
{ "type": "Feature", "properties": { "id": 38377, "nach": 0.46893723587378738 }, "geometry": { "type": "LineString", "coordinates": [ [ -2.7623336, 53.191629 ], [ -2.76245, 53.1918032 ], [ -2.762582, 53.1919412 ] ] } },
{ "type": "Feature", "properties": { "id": 4940, "nach": 0.29815836963293585 }, "geometry": { "type": "LineString", "coordinates": [ [ -2.76257, 53.1927786 ], [ -2.7633834, 53.1924797 ], [ -2.763539, 53.1924203 ], [ -2.7636489, 53.1923849 ], [ -2.7638333, 53.1923773 ], [ -2.7639574, 53.1923801 ], [ -2.7641854, 53.1924187 ], [ -2.7644107, 53.1924749 ], [ -2.7650143, 53.1926414 ] ] } },
{ "type": "Feature", "properties": { "id": 4941, "nach": 0.48141555876704856 }, "geometry": { "type": "LineString", "coordinates": [ [ -2.7633153, 53.1934847 ], [ -2.76257, 53.1927786 ] ] } },
{ "type": "Feature", "properties": { "id": 151317, "nach": 0.46584185966530306 }, "geometry": { "type": "LineString", "coordinates": [ [ -2.7631807, 53.1912768 ], [ -2.7633634, 53.1916875 ] ] } },
{ "type": "Feature", "properties": { "id": 151315, "nach": 0.45461433637584597 }, "geometry": { "type": "LineString", "coordinates": [ [ -2.7628531, 53.1918336 ], [ -2.7630106, 53.1917711 ], [ -2.7631876, 53.1917068 ], [ -2.7633634, 53.1916875 ] ] } },
{ "type": "Feature", "properties": { "id": 4914, "nach": 0.50038575451063905 }, "geometry": { "type": "LineString", "coordinates": [ [ -2.7647412, 53.1919357 ], [ -2.7639723, 53.191768 ], [ -2.7636784, 53.19171 ], [ -2.7633634, 53.1916875 ] ] } },
{ "type": "Feature", "properties": { "id": 151318, "nach": 0.51447831369930386 }, "geometry": { "type": "LineString", "coordinates": [ [ -2.7631807, 53.1912768 ], [ -2.7630132, 53.1909001 ], [ -2.7629246, 53.1906583 ], [ -2.7628741, 53.190323 ] ] } },
{ "type": "Feature", "properties": { "id": 151319, "nach": 0.47494276621428627 }, "geometry": { "type": "LineString", "coordinates": [ [ -2.7631807, 53.1912768 ], [ -2.7631876, 53.1914352 ], [ -2.7631044, 53.1916425 ], [ -2.7628531, 53.1918336 ] ] } },
{ "type": "Feature", "properties": { "id": 4918, "nach": 0.50035207988064867 }, "geometry": { "type": "LineString", "coordinates": [ [ -2.7654493, 53.1921634 ], [ -2.7647412, 53.1919357 ] ] } },
{ "type": "Feature", "properties": { "id": 4916, "nach": 0.35928798183544974 }, "geometry": { "type": "LineString", "coordinates": [ [ -2.7642456, 53.191181500000013 ], [ -2.76496, 53.1913292 ], [ -2.7651268, 53.1913966 ], [ -2.765129, 53.1914792 ], [ -2.7647412, 53.1919357 ] ] } },
{ "type": "Feature", "properties": { "id": 40356, "nach": 0.49128698774317747 }, "geometry": { "type": "LineString", "coordinates": [ [ -2.7628446, 53.1901386 ], [ -2.7628675, 53.1902459 ] ] } },
{ "type": "Feature", "properties": { "id": 124335, "nach": 0.50595462982435091 }, "geometry": { "type": "LineString", "coordinates": [ [ -2.7628741, 53.190323 ], [ -2.7628675, 53.1902459 ] ] } },
{ "type": "Feature", "properties": { "id": 174782, "nach": 0.42546950530622024 }, "geometry": { "type": "LineString", "coordinates": [ [ -2.7632349, 53.1902806 ], [ -2.7630785, 53.1902341 ], [ -2.7628675, 53.1902459 ] ] } },
{ "type": "Feature", "properties": { "id": 40361, "nach": 0.32230412869447034 }, "geometry": { "type": "LineString", "coordinates": [ [ -2.7700244, 53.1912364 ], [ -2.769655, 53.1912755 ], [ -2.769069, 53.191186 ], [ -2.768544, 53.1911 ], [ -2.767583, 53.190944 ], [ -2.767388, 53.190919 ], [ -2.764941, 53.190503 ], [ -2.76449, 53.190416 ], [ -2.764205, 53.190346 ], [ -2.763815, 53.190303 ], [ -2.7629107, 53.190141500000017 ], [ -2.7628446, 53.1901386 ] ] } },
{ "type": "Feature", "properties": { "id": 124338, "nach": 0.50774063047717322 }, "geometry": { "type": "LineString", "coordinates": [ [ -2.7626895, 53.1902435 ], [ -2.7628741, 53.190323 ] ] } },
{ "type": "Feature", "properties": { "id": 174781, "nach": 0.39691746667267719 }, "geometry": { "type": "LineString", "coordinates": [ [ -2.7632349, 53.1902806 ], [ -2.7633547, 53.19052090000001 ], [ -2.7634651, 53.1905895 ], [ -2.7636919, 53.1906053 ], [ -2.7639818, 53.1905729 ], [ -2.7640301, 53.190517 ] ] } },
{ "type": "Feature", "properties": { "id": 90405, "nach": 0.5048247555430585 }, "geometry": { "type": "LineString", "coordinates": [ [ -2.7663766, 53.1924685 ], [ -2.7654493, 53.1921634 ] ] } },
{ "type": "Feature", "properties": { "id": 4935, "nach": 0.42192244945288904 }, "geometry": { "type": "LineString", "coordinates": [ [ -2.7650143, 53.1926414 ], [ -2.7654493, 53.1921634 ] ] } },
{ "type": "Feature", "properties": { "id": 90406, "nach": 0.36945371018254791 }, "geometry": { "type": "LineString", "coordinates": [ [ -2.7663766, 53.1924685 ], [ -2.7664803, 53.1923406 ], [ -2.7661236, 53.1922217 ] ] } },
{ "type": "Feature", "properties": { "id": 143837, "nach": 0.50387384620948761 }, "geometry": { "type": "LineString", "coordinates": [ [ -2.7666934, 53.1925728 ], [ -2.7663766, 53.1924685 ] ] } },
{ "type": "Feature", "properties": { "id": 4943, "nach": 0.40804417501346407 }, "geometry": { "type": "LineString", "coordinates": [ [ -2.7633153, 53.1934847 ], [ -2.764473, 53.193076599999984 ], [ -2.7646145, 53.1930084 ], [ -2.7648151, 53.1928829 ], [ -2.7649257, 53.192777 ], [ -2.7650143, 53.1926414 ] ] } },
{ "type": "Feature", "properties": { "id": 4923, "nach": 0.52389218580969477 }, "geometry": { "type": "LineString", "coordinates": [ [ -2.7679927, 53.1930105 ], [ -2.7672329, 53.1927503 ] ] } },
{ "type": "Feature", "properties": { "id": 143836, "nach": 0.50498020296471602 }, "geometry": { "type": "LineString", "coordinates": [ [ -2.7666934, 53.1925728 ], [ -2.7672329, 53.1927503 ] ] } },
{ "type": "Feature", "properties": { "id": 5013, "nach": 0.45034944594138193 }, "geometry": { "type": "LineString", "coordinates": [ [ -2.766043, 53.194094 ], [ -2.7665438, 53.1935278 ], [ -2.7672329, 53.1927503 ] ] } },
{ "type": "Feature", "properties": { "id": 4989, "nach": 0.50848281206582946 }, "geometry": { "type": "LineString", "coordinates": [ [ -2.7684384, 53.1924967 ], [ -2.7682724, 53.1926857 ], [ -2.7679927, 53.1930105 ] ] } },
{ "type": "Feature", "properties": { "id": 4928, "nach": 0.49372510666536573 }, "geometry": { "type": "LineString", "coordinates": [ [ -2.7675719, 53.1938716 ], [ -2.7677417, 53.1934333 ], [ -2.7679927, 53.1930105 ] ] } },
{ "type": "Feature", "properties": { "id": 143838, "nach": 0.44234666245813253 }, "geometry": { "type": "LineString", "coordinates": [ [ -2.7666934, 53.1925728 ], [ -2.7664679, 53.192749700000014 ], [ -2.7664143, 53.1929024 ], [ -2.7663714, 53.1929185 ], [ -2.7661571, 53.1928478 ] ] } },
{ "type": "Feature", "properties": { "id": 5014, "nach": 0.40792480391583713 }, "geometry": { "type": "LineString", "coordinates": [ [ -2.766043, 53.194094 ], [ -2.7657464, 53.1944531 ], [ -2.7656263, 53.1945561 ], [ -2.7654541, 53.1946443 ], [ -2.765212, 53.194703 ], [ -2.7649498, 53.1947263 ], [ -2.7645032, 53.194732700000017 ], [ -2.763636, 53.1947595 ] ] } },
{ "type": "Feature", "properties": { "id": 143826, "nach": 0.41556013535430664 }, "geometry": { "type": "LineString", "coordinates": [ [ -2.765271, 53.1938326 ], [ -2.766043, 53.194094 ] ] } },
{ "type": "Feature", "properties": { "id": 4990, "nach": 0.50047606750030871 }, "geometry": { "type": "LineString", "coordinates": [ [ -2.7684384, 53.1924967 ], [ -2.7685503, 53.1924008 ], [ -2.7687882, 53.1922628 ] ] } },
{ "type": "Feature", "properties": { "id": 4998, "nach": 0.366427365830652 }, "geometry": { "type": "LineString", "coordinates": [ [ -2.7689766, 53.1927089 ], [ -2.7684384, 53.1924967 ] ] } },
{ "type": "Feature", "properties": { "id": 4979, "nach": 0.47840272877604334 }, "geometry": { "type": "LineString", "coordinates": [ [ -2.7686924, 53.1939256 ], [ -2.7675719, 53.1938716 ] ] } },
{ "type": "Feature", "properties": { "id": 4931, "nach": 0.47741763503368345 }, "geometry": { "type": "LineString", "coordinates": [ [ -2.7668174, 53.1956328 ], [ -2.767187, 53.194956200000014 ], [ -2.7675719, 53.1938716 ] ] } },
{ "type": "Feature", "properties": { "id": 4980, "nach": 0.46749291543562937 }, "geometry": { "type": "LineString", "coordinates": [ [ -2.7686924, 53.1939256 ], [ -2.7692971, 53.1941866 ] ] } },
{ "type": "Feature", "properties": { "id": 143853, "nach": 0.43656058969867489 }, "geometry": { "type": "LineString", "coordinates": [ [ -2.769046, 53.1935968 ], [ -2.7689291, 53.1937056 ], [ -2.7686924, 53.1939256 ] ] } },
{ "type": "Feature", "properties": { "id": 4933, "nach": 0.49673753982551394 }, "geometry": { "type": "LineString", "coordinates": [ [ -2.7665674, 53.196111700000017 ], [ -2.7668174, 53.1956328 ] ] } },
{ "type": "Feature", "properties": { "id": 4996, "nach": 0.44052530284749203 }, "geometry": { "type": "LineString", "coordinates": [ [ -2.7681344, 53.195696800000015 ], [ -2.7679842, 53.1957941 ], [ -2.7678573, 53.1958318 ], [ -2.7677035, 53.1958306 ], [ -2.7674272, 53.1957442 ], [ -2.7668174, 53.1956328 ] ] } },
{ "type": "Feature", "properties": { "id": 5009, "nach": 0.49477153666031692 }, "geometry": { "type": "LineString", "coordinates": [ [ -2.7663513, 53.1966878 ], [ -2.7665674, 53.196111700000017 ] ] } },
{ "type": "Feature", "properties": { "id": 5003, "nach": 0.43124234253726013 }, "geometry": { "type": "LineString", "coordinates": [ [ -2.7648002, 53.1957786 ], [ -2.7655975, 53.1959425 ], [ -2.7665674, 53.196111700000017 ] ] } },
{ "type": "Feature", "properties": { "id": 4995, "nach": 0.37159073034505585 }, "geometry": { "type": "LineString", "coordinates": [ [ -2.7681344, 53.195696800000015 ], [ -2.7682532, 53.1957159 ] ] } },
{ "type": "Feature", "properties": { "id": 143818, "nach": 0.36756991803930195 }, "geometry": { "type": "LineString", "coordinates": [ [ -2.7679539, 53.1954767 ], [ -2.767911, 53.1955281 ], [ -2.7679761, 53.1955901 ], [ -2.7681344, 53.195696800000015 ] ] } },
{ "type": "Feature", "properties": { "id": 5010, "nach": 0.46810364399768672 }, "geometry": { "type": "LineString", "coordinates": [ [ -2.7663513, 53.1966878 ], [ -2.7656982, 53.1966505 ], [ -2.7649138, 53.196605 ] ] } },
{ "type": "Feature", "properties": { "id": 49090, "nach": 0.52397707760862622 }, "geometry": { "type": "LineString", "coordinates": [ [ -2.7662245, 53.19726 ], [ -2.7662963, 53.196865 ], [ -2.7663513, 53.1966878 ] ] } },
{ "type": "Feature", "properties": { "id": 5002, "nach": 0.42694368787218773 }, "geometry": { "type": "LineString", "coordinates": [ [ -2.7648002, 53.1957786 ], [ -2.7645061, 53.195708100000012 ] ] } },
{ "type": "Feature", "properties": { "id": 5005, "nach": 0.36791414463306543 }, "geometry": { "type": "LineString", "coordinates": [ [ -2.7661623, 53.195066 ], [ -2.7657196, 53.195279 ], [ -2.7651363, 53.1954975 ], [ -2.7649096, 53.195642200000016 ], [ -2.7648002, 53.1957786 ] ] } },
{ "type": "Feature", "properties": { "id": 90171, "nach": 0.49846343288710171 }, "geometry": { "type": "LineString", "coordinates": [ [ -2.7633692, 53.1935478 ], [ -2.7633153, 53.1934847 ] ] } },
{ "type": "Feature", "properties": { "id": 90172, "nach": 0.37573250875841918 }, "geometry": { "type": "LineString", "coordinates": [ [ -2.7633692, 53.1935478 ], [ -2.76267, 53.193785200000015 ] ] } },
{ "type": "Feature", "properties": { "id": 143820, "nach": 0.49824473612782288 }, "geometry": { "type": "LineString", "coordinates": [ [ -2.7635569, 53.1939603 ], [ -2.7634953, 53.1936958 ], [ -2.7633692, 53.1935478 ] ] } },
{ "type": "Feature", "properties": { "id": 143819, "nach": 0.48764371465955592 }, "geometry": { "type": "LineString", "coordinates": [ [ -2.7635569, 53.1939603 ], [ -2.7635773, 53.1940477 ] ] } },
{ "type": "Feature", "properties": { "id": 90175, "nach": 0.4874612004260559 }, "geometry": { "type": "LineString", "coordinates": [ [ -2.7636095, 53.1943111 ], [ -2.7635773, 53.1940477 ] ] } },
{ "type": "Feature", "properties": { "id": 5031, "nach": 0.0 }, "geometry": { "type": "LineString", "coordinates": [ [ -2.7640298, 53.1939377 ], [ -2.7641381, 53.1940509 ], [ -2.7635773, 53.1940477 ] ] } },
{ "type": "Feature", "properties": { "id": 143821, "nach": 0.44154529303313839 }, "geometry": { "type": "LineString", "coordinates": [ [ -2.7635569, 53.1939603 ], [ -2.7636221, 53.1939582 ], [ -2.7637428, 53.1940015 ], [ -2.7640298, 53.1939377 ] ] } },
{ "type": "Feature", "properties": { "id": 90176, "nach": 0.4955853104813881 }, "geometry": { "type": "LineString", "coordinates": [ [ -2.7636095, 53.1943111 ], [ -2.7636237, 53.1943557 ] ] } },
{ "type": "Feature", "properties": { "id": 90177, "nach": 0.37793056292403115 }, "geometry": { "type": "LineString", "coordinates": [ [ -2.7636095, 53.1943111 ], [ -2.7632707, 53.1943229 ], [ -2.7630562, 53.1942972 ], [ -2.7629946, 53.1941927 ] ] } },
{ "type": "Feature", "properties": { "id": 143824, "nach": 0.42622609242379922 }, "geometry": { "type": "LineString", "coordinates": [ [ -2.7643919, 53.194159 ], [ -2.7641398, 53.1939132 ], [ -2.7640298, 53.1939377 ] ] } },
{ "type": "Feature", "properties": { "id": 4951, "nach": 0.5186238146031017 }, "geometry": { "type": "LineString", "coordinates": [ [ -2.763636, 53.1947595 ], [ -2.7636237, 53.1943557 ] ] } },
{ "type": "Feature", "properties": { "id": 4955, "nach": 0.45850933237535874 }, "geometry": { "type": "LineString", "coordinates": [ [ -2.7646078, 53.1943401 ], [ -2.7636237, 53.1943557 ] ] } },
{ "type": "Feature", "properties": { "id": 4958, "nach": 0.52165692429235855 }, "geometry": { "type": "LineString", "coordinates": [ [ -2.7625028, 53.1947812 ], [ -2.763636, 53.1947595 ] ] } },
{ "type": "Feature", "properties": { "id": 5000, "nach": 0.48704786899825192 }, "geometry": { "type": "LineString", "coordinates": [ [ -2.7645061, 53.195708100000012 ], [ -2.7642497, 53.1956213 ], [ -2.7640023, 53.1954999 ], [ -2.7638233, 53.195344900000023 ], [ -2.7637076, 53.1951655 ], [ -2.763636, 53.1947595 ] ] } },
{ "type": "Feature", "properties": { "id": 143822, "nach": 0.37862859534924337 }, "geometry": { "type": "LineString", "coordinates": [ [ -2.7646333, 53.1943615 ], [ -2.7646078, 53.1943401 ] ] } },
{ "type": "Feature", "properties": { "id": 143823, "nach": 0.45996020798167569 }, "geometry": { "type": "LineString", "coordinates": [ [ -2.7643919, 53.194159 ], [ -2.7646078, 53.1943401 ] ] } },
{ "type": "Feature", "properties": { "id": 167941, "nach": 0.5402749446315398 }, "geometry": { "type": "LineString", "coordinates": [ [ -2.7624788, 53.1950155 ], [ -2.7625028, 53.1947812 ] ] } },
{ "type": "Feature", "properties": { "id": 151311, "nach": 0.50630449934651844 }, "geometry": { "type": "LineString", "coordinates": [ [ -2.7623829, 53.1942574 ], [ -2.7624556, 53.1943693 ], [ -2.7624993, 53.194573099999985 ], [ -2.7625028, 53.1947812 ] ] } },
{ "type": "Feature", "properties": { "id": 5006, "nach": 0.45571386538231423 }, "geometry": { "type": "LineString", "coordinates": [ [ -2.7649138, 53.196605 ], [ -2.7647942, 53.1965758 ], [ -2.764675, 53.19651540000001 ], [ -2.7645823, 53.196391 ], [ -2.764488, 53.196237 ], [ -2.7644214, 53.1960439 ], [ -2.7644281, 53.1959074 ], [ -2.7645061, 53.195708100000012 ] ] } },
{ "type": "Feature", "properties": { "id": 143828, "nach": 0.46594518635049631 }, "geometry": { "type": "LineString", "coordinates": [ [ -2.765271, 53.1938326 ], [ -2.7647835, 53.1940224 ], [ -2.7643919, 53.194159 ] ] } },
{ "type": "Feature", "properties": { "id": 167943, "nach": 0.53851031537357597 }, "geometry": { "type": "LineString", "coordinates": [ [ -2.7624788, 53.1950155 ], [ -2.7626986, 53.1950648 ], [ -2.7627826, 53.1952715 ], [ -2.7624572, 53.1953306 ] ] } },
{ "type": "Feature", "properties": { "id": 151310, "nach": 0.49976967989356352 }, "geometry": { "type": "LineString", "coordinates": [ [ -2.7623829, 53.1942574 ], [ -2.7623057, 53.1941386 ], [ -2.7621257, 53.1938901 ], [ -2.761681, 53.1934789 ] ] } },
{ "type": "Feature", "properties": { "id": 151313, "nach": 0.38586368225543566 }, "geometry": { "type": "LineString", "coordinates": [ [ -2.7626833, 53.1940787 ], [ -2.7627303, 53.1941357 ], [ -2.7626337, 53.1941847 ], [ -2.7623829, 53.1942574 ] ] } },
{ "type": "Feature", "properties": { "id": 174767, "nach": 0.46959129338014888 }, "geometry": { "type": "LineString", "coordinates": [ [ -2.7699205, 53.1914329 ], [ -2.7698002, 53.1916235 ] ] } },
{ "type": "Feature", "properties": { "id": 4967, "nach": 0.48432161210628649 }, "geometry": { "type": "LineString", "coordinates": [ [ -2.7692842, 53.1921222 ], [ -2.7692878, 53.1920966 ], [ -2.7693072, 53.1920549 ], [ -2.7695288, 53.1918949 ], [ -2.7698002, 53.1916235 ] ] } },
{ "type": "Feature", "properties": { "id": 23789, "nach": 0.22821476997458329 }, "geometry": { "type": "LineString", "coordinates": [ [ -2.7732552, 53.1932346 ], [ -2.7734265, 53.1930869 ], [ -2.7734873, 53.1930261 ], [ -2.7735131, 53.1928076 ], [ -2.773447, 53.1927385 ], [ -2.773223, 53.1926178 ], [ -2.7727683, 53.1921419 ], [ -2.7712449, 53.191808 ], [ -2.7710813, 53.1918016 ], [ -2.7708855, 53.1917759 ], [ -2.7706656, 53.1917662 ], [ -2.7704322, 53.1917678 ], [ -2.7702659, 53.1917502 ], [ -2.7700943, 53.191721200000011 ], [ -2.7699628, 53.1916795 ], [ -2.7698581, 53.191643499999984 ], [ -2.7698002, 53.1916235 ] ] } },
{ "type": "Feature", "properties": { "id": 174772, "nach": 0.37779386175396429 }, "geometry": { "type": "LineString", "coordinates": [ [ -2.7696954, 53.1915928 ], [ -2.7697486, 53.1916063 ], [ -2.7698002, 53.1916235 ] ] } },
{ "type": "Feature", "properties": { "id": 174768, "nach": 0.46974244351863192 }, "geometry": { "type": "LineString", "coordinates": [ [ -2.7699205, 53.1914329 ], [ -2.7700244, 53.1912364 ] ] } },
{ "type": "Feature", "properties": { "id": 174770, "nach": 0.31472494488042102 }, "geometry": { "type": "LineString", "coordinates": [ [ -2.7696954, 53.1915928 ], [ -2.7698503, 53.1914332 ], [ -2.7699205, 53.1914329 ] ] } },
{ "type": "Feature", "properties": { "id": 4968, "nach": 0.45078751985898252 }, "geometry": { "type": "LineString", "coordinates": [ [ -2.770001, 53.1923102 ], [ -2.7692842, 53.1921222 ] ] } },
{ "type": "Feature", "properties": { "id": 4987, "nach": 0.4848982312180628 }, "geometry": { "type": "LineString", "coordinates": [ [ -2.7687882, 53.1922628 ], [ -2.7690926, 53.1921541 ], [ -2.7692842, 53.1921222 ] ] } },
{ "type": "Feature", "properties": { "id": 23788, "nach": 0.31307079200031773 }, "geometry": { "type": "LineString", "coordinates": [ [ -2.7732552, 53.1932346 ], [ -2.7729347, 53.1933906 ] ] } },
{ "type": "Feature", "properties": { "id": 40362, "nach": 0.0 }, "geometry": { "type": "LineString", "coordinates": [ [ -2.7700244, 53.1912364 ], [ -2.7703861, 53.1913859 ], [ -2.7706944, 53.1914307 ], [ -2.7731321, 53.1921638 ], [ -2.7741128, 53.1927178 ], [ -2.7744023, 53.1930087 ], [ -2.7740287, 53.193199 ], [ -2.7732552, 53.1932346 ] ] } },
{ "type": "Feature", "properties": { "id": 174771, "nach": 0.36341781053879252 }, "geometry": { "type": "LineString", "coordinates": [ [ -2.7696954, 53.1915928 ], [ -2.7690059, 53.1914212 ], [ -2.767978, 53.1912456 ], [ -2.7673937, 53.1911589 ], [ -2.7666986, 53.1910254 ], [ -2.7664652, 53.1909531 ], [ -2.7656032, 53.1908363 ], [ -2.7640301, 53.190517 ] ] } },
{ "type": "Feature", "properties": { "id": 23792, "nach": 0.38604982214196154 }, "geometry": { "type": "LineString", "coordinates": [ [ -2.7723436, 53.1932634 ], [ -2.7723641, 53.1931357 ], [ -2.7723455, 53.193055200000011 ], [ -2.7723005, 53.1929886 ], [ -2.7722382, 53.1929408 ], [ -2.7721277, 53.1928929 ], [ -2.770001, 53.1923102 ] ] } },
{ "type": "Feature", "properties": { "id": 4972, "nach": 0.42363996412789445 }, "geometry": { "type": "LineString", "coordinates": [ [ -2.7695676, 53.1929414 ], [ -2.7698226, 53.192567 ], [ -2.770001, 53.1923102 ] ] } },
{ "type": "Feature", "properties": { "id": 4993, "nach": 0.4296108824506229 }, "geometry": { "type": "LineString", "coordinates": [ [ -2.7681781, 53.1919946 ], [ -2.76867, 53.192147500000019 ], [ -2.7687882, 53.1922628 ] ] } },
{ "type": "Feature", "properties": { "id": 23793, "nach": 0.36636026845088926 }, "geometry": { "type": "LineString", "coordinates": [ [ -2.7723436, 53.1932634 ], [ -2.7726826, 53.1932929 ], [ -2.7729347, 53.1933906 ] ] } },
{ "type": "Feature", "properties": { "id": 173021, "nach": 0.25235847651274557 }, "geometry": { "type": "LineString", "coordinates": [ [ -2.7720966, 53.1942715 ], [ -2.7722614, 53.193557 ], [ -2.7723436, 53.1932634 ] ] } },
{ "type": "Feature", "properties": { "id": 4974, "nach": 0.34928985520285882 }, "geometry": { "type": "LineString", "coordinates": [ [ -2.7705572, 53.1931941 ], [ -2.7695676, 53.1929414 ] ] } },
{ "type": "Feature", "properties": { "id": 143852, "nach": 0.40986974765897255 }, "geometry": { "type": "LineString", "coordinates": [ [ -2.769046, 53.1935968 ], [ -2.7692684, 53.1933897 ], [ -2.7695676, 53.1929414 ] ] } },
{ "type": "Feature", "properties": { "id": 4975, "nach": 0.0 }, "geometry": { "type": "LineString", "coordinates": [ [ -2.7705572, 53.1931941 ], [ -2.7710866, 53.1933531 ], [ -2.7711656, 53.1934027 ], [ -2.771205, 53.1934514 ], [ -2.7712161, 53.1935107 ], [ -2.7711556, 53.1938414 ], [ -2.7711217, 53.1938916 ], [ -2.7710512, 53.193933300000012 ], [ -2.7709793, 53.1939564 ], [ -2.7708971, 53.193959200000016 ], [ -2.7708074, 53.1939511 ], [ -2.7704778, 53.193850500000011 ], [ -2.7703223, 53.1937926 ], [ -2.770253, 53.1937317 ], [ -2.7702293, 53.1936367 ], [ -2.7705572, 53.1931941 ] ] } },
{ "type": "Feature", "properties": { "id": 143851, "nach": 0.36013941460449106 }, "geometry": { "type": "LineString", "coordinates": [ [ -2.769046, 53.1935968 ], [ -2.7685976, 53.1934118 ] ] } },
{ "type": "Feature", "properties": { "id": 23795, "nach": 0.45482590473959705 }, "geometry": { "type": "LineString", "coordinates": [ [ -2.7688807, 53.1945803 ], [ -2.7692971, 53.1941866 ] ] } },
{ "type": "Feature", "properties": { "id": 173020, "nach": 0.35276610635826156 }, "geometry": { "type": "LineString", "coordinates": [ [ -2.7720966, 53.1942715 ], [ -2.7720826, 53.1943322 ], [ -2.7718769, 53.194543800000012 ], [ -2.7714751, 53.1948057 ], [ -2.7713388, 53.1948677 ], [ -2.7711881, 53.1948778 ], [ -2.7710679, 53.1948757 ], [ -2.7708001, 53.194810100000012 ], [ -2.7692971, 53.1941866 ] ] } },
{ "type": "Feature", "properties": { "id": 70539, "nach": 0.42392911353690382 }, "geometry": { "type": "LineString", "coordinates": [ [ -2.768827, 53.1946446 ], [ -2.7688807, 53.1945803 ] ] } },
{ "type": "Feature", "properties": { "id": 23801, "nach": 0.43014143890726625 }, "geometry": { "type": "LineString", "coordinates": [ [ -2.7706058, 53.1964388 ], [ -2.7705385, 53.1962728 ], [ -2.7705922, 53.1960751 ], [ -2.7705105, 53.1959856 ], [ -2.7705966, 53.1958651 ], [ -2.7705687, 53.1957605 ], [ -2.7705035, 53.1956743 ], [ -2.7703666, 53.19558030000001 ], [ -2.7695765, 53.1951702 ], [ -2.7694264, 53.1950502 ], [ -2.7693864, 53.1948101 ], [ -2.7689661, 53.194660900000017 ], [ -2.7688807, 53.1945803 ] ] } },
{ "type": "Feature", "properties": { "id": 173025, "nach": 0.36073524043966637 }, "geometry": { "type": "LineString", "coordinates": [ [ -2.7726082, 53.1942952 ], [ -2.7724579, 53.1942887 ], [ -2.7720966, 53.1942715 ] ] } },
{ "type": "Feature", "properties": { "id": 42472, "nach": 0.37688108969462614 }, "geometry": { "type": "LineString", "coordinates": [ [ -2.7604791, 53.1923295 ], [ -2.760801, 53.19217 ] ] } },
{ "type": "Feature", "properties": { "id": 70021, "nach": 0.51788518321246091 }, "geometry": { "type": "LineString", "coordinates": [ [ -2.7603629, 53.1921867 ], [ -2.7604791, 53.1923295 ] ] } },
{ "type": "Feature", "properties": { "id": 100712, "nach": 0.37641986300220909 }, "geometry": { "type": "LineString", "coordinates": [ [ -2.761681, 53.1934789 ], [ -2.7611065, 53.1936838 ] ] } },
{ "type": "Feature", "properties": { "id": 70000, "nach": 0.35944456054520829 }, "geometry": { "type": "LineString", "coordinates": [ [ -2.7682275, 53.191935 ], [ -2.7681781, 53.1919946 ] ] } },
{ "type": "Feature", "properties": { "id": 70035, "nach": 0.35944456054520829 }, "geometry": { "type": "LineString", "coordinates": [ [ -2.7681285, 53.192054 ], [ -2.7681781, 53.1919946 ] ] } },
{ "type": "Feature", "properties": { "id": 137469, "nach": 0.37450272288998038 }, "geometry": { "type": "LineString", "coordinates": [ [ -2.7658008, 53.1970315 ], [ -2.7656672, 53.1970411 ], [ -2.765619, 53.1970411 ], [ -2.7655707, 53.1970305 ], [ -2.7655224, 53.1970026 ], [ -2.7654468, 53.196965 ], [ -2.7653873, 53.1969553 ], [ -2.7653278, 53.1969563 ], [ -2.7651283, 53.1969679 ], [ -2.7650543, 53.1969688 ], [ -2.7650221, 53.1969582 ], [ -2.7650012, 53.1969428 ], [ -2.7649626, 53.1967944 ], [ -2.7649138, 53.196605 ] ] } },
{ "type": "Feature", "properties": { "id": 49089, "nach": 0.52116051694082377 }, "geometry": { "type": "LineString", "coordinates": [ [ -2.7662245, 53.19726 ], [ -2.7664937, 53.197216300000015 ] ] } },
{ "type": "Feature", "properties": { "id": 135974, "nach": 0.53583969659383335 }, "geometry": { "type": "LineString", "coordinates": [ [ -2.7658392, 53.1972997 ], [ -2.7660204, 53.197286700000014 ], [ -2.7662245, 53.19726 ] ] } },
{ "type": "Feature", "properties": { "id": 143827, "nach": 0.4208690402317628 }, "geometry": { "type": "LineString", "coordinates": [ [ -2.765271, 53.1938326 ], [ -2.7651984, 53.1938081 ], [ -2.7651181, 53.1936948 ], [ -2.7651161, 53.1936207 ], [ -2.7651607, 53.1935454 ], [ -2.765654, 53.1931411 ] ] } },
{ "type": "Feature", "properties": { "id": 5019, "nach": 0.42457418247082995 }, "geometry": { "type": "LineString", "coordinates": [ [ -2.7657925, 53.1930236 ], [ -2.765654, 53.1931411 ] ] } },
{ "type": "Feature", "properties": { "id": 5022, "nach": 0.36534155686949876 }, "geometry": { "type": "LineString", "coordinates": [ [ -2.7653606, 53.1930099 ], [ -2.765654, 53.1931411 ] ] } },
{ "type": "Feature", "properties": { "id": 5023, "nach": 0.36273719134336119 }, "geometry": { "type": "LineString", "coordinates": [ [ -2.7657948, 53.1934947 ], [ -2.7659545, 53.1933271 ], [ -2.7657813, 53.1932447 ], [ -2.765654, 53.1931411 ] ] } },
{ "type": "Feature", "properties": { "id": 143834, "nach": 0.4328182445369646 }, "geometry": { "type": "LineString", "coordinates": [ [ -2.7661571, 53.1928478 ], [ -2.7659181, 53.1930711 ], [ -2.7657925, 53.1930236 ] ] } },
{ "type": "Feature", "properties": { "id": 5027, "nach": 0.44531171117635965 }, "geometry": { "type": "LineString", "coordinates": [ [ -2.7665958, 53.1974611 ], [ -2.7664937, 53.197216300000015 ] ] } },
{ "type": "Feature", "properties": { "id": 5043, "nach": 0.50408316285301991 }, "geometry": { "type": "LineString", "coordinates": [ [ -2.7677056, 53.1969744 ], [ -2.7664937, 53.197216300000015 ] ] } },
{ "type": "Feature", "properties": { "id": 127027, "nach": 0.36529313587703061 }, "geometry": { "type": "LineString", "coordinates": [ [ -2.7658017, 53.1984462 ], [ -2.7656936, 53.1984185 ], [ -2.7656284, 53.1983877 ], [ -2.7656061, 53.198364 ], [ -2.7655993, 53.198327 ], [ -2.7656027, 53.1982962 ], [ -2.7656284, 53.1982448 ], [ -2.7656833, 53.1982161 ], [ -2.7658662, 53.1981481 ], [ -2.7659664, 53.1980444 ], [ -2.7661541, 53.1979592 ], [ -2.7663231, 53.1978934 ], [ -2.7663928, 53.1978676 ], [ -2.7664383, 53.1978283 ], [ -2.7664599, 53.1977552 ], [ -2.7664508, 53.1976723 ], [ -2.7665688, 53.1975744 ], [ -2.7665958, 53.1974611 ] ] } },
{ "type": "Feature", "properties": { "id": 5030, "nach": 0.37727383665026143 }, "geometry": { "type": "LineString", "coordinates": [ [ -2.7671503, 53.1972265 ], [ -2.7669105, 53.1973615 ], [ -2.7665958, 53.1974611 ] ] } },
{ "type": "Feature", "properties": { "id": 119287, "nach": 0.49485820684114817 }, "geometry": { "type": "LineString", "coordinates": [ [ -2.7684533, 53.1968143 ], [ -2.7677056, 53.1969744 ] ] } },
{ "type": "Feature", "properties": { "id": 9467, "nach": 0.4069320983889565 }, "geometry": { "type": "LineString", "coordinates": [ [ -2.768299, 53.1974739 ], [ -2.7681845, 53.1973744 ], [ -2.768037, 53.1972699 ], [ -2.7677527, 53.1970626 ], [ -2.7677056, 53.1969744 ] ] } },
{ "type": "Feature", "properties": { "id": 5041, "nach": 0.47641898851677517 }, "geometry": { "type": "LineString", "coordinates": [ [ -2.7692786, 53.1966717 ], [ -2.7695986, 53.1966635 ], [ -2.7698623, 53.196706 ] ] } },
{ "type": "Feature", "properties": { "id": 167937, "nach": 0.47657228105336114 }, "geometry": { "type": "LineString", "coordinates": [ [ -2.7689936, 53.196720800000016 ], [ -2.7692786, 53.1966717 ] ] } },
{ "type": "Feature", "properties": { "id": 23798, "nach": 0.0 }, "geometry": { "type": "LineString", "coordinates": [ [ -2.7706058, 53.1964388 ], [ -2.7704886, 53.1963796 ], [ -2.7697496, 53.1965252 ], [ -2.7694774, 53.1965822 ], [ -2.7692786, 53.1966717 ] ] } },
{ "type": "Feature", "properties": { "id": 167939, "nach": 0.48493426468777806 }, "geometry": { "type": "LineString", "coordinates": [ [ -2.7689936, 53.196720800000016 ], [ -2.7684681, 53.1968113 ], [ -2.7684533, 53.1968143 ] ] } },
{ "type": "Feature", "properties": { "id": 167940, "nach": 0.37654636205550063 }, "geometry": { "type": "LineString", "coordinates": [ [ -2.7690652, 53.1968524 ], [ -2.7689936, 53.196720800000016 ] ] } },
{ "type": "Feature", "properties": { "id": 124356, "nach": 0.41023558230708057 }, "geometry": { "type": "LineString", "coordinates": [ [ -2.7722249, 53.1947821 ], [ -2.7718869, 53.1951502 ], [ -2.7713203, 53.195526 ], [ -2.7710247, 53.195804 ], [ -2.7707541, 53.1962243 ], [ -2.7706058, 53.1964388 ] ] } },
{ "type": "Feature", "properties": { "id": 120162, "nach": 0.36901984815057842 }, "geometry": { "type": "LineString", "coordinates": [ [ -2.7675508, 53.196464200000015 ], [ -2.7676866, 53.196389200000013 ], [ -2.7677624, 53.1963717 ], [ -2.7678281, 53.1963826 ], [ -2.7678616, 53.1963921 ], [ -2.7679828, 53.1964547 ], [ -2.7681654, 53.1965508 ], [ -2.7683076, 53.196631199999985 ], [ -2.7683722, 53.19668 ], [ -2.7684167, 53.1967349 ], [ -2.7684533, 53.1968143 ] ] } },
{ "type": "Feature", "properties": { "id": 135973, "nach": 0.53443866661412387 }, "geometry": { "type": "LineString", "coordinates": [ [ -2.7658392, 53.1972997 ], [ -2.7649803, 53.197350900000011 ] ] } },
{ "type": "Feature", "properties": { "id": 75822, "nach": 0.53491675545602135 }, "geometry": { "type": "LineString", "coordinates": [ [ -2.7641043, 53.1975382 ], [ -2.7645017, 53.197441 ], [ -2.7649803, 53.197350900000011 ] ] } },
{ "type": "Feature", "properties": { "id": 151279, "nach": 0.37415579233796009 }, "geometry": { "type": "LineString", "coordinates": [ [ -2.7653551, 53.197217 ], [ -2.7650955, 53.197274099999987 ], [ -2.7649947, 53.1973093 ], [ -2.7649803, 53.197350900000011 ] ] } },
{ "type": "Feature", "properties": { "id": 135976, "nach": 0.37586599752324762 }, "geometry": { "type": "LineString", "coordinates": [ [ -2.7653956, 53.197726700000011 ], [ -2.7657835, 53.197593400000017 ], [ -2.7658489, 53.1975526 ], [ -2.7658928, 53.197512800000013 ], [ -2.7659003, 53.197463 ], [ -2.7658826, 53.1974187 ], [ -2.7658526, 53.197379 ], [ -2.7658392, 53.1972997 ] ] } },
{ "type": "Feature", "properties": { "id": 90105, "nach": 0.54875375499807988 }, "geometry": { "type": "LineString", "coordinates": [ [ -2.763634, 53.19764760000001 ], [ -2.7641043, 53.1975382 ] ] } },
{ "type": "Feature", "properties": { "id": 151277, "nach": 0.49568679717344688 }, "geometry": { "type": "LineString", "coordinates": [ [ -2.7649243, 53.198252500000017 ], [ -2.7648502, 53.19816380000001 ], [ -2.7647922, 53.1980943 ], [ -2.76418, 53.1976001 ], [ -2.7641043, 53.1975382 ] ] } },
{ "type": "Feature", "properties": { "id": 151324, "nach": 0.36792008974430518 }, "geometry": { "type": "LineString", "coordinates": [ [ -2.7719759, 53.1884471 ], [ -2.7720789, 53.1884238 ] ] } },
{ "type": "Feature", "properties": { "id": 5062, "nach": 0.31473471565871686 }, "geometry": { "type": "LineString", "coordinates": [ [ -2.7722874, 53.1882559 ], [ -2.7720789, 53.1884238 ] ] } },
{ "type": "Feature", "properties": { "id": 5060, "nach": 0.3146046724742933 }, "geometry": { "type": "LineString", "coordinates": [ [ -2.7724346, 53.1884525 ], [ -2.7720789, 53.1884238 ] ] } },
{ "type": "Feature", "properties": { "id": 151325, "nach": 0.38173721556371465 }, "geometry": { "type": "LineString", "coordinates": [ [ -2.7719759, 53.1884471 ], [ -2.7712415, 53.188866 ], [ -2.771202, 53.1889121 ], [ -2.7708515, 53.189496 ], [ -2.770679, 53.189840500000017 ] ] } },
{ "type": "Feature", "properties": { "id": 151326, "nach": 0.29664223071595652 }, "geometry": { "type": "LineString", "coordinates": [ [ -2.7719759, 53.1884471 ], [ -2.7719177, 53.1883956 ], [ -2.7718122, 53.1883022 ] ] } },
{ "type": "Feature", "properties": { "id": 5063, "nach": 0.27432942583926834 }, "geometry": { "type": "LineString", "coordinates": [ [ -2.7722874, 53.1882559 ], [ -2.7724346, 53.1884525 ] ] } },
{ "type": "Feature", "properties": { "id": 143839, "nach": 0.30561997498904059 }, "geometry": { "type": "LineString", "coordinates": [ [ -2.7761553, 53.186351 ], [ -2.7757657, 53.1865427 ], [ -2.7731442, 53.187779200000016 ], [ -2.7723519, 53.1881434 ], [ -2.7722874, 53.1882559 ] ] } },
{ "type": "Feature", "properties": { "id": 151329, "nach": 0.31913682905603752 }, "geometry": { "type": "LineString", "coordinates": [ [ -2.7729183, 53.1888915 ], [ -2.7727781, 53.1887603 ], [ -2.7725275, 53.1885357 ], [ -2.7724346, 53.1884525 ] ] } },
{ "type": "Feature", "properties": { "id": 151328, "nach": 0.2320378407922081 }, "geometry": { "type": "LineString", "coordinates": [ [ -2.7729183, 53.1888915 ], [ -2.7731195, 53.1890798 ], [ -2.7732403, 53.1891706 ], [ -2.7733471, 53.1892864 ], [ -2.7734302, 53.1894602 ], [ -2.7735054, 53.1896522 ], [ -2.7736313, 53.1897536 ] ] } },
{ "type": "Feature", "properties": { "id": 151327, "nach": 0.32813636306213217 }, "geometry": { "type": "LineString", "coordinates": [ [ -2.7729183, 53.1888915 ], [ -2.772588, 53.1892522 ] ] } },
{ "type": "Feature", "properties": { "id": 113721, "nach": 0.10377231384830604 }, "geometry": { "type": "LineString", "coordinates": [ [ -2.7659717, 53.1845278 ], [ -2.7660686, 53.1845411 ], [ -2.7677374, 53.1848172 ], [ -2.7697687, 53.1854422 ], [ -2.7702374, 53.1855359 ], [ -2.7709249, 53.1854109 ], [ -2.7726437, 53.1852859 ], [ -2.7744874, 53.1854109 ], [ -2.7767738, 53.18595730000002 ], [ -2.7768101, 53.1859854 ] ] } },
{ "type": "Feature", "properties": { "id": 114801, "nach": 0.36153433132491108 }, "geometry": { "type": "LineString", "coordinates": [ [ -2.7647848, 53.1844167 ], [ -2.7656996, 53.1844904 ], [ -2.7659717, 53.1845278 ] ] } },
{ "type": "Feature", "properties": { "id": 113724, "nach": 0.34172102517546976 }, "geometry": { "type": "LineString", "coordinates": [ [ -2.7658028, 53.1847595 ], [ -2.7658379, 53.1847375 ], [ -2.7659383, 53.184583 ], [ -2.7659717, 53.1845278 ] ] } },
{ "type": "Feature", "properties": { "id": 139147, "nach": 0.38243896743278744 }, "geometry": { "type": "LineString", "coordinates": [ [ -2.7539476, 53.190616 ], [ -2.7535715, 53.1907451 ], [ -2.7532442, 53.19086 ], [ -2.7530162, 53.1909619 ], [ -2.7527534, 53.1910844 ] ] } },
{ "type": "Feature", "properties": { "id": 47617, "nach": 0.27217509393502287 }, "geometry": { "type": "LineString", "coordinates": [ [ -2.7553612, 53.1933823 ], [ -2.755227, 53.1932282 ], [ -2.7545182, 53.1922121 ], [ -2.7540565, 53.1920554 ], [ -2.7536706, 53.191642600000016 ], [ -2.7527534, 53.1910844 ] ] } },
{ "type": "Feature", "properties": { "id": 114221, "nach": 0.35809126636792027 }, "geometry": { "type": "LineString", "coordinates": [ [ -2.7521371, 53.1915491 ], [ -2.7521778, 53.1915061 ], [ -2.7523321, 53.1913788 ], [ -2.7524963, 53.1912568 ], [ -2.7527534, 53.1910844 ] ] } },
{ "type": "Feature", "properties": { "id": 139148, "nach": 0.41631494135909836 }, "geometry": { "type": "LineString", "coordinates": [ [ -2.7539476, 53.190616 ], [ -2.7539823, 53.19059570000001 ], [ -2.7544099, 53.1904113 ], [ -2.7547257, 53.190241 ], [ -2.7550621, 53.1900262 ], [ -2.7553762, 53.1898707 ], [ -2.7557628, 53.189700400000014 ], [ -2.7560518, 53.1895877 ] ] } },
{ "type": "Feature", "properties": { "id": 139150, "nach": 0.33080387677868617 }, "geometry": { "type": "LineString", "coordinates": [ [ -2.7540913, 53.1909007 ], [ -2.7541885, 53.1908672 ], [ -2.7542005, 53.1908536 ], [ -2.7541899, 53.1908384 ], [ -2.7539476, 53.190616 ] ] } },
{ "type": "Feature", "properties": { "id": 65610, "nach": 0.22491936000646429 }, "geometry": { "type": "LineString", "coordinates": [ [ -2.7593339, 53.1962089 ], [ -2.759334, 53.196191399999989 ], [ -2.7586453, 53.1950358 ], [ -2.7581079, 53.1938635 ], [ -2.7574327, 53.1933846 ], [ -2.7553518, 53.193458900000017 ], [ -2.7553612, 53.1933823 ] ] } },
{ "type": "Feature", "properties": { "id": 70022, "nach": 0.32499592642283226 }, "geometry": { "type": "LineString", "coordinates": [ [ -2.7603629, 53.1921867 ], [ -2.7601085, 53.1922356 ], [ -2.7599448, 53.1922387 ], [ -2.7596363, 53.19223550000001 ], [ -2.7594526, 53.192244 ], [ -2.7592689, 53.192213 ], [ -2.759108, 53.1922291 ], [ -2.7588505, 53.1922869 ], [ -2.7586209, 53.1923212 ], [ -2.7578688, 53.192446 ], [ -2.7575791, 53.1925392 ], [ -2.7574021, 53.1926678 ], [ -2.7570856, 53.1927545 ], [ -2.7567798, 53.1928285 ], [ -2.7563828, 53.1930149 ], [ -2.7561414, 53.1931338 ], [ -2.7553612, 53.1933823 ] ] } },
{ "type": "Feature", "properties": { "id": 114220, "nach": 0.28711621563368472 }, "geometry": { "type": "LineString", "coordinates": [ [ -2.7521371, 53.1915491 ], [ -2.7519667, 53.191729500000015 ], [ -2.7516949, 53.1919618 ], [ -2.7514931, 53.1921279 ], [ -2.7510851, 53.19242 ], [ -2.7506881, 53.1926772 ], [ -2.7503984, 53.1928432 ], [ -2.7500543, 53.1930111 ], [ -2.7496903, 53.19321320000001 ], [ -2.7495629, 53.1933125 ] ] } },
{ "type": "Feature", "properties": { "id": 114224, "nach": 0.29388050427579493 }, "geometry": { "type": "LineString", "coordinates": [ [ -2.7496673, 53.1901219 ], [ -2.7498543, 53.1902402 ], [ -2.7504031, 53.1906348 ], [ -2.7510765, 53.1911188 ], [ -2.7512967, 53.191214 ], [ -2.7517096, 53.191420699999988 ], [ -2.7519552, 53.1914958 ], [ -2.7521371, 53.1915491 ] ] } },
{ "type": "Feature", "properties": { "id": 140651, "nach": 0.26640406447807774 }, "geometry": { "type": "LineString", "coordinates": [ [ -2.7476904, 53.1948802 ], [ -2.7478785, 53.1948228 ], [ -2.748033, 53.194733 ], [ -2.7481775, 53.19462930000001 ], [ -2.748505, 53.1942671 ], [ -2.7486083, 53.194155 ], [ -2.7489661, 53.193766500000017 ], [ -2.7491717, 53.1935877 ], [ -2.7495629, 53.1933125 ] ] } },
{ "type": "Feature", "properties": { "id": 134561, "nach": 0.42383035580272693 }, "geometry": { "type": "LineString", "coordinates": [ [ -2.7567935, 53.1892846 ], [ -2.7569525, 53.1892176 ] ] } },
{ "type": "Feature", "properties": { "id": 134572, "nach": 0.46593354000765402 }, "geometry": { "type": "LineString", "coordinates": [ [ -2.7578136, 53.1899027 ], [ -2.7577521, 53.18985820000001 ], [ -2.7571519, 53.1894242 ], [ -2.7569525, 53.1892176 ] ] } },
{ "type": "Feature", "properties": { "id": 134564, "nach": 0.36176861249248737 }, "geometry": { "type": "LineString", "coordinates": [ [ -2.7567935, 53.1892846 ], [ -2.7563591, 53.1894678 ], [ -2.7560518, 53.1895877 ] ] } },
{ "type": "Feature", "properties": { "id": 134563, "nach": 0.34950445108397454 }, "geometry": { "type": "LineString", "coordinates": [ [ -2.7567935, 53.1892846 ], [ -2.7571213, 53.1895204 ] ] } },
{ "type": "Feature", "properties": { "id": 134565, "nach": 0.30212485932505312 }, "geometry": { "type": "LineString", "coordinates": [ [ -2.7566687, 53.1891831 ], [ -2.7567935, 53.1892846 ] ] } },
{ "type": "Feature", "properties": { "id": 134574, "nach": 0.42089814021803168 }, "geometry": { "type": "LineString", "coordinates": [ [ -2.7578136, 53.1899027 ], [ -2.7578878, 53.1898772 ], [ -2.7573592, 53.1894193 ], [ -2.7570454, 53.1891345 ], [ -2.7570308, 53.1890506 ] ] } },
{ "type": "Feature", "properties": { "id": 40375, "nach": 0.38472846041253322 }, "geometry": { "type": "LineString", "coordinates": [ [ -2.7595014, 53.1877588 ], [ -2.7596651, 53.1878344 ], [ -2.7602486, 53.188182600000012 ], [ -2.76076, 53.188516 ], [ -2.761215, 53.1887863 ], [ -2.761349, 53.1888 ], [ -2.7615527, 53.1888001 ], [ -2.762577, 53.1896077 ], [ -2.7627415, 53.1895964 ], [ -2.7628578, 53.1895799 ] ] } },
{ "type": "Feature", "properties": { "id": 141666, "nach": 0.40665633003107921 }, "geometry": { "type": "LineString", "coordinates": [ [ -2.7631453, 53.1865161 ], [ -2.7629221, 53.1867055 ], [ -2.762801, 53.1868767 ], [ -2.7627519, 53.1871941 ], [ -2.7627665, 53.1874126 ], [ -2.7628282, 53.1875846 ], [ -2.7628511, 53.1877167 ], [ -2.7628434, 53.1884151 ], [ -2.7628362, 53.1889426 ], [ -2.7628578, 53.1895799 ] ] } },
{ "type": "Feature", "properties": { "id": 40376, "nach": 0.45773990352042571 }, "geometry": { "type": "LineString", "coordinates": [ [ -2.7595014, 53.1877588 ], [ -2.7593535, 53.1877468 ], [ -2.7593002, 53.1877495 ], [ -2.7588871, 53.1880492 ] ] } },
{ "type": "Feature", "properties": { "id": 142313, "nach": 0.47422447240384646 }, "geometry": { "type": "LineString", "coordinates": [ [ -2.7598113, 53.187402500000012 ], [ -2.7595014, 53.1877588 ] ] } },
{ "type": "Feature", "properties": { "id": 141667, "nach": 0.38822598751506687 }, "geometry": { "type": "LineString", "coordinates": [ [ -2.7631453, 53.1865161 ], [ -2.7631664, 53.186491 ], [ -2.7631755, 53.1864786 ] ] } },
{ "type": "Feature", "properties": { "id": 141669, "nach": 0.32910545958806908 }, "geometry": { "type": "LineString", "coordinates": [ [ -2.7633896, 53.1866484 ], [ -2.7634011, 53.1866147 ], [ -2.7633841, 53.1865871 ], [ -2.7632489, 53.1865455 ], [ -2.7631453, 53.1865161 ] ] } },
{ "type": "Feature", "properties": { "id": 125532, "nach": 0.35968406950350001 }, "geometry": { "type": "LineString", "coordinates": [ [ -2.7643409, 53.1826815 ], [ -2.7642825, 53.1828717 ], [ -2.7640824, 53.1832705 ] ] } },
{ "type": "Feature", "properties": { "id": 123003, "nach": 0.34570003894825718 }, "geometry": { "type": "LineString", "coordinates": [ [ -2.7630111, 53.1840707 ], [ -2.7636524, 53.1836155 ], [ -2.7640824, 53.1832705 ] ] } },
{ "type": "Feature", "properties": { "id": 10642, "nach": 0.31590867337532275 }, "geometry": { "type": "LineString", "coordinates": [ [ -2.7643624, 53.1843797 ], [ -2.764404, 53.1839888 ], [ -2.7642782, 53.1834288 ], [ -2.7640824, 53.1832705 ] ] } },
{ "type": "Feature", "properties": { "id": 125537, "nach": 0.27425071117483846 }, "geometry": { "type": "LineString", "coordinates": [ [ -2.7634918, 53.1825281 ], [ -2.7635092, 53.1825318 ], [ -2.7637016, 53.1825777 ], [ -2.7643409, 53.1826815 ] ] } },
{ "type": "Feature", "properties": { "id": 123002, "nach": 0.38700759189932415 }, "geometry": { "type": "LineString", "coordinates": [ [ -2.7630111, 53.1840707 ], [ -2.7627635, 53.184246400000013 ] ] } },
{ "type": "Feature", "properties": { "id": 123005, "nach": 0.30740791418462821 }, "geometry": { "type": "LineString", "coordinates": [ [ -2.7623579, 53.1838514 ], [ -2.7624581, 53.1837875 ], [ -2.7626083, 53.1837914 ], [ -2.7627323, 53.183814900000016 ], [ -2.7628064, 53.1838762 ], [ -2.762913, 53.1839923 ], [ -2.7630111, 53.1840707 ] ] } },
{ "type": "Feature", "properties": { "id": 114792, "nach": 0.39903404119532343 }, "geometry": { "type": "LineString", "coordinates": [ [ -2.7631018, 53.1842769 ], [ -2.7643624, 53.1843797 ] ] } },
{ "type": "Feature", "properties": { "id": 114799, "nach": 0.39599177254125173 }, "geometry": { "type": "LineString", "coordinates": [ [ -2.7647848, 53.1844167 ], [ -2.7643624, 53.1843797 ] ] } },
{ "type": "Feature", "properties": { "id": 141663, "nach": 0.36749538908644275 }, "geometry": { "type": "LineString", "coordinates": [ [ -2.7631755, 53.1864786 ], [ -2.7639656, 53.185407700000013 ], [ -2.7643624, 53.1843797 ] ] } },
{ "type": "Feature", "properties": { "id": 114788, "nach": 0.43908141577325138 }, "geometry": { "type": "LineString", "coordinates": [ [ -2.7627635, 53.184246400000013 ], [ -2.7627096, 53.1842847 ] ] } },
{ "type": "Feature", "properties": { "id": 10667, "nach": 0.36673242314511617 }, "geometry": { "type": "LineString", "coordinates": [ [ -2.7597056, 53.1837556 ], [ -2.7627096, 53.1842847 ] ] } },
{ "type": "Feature", "properties": { "id": 128476, "nach": 0.42604771681640635 }, "geometry": { "type": "LineString", "coordinates": [ [ -2.7606425, 53.1864377 ], [ -2.761744, 53.1852255 ], [ -2.7622061, 53.1847506 ], [ -2.7627096, 53.1842847 ] ] } },
{ "type": "Feature", "properties": { "id": 114794, "nach": 0.41581399027294835 }, "geometry": { "type": "LineString", "coordinates": [ [ -2.7631018, 53.1842769 ], [ -2.7629933, 53.1842675 ], [ -2.7629294, 53.1842617 ], [ -2.7627635, 53.184246400000013 ] ] } },
{ "type": "Feature", "properties": { "id": 128692, "nach": 0.35786175562140515 }, "geometry": { "type": "LineString", "coordinates": [ [ -2.7573457, 53.1829239 ], [ -2.7577923, 53.18306960000001 ], [ -2.7597056, 53.1837556 ] ] } },
{ "type": "Feature", "properties": { "id": 40348, "nach": 0.0 }, "geometry": { "type": "LineString", "coordinates": [ [ -2.7561631, 53.180534899999984 ], [ -2.756342, 53.180533400000016 ], [ -2.7574325, 53.1805315 ], [ -2.757573, 53.180905 ], [ -2.7575966, 53.1809101 ], [ -2.757633, 53.180904 ], [ -2.7576854, 53.1810439 ], [ -2.7577079, 53.181192 ], [ -2.7577588, 53.181312699999985 ], [ -2.7579389, 53.1813333 ], [ -2.7584764, 53.181266 ], [ -2.7584967, 53.1813325 ], [ -2.758584, 53.181393 ], [ -2.75887, 53.1815707 ], [ -2.7589666, 53.1816911 ], [ -2.7589267, 53.182081399999987 ], [ -2.7591508, 53.1822004 ], [ -2.759348, 53.182287 ], [ -2.759364, 53.182341 ], [ -2.7591855, 53.182583499999986 ], [ -2.7597056, 53.1837556 ] ] } },
{ "type": "Feature", "properties": { "id": 128475, "nach": 0.44155649828062221 }, "geometry": { "type": "LineString", "coordinates": [ [ -2.7606425, 53.1864377 ], [ -2.760594, 53.186491 ], [ -2.7599944, 53.1871893 ] ] } },
{ "type": "Feature", "properties": { "id": 128478, "nach": 0.33954061223629478 }, "geometry": { "type": "LineString", "coordinates": [ [ -2.7610034, 53.1868139 ], [ -2.7610294, 53.1867642 ], [ -2.7610527, 53.1866803 ], [ -2.7609542, 53.1865902 ], [ -2.7607831, 53.186497 ], [ -2.7606425, 53.1864377 ] ] } },
{ "type": "Feature", "properties": { "id": 114793, "nach": 0.31936625533543767 }, "geometry": { "type": "LineString", "coordinates": [ [ -2.7631018, 53.1842769 ], [ -2.763083, 53.184346 ] ] } },
{ "type": "Feature", "properties": { "id": 114800, "nach": 0.30449644205322268 }, "geometry": { "type": "LineString", "coordinates": [ [ -2.7647848, 53.1844167 ], [ -2.7647741, 53.1845783 ] ] } },
{ "type": "Feature", "properties": { "id": 141665, "nach": 0.30857147736459101 }, "geometry": { "type": "LineString", "coordinates": [ [ -2.7638172, 53.1869178 ], [ -2.7637587, 53.1868718 ], [ -2.7637697, 53.1868148 ], [ -2.7638245, 53.186737099999988 ], [ -2.7637971, 53.186680200000012 ], [ -2.7637532, 53.1866495 ], [ -2.763311, 53.1865181 ], [ -2.7631755, 53.1864786 ] ] } },
{ "type": "Feature", "properties": { "id": 128691, "nach": 0.36063678390458881 }, "geometry": { "type": "LineString", "coordinates": [ [ -2.7573457, 53.1829239 ], [ -2.7572623, 53.1828967 ] ] } },
{ "type": "Feature", "properties": { "id": 128694, "nach": 0.26628215011088785 }, "geometry": { "type": "LineString", "coordinates": [ [ -2.7576456, 53.1815556 ], [ -2.757263, 53.1825061 ], [ -2.7572213, 53.182677 ], [ -2.7572283, 53.1827375 ], [ -2.7572526, 53.1827958 ], [ -2.757291, 53.1828487 ], [ -2.7573457, 53.1829239 ] ] } },
{ "type": "Feature", "properties": { "id": 20192, "nach": 0.35038686714642614 }, "geometry": { "type": "LineString", "coordinates": [ [ -2.7557913, 53.182646900000016 ], [ -2.7572623, 53.1828967 ] ] } },
{ "type": "Feature", "properties": { "id": 40385, "nach": 0.27914719637104896 }, "geometry": { "type": "LineString", "coordinates": [ [ -2.7555483, 53.1875508 ], [ -2.7556463, 53.1872864 ], [ -2.7558516, 53.1870686 ], [ -2.7558627, 53.1867946 ], [ -2.755804, 53.18666 ], [ -2.7558171, 53.1865669 ], [ -2.7559303, 53.186547500000017 ], [ -2.7560571, 53.1864713 ], [ -2.7562618, 53.1862104 ], [ -2.756596, 53.185792 ], [ -2.7566763, 53.1856339 ], [ -2.7566451, 53.185553700000014 ], [ -2.7562558, 53.185373799999986 ], [ -2.756258, 53.185264 ], [ -2.7566871, 53.1846542 ], [ -2.7569449, 53.1842286 ], [ -2.7570333, 53.184084 ], [ -2.756767, 53.1839785 ], [ -2.7572257, 53.182975100000014 ], [ -2.7572623, 53.1828967 ] ] } },
{ "type": "Feature", "properties": { "id": 20193, "nach": 0.20687106533105801 }, "geometry": { "type": "LineString", "coordinates": [ [ -2.7557913, 53.182646900000016 ], [ -2.7543498, 53.1824513 ], [ -2.7541583, 53.182445800000018 ], [ -2.7539792, 53.1824661 ], [ -2.7537726, 53.182522 ], [ -2.7535983, 53.1825596 ], [ -2.7534416, 53.1825761 ], [ -2.7532943, 53.1825746 ], [ -2.7531208, 53.1825533 ], [ -2.7519274, 53.182214 ], [ -2.7503368, 53.1819308 ], [ -2.7469556, 53.1816987 ] ] } },
{ "type": "Feature", "properties": { "id": 128695, "nach": 0.34454143071079435 }, "geometry": { "type": "LineString", "coordinates": [ [ -2.7559893, 53.1820763 ], [ -2.7557913, 53.182646900000016 ] ] } },
{ "type": "Feature", "properties": { "id": 70001, "nach": 0.35117564258266171 }, "geometry": { "type": "LineString", "coordinates": [ [ -2.7554858, 53.1875978 ], [ -2.7555483, 53.1875508 ] ] } },
{ "type": "Feature", "properties": { "id": 142173, "nach": 0.33336162570505512 }, "geometry": { "type": "LineString", "coordinates": [ [ -2.7562251, 53.1810834 ], [ -2.7562167, 53.181219500000012 ], [ -2.7559952, 53.1820592 ], [ -2.7559893, 53.1820763 ] ] } },
{ "type": "Feature", "properties": { "id": 128698, "nach": 0.2573903807569915 }, "geometry": { "type": "LineString", "coordinates": [ [ -2.7572007, 53.1821021 ], [ -2.7571388, 53.1821296 ], [ -2.7570011, 53.182131 ], [ -2.756393, 53.1821062 ], [ -2.7559893, 53.1820763 ] ] } },
{ "type": "Feature", "properties": { "id": 173023, "nach": 0.36744364034692317 }, "geometry": { "type": "LineString", "coordinates": [ [ -2.7726082, 53.1942952 ], [ -2.7726292, 53.1942145 ], [ -2.7727604, 53.193805500000018 ], [ -2.772857, 53.19344550000001 ], [ -2.7729347, 53.1933906 ] ] } },
{ "type": "Feature", "properties": { "id": 173024, "nach": 0.40057272464555099 }, "geometry": { "type": "LineString", "coordinates": [ [ -2.7726082, 53.1942952 ], [ -2.7725571, 53.1944912 ], [ -2.7722483, 53.1947567 ], [ -2.7722249, 53.1947821 ] ] } },
{ "type": "Feature", "properties": { "id": 90401, "nach": 0.35163077771142404 }, "geometry": { "type": "LineString", "coordinates": [ [ -2.7686047, 53.1951078 ], [ -2.768661, 53.1949117 ], [ -2.7687629, 53.1948668 ], [ -2.7687832, 53.1947063 ], [ -2.768827, 53.1946446 ] ] } },
{ "type": "Feature", "properties": { "id": 90403, "nach": 0.34944477472259439 }, "geometry": { "type": "LineString", "coordinates": [ [ -2.7681165, 53.1944923 ], [ -2.7681111, 53.1946386 ], [ -2.7687119, 53.1946466 ], [ -2.768827, 53.1946446 ] ] } },
{ "type": "Feature", "properties": { "id": 124359, "nach": 0.33118966038934422 }, "geometry": { "type": "LineString", "coordinates": [ [ -2.7735755, 53.194998100000014 ], [ -2.7731942, 53.1949184 ], [ -2.7725671, 53.1948222 ], [ -2.7722249, 53.1947821 ] ] } },
{ "type": "Feature", "properties": { "id": 38381, "nach": 0.4331842488966926 }, "geometry": { "type": "LineString", "coordinates": [ [ -2.76139, 53.19182330000001 ], [ -2.7621791, 53.1915772 ], [ -2.762281, 53.1915879 ], [ -2.7623336, 53.191629 ] ] } },
{ "type": "Feature", "properties": { "id": 38383, "nach": 0.36968761389396732 }, "geometry": { "type": "LineString", "coordinates": [ [ -2.7625778, 53.191405 ], [ -2.7626403, 53.1915423 ], [ -2.7623336, 53.191629 ] ] } },
{ "type": "Feature", "properties": { "id": 38384, "nach": 0.3639983942561717 }, "geometry": { "type": "LineString", "coordinates": [ [ -2.7612858, 53.1917296 ], [ -2.76139, 53.19182330000001 ] ] } },
{ "type": "Feature", "properties": { "id": 38382, "nach": 0.36088639694847924 }, "geometry": { "type": "LineString", "coordinates": [ [ -2.7613143, 53.1920528 ], [ -2.7615032, 53.1919846 ], [ -2.76139, 53.19182330000001 ] ] } },
{ "type": "Feature", "properties": { "id": 134569, "nach": 0.39298502840410193 }, "geometry": { "type": "LineString", "coordinates": [ [ -2.7561371, 53.1886418 ], [ -2.7553009, 53.1879733 ], [ -2.754985, 53.1877454 ] ] } },
{ "type": "Feature", "properties": { "id": 134571, "nach": 0.27524370380593699 }, "geometry": { "type": "LineString", "coordinates": [ [ -2.7561371, 53.1886418 ], [ -2.7560596, 53.188670700000017 ], [ -2.7564325, 53.1890034 ], [ -2.7566687, 53.1891831 ] ] } },
{ "type": "Feature", "properties": { "id": 90069, "nach": 0.41474885130527223 }, "geometry": { "type": "LineString", "coordinates": [ [ -2.7583891, 53.187737300000016 ], [ -2.7588871, 53.1880492 ] ] } },
{ "type": "Feature", "properties": { "id": 90068, "nach": 0.3441050933963774 }, "geometry": { "type": "LineString", "coordinates": [ [ -2.7583891, 53.187737300000016 ], [ -2.7587646, 53.1874963 ] ] } },
{ "type": "Feature", "properties": { "id": 90078, "nach": 0.3441050933963774 }, "geometry": { "type": "LineString", "coordinates": [ [ -2.7580458, 53.187943 ], [ -2.7583891, 53.187737300000016 ] ] } },
{ "type": "Feature", "properties": { "id": 142314, "nach": 0.46149022572459553 }, "geometry": { "type": "LineString", "coordinates": [ [ -2.7598113, 53.187402500000012 ], [ -2.7599944, 53.1871893 ] ] } },
{ "type": "Feature", "properties": { "id": 142316, "nach": 0.35113707942164823 }, "geometry": { "type": "LineString", "coordinates": [ [ -2.7595541, 53.1872784 ], [ -2.7598113, 53.187402500000012 ] ] } },
{ "type": "Feature", "properties": { "id": 134545, "nach": 0.48955083630281365 }, "geometry": { "type": "LineString", "coordinates": [ [ -2.7578053, 53.1886114 ], [ -2.757765, 53.188647 ], [ -2.7576851, 53.1886654 ], [ -2.7575173, 53.18876130000001 ] ] } },
{ "type": "Feature", "properties": { "id": 139611, "nach": 0.51674240790457338 }, "geometry": { "type": "LineString", "coordinates": [ [ -2.7602386, 53.1920446 ], [ -2.7603629, 53.1921867 ] ] } },
{ "type": "Feature", "properties": { "id": 135971, "nach": 0.48086422286641811 }, "geometry": { "type": "LineString", "coordinates": [ [ -2.7625321, 53.1971041 ], [ -2.7625697, 53.1971024 ], [ -2.7629641, 53.197117700000014 ] ] } },
{ "type": "Feature", "properties": { "id": 137472, "nach": 0.53480709625494771 }, "geometry": { "type": "LineString", "coordinates": [ [ -2.7628216, 53.1965863 ], [ -2.7628564, 53.196716 ], [ -2.7629641, 53.197117700000014 ] ] } },
{ "type": "Feature", "properties": { "id": 151331, "nach": 0.46104216627436584 }, "geometry": { "type": "LineString", "coordinates": [ [ -2.7624532, 53.1971077 ], [ -2.7625321, 53.1971041 ] ] } },
{ "type": "Feature", "properties": { "id": 135972, "nach": 0.36594019153354113 }, "geometry": { "type": "LineString", "coordinates": [ [ -2.761911, 53.1967821 ], [ -2.761979, 53.196791 ], [ -2.7622821, 53.1969478 ], [ -2.7624388, 53.1970301 ], [ -2.7625321, 53.1971041 ] ] } },
{ "type": "Feature", "properties": { "id": 137471, "nach": 0.53304811219747261 }, "geometry": { "type": "LineString", "coordinates": [ [ -2.7628216, 53.1965863 ], [ -2.7625935, 53.1958221 ] ] } },
{ "type": "Feature", "properties": { "id": 137473, "nach": 0.36762270159179761 }, "geometry": { "type": "LineString", "coordinates": [ [ -2.7628216, 53.1965863 ], [ -2.763136, 53.1965322 ], [ -2.7632246, 53.1965268 ], [ -2.7632914, 53.19653550000001 ], [ -2.7633402, 53.1965528 ], [ -2.7633709, 53.1965874 ], [ -2.7634215, 53.1966989 ], [ -2.7634884, 53.196805 ], [ -2.7635353, 53.1968818 ], [ -2.7635841, 53.1969955 ], [ -2.7636221, 53.1970604 ], [ -2.7636564, 53.1970875 ], [ -2.7637016, 53.197107 ], [ -2.7637558, 53.1971102 ], [ -2.7638931, 53.197086400000011 ] ] } },
{ "type": "Feature", "properties": { "id": 47598, "nach": 0.37717829715479168 }, "geometry": { "type": "LineString", "coordinates": [ [ -2.7633305, 53.1957802 ], [ -2.7625935, 53.1958221 ] ] } },
{ "type": "Feature", "properties": { "id": 69998, "nach": 0.53353719911735953 }, "geometry": { "type": "LineString", "coordinates": [ [ -2.7625748, 53.1957627 ], [ -2.7625935, 53.1958221 ] ] } },
{ "type": "Feature", "properties": { "id": 151306, "nach": 0.53879635030318995 }, "geometry": { "type": "LineString", "coordinates": [ [ -2.7625081, 53.1955505 ], [ -2.7625748, 53.1957627 ] ] } },
{ "type": "Feature", "properties": { "id": 151302, "nach": 0.38230345211902816 }, "geometry": { "type": "LineString", "coordinates": [ [ -2.7599664, 53.1962774 ], [ -2.760044, 53.1962812 ], [ -2.7625748, 53.1957627 ] ] } },
{ "type": "Feature", "properties": { "id": 65609, "nach": 0.29709276175038962 }, "geometry": { "type": "LineString", "coordinates": [ [ -2.7593339, 53.1962089 ], [ -2.7593337, 53.196228800000014 ], [ -2.7596566, 53.1965252 ], [ -2.7597919, 53.1971009 ], [ -2.7601915, 53.1976264 ] ] } },
{ "type": "Feature", "properties": { "id": 47607, "nach": 0.0 }, "geometry": { "type": "LineString", "coordinates": [ [ -2.7472722, 53.196683 ], [ -2.7484578, 53.196749 ], [ -2.7503944, 53.1966468 ], [ -2.7526185, 53.196487 ], [ -2.7527196, 53.1964295 ], [ -2.7574182, 53.1971299 ], [ -2.7601915, 53.1976264 ] ] } },
{ "type": "Feature", "properties": { "id": 151345, "nach": 0.39589908774588656 }, "geometry": { "type": "LineString", "coordinates": [ [ -2.7605028, 53.1975754 ], [ -2.7602091, 53.197624900000015 ], [ -2.7601915, 53.1976264 ] ] } },
{ "type": "Feature", "properties": { "id": 65611, "nach": 0.10354181830816091 }, "geometry": { "type": "LineString", "coordinates": [ [ -2.7593339, 53.1962089 ], [ -2.7549576, 53.1956695 ], [ -2.7532719, 53.194946 ], [ -2.7495629, 53.1933125 ] ] } },
{ "type": "Feature", "properties": { "id": 151300, "nach": 0.3679680205439062 }, "geometry": { "type": "LineString", "coordinates": [ [ -2.7599664, 53.1962774 ], [ -2.7593339, 53.1962089 ] ] } },
{ "type": "Feature", "properties": { "id": 151344, "nach": 0.4283696205758411 }, "geometry": { "type": "LineString", "coordinates": [ [ -2.7605028, 53.1975754 ], [ -2.7612704, 53.1974462 ], [ -2.7617043, 53.197440299999982 ] ] } },
{ "type": "Feature", "properties": { "id": 151346, "nach": 0.357877491143265 }, "geometry": { "type": "LineString", "coordinates": [ [ -2.7606207, 53.1981191 ], [ -2.7605028, 53.1975754 ] ] } },
{ "type": "Feature", "properties": { "id": 100315, "nach": 0.31234675619167862 }, "geometry": { "type": "LineString", "coordinates": [ [ -2.754985, 53.1877454 ], [ -2.7547141, 53.187566299999986 ], [ -2.7541781, 53.187268 ], [ -2.7537256, 53.1870307 ], [ -2.7536818, 53.1870074 ], [ -2.7536121, 53.187013499999985 ], [ -2.7531052, 53.187258300000011 ] ] } },
{ "type": "Feature", "properties": { "id": 100702, "nach": 0.32555813951320695 }, "geometry": { "type": "LineString", "coordinates": [ [ -2.7545938, 53.1882516 ], [ -2.7548487, 53.18807 ], [ -2.754846, 53.1879735 ], [ -2.7549264, 53.1878369 ], [ -2.754985, 53.1877454 ] ] } },
{ "type": "Feature", "properties": { "id": 151303, "nach": 0.384610687204885 }, "geometry": { "type": "LineString", "coordinates": [ [ -2.7606207, 53.1971703 ], [ -2.7605724, 53.1970747 ], [ -2.7605456, 53.1969534 ], [ -2.7604088, 53.1969052 ], [ -2.7602439, 53.196831299999985 ], [ -2.7601634, 53.1967654 ], [ -2.7599354, 53.1963974 ], [ -2.7599327, 53.1963347 ], [ -2.7599488, 53.1962938 ], [ -2.7599664, 53.1962774 ] ] } },
{ "type": "Feature", "properties": { "id": 151308, "nach": 0.53842615049144338 }, "geometry": { "type": "LineString", "coordinates": [ [ -2.7625081, 53.1955505 ], [ -2.7624857, 53.1954934 ], [ -2.7624572, 53.1953306 ] ] } },
{ "type": "Feature", "properties": { "id": 151309, "nach": 0.38301684022015242 }, "geometry": { "type": "LineString", "coordinates": [ [ -2.7628872, 53.1954919 ], [ -2.7625081, 53.1955505 ] ] } },
{ "type": "Feature", "properties": { "id": 139614, "nach": 0.37429901230789764 }, "geometry": { "type": "LineString", "coordinates": [ [ -2.76059360000001, 53.1919484 ], [ -2.7602386, 53.1920446 ] ] } },
{ "type": "Feature", "properties": { "id": 90108, "nach": 0.3701028462373892 }, "geometry": { "type": "LineString", "coordinates": [ [ -2.7639189, 53.1980472 ], [ -2.763634, 53.19764760000001 ] ] } },
{ "type": "Feature", "properties": { "id": 90077, "nach": 0.36270761326290846 }, "geometry": { "type": "LineString", "coordinates": [ [ -2.7602492, 53.1917768 ], [ -2.7600347, 53.191429600000014 ], [ -2.7599632, 53.191355200000011 ] ] } },
{ "type": "Feature", "properties": { "id": 124347, "nach": 0.4349480216605674 }, "geometry": { "type": "LineString", "coordinates": [ [ -2.7602838, 53.1909422 ], [ -2.7603498, 53.191038299999988 ], [ -2.7603246, 53.1911652 ], [ -2.7602626, 53.1912148 ], [ -2.7601433, 53.1912922 ], [ -2.7599632, 53.191355200000011 ] ] } },
{ "type": "Feature", "properties": { "id": 124348, "nach": 0.44409039188252736 }, "geometry": { "type": "LineString", "coordinates": [ [ -2.7602838, 53.1909422 ], [ -2.7601513, 53.190840600000016 ], [ -2.7599393, 53.19071240000001 ] ] } },
{ "type": "Feature", "properties": { "id": 124349, "nach": 0.45088308764174995 }, "geometry": { "type": "LineString", "coordinates": [ [ -2.7602838, 53.1909422 ], [ -2.7605597, 53.190866 ], [ -2.7606772, 53.1908266 ], [ -2.7607845, 53.1907914 ], [ -2.7608432, 53.1907624 ], [ -2.7609262, 53.190741600000017 ], [ -2.7610058, 53.190723 ], [ -2.7610646, 53.1906733 ], [ -2.7611103, 53.1905985 ] ] } },
{ "type": "Feature", "properties": { "id": 90079, "nach": 0.31409537288888051 }, "geometry": { "type": "LineString", "coordinates": [ [ -2.7606128, 53.1903383 ], [ -2.7599393, 53.19071240000001 ] ] } },
{ "type": "Feature", "properties": { "id": 90076, "nach": 0.36136999609870385 }, "geometry": { "type": "LineString", "coordinates": [ [ -2.7597058, 53.1904135 ], [ -2.7599393, 53.19071240000001 ] ] } },
{ "type": "Feature", "properties": { "id": 124354, "nach": 0.38705224055836263 }, "geometry": { "type": "LineString", "coordinates": [ [ -2.7599672, 53.1898878 ], [ -2.7602149, 53.190073 ], [ -2.7606128, 53.1903383 ] ] } },
{ "type": "Feature", "properties": { "id": 124345, "nach": 0.3945102455006797 }, "geometry": { "type": "LineString", "coordinates": [ [ -2.7611103, 53.1905985 ], [ -2.7610069, 53.1905737 ], [ -2.7606128, 53.1903383 ] ] } },
{ "type": "Feature", "properties": { "id": 124342, "nach": 0.36444672232727549 }, "geometry": { "type": "LineString", "coordinates": [ [ -2.7620005, 53.190536 ], [ -2.7622834, 53.1908027 ], [ -2.7625748, 53.190976 ] ] } },
{ "type": "Feature", "properties": { "id": 124341, "nach": 0.47451848581556511 }, "geometry": { "type": "LineString", "coordinates": [ [ -2.7620005, 53.190536 ], [ -2.7619081, 53.1904491 ] ] } },
{ "type": "Feature", "properties": { "id": 124343, "nach": 0.47832815114565314 }, "geometry": { "type": "LineString", "coordinates": [ [ -2.7620005, 53.190536 ], [ -2.7621002, 53.1905102 ], [ -2.7622405, 53.190437599999989 ], [ -2.7623064, 53.1903911 ], [ -2.7623357, 53.1903249 ], [ -2.762449, 53.1902767 ], [ -2.7625958, 53.190268 ], [ -2.7626895, 53.1902435 ] ] } },
{ "type": "Feature", "properties": { "id": 124353, "nach": 0.43737131522744543 }, "geometry": { "type": "LineString", "coordinates": [ [ -2.7599672, 53.1898878 ], [ -2.7599018, 53.18986 ] ] } },
{ "type": "Feature", "properties": { "id": 124344, "nach": 0.47295697470298309 }, "geometry": { "type": "LineString", "coordinates": [ [ -2.7611103, 53.1905985 ], [ -2.7612482, 53.1906078 ] ] } },
{ "type": "Feature", "properties": { "id": 119268, "nach": 0.31087041035754714 }, "geometry": { "type": "LineString", "coordinates": [ [ -2.757162, 53.1859627 ], [ -2.7571231, 53.185943700000017 ] ] } },
{ "type": "Feature", "properties": { "id": 119269, "nach": 0.37821474961588131 }, "geometry": { "type": "LineString", "coordinates": [ [ -2.757162, 53.1859627 ], [ -2.7581947, 53.1864668 ], [ -2.7584159, 53.1865352 ], [ -2.7586842, 53.1865352 ], [ -2.7589403, 53.18660830000001 ], [ -2.7599944, 53.1871893 ] ] } },
{ "type": "Feature", "properties": { "id": 119271, "nach": 0.30776461525734017 }, "geometry": { "type": "LineString", "coordinates": [ [ -2.7574007, 53.1858079 ], [ -2.7573183, 53.1857832 ], [ -2.757162, 53.1859627 ] ] } },
{ "type": "Feature", "properties": { "id": 90099, "nach": 0.35840290631526128 }, "geometry": { "type": "LineString", "coordinates": [ [ -2.7610007, 53.1898724 ], [ -2.761425, 53.1899906 ], [ -2.7618666, 53.1900301 ], [ -2.7620821, 53.1900827 ], [ -2.7621083, 53.1902016 ], [ -2.7620092, 53.1903716 ], [ -2.7619081, 53.1904491 ] ] } },
{ "type": "Feature", "properties": { "id": 90091, "nach": 0.47185904573753656 }, "geometry": { "type": "LineString", "coordinates": [ [ -2.7612482, 53.1906078 ], [ -2.7614627, 53.1905856 ], [ -2.7616346, 53.1905401 ], [ -2.7619081, 53.1904491 ] ] } },
{ "type": "Feature", "properties": { "id": 132372, "nach": 0.35025588127701052 }, "geometry": { "type": "LineString", "coordinates": [ [ -2.7609548, 53.1915722 ], [ -2.7608353, 53.1914071 ], [ -2.7608333, 53.1913875 ], [ -2.7608436, 53.1913664 ], [ -2.7615887, 53.1911594 ], [ -2.7612859, 53.1907506 ], [ -2.7612482, 53.1906078 ] ] } },
{ "type": "Feature", "properties": { "id": 90096, "nach": 0.3407730332655512 }, "geometry": { "type": "LineString", "coordinates": [ [ -2.7590743, 53.1893275 ], [ -2.7581722, 53.1890129 ] ] } },
{ "type": "Feature", "properties": { "id": 134553, "nach": 0.4146707053330515 }, "geometry": { "type": "LineString", "coordinates": [ [ -2.7598309, 53.1897421 ], [ -2.7597471, 53.1895988 ], [ -2.7596333, 53.1894855 ], [ -2.7595666, 53.189444 ], [ -2.7594676, 53.1894057 ], [ -2.759352, 53.1893733 ], [ -2.7592179, 53.1893556 ], [ -2.7590743, 53.1893275 ] ] } },
{ "type": "Feature", "properties": { "id": 134555, "nach": 0.34558422491533997 }, "geometry": { "type": "LineString", "coordinates": [ [ -2.758774, 53.1896279 ], [ -2.7589022, 53.1895562 ], [ -2.7590743, 53.1893275 ] ] } },
{ "type": "Feature", "properties": { "id": 134552, "nach": 0.45001517349544251 }, "geometry": { "type": "LineString", "coordinates": [ [ -2.7598309, 53.1897421 ], [ -2.7599018, 53.18986 ] ] } },
{ "type": "Feature", "properties": { "id": 134554, "nach": 0.46612158496545636 }, "geometry": { "type": "LineString", "coordinates": [ [ -2.7598309, 53.1897421 ], [ -2.7599762, 53.1896996 ], [ -2.7601234, 53.189636900000011 ], [ -2.760298, 53.189536600000018 ] ] } },
{ "type": "Feature", "properties": { "id": 90113, "nach": 0.37128870199228942 }, "geometry": { "type": "LineString", "coordinates": [ [ -2.7633433, 53.1970578 ], [ -2.7633889, 53.1971671 ] ] } },
{ "type": "Feature", "properties": { "id": 90112, "nach": 0.37128870199228942 }, "geometry": { "type": "LineString", "coordinates": [ [ -2.7634253, 53.1972679 ], [ -2.7633889, 53.1971671 ] ] } },
{ "type": "Feature", "properties": { "id": 134556, "nach": 0.35594643580138635 }, "geometry": { "type": "LineString", "coordinates": [ [ -2.760283, 53.1896598 ], [ -2.7599018, 53.18986 ] ] } },
{ "type": "Feature", "properties": { "id": 112639, "nach": 0.35290765164842575 }, "geometry": { "type": "LineString", "coordinates": [ [ -2.7594299, 53.190129200000015 ], [ -2.759482, 53.1900917 ], [ -2.7594699, 53.1900512 ], [ -2.7594508, 53.1900064 ], [ -2.7594768, 53.1899825 ], [ -2.7596539, 53.1899253 ], [ -2.7599018, 53.18986 ] ] } },
{ "type": "Feature", "properties": { "id": 113577, "nach": 0.27550458579957599 }, "geometry": { "type": "LineString", "coordinates": [ [ -2.7733777, 53.1901786 ], [ -2.7734605, 53.1899262 ], [ -2.7736313, 53.1897536 ] ] } },
{ "type": "Feature", "properties": { "id": 113580, "nach": 0.30139384457731294 }, "geometry": { "type": "LineString", "coordinates": [ [ -2.772588, 53.1892522 ], [ -2.7728967, 53.189282 ], [ -2.7728542, 53.1894559 ], [ -2.7727976, 53.1896722 ], [ -2.7731763, 53.1896852 ], [ -2.7734885, 53.1897132 ], [ -2.7736313, 53.1897536 ] ] } },
{ "type": "Feature", "properties": { "id": 113583, "nach": 0.37233832566977343 }, "geometry": { "type": "LineString", "coordinates": [ [ -2.7723824, 53.1898923 ], [ -2.7724177, 53.1897904 ], [ -2.7724331, 53.1896383 ], [ -2.772588, 53.1892522 ] ] } },
{ "type": "Feature", "properties": { "id": 113586, "nach": 0.36035214593959242 }, "geometry": { "type": "LineString", "coordinates": [ [ -2.7730428, 53.1902884 ], [ -2.7727181, 53.1903709 ], [ -2.7725905, 53.1904043 ], [ -2.7724842, 53.1904155 ], [ -2.7724072, 53.1904155 ], [ -2.7722477, 53.1903852 ], [ -2.7722211, 53.190364499999987 ], [ -2.7722079, 53.1903327 ], [ -2.7722158, 53.1902849 ], [ -2.772354, 53.1899744 ], [ -2.7723824, 53.1898923 ] ] } },
{ "type": "Feature", "properties": { "id": 151322, "nach": 0.3926971085099466 }, "geometry": { "type": "LineString", "coordinates": [ [ -2.770679, 53.189840500000017 ], [ -2.7708024, 53.1897831 ], [ -2.7710652, 53.18970920000001 ], [ -2.7721649, 53.1898635 ], [ -2.7723824, 53.1898923 ] ] } },
{ "type": "Feature", "properties": { "id": 141642, "nach": 0.34749510404780898 }, "geometry": { "type": "LineString", "coordinates": [ [ -2.7730601, 53.1904459 ], [ -2.7730365, 53.190424299999989 ], [ -2.7730271, 53.1903969 ], [ -2.7730271, 53.1903658 ], [ -2.7730428, 53.1902884 ] ] } },
{ "type": "Feature", "properties": { "id": 141643, "nach": 0.27589880895847008 }, "geometry": { "type": "LineString", "coordinates": [ [ -2.7730601, 53.1904459 ], [ -2.77309, 53.190462 ], [ -2.7731655, 53.1904752 ], [ -2.7735383, 53.1904997 ], [ -2.7739944, 53.1905317 ], [ -2.7743924, 53.1905685 ], [ -2.7750435, 53.1906495 ], [ -2.7756774, 53.1907174 ], [ -2.7762374, 53.1907861 ], [ -2.7768193, 53.1908549 ], [ -2.77692, 53.1908691 ], [ -2.777027, 53.1908728 ] ] } },
{ "type": "Feature", "properties": { "id": 143843, "nach": 0.30157631091972537 }, "geometry": { "type": "LineString", "coordinates": [ [ -2.7750108, 53.1921134 ], [ -2.7749276, 53.1920941 ], [ -2.7744287, 53.1919735 ], [ -2.7740747, 53.191920500000016 ], [ -2.773734, 53.1917968 ], [ -2.7735356, 53.1917245 ], [ -2.7732083, 53.1915525 ], [ -2.7729186, 53.1913918 ], [ -2.7727631, 53.1912681 ], [ -2.7727282, 53.1911749 ], [ -2.7729186, 53.190667 ], [ -2.7729857, 53.190501500000011 ], [ -2.7730601, 53.1904459 ] ] } },
{ "type": "Feature", "properties": { "id": 113726, "nach": 0.27443608764903671 }, "geometry": { "type": "LineString", "coordinates": [ [ -2.7655017, 53.1846189 ], [ -2.7657261, 53.1847594 ], [ -2.7657636, 53.1847649 ], [ -2.7658028, 53.1847595 ] ] } },
{ "type": "Feature", "properties": { "id": 114795, "nach": 0.26875171106615059 }, "geometry": { "type": "LineString", "coordinates": [ [ -2.7650866, 53.1848338 ], [ -2.7655748, 53.1848628 ], [ -2.7657169, 53.1848234 ], [ -2.7658028, 53.1847595 ] ] } },
{ "type": "Feature", "properties": { "id": 114226, "nach": 0.17382613018231274 }, "geometry": { "type": "LineString", "coordinates": [ [ -2.7471546, 53.1893062 ], [ -2.7473824, 53.1892476 ], [ -2.7475131, 53.1892821 ], [ -2.7476123, 53.1893447 ], [ -2.748344, 53.1900461 ], [ -2.7485165, 53.1901807 ], [ -2.7486523, 53.1902402 ], [ -2.7488248, 53.1902621 ], [ -2.7489398, 53.190259 ], [ -2.7492481, 53.1901432 ], [ -2.7494258, 53.1900711 ], [ -2.7495721, 53.1900743 ], [ -2.7496673, 53.1901219 ] ] } },
{ "type": "Feature", "properties": { "id": 114227, "nach": 0.24142641841948731 }, "geometry": { "type": "LineString", "coordinates": [ [ -2.7487354, 53.1904378 ], [ -2.7490588, 53.1903209 ], [ -2.7494166, 53.1901792 ], [ -2.7496673, 53.1901219 ] ] } },
{ "type": "Feature", "properties": { "id": 114798, "nach": 0.0 }, "geometry": { "type": "LineString", "coordinates": [ [ -2.7647741, 53.1845783 ], [ -2.7645434, 53.1845742 ], [ -2.7644938, 53.1846136 ], [ -2.7644938, 53.1846972 ], [ -2.7646454, 53.1847141 ], [ -2.7648841, 53.1847326 ], [ -2.7647741, 53.1845783 ] ] } },
{ "type": "Feature", "properties": { "id": 134550, "nach": 0.4348022784942896 }, "geometry": { "type": "LineString", "coordinates": [ [ -2.760298, 53.189536600000018 ], [ -2.7605875, 53.1896705 ], [ -2.7607346, 53.1897163 ], [ -2.7609147, 53.1897406 ], [ -2.7610767, 53.1897742 ], [ -2.7612889, 53.1897714 ], [ -2.7614417, 53.1897855 ], [ -2.761652, 53.1898443 ], [ -2.7618381, 53.1898855 ], [ -2.762005, 53.189933 ], [ -2.762121, 53.18995790000001 ], [ -2.7623332, 53.1900251 ], [ -2.762586, 53.190044300000011 ], [ -2.7626482, 53.1900872 ], [ -2.7626972, 53.1901697 ], [ -2.7626895, 53.1902435 ] ] } },
{ "type": "Feature", "properties": { "id": 134549, "nach": 0.45587616819462823 }, "geometry": { "type": "LineString", "coordinates": [ [ -2.760298, 53.189536600000018 ], [ -2.760182, 53.1894806 ], [ -2.7597799, 53.1894137 ], [ -2.759529, 53.1893143 ], [ -2.7592895, 53.1892493 ], [ -2.7590198, 53.1892092 ], [ -2.7588873, 53.1891634 ], [ -2.7586411, 53.189058300000013 ], [ -2.7584686, 53.1890125 ], [ -2.7582253, 53.1889673 ], [ -2.7579449, 53.1888933 ], [ -2.7577695, 53.1888622 ], [ -2.7576667, 53.1888057 ], [ -2.7575173, 53.18876130000001 ] ] } },
{ "type": "Feature", "properties": { "id": 125536, "nach": 0.0 }, "geometry": { "type": "LineString", "coordinates": [ [ -2.7634918, 53.1825281 ], [ -2.7632468, 53.1829236 ], [ -2.7632162, 53.1829642 ], [ -2.7631724, 53.182991800000018 ], [ -2.7631287, 53.1830062 ], [ -2.7630784, 53.1830088 ], [ -2.7630172, 53.1830049 ], [ -2.7629844, 53.182997 ], [ -2.7629341, 53.1829787 ], [ -2.7628969, 53.1829564 ], [ -2.7628882, 53.1829236 ], [ -2.7628969, 53.1828895 ], [ -2.7631025, 53.182562 ], [ -2.7631484, 53.1825135 ], [ -2.7631768, 53.1824951 ], [ -2.7632162, 53.1824873 ], [ -2.7632599, 53.182483300000015 ], [ -2.7632971, 53.182486 ], [ -2.763343, 53.1824964 ], [ -2.7634918, 53.1825281 ] ] } },
{ "type": "Feature", "properties": { "id": 134540, "nach": 0.48887698272550156 }, "geometry": { "type": "LineString", "coordinates": [ [ -2.7575173, 53.18876130000001 ], [ -2.7570308, 53.1890506 ] ] } },
{ "type": "Feature", "properties": { "id": 134568, "nach": 0.40641739969887769 }, "geometry": { "type": "LineString", "coordinates": [ [ -2.7566687, 53.1891831 ], [ -2.756661, 53.1891864 ], [ -2.7560273, 53.1895136 ], [ -2.7560093, 53.1895367 ], [ -2.7560188, 53.189561 ], [ -2.7560518, 53.1895877 ] ] } },
{ "type": "Feature", "properties": { "id": 151332, "nach": 0.41526797420032874 }, "geometry": { "type": "LineString", "coordinates": [ [ -2.7624532, 53.1971077 ], [ -2.7615184, 53.1971491 ], [ -2.7614844, 53.1971333 ], [ -2.7612323, 53.197151800000015 ], [ -2.7611411, 53.1971719 ], [ -2.7608527, 53.1971984 ], [ -2.7606918, 53.1972008 ], [ -2.7606207, 53.1971703 ] ] } },
{ "type": "Feature", "properties": { "id": 151337, "nach": 0.40220972651920195 }, "geometry": { "type": "LineString", "coordinates": [ [ -2.7621764, 53.1972008 ], [ -2.7622166, 53.1971791 ], [ -2.762458, 53.1971647 ], [ -2.7624532, 53.1971077 ] ] } },
{ "type": "Feature", "properties": { "id": 139115, "nach": 0.37900319868151505 }, "geometry": { "type": "LineString", "coordinates": [ [ -2.7615828, 53.1953436 ], [ -2.7616901, 53.1953617 ], [ -2.7624572, 53.1953306 ] ] } },
{ "type": "Feature", "properties": { "id": 142318, "nach": 0.0 }, "geometry": { "type": "LineString", "coordinates": [ [ -2.7595541, 53.1872784 ], [ -2.7596627, 53.1871936 ], [ -2.7596875, 53.1871643 ], [ -2.7596918, 53.1871453 ], [ -2.7596867, 53.1871238 ], [ -2.7596618, 53.187095 ], [ -2.7596207, 53.1870703 ], [ -2.7595598, 53.1870565 ], [ -2.7595289, 53.1870565 ], [ -2.7594929, 53.1870678 ], [ -2.7593755, 53.1871464 ], [ -2.7593686, 53.1871664 ], [ -2.7593661, 53.187182300000011 ], [ -2.7593815, 53.1871952 ], [ -2.7595541, 53.1872784 ] ] } },
{ "type": "Feature", "properties": { "id": 151305, "nach": 0.35930267666004523 }, "geometry": { "type": "LineString", "coordinates": [ [ -2.7606207, 53.1971703 ], [ -2.7604987, 53.1972113 ], [ -2.7599716, 53.1972474 ] ] } },
{ "type": "Feature", "properties": { "id": 151342, "nach": 0.38550182966493118 }, "geometry": { "type": "LineString", "coordinates": [ [ -2.7617043, 53.197440299999982 ], [ -2.7616963, 53.1972707 ], [ -2.7617814, 53.197269099999986 ], [ -2.7617949, 53.1972386 ], [ -2.7618344, 53.1972209 ], [ -2.7621764, 53.1972008 ] ] } }
]
}
