{
"type": "FeatureCollection",
"name": "WESFU_274_NACH_800m",
"crs": { "type": "name", "properties": { "name": "urn:ogc:def:crs:OGC:1.3:CRS84" } },
"features": [
{ "type": "Feature", "properties": { "id": 69143, "nach": 0.42199535294466278 }, "geometry": { "type": "LineString", "coordinates": [ [ -3.0187327, 54.4407255 ], [ -3.0186594, 54.4408742 ], [ -3.0186296, 54.4410958 ], [ -3.0186208, 54.4412991 ], [ -3.0185403, 54.4416071 ], [ -3.0185384, 54.4416363 ] ] } },
{ "type": "Feature", "properties": { "id": 69142, "nach": 0.37294680246271772 }, "geometry": { "type": "LineString", "coordinates": [ [ -3.0187327, 54.4407255 ], [ -3.0185938, 54.440856 ], [ -3.0185557, 54.4409047 ], [ -3.0185093, 54.4411678 ], [ -3.0181338, 54.4416253 ], [ -3.0179924, 54.4419545 ], [ -3.0178215, 54.4420729 ], [ -3.0175303, 54.442243800000014 ], [ -3.0174631, 54.4423074 ] ] } },
{ "type": "Feature", "properties": { "id": 13538, "nach": 0.31323141889892953 }, "geometry": { "type": "LineString", "coordinates": [ [ -3.0183079, 54.4419449 ], [ -3.0184582, 54.4418483 ], [ -3.0185384, 54.4416363 ] ] } },
{ "type": "Feature", "properties": { "id": 28824, "nach": 0.41019775422916216 }, "geometry": { "type": "LineString", "coordinates": [ [ -3.018672, 54.442014899999975 ], [ -3.0186385, 54.4419174 ], [ -3.0185591, 54.441704 ], [ -3.0185384, 54.4416363 ] ] } },
{ "type": "Feature", "properties": { "id": 28822, "nach": 0.37615115492214307 }, "geometry": { "type": "LineString", "coordinates": [ [ -3.018672, 54.442014899999975 ], [ -3.0183079, 54.4419449 ] ] } },
{ "type": "Feature", "properties": { "id": 47296, "nach": 0.37978028452491969 }, "geometry": { "type": "LineString", "coordinates": [ [ -3.0174631, 54.4423074 ], [ -3.0178594, 54.4421531 ], [ -3.0181406, 54.441964 ], [ -3.0183079, 54.4419449 ] ] } },
{ "type": "Feature", "properties": { "id": 65332, "nach": 0.43366774186806545 }, "geometry": { "type": "LineString", "coordinates": [ [ -3.0186895, 54.4421007 ], [ -3.018672, 54.442014899999975 ] ] } },
{ "type": "Feature", "properties": { "id": 80990, "nach": 0.37366782893920725 }, "geometry": { "type": "LineString", "coordinates": [ [ -3.0376064, 54.442637 ], [ -3.0376139, 54.4426052 ], [ -3.037609, 54.442544 ], [ -3.037588, 54.44250490000001 ], [ -3.0375618, 54.4424823 ], [ -3.037544, 54.44243250000001 ], [ -3.0375008, 54.4423901 ], [ -3.0374812, 54.442339800000013 ], [ -3.0374837, 54.4422643 ] ] } },
{ "type": "Feature", "properties": { "id": 47292, "nach": 0.36641683844777856 }, "geometry": { "type": "LineString", "coordinates": [ [ -3.0370489, 54.4422872 ], [ -3.0371779, 54.4422961 ], [ -3.0372664, 54.4422913 ], [ -3.0373371, 54.4422776 ], [ -3.0373726, 54.4422896 ], [ -3.0374837, 54.4422643 ] ] } },
{ "type": "Feature", "properties": { "id": 80989, "nach": 0.42443572904789745 }, "geometry": { "type": "LineString", "coordinates": [ [ -3.0376064, 54.442637 ], [ -3.0375959, 54.4426979 ], [ -3.0375563, 54.4427489 ], [ -3.03756250000001, 54.4427935 ], [ -3.0374648, 54.4428896 ], [ -3.0374427, 54.4431588 ] ] } },
{ "type": "Feature", "properties": { "id": 80991, "nach": 0.38423235661159888 }, "geometry": { "type": "LineString", "coordinates": [ [ -3.0376064, 54.442637 ], [ -3.0372822, 54.4424365 ], [ -3.0371183, 54.4423747 ], [ -3.0370555, 54.4423225 ], [ -3.0370625, 54.4423002 ], [ -3.0370489, 54.4422872 ] ] } },
{ "type": "Feature", "properties": { "id": 47291, "nach": 0.39787712692077792 }, "geometry": { "type": "LineString", "coordinates": [ [ -3.0370489, 54.4422872 ], [ -3.0369263, 54.442354 ], [ -3.0369065, 54.442402800000011 ], [ -3.0368611, 54.4425203 ], [ -3.0367451, 54.4426279 ], [ -3.0365564, 54.4428248 ], [ -3.0364759, 54.4428589 ], [ -3.0364447, 54.4428867 ] ] } },
{ "type": "Feature", "properties": { "id": 80988, "nach": 0.41093683543883297 }, "geometry": { "type": "LineString", "coordinates": [ [ -3.0344078, 54.4407424 ], [ -3.0344044, 54.4407913 ], [ -3.0345106, 54.4409124 ], [ -3.0345543, 54.4410173 ], [ -3.0346212, 54.4411172 ], [ -3.0346314, 54.4411874 ], [ -3.0347842, 54.4412687 ], [ -3.0349371, 54.441333 ], [ -3.0349865, 54.4413965 ], [ -3.0350666, 54.4414464 ], [ -3.0356458, 54.4417113 ], [ -3.0358438, 54.4417804 ], [ -3.0362226, 54.441877 ], [ -3.0363339, 54.4419508 ], [ -3.0364901, 54.4420257 ], [ -3.0368728, 54.4421608 ], [ -3.0370489, 54.4422872 ] ] } },
{ "type": "Feature", "properties": { "id": 80960, "nach": 0.41112016746495433 }, "geometry": { "type": "LineString", "coordinates": [ [ -3.0363576, 54.4428651 ], [ -3.0364447, 54.4428867 ] ] } },
{ "type": "Feature", "properties": { "id": 7693, "nach": 0.34924996863443375 }, "geometry": { "type": "LineString", "coordinates": [ [ -3.03737110000001, 54.4432094 ], [ -3.0368518, 54.4430377 ], [ -3.0366514, 54.4429421 ], [ -3.0364447, 54.4428867 ] ] } },
{ "type": "Feature", "properties": { "id": 80962, "nach": 0.38192955544608231 }, "geometry": { "type": "LineString", "coordinates": [ [ -3.0363576, 54.4428651 ], [ -3.0362518, 54.442967 ], [ -3.0361374, 54.4430519 ] ] } },
{ "type": "Feature", "properties": { "id": 81002, "nach": 0.31395012138627681 }, "geometry": { "type": "LineString", "coordinates": [ [ -3.0350732, 54.442525 ], [ -3.0352788, 54.4425572 ], [ -3.0354826, 54.44257850000001 ], [ -3.0356277, 54.4425975 ], [ -3.0357687, 54.4426608 ], [ -3.0359468, 54.4426853 ], [ -3.0360434, 54.4427299 ], [ -3.0361914, 54.4427932 ], [ -3.0363576, 54.4428651 ] ] } },
{ "type": "Feature", "properties": { "id": 73341, "nach": 0.42197516686930575 }, "geometry": { "type": "LineString", "coordinates": [ [ -3.0372752, 54.4432387 ], [ -3.03737110000001, 54.4432094 ] ] } },
{ "type": "Feature", "properties": { "id": 8868, "nach": 0.42677400737946186 }, "geometry": { "type": "LineString", "coordinates": [ [ -3.0374427, 54.4431588 ], [ -3.03737110000001, 54.4432094 ] ] } },
{ "type": "Feature", "properties": { "id": 52235, "nach": 0.43581293416289901 }, "geometry": { "type": "LineString", "coordinates": [ [ -3.0378513, 54.4434472 ], [ -3.0377363, 54.4434111 ], [ -3.0376686, 54.4433812 ], [ -3.03737110000001, 54.4432094 ] ] } },
{ "type": "Feature", "properties": { "id": 81097, "nach": 0.43923066921000636 }, "geometry": { "type": "LineString", "coordinates": [ [ -3.0381944, 54.443571 ], [ -3.038367, 54.4436575 ], [ -3.0384712, 54.443689 ], [ -3.0387589, 54.4437428 ], [ -3.0390171, 54.4438176 ], [ -3.0390796, 54.443844600000013 ], [ -3.0392906, 54.443879699999989 ] ] } },
{ "type": "Feature", "properties": { "id": 73349, "nach": 0.40023676697899147 }, "geometry": { "type": "LineString", "coordinates": [ [ -3.0396856, 54.444452100000014 ], [ -3.039644, 54.4443898 ], [ -3.0394949, 54.4442959 ], [ -3.0394265, 54.4442254 ], [ -3.0393986, 54.444129600000011 ], [ -3.0393368, 54.4440497 ], [ -3.0392906, 54.443879699999989 ] ] } },
{ "type": "Feature", "properties": { "id": 81098, "nach": 0.44412312507587864 }, "geometry": { "type": "LineString", "coordinates": [ [ -3.0381944, 54.443571 ], [ -3.0381765, 54.443563399999988 ], [ -3.0378513, 54.4434472 ] ] } },
{ "type": "Feature", "properties": { "id": 81099, "nach": 0.31626015732073481 }, "geometry": { "type": "LineString", "coordinates": [ [ -3.0381944, 54.443571 ], [ -3.038408, 54.4435372 ], [ -3.0387312, 54.4435722 ], [ -3.0388804, 54.4435901 ], [ -3.039045, 54.4435919 ], [ -3.0391413, 54.443619 ], [ -3.0394582, 54.4436262 ], [ -3.0398155, 54.4436046 ] ] } },
{ "type": "Feature", "properties": { "id": 73348, "nach": 0.40609079016537114 }, "geometry": { "type": "LineString", "coordinates": [ [ -3.0396856, 54.444452100000014 ], [ -3.0396049, 54.4444304 ], [ -3.0393374, 54.4444304 ], [ -3.0388927, 54.4443954 ], [ -3.0386085, 54.4443721 ], [ -3.0382842, 54.4443351 ], [ -3.0378127, 54.444319600000014 ], [ -3.0374696, 54.4442361 ], [ -3.0373433, 54.444204 ] ] } },
{ "type": "Feature", "properties": { "id": 55346, "nach": 0.067817819913720892 }, "geometry": { "type": "LineString", "coordinates": [ [ -3.0345807, 54.4545039 ], [ -3.0346329, 54.4544762 ], [ -3.0350848, 54.45416010000001 ], [ -3.03519410000001, 54.45405190000001 ], [ -3.0353037, 54.454043 ], [ -3.0353602, 54.4540279 ], [ -3.0355025, 54.4539797 ], [ -3.0356342, 54.4539352 ], [ -3.0357309, 54.4538708 ], [ -3.0358232, 54.453827 ], [ -3.0359256, 54.453819 ], [ -3.0361661, 54.4536238 ], [ -3.036258, 54.4535444 ], [ -3.0364676, 54.453269400000011 ], [ -3.0364836, 54.453246299999989 ], [ -3.0365322, 54.4531954 ], [ -3.0365944, 54.4531405 ], [ -3.0367448, 54.4530579 ], [ -3.0367518, 54.4529397 ], [ -3.036779, 54.452794 ], [ -3.0368476, 54.4527536 ], [ -3.0368622, 54.4525362 ], [ -3.0370397, 54.4524307 ], [ -3.0370718, 54.452125400000014 ], [ -3.03697540000001, 54.4518398 ], [ -3.0370692, 54.4516444 ], [ -3.0370818, 54.4514522 ], [ -3.0371004, 54.451305 ], [ -3.0371749, 54.4512471 ], [ -3.0372413, 54.4511755 ], [ -3.0372199, 54.4510773 ], [ -3.0371837, 54.450988500000022 ], [ -3.0371762, 54.4508944 ], [ -3.037225, 54.4508201 ], [ -3.0373035, 54.4505976 ], [ -3.0373634, 54.4504628 ], [ -3.0374945, 54.4500627 ], [ -3.037613, 54.44993070000001 ], [ -3.0376435, 54.4496909 ], [ -3.0377548, 54.4496371 ], [ -3.038029, 54.4495839 ], [ -3.0381319, 54.4494117 ], [ -3.038229, 54.449201 ], [ -3.0382805, 54.4490164 ], [ -3.0385942, 54.4487618 ], [ -3.0387439, 54.4486471 ], [ -3.0388408, 54.4485573 ] ] } },
{ "type": "Feature", "properties": { "id": 1148, "nach": 0.22297271528150256 }, "geometry": { "type": "LineString", "coordinates": [ [ -3.0388408, 54.4485573 ], [ -3.0390051, 54.4486117 ], [ -3.0390299, 54.4486451 ], [ -3.0390954, 54.448668 ], [ -3.0391396, 54.4487155 ], [ -3.0394156, 54.4488821 ], [ -3.0394211, 54.4489455 ], [ -3.0394261, 54.44898160000001 ], [ -3.0394481, 54.44901380000001 ], [ -3.039511, 54.4490419 ], [ -3.0395725, 54.4491115 ], [ -3.0396803, 54.449164099999983 ], [ -3.0397506, 54.4492752 ], [ -3.0398051, 54.4493003 ], [ -3.0398891, 54.449391 ], [ -3.0399796, 54.4494083 ], [ -3.0399997, 54.4494344 ], [ -3.0400813, 54.4494385 ], [ -3.040283, 54.4495641 ], [ -3.0403077, 54.4496002 ], [ -3.0403559, 54.4496215 ], [ -3.0403795, 54.4496575 ], [ -3.040466, 54.4496826 ], [ -3.0404733, 54.4497426 ], [ -3.0405404, 54.4498092 ], [ -3.0405936, 54.4498265 ], [ -3.0405992, 54.4498546 ], [ -3.0407726, 54.4499718 ], [ -3.0408173, 54.4500261 ], [ -3.0408935, 54.4501136 ], [ -3.0410223, 54.4502102 ], [ -3.0410951, 54.4502468 ], [ -3.041226, 54.4503433 ], [ -3.04135020000001, 54.4504615 ], [ -3.0414362, 54.450490300000013 ], [ -3.0417266, 54.4507466 ], [ -3.0418855, 54.4509142 ], [ -3.0421318, 54.45102820000001 ], [ -3.0422731, 54.45112730000001 ], [ -3.0423882, 54.451162600000025 ], [ -3.0425217, 54.4511912 ], [ -3.0426351, 54.4512167 ], [ -3.0426877, 54.4512146 ], [ -3.0428074, 54.4512032 ], [ -3.0429909, 54.4511849 ], [ -3.0430104, 54.4511673 ] ] } },
{ "type": "Feature", "properties": { "id": 5276, "nach": 0.29187217985482056 }, "geometry": { "type": "LineString", "coordinates": [ [ -3.0374238, 54.44670820000001 ], [ -3.0374918, 54.4467136 ], [ -3.03752540000001, 54.4467578 ], [ -3.0375342, 54.446819 ], [ -3.0375426, 54.4468474 ], [ -3.0375305, 54.4468841 ], [ -3.0375613, 54.4469168 ], [ -3.0376059, 54.4469396 ], [ -3.0376085, 54.4469664 ], [ -3.0375344, 54.4470028 ], [ -3.0375308, 54.44709610000001 ], [ -3.0376691, 54.447158900000012 ], [ -3.0377055, 54.4471983 ], [ -3.03775, 54.4472366 ], [ -3.0377637, 54.4472795 ], [ -3.0378305, 54.4473845 ], [ -3.0379517, 54.4474895 ], [ -3.0380924, 54.4475731 ], [ -3.0381447, 54.447642 ], [ -3.0382587, 54.4477624 ], [ -3.0383621, 54.447884 ], [ -3.0384491, 54.4479845 ], [ -3.0384684, 54.448003700000015 ], [ -3.03850240000001, 54.4480376 ], [ -3.0385712, 54.4480703 ], [ -3.0386026, 54.448112499999986 ], [ -3.0386244, 54.4481741 ], [ -3.0386545, 54.4482284 ], [ -3.0386686, 54.4483311 ], [ -3.0387275, 54.4484806 ], [ -3.0388408, 54.4485573 ] ] } },
{ "type": "Feature", "properties": { "id": 81161, "nach": 0.29607343183340828 }, "geometry": { "type": "LineString", "coordinates": [ [ -3.0410101, 54.4473102 ], [ -3.0409568, 54.4473238 ], [ -3.0407333, 54.4474599 ], [ -3.0406582, 54.4475806 ], [ -3.0405521, 54.4476554 ], [ -3.0405213, 54.447677 ], [ -3.0403504, 54.4477069 ], [ -3.0402426, 54.4477083 ], [ -3.0401, 54.447780400000013 ], [ -3.0399823, 54.4478669 ], [ -3.0398416, 54.4479281 ], [ -3.0395968, 54.4480034 ], [ -3.0394821, 54.4480782 ], [ -3.0393849, 54.4481828 ], [ -3.039398300000011, 54.4482693 ], [ -3.0392277, 54.4483111 ], [ -3.0391375, 54.4483659 ], [ -3.0390494, 54.4484451 ], [ -3.0390615, 54.44850240000001 ], [ -3.0390432, 54.4485421 ], [ -3.0389739, 54.4485624 ], [ -3.0389024, 54.4485574 ], [ -3.0388408, 54.4485573 ] ] } },
{ "type": "Feature", "properties": { "id": 5279, "nach": 0.31737347311433023 }, "geometry": { "type": "LineString", "coordinates": [ [ -3.0374238, 54.44670820000001 ], [ -3.0373711, 54.4467132 ], [ -3.03726, 54.446644 ], [ -3.0370965, 54.4465891 ], [ -3.0370384, 54.4465524 ], [ -3.0370025, 54.4464995 ], [ -3.0369845, 54.4464402 ], [ -3.0369518, 54.4463279 ], [ -3.0369012, 54.4463084 ] ] } },
{ "type": "Feature", "properties": { "id": 52245, "nach": 0.0 }, "geometry": { "type": "LineString", "coordinates": [ [ -3.0373433, 54.444204 ], [ -3.0373373, 54.4443038 ], [ -3.0373545, 54.444405 ], [ -3.0374638, 54.4445879 ], [ -3.0377844, 54.4446819 ], [ -3.0379341, 54.4447462 ], [ -3.0381097, 54.4448508 ], [ -3.0383296, 54.444952 ], [ -3.0383851, 54.4450121 ], [ -3.0384463, 54.4450254 ], [ -3.0384329, 54.4450621 ], [ -3.0382799, 54.445142099999984 ], [ -3.038083, 54.445276699999987 ], [ -3.0380666, 54.4453144 ], [ -3.0379901, 54.4453738 ], [ -3.0378787, 54.4455762 ], [ -3.0377822, 54.4456669 ], [ -3.0378248, 54.4457136 ], [ -3.0378181, 54.445751300000012 ], [ -3.037718, 54.4459597 ], [ -3.0377271, 54.4460116 ], [ -3.0377051, 54.4460311 ], [ -3.0375903, 54.4461291 ], [ -3.0375417, 54.446226 ], [ -3.0374972, 54.446324 ], [ -3.0374233, 54.4463763 ], [ -3.0374142, 54.4464434 ], [ -3.0374657, 54.446549100000013 ], [ -3.0374262, 54.4466305 ], [ -3.0374378, 54.44668750000001 ], [ -3.0374238, 54.44670820000001 ] ] } },
{ "type": "Feature", "properties": { "id": 28769, "nach": 0.1356175178873415 }, "geometry": { "type": "LineString", "coordinates": [ [ -3.0314852, 54.4501085 ], [ -3.0315958, 54.4501089 ], [ -3.0317752, 54.4502249 ], [ -3.03205410000001, 54.4502873 ], [ -3.0323331, 54.4502873 ], [ -3.0325906, 54.4502748 ], [ -3.0328695, 54.4501875 ], [ -3.0331804, 54.4500903 ], [ -3.0331058, 54.4498513 ], [ -3.0333604, 54.4498041 ], [ -3.0334402, 54.4497502 ], [ -3.0333845, 54.4496261 ], [ -3.0337953, 54.449483799999989 ], [ -3.0341276, 54.449495400000011 ], [ -3.03424380000001, 54.449385400000018 ], [ -3.0344359, 54.4493142 ], [ -3.0348222, 54.4491021 ], [ -3.0349938, 54.4489649 ], [ -3.0351655, 54.4487153 ], [ -3.0351112, 54.4484836 ], [ -3.0350504, 54.448403 ], [ -3.0349724, 54.4481913 ], [ -3.0351733, 54.4479899 ], [ -3.0353071, 54.447921 ], [ -3.0354262, 54.4477626 ], [ -3.0356396, 54.4476928 ], [ -3.0357878, 54.44758 ], [ -3.0358165, 54.4473931 ], [ -3.0359233, 54.447287 ], [ -3.0360128, 54.4471723 ], [ -3.0361523, 54.447121 ], [ -3.0364487, 54.4471219 ], [ -3.0366885, 54.4470427 ], [ -3.0369316, 54.446920800000015 ], [ -3.0369826, 54.4468657 ], [ -3.0370794, 54.446849599999986 ], [ -3.0371298, 54.4468297 ], [ -3.0374238, 54.44670820000001 ] ] } },
{ "type": "Feature", "properties": { "id": 31538, "nach": 0.39078227562924378 }, "geometry": { "type": "LineString", "coordinates": [ [ -3.0279003, 54.4390464 ], [ -3.027831, 54.43912 ], [ -3.027855, 54.4392792 ], [ -3.0278047, 54.4393186 ], [ -3.0277841, 54.4393911 ], [ -3.0278213, 54.4394444 ], [ -3.0278188, 54.4394632 ] ] } },
{ "type": "Feature", "properties": { "id": 1245, "nach": 0.25314230288347045 }, "geometry": { "type": "LineString", "coordinates": [ [ -3.0275834, 54.4396947 ], [ -3.0276514, 54.4396455 ], [ -3.0277143, 54.439560299999989 ], [ -3.0277988, 54.4395077 ], [ -3.0278188, 54.4394632 ] ] } },
{ "type": "Feature", "properties": { "id": 80940, "nach": 0.39387048667348351 }, "geometry": { "type": "LineString", "coordinates": [ [ -3.0275229, 54.4395264 ], [ -3.0277214, 54.4394848 ], [ -3.0278188, 54.4394632 ] ] } },
{ "type": "Feature", "properties": { "id": 5224, "nach": 0.37000108711065766 }, "geometry": { "type": "LineString", "coordinates": [ [ -3.028581, 54.43931 ], [ -3.0285114, 54.4393445 ], [ -3.02844670000001, 54.4393662 ], [ -3.0281389, 54.4394599 ], [ -3.0280772, 54.439505 ], [ -3.0280099, 54.439594099999987 ], [ -3.027913, 54.4396118 ], [ -3.0278127, 54.439628400000011 ], [ -3.0277453, 54.439683 ], [ -3.0276638, 54.4397054 ], [ -3.0275834, 54.4396947 ] ] } },
{ "type": "Feature", "properties": { "id": 80941, "nach": 0.37963551901666659 }, "geometry": { "type": "LineString", "coordinates": [ [ -3.0267071, 54.4398401 ], [ -3.02690840000001, 54.4398166 ], [ -3.0270968, 54.4397605 ], [ -3.0271874, 54.43976760000001 ], [ -3.0273772, 54.4397454 ], [ -3.0274951, 54.4397264 ], [ -3.0275834, 54.4396947 ] ] } },
{ "type": "Feature", "properties": { "id": 80939, "nach": 0.33937772003042588 }, "geometry": { "type": "LineString", "coordinates": [ [ -3.0275229, 54.4395264 ], [ -3.0276002, 54.4394275 ], [ -3.0276861, 54.4393215 ], [ -3.0277171, 54.4392855 ], [ -3.0277188, 54.4392416 ], [ -3.0276621, 54.4391016 ], [ -3.0275865, 54.4389707 ], [ -3.0275538, 54.438759800000021 ], [ -3.0275211, 54.4386688 ], [ -3.0274494, 54.4385461 ] ] } },
{ "type": "Feature", "properties": { "id": 80943, "nach": 0.38443342364186878 }, "geometry": { "type": "LineString", "coordinates": [ [ -3.0267071, 54.4398401 ], [ -3.0267305, 54.4398033 ], [ -3.0268147, 54.4397653 ], [ -3.0269488, 54.439731300000012 ], [ -3.0270536, 54.4397103 ], [ -3.0271447, 54.4396664 ], [ -3.0272118, 54.4396284 ], [ -3.0273011, 54.4395994 ], [ -3.0274232, 54.4395514 ], [ -3.0275229, 54.4395264 ] ] } },
{ "type": "Feature", "properties": { "id": 80942, "nach": 0.42874026162866069 }, "geometry": { "type": "LineString", "coordinates": [ [ -3.0267071, 54.4398401 ], [ -3.0266507, 54.4398468 ], [ -3.0264699, 54.4399192 ], [ -3.0262859, 54.4400882 ], [ -3.0260728, 54.440251099999983 ], [ -3.0259461, 54.4403096 ] ] } },
{ "type": "Feature", "properties": { "id": 24747, "nach": 0.35162286224962253 }, "geometry": { "type": "LineString", "coordinates": [ [ -3.019139, 54.4425422 ], [ -3.0190435, 54.44250550000001 ] ] } },
{ "type": "Feature", "properties": { "id": 7822, "nach": 0.35047894636678961 }, "geometry": { "type": "LineString", "coordinates": [ [ -3.0220623, 54.4450371 ], [ -3.0219968, 54.4449926 ], [ -3.0218079, 54.444756 ], [ -3.021652, 54.4445729 ], [ -3.0214763, 54.4444036 ], [ -3.0213314, 54.4443155 ], [ -3.021141, 54.4442196 ], [ -3.0209412, 54.444090099999983 ], [ -3.0207976, 54.443963 ], [ -3.0206944, 54.4438624 ], [ -3.0205719, 54.4437755 ], [ -3.0205388, 54.4437299 ], [ -3.0205402, 54.4436199 ], [ -3.0204758, 54.4435466 ], [ -3.0203771, 54.4434591 ], [ -3.0197256, 54.443067399999983 ], [ -3.0196376, 54.4429999 ], [ -3.0195525, 54.4428391 ], [ -3.0194807, 54.4427597 ], [ -3.0193399, 54.4426841 ], [ -3.019073, 54.442602199999989 ], [ -3.0190435, 54.44250550000001 ] ] } },
{ "type": "Feature", "properties": { "id": 65334, "nach": 0.37974665505930372 }, "geometry": { "type": "LineString", "coordinates": [ [ -3.0186895, 54.4421007 ], [ -3.0187515, 54.4422228 ], [ -3.01895630000001, 54.442401 ], [ -3.0190435, 54.44250550000001 ] ] } },
{ "type": "Feature", "properties": { "id": 24748, "nach": 0.18139480033296562 }, "geometry": { "type": "LineString", "coordinates": [ [ -3.019139, 54.4425422 ], [ -3.0196178, 54.4426773 ], [ -3.0198372, 54.4428788 ], [ -3.0200834, 54.4430215 ], [ -3.020381, 54.4430927 ], [ -3.020569, 54.4431532 ], [ -3.0207384, 54.4432469 ], [ -3.0212105, 54.44335920000001 ], [ -3.0214968, 54.4436374 ], [ -3.021673, 54.4436677 ], [ -3.0218116, 54.4437444 ], [ -3.0220196, 54.4438588 ], [ -3.0225611, 54.443905199999989 ], [ -3.0230873, 54.444048900000013 ], [ -3.0233241, 54.444164 ], [ -3.0235387, 54.444313699999988 ], [ -3.0236317, 54.4443857 ], [ -3.0236566, 54.4445212 ], [ -3.0235172, 54.4447754 ], [ -3.0236026, 54.444868 ], [ -3.0237962, 54.4449376 ], [ -3.0239617, 54.445005 ], [ -3.0243428, 54.4450366 ], [ -3.0246295, 54.4449912 ], [ -3.024974, 54.4448506 ], [ -3.0252052, 54.4448335 ], [ -3.0253479, 54.444993299999986 ] ] } },
{ "type": "Feature", "properties": { "id": 26346, "nach": 0.31811252949927066 }, "geometry": { "type": "LineString", "coordinates": [ [ -3.0194296, 54.4423528 ], [ -3.019139, 54.4425422 ] ] } },
{ "type": "Feature", "properties": { "id": 8820, "nach": 0.35346896546573414 }, "geometry": { "type": "LineString", "coordinates": [ [ -3.021826, 54.445017 ], [ -3.0219825, 54.4450485 ], [ -3.0220623, 54.4450371 ] ] } },
{ "type": "Feature", "properties": { "id": 59724, "nach": 0.36255060100982583 }, "geometry": { "type": "LineString", "coordinates": [ [ -3.0247115, 54.4460498 ], [ -3.0243912, 54.4459606 ], [ -3.0240476, 54.4458728 ], [ -3.0233916, 54.4456674 ], [ -3.0227623, 54.4454112 ], [ -3.0224198, 54.4451398 ], [ -3.0222215, 54.4451003 ], [ -3.0221389, 54.4450681 ], [ -3.0220623, 54.4450371 ] ] } },
{ "type": "Feature", "properties": { "id": 65333, "nach": 0.39224998252003157 }, "geometry": { "type": "LineString", "coordinates": [ [ -3.0186895, 54.4421007 ], [ -3.01873620000001, 54.4420977 ], [ -3.0188749, 54.442175800000015 ], [ -3.0189913, 54.4422454 ], [ -3.0190852, 54.4423042 ], [ -3.019154, 54.4423403 ], [ -3.0192512, 54.4423512 ], [ -3.0194296, 54.4423528 ] ] } },
{ "type": "Feature", "properties": { "id": 24460, "nach": 0.22903823062516962 }, "geometry": { "type": "LineString", "coordinates": [ [ -3.0161978, 54.4424906 ], [ -3.0163054, 54.442530399999988 ], [ -3.0169471, 54.4426249 ], [ -3.0174665, 54.4427625 ], [ -3.0178, 54.4427555 ], [ -3.0179809, 54.4427921 ], [ -3.0182813, 54.44314150000001 ], [ -3.018807, 54.4433723 ], [ -3.0192576, 54.4435408 ], [ -3.0197235, 54.44359570000001 ], [ -3.0199981, 54.443725 ], [ -3.0203476, 54.4439153 ], [ -3.0204379, 54.4440338 ], [ -3.0205333, 54.444112 ], [ -3.0207919, 54.44425829999998 ], [ -3.0210815, 54.4443893 ], [ -3.0213176, 54.4445078 ], [ -3.0215757, 54.4447591 ], [ -3.0217143, 54.4449109 ], [ -3.021826, 54.445017 ] ] } },
{ "type": "Feature", "properties": { "id": 47295, "nach": 0.41161669463698813 }, "geometry": { "type": "LineString", "coordinates": [ [ -3.0174631, 54.4423074 ], [ -3.0174344, 54.4423122 ], [ -3.0169799, 54.442393400000014 ], [ -3.0167011, 54.4424346 ], [ -3.0164211, 54.442474 ], [ -3.0163135, 54.4424857 ], [ -3.0161978, 54.4424906 ] ] } },
{ "type": "Feature", "properties": { "id": 5232, "nach": 0.31842455076141513 }, "geometry": { "type": "LineString", "coordinates": [ [ -3.03214, 54.441945 ], [ -3.0319, 54.4419061 ], [ -3.0317831, 54.4418496 ], [ -3.0316886, 54.4418698 ], [ -3.0315479, 54.4418648 ], [ -3.0314963, 54.4418331 ], [ -3.03144470000001, 54.44182270000001 ], [ -3.0311626, 54.4418256 ], [ -3.0309449, 54.4418054 ], [ -3.0307815, 54.441765099999984 ], [ -3.0305292, 54.4417824 ], [ -3.0302861, 54.4417912 ], [ -3.0302066, 54.4417801 ], [ -3.0300775, 54.4417362 ], [ -3.0300163, 54.4417271 ], [ -3.0298113, 54.4417026 ], [ -3.0297608, 54.4417188 ], [ -3.0296886, 54.4416945 ], [ -3.0295934, 54.4416745 ], [ -3.0294726, 54.4416156 ], [ -3.0293649, 54.44162690000001 ], [ -3.0292441, 54.4416166 ], [ -3.0289671, 54.4415748 ], [ -3.0288897, 54.4415531 ], [ -3.0287674, 54.4415208 ], [ -3.0286279, 54.4415086 ], [ -3.02852810000001, 54.4414727 ], [ -3.0284123, 54.4414135 ], [ -3.0283364, 54.441371 ], [ -3.0282181, 54.4413593 ], [ -3.0281141, 54.4413708 ], [ -3.0279954, 54.4413421 ], [ -3.0277875, 54.44125 ], [ -3.027649, 54.4411838 ], [ -3.0276143, 54.441157899999986 ], [ -3.0275698, 54.4411233 ], [ -3.02738670000001, 54.4410255 ], [ -3.0271788, 54.440947799999982 ], [ -3.0269908, 54.4409104 ], [ -3.0268107, 54.4408924 ], [ -3.02674830000001, 54.4409248 ], [ -3.0265785, 54.4409777 ], [ -3.0264563, 54.4409823 ], [ -3.0263648, 54.4409332 ], [ -3.0263272, 54.4407865 ] ] } },
{ "type": "Feature", "properties": { "id": 31541, "nach": 0.29661228944806067 }, "geometry": { "type": "LineString", "coordinates": [ [ -3.0252222, 54.4411546 ], [ -3.0254726, 54.4410844 ], [ -3.0256529, 54.4410729 ], [ -3.0258352, 54.441061500000011 ], [ -3.0258847, 54.4410039 ], [ -3.025907, 54.4409622 ], [ -3.0259862, 54.4409046 ], [ -3.0260406, 54.4408384 ], [ -3.0261049, 54.4408125 ], [ -3.0262039, 54.4407924 ], [ -3.0263272, 54.4407865 ] ] } },
{ "type": "Feature", "properties": { "id": 26381, "nach": 0.33385950985764684 }, "geometry": { "type": "LineString", "coordinates": [ [ -3.0259461, 54.4403096 ], [ -3.026082, 54.4403416 ], [ -3.0260743, 54.4403823 ], [ -3.0260302, 54.4404399 ], [ -3.0260395, 54.4405638 ], [ -3.0260331, 54.4406463 ], [ -3.0261385, 54.4406752 ], [ -3.0262715, 54.4406611 ], [ -3.0262983, 54.4407159 ], [ -3.0263272, 54.4407865 ] ] } },
{ "type": "Feature", "properties": { "id": 81003, "nach": 0.24924510336147504 }, "geometry": { "type": "LineString", "coordinates": [ [ -3.0350732, 54.442525 ], [ -3.03490930000001, 54.442499300000016 ], [ -3.0347868, 54.442439 ], [ -3.0346527, 54.4424234 ], [ -3.0345546, 54.4424299 ], [ -3.0344777, 54.4424241 ], [ -3.0344445, 54.442405 ], [ -3.0344216, 54.442381700000013 ], [ -3.0343504, 54.4422919 ], [ -3.0342519, 54.442296799999987 ], [ -3.0341405, 54.4422968 ], [ -3.034025, 54.4422564 ], [ -3.03395, 54.4422335 ], [ -3.0338958, 54.442131499999988 ], [ -3.033922, 54.4421124 ], [ -3.033916, 54.44210120000001 ], [ -3.0338216, 54.4420927 ], [ -3.033777300000011, 54.4420324 ], [ -3.0337569, 54.4420263 ], [ -3.0337647, 54.4420065 ], [ -3.033696, 54.4419838 ], [ -3.033686, 54.44196130000001 ], [ -3.033528, 54.4419128 ], [ -3.0334931, 54.44187620000001 ], [ -3.0334701, 54.441823 ], [ -3.0335114, 54.4417754 ], [ -3.0334737, 54.4417593 ], [ -3.0334752, 54.4417374 ], [ -3.033439, 54.4417373 ], [ -3.0334304, 54.4417198 ], [ -3.0333797, 54.4416989 ], [ -3.0334448, 54.4416709 ], [ -3.0333195, 54.4416344 ], [ -3.0332902, 54.441614 ], [ -3.03325520000001, 54.4416056 ], [ -3.0330941, 54.441629299999988 ], [ -3.0328526, 54.4416802 ], [ -3.0327656, 54.4417354 ], [ -3.0326745, 54.44178380000001 ], [ -3.0325026, 54.4419155 ], [ -3.0324204, 54.441941600000014 ], [ -3.03214, 54.441945 ] ] } },
{ "type": "Feature", "properties": { "id": 8755, "nach": 0.33453012420834588 }, "geometry": { "type": "LineString", "coordinates": [ [ -3.033167, 54.4432511 ], [ -3.0330482, 54.4431259 ], [ -3.0328869, 54.4428883 ], [ -3.0327363, 54.4428091 ], [ -3.0326076, 54.4427011 ], [ -3.0325879, 54.4426608 ], [ -3.0323899, 54.44242340000001 ], [ -3.032333, 54.4423054 ], [ -3.0322687, 54.4421946 ], [ -3.0322266, 54.4420838 ], [ -3.03214, 54.441945 ] ] } },
{ "type": "Feature", "properties": { "id": 80986, "nach": 0.32443391320193427 }, "geometry": { "type": "LineString", "coordinates": [ [ -3.0344078, 54.4407424 ], [ -3.0341899, 54.4407878 ], [ -3.0341383, 54.4408235 ], [ -3.0340549, 54.4408431 ], [ -3.0339192, 54.44086810000001 ], [ -3.033835, 54.4409456 ], [ -3.0337792, 54.440977 ], [ -3.0336704, 54.4409881 ], [ -3.0335751, 54.4409874 ], [ -3.0332005, 54.4409987 ], [ -3.0329904, 54.4410324 ], [ -3.0327964, 54.4410667 ], [ -3.0324149, 54.441222 ], [ -3.0323305, 54.44131260000001 ], [ -3.032259, 54.44145 ], [ -3.0321573, 54.4416536 ], [ -3.0320732, 54.4417831 ], [ -3.03214, 54.441945 ] ] } },
{ "type": "Feature", "properties": { "id": 31543, "nach": 0.41751419893100206 }, "geometry": { "type": "LineString", "coordinates": [ [ -3.0252222, 54.4411546 ], [ -3.0252507, 54.441101 ], [ -3.0254318, 54.4409377 ], [ -3.0254749, 54.4408535 ], [ -3.0254989, 54.4407657 ], [ -3.0255796, 54.440648799999984 ], [ -3.0257823, 54.4404546 ], [ -3.0258478, 54.4403943 ], [ -3.0258526, 54.440351 ], [ -3.02588150000001, 54.4403217 ], [ -3.0259461, 54.4403096 ] ] } },
{ "type": "Feature", "properties": { "id": 31544, "nach": 0.41812626218126819 }, "geometry": { "type": "LineString", "coordinates": [ [ -3.0251111, 54.44124990000001 ], [ -3.0252222, 54.4411546 ] ] } },
{ "type": "Feature", "properties": { "id": 80902, "nach": 0.35713534005979808 }, "geometry": { "type": "LineString", "coordinates": [ [ -3.0241597, 54.4408289 ], [ -3.0243987, 54.4409947 ], [ -3.0247025, 54.4410678 ], [ -3.0249097, 54.4410295 ], [ -3.0250882, 54.441092 ], [ -3.0252222, 54.4411546 ] ] } },
{ "type": "Feature", "properties": { "id": 27961, "nach": 0.36846772626787166 }, "geometry": { "type": "LineString", "coordinates": [ [ -3.0242613, 54.4390461 ], [ -3.0243538, 54.439100200000013 ], [ -3.0245316, 54.4392122 ], [ -3.0247422, 54.4394628 ], [ -3.0248645, 54.4395644 ], [ -3.0249387, 54.4397846 ], [ -3.0250174, 54.4399666 ], [ -3.0250962, 54.4400387 ], [ -3.0252303, 54.4400685 ], [ -3.0254631, 54.440099600000011 ], [ -3.02568530000001, 54.4401564 ], [ -3.0259461, 54.4403096 ] ] } },
{ "type": "Feature", "properties": { "id": 39786, "nach": 0.34838354840127783 }, "geometry": { "type": "LineString", "coordinates": [ [ -3.0258697, 54.4391616 ], [ -3.0258952, 54.4392563 ], [ -3.0258914, 54.4393611 ], [ -3.0258051, 54.4394898 ], [ -3.0257826, 54.4396491 ], [ -3.0257846, 54.439829 ], [ -3.0257714, 54.4400565 ], [ -3.0258818, 54.4401959 ], [ -3.0259461, 54.4403096 ] ] } },
{ "type": "Feature", "properties": { "id": 81006, "nach": 0.23460789574605503 }, "geometry": { "type": "LineString", "coordinates": [ [ -3.0351603, 54.4426874 ], [ -3.0351064, 54.4426512 ], [ -3.0350732, 54.442525 ] ] } },
{ "type": "Feature", "properties": { "id": 81000, "nach": 0.27103993418418737 }, "geometry": { "type": "LineString", "coordinates": [ [ -3.0334173, 54.4434867 ], [ -3.0333388, 54.4434109 ], [ -3.033167, 54.4432511 ] ] } },
{ "type": "Feature", "properties": { "id": 81013, "nach": 0.32819955554626729 }, "geometry": { "type": "LineString", "coordinates": [ [ -3.033735, 54.4433736 ], [ -3.033639, 54.4433479 ], [ -3.0334315, 54.4433205 ], [ -3.033167, 54.4432511 ] ] } },
{ "type": "Feature", "properties": { "id": 80987, "nach": 0.42550168221743018 }, "geometry": { "type": "LineString", "coordinates": [ [ -3.0344078, 54.4407424 ], [ -3.0344287, 54.4407381 ], [ -3.0345569, 54.440683 ], [ -3.0346429, 54.4406426 ], [ -3.034657, 54.4406289 ] ] } },
{ "type": "Feature", "properties": { "id": 5273, "nach": 0.19348309480661727 }, "geometry": { "type": "LineString", "coordinates": [ [ -3.0369012, 54.4463084 ], [ -3.0368141, 54.4462867 ], [ -3.0365951, 54.4462615 ], [ -3.0364776, 54.4462263 ], [ -3.036275, 54.44614390000001 ], [ -3.0360821, 54.4460647 ], [ -3.0358887, 54.445986 ], [ -3.0357254, 54.4459256 ], [ -3.0355918, 54.445858 ], [ -3.0354235, 54.445717 ], [ -3.0353592, 54.4456206 ], [ -3.035379, 54.445578800000014 ], [ -3.0353592, 54.4455155 ], [ -3.035314600000011, 54.445478100000017 ], [ -3.0353146, 54.4453688 ], [ -3.0351983, 54.44527810000001 ], [ -3.035139, 54.4451515 ], [ -3.0349954, 54.4451084 ], [ -3.034906400000011, 54.4449774 ], [ -3.0348024, 54.4448997 ], [ -3.0347381, 54.4448091 ], [ -3.034649, 54.444702600000014 ], [ -3.0345834, 54.444619300000014 ], [ -3.0345045, 54.44449070000001 ], [ -3.0344427, 54.444322199999988 ], [ -3.0343536, 54.4440577 ] ] } },
{ "type": "Feature", "properties": { "id": 80999, "nach": 0.27407516478123206 }, "geometry": { "type": "LineString", "coordinates": [ [ -3.0334173, 54.4434867 ], [ -3.0336069, 54.4435945 ], [ -3.0336318, 54.443608699999984 ], [ -3.0337261, 54.4436709 ], [ -3.033925, 54.4438004 ], [ -3.0340953, 54.4439652 ], [ -3.0341911, 54.4440097 ], [ -3.0343536, 54.4440577 ] ] } },
{ "type": "Feature", "properties": { "id": 8769, "nach": 0.25357828298765411 }, "geometry": { "type": "LineString", "coordinates": [ [ -3.0353552, 54.4438454 ], [ -3.0349866, 54.4439591 ], [ -3.0348, 54.44401830000001 ], [ -3.0343536, 54.4440577 ] ] } },
{ "type": "Feature", "properties": { "id": 13520, "nach": 0.27405212218814562 }, "geometry": { "type": "LineString", "coordinates": [ [ -3.0360954, 54.4443327 ], [ -3.0359126, 54.4443026 ], [ -3.0355799, 54.4442524 ], [ -3.0353415, 54.4442722 ], [ -3.0350716, 54.4442524 ], [ -3.0346865, 54.444183800000012 ], [ -3.0343536, 54.4440577 ] ] } },
{ "type": "Feature", "properties": { "id": 13525, "nach": 0.34043166947366643 }, "geometry": { "type": "LineString", "coordinates": [ [ -3.0370264, 54.4450518 ], [ -3.0371321, 54.4451204 ], [ -3.0372234, 54.4451519 ], [ -3.037225, 54.4452516 ], [ -3.03711, 54.445340199999983 ], [ -3.0371227, 54.445426099999985 ], [ -3.0371751, 54.4455646 ], [ -3.0372816, 54.4455983 ], [ -3.037269, 54.4457456 ], [ -3.0371206, 54.4460398 ], [ -3.0370679, 54.4461301 ], [ -3.0369733, 54.4461827 ], [ -3.0368964, 54.4462589 ], [ -3.0369012, 54.4463084 ] ] } },
{ "type": "Feature", "properties": { "id": 81001, "nach": 0.26946321168477133 }, "geometry": { "type": "LineString", "coordinates": [ [ -3.0334173, 54.4434867 ], [ -3.0337116, 54.44341270000001 ], [ -3.033886, 54.443414 ] ] } },
{ "type": "Feature", "properties": { "id": 8767, "nach": 0.36706376002263991 }, "geometry": { "type": "LineString", "coordinates": [ [ -3.0353552, 54.4438454 ], [ -3.0354089, 54.443868 ] ] } },
{ "type": "Feature", "properties": { "id": 80996, "nach": 0.32577745491594345 }, "geometry": { "type": "LineString", "coordinates": [ [ -3.033886, 54.443414 ], [ -3.0340951, 54.44347 ], [ -3.0342639, 54.4435689 ], [ -3.0343307, 54.4436081 ], [ -3.0347708, 54.4437247 ], [ -3.0350176, 54.4438095 ], [ -3.0353552, 54.4438454 ] ] } },
{ "type": "Feature", "properties": { "id": 13523, "nach": 0.35995221939133965 }, "geometry": { "type": "LineString", "coordinates": [ [ -3.0360954, 54.4443327 ], [ -3.0360661, 54.4443099 ], [ -3.0359029, 54.4441904 ], [ -3.0358, 54.4441255 ], [ -3.035567, 54.4439846 ], [ -3.0354822, 54.4439162 ], [ -3.0354089, 54.443868 ] ] } },
{ "type": "Feature", "properties": { "id": 73346, "nach": 0.36779412226463964 }, "geometry": { "type": "LineString", "coordinates": [ [ -3.0371481, 54.4442118 ], [ -3.0370497, 54.444253 ], [ -3.0368796, 54.44431 ], [ -3.0367754, 54.444339 ], [ -3.0366469, 54.4443507 ], [ -3.0364684, 54.4443643 ], [ -3.0362656, 54.4443638 ], [ -3.0360954, 54.4443327 ] ] } },
{ "type": "Feature", "properties": { "id": 13526, "nach": 0.28216891642676667 }, "geometry": { "type": "LineString", "coordinates": [ [ -3.0370264, 54.4450518 ], [ -3.0369708, 54.4450324 ], [ -3.0369007, 54.4449928 ], [ -3.0368264, 54.444929899999984 ], [ -3.0366447, 54.4446969 ], [ -3.036431, 54.4444624 ], [ -3.0363185, 54.4444158 ], [ -3.0361951, 54.444372199999989 ], [ -3.0360954, 54.4443327 ] ] } },
{ "type": "Feature", "properties": { "id": 73345, "nach": 0.35118685335357558 }, "geometry": { "type": "LineString", "coordinates": [ [ -3.0371481, 54.4442118 ], [ -3.037106, 54.444264 ], [ -3.0370452, 54.4445435 ], [ -3.0369948, 54.444607800000021 ], [ -3.0369501, 54.444705 ], [ -3.0369553, 54.4447448 ], [ -3.0369721, 54.4447997 ], [ -3.0370403, 54.4448977 ], [ -3.0370372, 54.4449298 ], [ -3.0370247, 54.4449872 ], [ -3.0370264, 54.4450518 ] ] } },
{ "type": "Feature", "properties": { "id": 52246, "nach": 0.41020110318384173 }, "geometry": { "type": "LineString", "coordinates": [ [ -3.0373433, 54.444204 ], [ -3.0372592, 54.4441826 ], [ -3.0371995, 54.4441589 ] ] } },
{ "type": "Feature", "properties": { "id": 136470, "nach": 0.2726139252464731 }, "geometry": { "type": "LineString", "coordinates": [ [ -3.030989, 54.4499153 ], [ -3.0312119, 54.450005 ], [ -3.0314852, 54.4501085 ] ] } },
{ "type": "Feature", "properties": { "id": 112703, "nach": 0.31272381021260381 }, "geometry": { "type": "LineString", "coordinates": [ [ -3.0312492, 54.4517161 ], [ -3.03136330000001, 54.4516758 ], [ -3.031561, 54.451558400000017 ], [ -3.0317848, 54.4513411 ], [ -3.0318396, 54.4511356 ], [ -3.0318825, 54.4506366 ], [ -3.0317982, 54.4504689 ], [ -3.031753, 54.450412 ], [ -3.0317204, 54.4503055 ], [ -3.0316796, 54.4502267 ], [ -3.0315973, 54.4501599 ], [ -3.0314852, 54.4501085 ] ] } },
{ "type": "Feature", "properties": { "id": 5285, "nach": 0.21155145870422148 }, "geometry": { "type": "LineString", "coordinates": [ [ -3.0284174, 54.4473798 ], [ -3.0283057, 54.447130499999986 ], [ -3.0280222, 54.4469262 ], [ -3.0278089, 54.4466493 ], [ -3.0275341, 54.446350099999989 ], [ -3.0270218, 54.4459683 ], [ -3.0268839, 54.445808 ], [ -3.026696, 54.4456519 ], [ -3.0262835, 54.4453858 ], [ -3.02581590000001, 54.4450637 ], [ -3.0257374, 54.4450216 ], [ -3.0256609, 54.4450103 ], [ -3.0255664, 54.4449963 ], [ -3.0253479, 54.444993299999986 ] ] } },
{ "type": "Feature", "properties": { "id": 80933, "nach": 0.24907746795306346 }, "geometry": { "type": "LineString", "coordinates": [ [ -3.0248037, 54.44194980000001 ], [ -3.0247464, 54.4420037 ], [ -3.0247218, 54.4420767 ], [ -3.0247016, 54.4421221 ], [ -3.0246962, 54.4421703 ], [ -3.0246655, 54.4424384 ], [ -3.0245729, 54.4425017 ], [ -3.024559, 54.442615499999988 ], [ -3.0245096, 54.4427997 ], [ -3.024538, 54.4430166 ], [ -3.0246311, 54.4431912 ], [ -3.0247467, 54.4433318 ], [ -3.0247665, 54.4434528 ], [ -3.0248112, 54.4435737 ], [ -3.0247843, 54.4437243 ], [ -3.0247246, 54.4438402 ], [ -3.0247236, 54.4438946 ], [ -3.0247508, 54.4439546 ], [ -3.0247433, 54.4440616 ], [ -3.0246937, 54.4441202 ], [ -3.0247108, 54.4442036 ], [ -3.0247298, 54.4442775 ], [ -3.024701, 54.4443464 ], [ -3.0246467, 54.4444355 ], [ -3.024658, 54.4444976 ], [ -3.02460170000001, 54.4446148 ], [ -3.0246033, 54.444647200000013 ], [ -3.0246892, 54.444669599999983 ], [ -3.0252531, 54.4446727 ], [ -3.0253319, 54.4446969 ], [ -3.0254066, 54.4447848 ], [ -3.0253479, 54.444993299999986 ] ] } },
{ "type": "Feature", "properties": { "id": 97122, "nach": 0.31147405759305996 }, "geometry": { "type": "LineString", "coordinates": [ [ -3.0290653, 54.4482624 ], [ -3.0288879, 54.4479937 ], [ -3.0287569, 54.447866500000011 ], [ -3.028623, 54.4477231 ], [ -3.0284657, 54.4474887 ], [ -3.0284174, 54.4473798 ] ] } },
{ "type": "Feature", "properties": { "id": 59734, "nach": 0.25895767693931332 }, "geometry": { "type": "LineString", "coordinates": [ [ -3.0273516, 54.4470633 ], [ -3.0272983, 54.4471448 ], [ -3.0273252, 54.4472147 ], [ -3.0275043, 54.447302 ], [ -3.027616, 54.4473205 ], [ -3.0279426, 54.4473533 ], [ -3.0281658, 54.4473799 ], [ -3.0284174, 54.4473798 ] ] } },
{ "type": "Feature", "properties": { "id": 80932, "nach": 0.3114585995187199 }, "geometry": { "type": "LineString", "coordinates": [ [ -3.0248037, 54.44194980000001 ], [ -3.0245698, 54.4418404 ], [ -3.0244141, 54.4417288 ], [ -3.024349, 54.4416283 ], [ -3.0242976, 54.4414267 ] ] } },
{ "type": "Feature", "properties": { "id": 80934, "nach": 0.28309441628278975 }, "geometry": { "type": "LineString", "coordinates": [ [ -3.0248037, 54.44194980000001 ], [ -3.0248867, 54.4418717 ], [ -3.0249768, 54.4416868 ], [ -3.025019, 54.4414346 ], [ -3.0251111, 54.44124990000001 ] ] } },
{ "type": "Feature", "properties": { "id": 97121, "nach": 0.34993939213479636 }, "geometry": { "type": "LineString", "coordinates": [ [ -3.0290653, 54.4482624 ], [ -3.029118, 54.4483423 ], [ -3.0290939, 54.4484123 ], [ -3.0290617, 54.4484634 ] ] } },
{ "type": "Feature", "properties": { "id": 97123, "nach": 0.27064302399610735 }, "geometry": { "type": "LineString", "coordinates": [ [ -3.0290653, 54.4482624 ], [ -3.029001, 54.448248 ], [ -3.0289163, 54.4482166 ], [ -3.0288439, 54.4481987 ], [ -3.0287823, 54.4481324 ] ] } },
{ "type": "Feature", "properties": { "id": 5540, "nach": 0.40780308968719325 }, "geometry": { "type": "LineString", "coordinates": [ [ -3.0243169, 54.4393596 ], [ -3.0243761, 54.439676900000016 ], [ -3.0242764, 54.4400196 ], [ -3.0241884, 54.4401667 ], [ -3.0241675, 54.4402365 ] ] } },
{ "type": "Feature", "properties": { "id": 80901, "nach": 0.39712592204049896 }, "geometry": { "type": "LineString", "coordinates": [ [ -3.0241597, 54.4408289 ], [ -3.0240919, 54.4407485 ], [ -3.0240424, 54.4405619 ], [ -3.0240226, 54.4404438 ], [ -3.0240597, 54.4403401 ], [ -3.0241675, 54.4402365 ] ] } },
{ "type": "Feature", "properties": { "id": 38038, "nach": 0.40003588111559457 }, "geometry": { "type": "LineString", "coordinates": [ [ -3.0240554, 54.4402198 ], [ -3.0240816, 54.4402269 ], [ -3.0241675, 54.4402365 ] ] } },
{ "type": "Feature", "properties": { "id": 38037, "nach": 0.29326321764260699 }, "geometry": { "type": "LineString", "coordinates": [ [ -3.0239191, 54.4396516 ], [ -3.0240691, 54.4395622 ], [ -3.0241716, 54.4394877 ], [ -3.0242613, 54.4394102 ], [ -3.0243169, 54.4393596 ] ] } },
{ "type": "Feature", "properties": { "id": 80903, "nach": 0.35356770011296962 }, "geometry": { "type": "LineString", "coordinates": [ [ -3.0241597, 54.4408289 ], [ -3.0242557, 54.4410211 ], [ -3.02426310000001, 54.44129130000001 ], [ -3.0242976, 54.4414267 ] ] } },
{ "type": "Feature", "properties": { "id": 38039, "nach": 0.37681298666875457 }, "geometry": { "type": "LineString", "coordinates": [ [ -3.0240554, 54.4402198 ], [ -3.0240035, 54.440161 ], [ -3.0239051, 54.4400533 ], [ -3.023906, 54.439989 ], [ -3.0239191, 54.4396516 ] ] } },
{ "type": "Feature", "properties": { "id": 80914, "nach": 0.38342614960058063 }, "geometry": { "type": "LineString", "coordinates": [ [ -3.0236894, 54.441174 ], [ -3.023733, 54.4410109 ], [ -3.0237361, 54.440749 ], [ -3.0237266, 54.4404908 ], [ -3.023816, 54.4403608 ], [ -3.0240554, 54.4402198 ] ] } },
{ "type": "Feature", "properties": { "id": 38036, "nach": 0.37711707130627353 }, "geometry": { "type": "LineString", "coordinates": [ [ -3.0239191, 54.4396516 ], [ -3.0238795, 54.43945440000001 ], [ -3.0238329, 54.4393753 ], [ -3.0237673, 54.4393459 ], [ -3.0235457, 54.4393165 ], [ -3.0234551, 54.439410300000013 ], [ -3.0232523, 54.439520900000012 ], [ -3.0231742, 54.4395205 ], [ -3.0231565, 54.43943440000001 ], [ -3.0232278, 54.4393798 ], [ -3.0232465, 54.439236 ], [ -3.0231864, 54.4391162 ], [ -3.0231091, 54.4389714 ], [ -3.0230233, 54.4388566 ], [ -3.0229546, 54.4388217 ], [ -3.0229117, 54.4387818 ], [ -3.0228345, 54.4387618 ], [ -3.0227161, 54.438724 ] ] } },
{ "type": "Feature", "properties": { "id": 73342, "nach": 0.38398021361203044 }, "geometry": { "type": "LineString", "coordinates": [ [ -3.0372752, 54.4432387 ], [ -3.0371219, 54.4432386 ], [ -3.0369139, 54.4432158 ], [ -3.0367929, 54.4432175 ], [ -3.0365837, 54.4432259 ], [ -3.0363665, 54.4431743 ], [ -3.0361374, 54.4430519 ] ] } },
{ "type": "Feature", "properties": { "id": 73343, "nach": 0.36837214482300518 }, "geometry": { "type": "LineString", "coordinates": [ [ -3.0372752, 54.4432387 ], [ -3.0372123, 54.4433989 ], [ -3.0371641, 54.4435109 ], [ -3.0371236, 54.4435544 ], [ -3.0371144, 54.4435816 ], [ -3.0372162, 54.4437557 ], [ -3.0372473, 54.4438475 ] ] } },
{ "type": "Feature", "properties": { "id": 52232, "nach": 0.34704758214064774 }, "geometry": { "type": "LineString", "coordinates": [ [ -3.0380188, 54.4432067 ], [ -3.03790270000001, 54.4432013 ], [ -3.0376606, 54.4431988 ], [ -3.0374427, 54.4431588 ] ] } },
{ "type": "Feature", "properties": { "id": 52237, "nach": 0.29863876974748099 }, "geometry": { "type": "LineString", "coordinates": [ [ -3.0378513, 54.4434472 ], [ -3.0379376, 54.4434043 ], [ -3.0380122, 54.4433376 ], [ -3.0380424, 54.4432601 ], [ -3.0380188, 54.4432067 ] ] } },
{ "type": "Feature", "properties": { "id": 52240, "nach": 0.34681484857734213 }, "geometry": { "type": "LineString", "coordinates": [ [ -3.0372473, 54.4438475 ], [ -3.0373011, 54.4437913 ], [ -3.0373791, 54.4436603 ], [ -3.037408, 54.4435863 ], [ -3.0374846, 54.4435159 ], [ -3.0376225, 54.4434772 ], [ -3.0378513, 54.4434472 ] ] } },
{ "type": "Feature", "properties": { "id": 24465, "nach": 0.33395285323366691 }, "geometry": { "type": "LineString", "coordinates": [ [ -3.0196289, 54.4443032 ], [ -3.0203977, 54.4446522 ], [ -3.0210118, 54.4447375 ], [ -3.0212551, 54.4448112 ], [ -3.0215888, 54.444943500000015 ], [ -3.021826, 54.445017 ] ] } },
{ "type": "Feature", "properties": { "id": 59731, "nach": 0.36671006857199673 }, "geometry": { "type": "LineString", "coordinates": [ [ -3.0255025, 54.4461752 ], [ -3.0249552, 54.4461027 ], [ -3.0247115, 54.4460498 ] ] } },
{ "type": "Feature", "properties": { "id": 80948, "nach": 0.33984930454985968 }, "geometry": { "type": "LineString", "coordinates": [ [ -3.0246388, 54.4460814 ], [ -3.0246768, 54.4460744 ], [ -3.0247115, 54.4460498 ] ] } },
{ "type": "Feature", "properties": { "id": 81012, "nach": 0.34975396583302565 }, "geometry": { "type": "LineString", "coordinates": [ [ -3.033735, 54.4433736 ], [ -3.033886, 54.443414 ] ] } },
{ "type": "Feature", "properties": { "id": 81014, "nach": 0.25334484109298516 }, "geometry": { "type": "LineString", "coordinates": [ [ -3.033735, 54.4433736 ], [ -3.0338288, 54.4433216 ], [ -3.0340045, 54.4432521 ], [ -3.0340643, 54.443127399999987 ], [ -3.03411, 54.4430804 ], [ -3.0341697, 54.4430354 ], [ -3.0342541, 54.4428167 ], [ -3.0342435, 54.4427023 ], [ -3.0342998, 54.4426859 ], [ -3.0343779, 54.4425298 ] ] } },
{ "type": "Feature", "properties": { "id": 8761, "nach": 0.34581714271579267 }, "geometry": { "type": "LineString", "coordinates": [ [ -3.0356703, 54.443860799999989 ], [ -3.0357364, 54.4437804 ], [ -3.0357981, 54.4436624 ], [ -3.0357721, 54.4434971 ], [ -3.0357635, 54.4434134 ], [ -3.0359494, 54.4432116 ], [ -3.0361374, 54.4430519 ] ] } },
{ "type": "Feature", "properties": { "id": 80993, "nach": 0.40528650646105263 }, "geometry": { "type": "LineString", "coordinates": [ [ -3.0355713, 54.4428805 ], [ -3.0356857, 54.442884700000022 ], [ -3.0358902, 54.442934299999983 ], [ -3.0361374, 54.4430519 ] ] } },
{ "type": "Feature", "properties": { "id": 8765, "nach": 0.35386175786383589 }, "geometry": { "type": "LineString", "coordinates": [ [ -3.0354089, 54.443868 ], [ -3.0355835, 54.4438644 ], [ -3.0356703, 54.443860799999989 ] ] } },
{ "type": "Feature", "properties": { "id": 52238, "nach": 0.31019953230402625 }, "geometry": { "type": "LineString", "coordinates": [ [ -3.0372473, 54.4438475 ], [ -3.0371835, 54.4438183 ], [ -3.0370915, 54.4438027 ], [ -3.0369022, 54.4437836 ], [ -3.0367957, 54.4437663 ], [ -3.0366721, 54.4437399 ], [ -3.0366064, 54.4437399 ], [ -3.0365845, 54.4437317 ], [ -3.0365563, 54.4437272 ], [ -3.0364467, 54.443729 ], [ -3.0363638, 54.4437235 ], [ -3.0362949, 54.4437445 ], [ -3.0362151, 54.4437918 ], [ -3.0360602, 54.4438282 ], [ -3.0358974, 54.4438327 ], [ -3.0356703, 54.443860799999989 ] ] } },
{ "type": "Feature", "properties": { "id": 80998, "nach": 0.32933727870469565 }, "geometry": { "type": "LineString", "coordinates": [ [ -3.033886, 54.443414 ], [ -3.0340865, 54.4433886 ], [ -3.0342422, 54.4433278 ], [ -3.0344516, 54.4432131 ], [ -3.0346463, 54.443114 ], [ -3.0348021, 54.44308010000001 ], [ -3.0350455, 54.4429937 ], [ -3.0355713, 54.4428805 ] ] } },
{ "type": "Feature", "properties": { "id": 81005, "nach": 0.36690758521709055 }, "geometry": { "type": "LineString", "coordinates": [ [ -3.0351603, 54.4426874 ], [ -3.0352475, 54.442746 ], [ -3.0354764, 54.442855 ], [ -3.0355713, 54.4428805 ] ] } },
{ "type": "Feature", "properties": { "id": 52244, "nach": 0.39710086685120033 }, "geometry": { "type": "LineString", "coordinates": [ [ -3.0371995, 54.4441589 ], [ -3.0372139, 54.444066 ], [ -3.0372473, 54.4438475 ] ] } },
{ "type": "Feature", "properties": { "id": 104576, "nach": 0.23756889004040238 }, "geometry": { "type": "LineString", "coordinates": [ [ -3.0133699, 54.4463352 ], [ -3.0139342, 54.4462878 ], [ -3.0141094, 54.4462793 ], [ -3.0142987, 54.4462764 ], [ -3.0144353, 54.4462802 ], [ -3.0145501, 54.446298 ], [ -3.0146601, 54.44632390000001 ], [ -3.0147638, 54.4463577 ], [ -3.0148593, 54.4463987 ], [ -3.0149453, 54.4464463 ] ] } },
{ "type": "Feature", "properties": { "id": 120080, "nach": 0.0 }, "geometry": { "type": "LineString", "coordinates": [ [ -3.0168934, 54.4534855 ], [ -3.0168406, 54.453353300000011 ], [ -3.0167202, 54.452811400000016 ], [ -3.0166824, 54.4525888 ], [ -3.0166525, 54.4523664 ], [ -3.016624, 54.4518996 ], [ -3.0166303, 54.4512982 ], [ -3.0166202, 54.4511902 ], [ -3.0165978, 54.4510828 ], [ -3.0165631, 54.4509766 ], [ -3.0165164, 54.4508719 ], [ -3.01645250000001, 54.450761 ], [ -3.01637510000001, 54.4506531 ], [ -3.0162845, 54.4505488 ], [ -3.0161812, 54.4504484 ], [ -3.0156096, 54.449898 ], [ -3.0155338, 54.4498122 ], [ -3.0154696, 54.4497233 ], [ -3.0154173, 54.449631700000012 ], [ -3.0153772, 54.4495381 ], [ -3.0153509, 54.4494487 ], [ -3.0153357, 54.4493584 ], [ -3.0153318, 54.4492678 ], [ -3.0153392, 54.4491772 ], [ -3.0153634, 54.4490911 ], [ -3.0154619, 54.44886 ], [ -3.015487, 54.4487693 ], [ -3.0155024, 54.4486778 ], [ -3.0155081, 54.448586 ], [ -3.0155039, 54.4484941 ], [ -3.0154861, 54.4483848 ], [ -3.0154544, 54.4482766 ], [ -3.015409, 54.44817 ], [ -3.0153502, 54.4480656 ], [ -3.0152782, 54.4479774 ], [ -3.0151537, 54.4478506 ], [ -3.0150798, 54.4477678 ], [ -3.0150323, 54.4476939 ], [ -3.0149978, 54.4475997 ], [ -3.0149887, 54.4474899 ], [ -3.0150086, 54.44739580000001 ], [ -3.0150359, 54.4473186 ], [ -3.0151654, 54.4469651 ], [ -3.0151894, 54.4468964 ], [ -3.0151981, 54.4468265 ], [ -3.0151916, 54.4467565 ], [ -3.0151699, 54.4466875 ], [ -3.0151333, 54.446620800000012 ], [ -3.0150824, 54.4465572 ], [ -3.0150198, 54.4464993 ], [ -3.0149453, 54.4464463 ] ] } },
{ "type": "Feature", "properties": { "id": 43273, "nach": 0.26126975833648042 }, "geometry": { "type": "LineString", "coordinates": [ [ -3.0147089, 54.44614 ], [ -3.0147778, 54.4461783 ], [ -3.0148908, 54.446237 ], [ -3.014961, 54.446293 ], [ -3.0149877, 54.4463508 ], [ -3.0149793, 54.446384 ], [ -3.0149453, 54.4464463 ] ] } },
{ "type": "Feature", "properties": { "id": 8818, "nach": 0.36548327259920554 }, "geometry": { "type": "LineString", "coordinates": [ [ -3.0157803, 54.4438476 ], [ -3.0153258, 54.4439518 ], [ -3.0152289, 54.443983 ] ] } },
{ "type": "Feature", "properties": { "id": 24963, "nach": 0.35187837892334567 }, "geometry": { "type": "LineString", "coordinates": [ [ -3.016824, 54.4439704 ], [ -3.0157803, 54.4438476 ] ] } },
{ "type": "Feature", "properties": { "id": 24964, "nach": 0.0 }, "geometry": { "type": "LineString", "coordinates": [ [ -3.016824, 54.4439704 ], [ -3.017246, 54.4438682 ], [ -3.0174179, 54.443816900000016 ], [ -3.0177309, 54.443781699999988 ], [ -3.0181416, 54.4438208 ], [ -3.018418, 54.4438998 ], [ -3.0188542, 54.4440187 ], [ -3.0196289, 54.4443032 ] ] } },
{ "type": "Feature", "properties": { "id": 24965, "nach": 0.34207422694931594 }, "geometry": { "type": "LineString", "coordinates": [ [ -3.016824, 54.4439704 ], [ -3.0172564, 54.444080200000016 ], [ -3.0175789, 54.4441236 ], [ -3.0179145, 54.4441517 ] ] } },
{ "type": "Feature", "properties": { "id": 24467, "nach": 0.33387891614094833 }, "geometry": { "type": "LineString", "coordinates": [ [ -3.0179145, 54.4441517 ], [ -3.0180667, 54.444121 ], [ -3.0181812, 54.4441343 ], [ -3.0184422, 54.444164699999988 ], [ -3.0188929, 54.444252 ], [ -3.0192898, 54.4442583 ], [ -3.0196289, 54.4443032 ] ] } },
{ "type": "Feature", "properties": { "id": 52233, "nach": 0.36878396550482334 }, "geometry": { "type": "LineString", "coordinates": [ [ -3.0380188, 54.4432067 ], [ -3.0383015, 54.4432849 ], [ -3.0385444, 54.4433106 ], [ -3.0386364, 54.4433097 ], [ -3.0388507, 54.4433631 ], [ -3.0390522, 54.443353 ], [ -3.0391885, 54.4433663 ], [ -3.03933150000001, 54.443365700000015 ], [ -3.0395247, 54.4433856 ], [ -3.0396116, 54.4433898 ] ] } },
{ "type": "Feature", "properties": { "id": 73344, "nach": 0.41467188324618059 }, "geometry": { "type": "LineString", "coordinates": [ [ -3.0371481, 54.4442118 ], [ -3.0371995, 54.4441589 ] ] } },
{ "type": "Feature", "properties": { "id": 24473, "nach": 0.0 }, "geometry": { "type": "LineString", "coordinates": [ [ -3.024681, 54.448189100000015 ], [ -3.0247119, 54.4482771 ], [ -3.0247637, 54.4483315 ], [ -3.0248474, 54.4483794 ], [ -3.0250068, 54.4484432 ], [ -3.0252644, 54.4485341 ], [ -3.0254094, 54.4485877 ], [ -3.025588, 54.4486188 ], [ -3.0258529, 54.4486725 ], [ -3.026099, 54.4487393 ], [ -3.0262007, 54.4487658 ], [ -3.0262865, 54.4488094 ], [ -3.0264436, 54.4489115 ], [ -3.0265414, 54.448958 ], [ -3.0267039, 54.449032800000012 ], [ -3.0268977, 54.4491036 ], [ -3.0271138, 54.4491482 ], [ -3.0273233, 54.4491837 ], [ -3.0274802, 54.4491812 ], [ -3.0275412, 54.449174899999988 ], [ -3.0275661, 54.4491514 ], [ -3.0275748, 54.4491176 ], [ -3.0274406, 54.4486876 ], [ -3.0274077, 54.4485491 ], [ -3.0274028, 54.4484611 ], [ -3.027446, 54.4482561 ], [ -3.0275118, 54.448016 ], [ -3.0275718, 54.447916 ], [ -3.0276578, 54.4478164 ], [ -3.0276889, 54.4477866 ], [ -3.0276695, 54.4477549 ], [ -3.0275963, 54.4477717 ], [ -3.0275551, 54.4477507 ], [ -3.0275847, 54.4477201 ], [ -3.0275864, 54.4476896 ] ] } },
{ "type": "Feature", "properties": { "id": 97017, "nach": 0.37096742029385243 }, "geometry": { "type": "LineString", "coordinates": [ [ -3.0267835, 54.4471582 ], [ -3.0268088, 54.447191500000017 ], [ -3.0268505, 54.447361 ], [ -3.0269153, 54.44746580000001 ], [ -3.027082, 54.447566 ], [ -3.027331, 54.4476429 ], [ -3.0275864, 54.4476896 ] ] } },
{ "type": "Feature", "properties": { "id": 28767, "nach": 0.37195862754161058 }, "geometry": { "type": "LineString", "coordinates": [ [ -3.0290617, 54.4484634 ], [ -3.0289219, 54.4483536 ], [ -3.028603, 54.4481145 ], [ -3.0282928, 54.4479172 ], [ -3.0281249, 54.447746 ], [ -3.0280695, 54.4477162 ], [ -3.0280071, 54.4476885 ], [ -3.0279588, 54.4476779 ], [ -3.0279084, 54.4476731 ], [ -3.0278315, 54.4476689 ], [ -3.0277646, 54.4476706 ], [ -3.027657, 54.4476892 ], [ -3.0275864, 54.4476896 ] ] } },
{ "type": "Feature", "properties": { "id": 24474, "nach": 0.28787399991673801 }, "geometry": { "type": "LineString", "coordinates": [ [ -3.024681, 54.448189100000015 ], [ -3.0246228, 54.4481246 ], [ -3.0244011, 54.4480144 ], [ -3.0242237, 54.4479086 ] ] } },
{ "type": "Feature", "properties": { "id": 97018, "nach": 0.30734567893270959 }, "geometry": { "type": "LineString", "coordinates": [ [ -3.0267835, 54.4471582 ], [ -3.0266578, 54.4472131 ], [ -3.0265952, 54.4472701 ], [ -3.0264824, 54.4474021 ], [ -3.0263759, 54.447518299999984 ], [ -3.0262738, 54.4475785 ], [ -3.0260846, 54.4476716 ], [ -3.0259734, 54.4477268 ], [ -3.0258712, 54.447857 ], [ -3.0257028, 54.4481408 ], [ -3.0256164, 54.448249200000014 ], [ -3.0255334, 54.4483254 ], [ -3.025417, 54.4483812 ], [ -3.0252572, 54.4484016 ], [ -3.0251577, 54.4483869 ], [ -3.0250108, 54.4483241 ], [ -3.0247465, 54.448207 ], [ -3.024681, 54.448189100000015 ] ] } },
{ "type": "Feature", "properties": { "id": 97016, "nach": 0.37087997550776514 }, "geometry": { "type": "LineString", "coordinates": [ [ -3.0267835, 54.4471582 ], [ -3.0267372, 54.4470975 ] ] } },
{ "type": "Feature", "properties": { "id": 78327, "nach": 0.37378769268116863 }, "geometry": { "type": "LineString", "coordinates": [ [ -3.0296499, 54.4490848 ], [ -3.0296257, 54.4490417 ], [ -3.0294747, 54.448870600000014 ], [ -3.0292903, 54.4486693 ], [ -3.0290617, 54.4484634 ] ] } },
{ "type": "Feature", "properties": { "id": 24471, "nach": 0.18762601862578085 }, "geometry": { "type": "LineString", "coordinates": [ [ -3.0242237, 54.4479086 ], [ -3.0242228, 54.447845 ], [ -3.0241098, 54.4476512 ], [ -3.02403920000001, 54.4475583 ], [ -3.0239304, 54.4474851 ], [ -3.023752, 54.4473978 ], [ -3.0236455, 54.4473974 ], [ -3.0235058, 54.4473045 ], [ -3.0231848, 54.4470851 ], [ -3.0230331, 54.4469995 ], [ -3.0229356, 54.4469493 ], [ -3.0228183, 54.446889 ], [ -3.0224569, 54.446728299999982 ], [ -3.0222478, 54.4466295 ], [ -3.0218895, 54.446523699999986 ], [ -3.0216115, 54.4464599 ], [ -3.0214115, 54.446427399999983 ], [ -3.0212702, 54.4464253 ], [ -3.0212013, 54.4464031 ], [ -3.0209837, 54.4463292 ], [ -3.0208127, 54.4462384 ], [ -3.02071190000001, 54.4461657 ], [ -3.0205921, 54.4459677 ], [ -3.0205032, 54.4458108 ], [ -3.020443, 54.4457066 ], [ -3.0203783, 54.4456401 ], [ -3.0202092, 54.4455423 ], [ -3.0199206, 54.4453618 ], [ -3.0197326, 54.4452174 ], [ -3.0196044, 54.4450846 ], [ -3.0195596, 54.4450103 ], [ -3.0195113, 54.4448811 ], [ -3.019466, 54.44473510000001 ], [ -3.0193489, 54.4446417 ], [ -3.0190415, 54.4445181 ], [ -3.0188007, 54.4444343 ], [ -3.018498, 54.4442793 ], [ -3.0181146, 54.4441902 ], [ -3.0179145, 54.4441517 ] ] } },
{ "type": "Feature", "properties": { "id": 97019, "nach": 0.24906096614304077 }, "geometry": { "type": "LineString", "coordinates": [ [ -3.0238628, 54.4475076 ], [ -3.0239326, 54.44755510000001 ], [ -3.0239581, 54.4476346 ], [ -3.0240207, 54.4477633 ], [ -3.0241427, 54.447854199999988 ], [ -3.0242237, 54.4479086 ] ] } },
{ "type": "Feature", "properties": { "id": 80907, "nach": 0.39829729033799866 }, "geometry": { "type": "LineString", "coordinates": [ [ -3.0226888, 54.4421527 ], [ -3.0226027, 54.442180399999977 ], [ -3.0225255, 54.4422306 ], [ -3.0224443, 54.442272200000012 ], [ -3.0224379, 54.4423882 ], [ -3.0223849, 54.4424459 ], [ -3.0223173, 54.4424689 ], [ -3.0222334, 54.4424709 ], [ -3.0222116, 54.4424733 ], [ -3.0221743, 54.4425094 ], [ -3.0221212, 54.4425239 ], [ -3.0220672, 54.442508599999989 ], [ -3.0220203, 54.4425431 ], [ -3.0219586, 54.4425356 ], [ -3.0218955, 54.442534499999987 ], [ -3.021706, 54.4424995 ], [ -3.021586, 54.442494499999988 ], [ -3.021395, 54.442497 ], [ -3.0210319, 54.4425228 ], [ -3.0208273, 54.4425126 ], [ -3.0206971, 54.4425242 ], [ -3.0204473, 54.4424626 ], [ -3.0203733, 54.44244530000001 ], [ -3.0199926, 54.4423911 ], [ -3.0198493, 54.4423628 ], [ -3.0196711, 54.442324 ], [ -3.0195177, 54.442332299999983 ], [ -3.019433, 54.4423504 ], [ -3.0194296, 54.4423528 ] ] } },
{ "type": "Feature", "properties": { "id": 80908, "nach": 0.38067298648091796 }, "geometry": { "type": "LineString", "coordinates": [ [ -3.0226888, 54.4421527 ], [ -3.0228524, 54.4420999 ], [ -3.0231442, 54.4420287 ], [ -3.0232945, 54.4419103 ], [ -3.0232967, 54.44188 ], [ -3.0233624, 54.4418369 ], [ -3.0233821, 54.44180630000001 ], [ -3.0234029, 54.4417803 ], [ -3.0234236, 54.4417596 ], [ -3.023527, 54.4417634 ], [ -3.0236267, 54.4417303 ], [ -3.0237308, 54.441693 ], [ -3.0238008, 54.4416817 ] ] } },
{ "type": "Feature", "properties": { "id": 80911, "nach": 0.33861459265463267 }, "geometry": { "type": "LineString", "coordinates": [ [ -3.023032100000011, 54.44155150000001 ], [ -3.0229355, 54.441616 ], [ -3.022845, 54.4417069 ], [ -3.022728, 54.441836 ], [ -3.0226483, 54.4418699 ], [ -3.0226028, 54.4419204 ], [ -3.0225643, 54.4419792 ], [ -3.0225757, 54.4420256 ], [ -3.0226199, 54.4420487 ], [ -3.022654, 54.4420761 ], [ -3.0226796, 54.4421042 ], [ -3.0226888, 54.4421527 ] ] } },
{ "type": "Feature", "properties": { "id": 84592, "nach": 0.37415203255852264 }, "geometry": { "type": "LineString", "coordinates": [ [ -3.0296935, 54.4493918 ], [ -3.0297863, 54.449231 ], [ -3.0297539, 54.4491407 ], [ -3.0296561, 54.4491002 ], [ -3.0296499, 54.4490848 ] ] } },
{ "type": "Feature", "properties": { "id": 130488, "nach": 0.2805692948531755 }, "geometry": { "type": "LineString", "coordinates": [ [ -3.0299198, 54.4490209 ], [ -3.0297126, 54.4490716 ], [ -3.0296499, 54.4490848 ] ] } },
{ "type": "Feature", "properties": { "id": 112702, "nach": 0.37929686021506975 }, "geometry": { "type": "LineString", "coordinates": [ [ -3.0312492, 54.4517161 ], [ -3.0306546, 54.4511522 ], [ -3.0306055, 54.4511019 ], [ -3.030537, 54.4508655 ], [ -3.0305299, 54.4505875 ] ] } },
{ "type": "Feature", "properties": { "id": 120211, "nach": 0.39354373758399536 }, "geometry": { "type": "LineString", "coordinates": [ [ -3.0314556, 54.451977 ], [ -3.0312492, 54.4517161 ] ] } },
{ "type": "Feature", "properties": { "id": 80920, "nach": 0.41262590639637653 }, "geometry": { "type": "LineString", "coordinates": [ [ -3.0242329, 54.4414973 ], [ -3.0242976, 54.4414267 ] ] } },
{ "type": "Feature", "properties": { "id": 31545, "nach": 0.40002942917648476 }, "geometry": { "type": "LineString", "coordinates": [ [ -3.0251111, 54.44124990000001 ], [ -3.0249256, 54.4412763 ], [ -3.0246194, 54.4413691 ], [ -3.0245007, 54.4413816 ], [ -3.0244229, 54.4413861 ], [ -3.0243969, 54.4414028 ], [ -3.0242976, 54.4414267 ] ] } },
{ "type": "Feature", "properties": { "id": 80921, "nach": 0.37942563976277149 }, "geometry": { "type": "LineString", "coordinates": [ [ -3.0242329, 54.4414973 ], [ -3.0242038, 54.441529 ], [ -3.024038, 54.4416005 ], [ -3.0238785, 54.4416704 ], [ -3.0238008, 54.4416817 ] ] } },
{ "type": "Feature", "properties": { "id": 80922, "nach": 0.33229200296501371 }, "geometry": { "type": "LineString", "coordinates": [ [ -3.0242329, 54.4414973 ], [ -3.0240926, 54.4415168 ], [ -3.0237574, 54.4415751 ] ] } },
{ "type": "Feature", "properties": { "id": 80915, "nach": 0.34878872477650036 }, "geometry": { "type": "LineString", "coordinates": [ [ -3.0236894, 54.441174 ], [ -3.0236281, 54.4412109 ], [ -3.0235356, 54.4412957 ], [ -3.0234164, 54.4413758 ], [ -3.023289, 54.4414356 ], [ -3.02318, 54.4415001 ], [ -3.023032100000011, 54.44155150000001 ] ] } },
{ "type": "Feature", "properties": { "id": 80917, "nach": 0.33760109783340714 }, "geometry": { "type": "LineString", "coordinates": [ [ -3.0237574, 54.4415751 ], [ -3.0237266, 54.4414994 ], [ -3.0236818, 54.4412022 ], [ -3.0236894, 54.441174 ] ] } },
{ "type": "Feature", "properties": { "id": 59727, "nach": 0.36589636035481421 }, "geometry": { "type": "LineString", "coordinates": [ [ -3.0255651, 54.44618650000001 ], [ -3.0257366, 54.446227 ], [ -3.0258915, 54.4462841 ], [ -3.0260542, 54.44638 ], [ -3.0263816, 54.4467163 ], [ -3.0266713, 54.446972 ], [ -3.0267372, 54.4470975 ] ] } },
{ "type": "Feature", "properties": { "id": 41408, "nach": 0.25502142979577558 }, "geometry": { "type": "LineString", "coordinates": [ [ -3.0255912, 54.4466285 ], [ -3.0260333, 54.4466954 ], [ -3.0261039, 54.4467252 ], [ -3.0260639, 54.4468733 ], [ -3.0260422, 54.4469351 ], [ -3.0260912, 54.4469968 ], [ -3.0262807, 54.4470867 ], [ -3.0265054, 54.447098299999986 ], [ -3.0267372, 54.4470975 ] ] } },
{ "type": "Feature", "properties": { "id": 59730, "nach": 0.36723643310318266 }, "geometry": { "type": "LineString", "coordinates": [ [ -3.0255025, 54.4461752 ], [ -3.0255651, 54.44618650000001 ] ] } },
{ "type": "Feature", "properties": { "id": 59729, "nach": 0.26897648693034937 }, "geometry": { "type": "LineString", "coordinates": [ [ -3.0260608, 54.44623330000001 ], [ -3.02564780000001, 54.446145 ], [ -3.0256019, 54.4461529 ], [ -3.0255651, 54.44618650000001 ] ] } },
{ "type": "Feature", "properties": { "id": 84591, "nach": 0.37367144726843166 }, "geometry": { "type": "LineString", "coordinates": [ [ -3.0296935, 54.4493918 ], [ -3.029695, 54.4494681 ], [ -3.0298245, 54.449952 ], [ -3.0299507, 54.4501018 ], [ -3.0301748, 54.4502756 ], [ -3.03036730000001, 54.4503769 ], [ -3.030456, 54.4504637 ], [ -3.0305299, 54.4505875 ] ] } },
{ "type": "Feature", "properties": { "id": 120219, "nach": 0.29354576176680147 }, "geometry": { "type": "LineString", "coordinates": [ [ -3.0311127, 54.4505091 ], [ -3.0308336, 54.4505339 ], [ -3.0306232, 54.4505706 ], [ -3.0305299, 54.4505875 ] ] } },
{ "type": "Feature", "properties": { "id": 132959, "nach": 0.27520867675949723 }, "geometry": { "type": "LineString", "coordinates": [ [ -3.0289843, 54.4489756 ], [ -3.0291368, 54.4491395 ], [ -3.0292939, 54.4492747 ], [ -3.0294649, 54.4493527 ], [ -3.0295697, 54.44938040000001 ], [ -3.0296935, 54.4493918 ] ] } },
{ "type": "Feature", "properties": { "id": 59733, "nach": 0.26904020238480519 }, "geometry": { "type": "LineString", "coordinates": [ [ -3.0251175, 54.4465746 ], [ -3.0251499, 54.4463931 ], [ -3.0251584, 54.446332 ], [ -3.0251966, 54.446299100000012 ], [ -3.0252385, 54.4462829 ], [ -3.0253984, 54.4462403 ], [ -3.0254388, 54.4462275 ], [ -3.0255025, 54.4461752 ] ] } },
{ "type": "Feature", "properties": { "id": 80950, "nach": 0.27352074264318504 }, "geometry": { "type": "LineString", "coordinates": [ [ -3.0243968, 54.4461839 ], [ -3.0242957, 54.4461197 ], [ -3.0242795, 54.44606 ], [ -3.0242952, 54.4460194 ], [ -3.024325, 54.4459976 ], [ -3.0243724, 54.4459991 ], [ -3.024482, 54.4460236 ], [ -3.0246388, 54.4460814 ] ] } },
{ "type": "Feature", "properties": { "id": 97124, "nach": 0.27635190844897711 }, "geometry": { "type": "LineString", "coordinates": [ [ -3.0246894, 54.4461884 ], [ -3.02462050000001, 54.4461463 ], [ -3.024631, 54.4461144 ], [ -3.0246388, 54.4460814 ] ] } },
{ "type": "Feature", "properties": { "id": 80916, "nach": 0.30101703474828662 }, "geometry": { "type": "LineString", "coordinates": [ [ -3.0237574, 54.4415751 ], [ -3.0238008, 54.4416817 ] ] } },
{ "type": "Feature", "properties": { "id": 80919, "nach": 0.26573814606664653 }, "geometry": { "type": "LineString", "coordinates": [ [ -3.0237574, 54.4415751 ], [ -3.0235274, 54.4415742 ], [ -3.023252, 54.44155030000001 ], [ -3.023032100000011, 54.44155150000001 ] ] } },
{ "type": "Feature", "properties": { "id": 81010, "nach": 0.33318668532559403 }, "geometry": { "type": "LineString", "coordinates": [ [ -3.0343779, 54.4425298 ], [ -3.0344298, 54.4425347 ], [ -3.0347145, 54.4425817 ], [ -3.0350168, 54.4426655 ], [ -3.0351603, 54.4426874 ] ] } },
{ "type": "Feature", "properties": { "id": 81009, "nach": 0.29936168220207693 }, "geometry": { "type": "LineString", "coordinates": [ [ -3.0343779, 54.4425298 ], [ -3.0341697, 54.4425101 ], [ -3.0340045, 54.4425265 ], [ -3.0338768, 54.4426479 ], [ -3.03367060000001, 54.442688 ] ] } },
{ "type": "Feature", "properties": { "id": 120214, "nach": 0.3612442658206807 }, "geometry": { "type": "LineString", "coordinates": [ [ -3.0315944, 54.4519529 ], [ -3.0314556, 54.451977 ] ] } },
{ "type": "Feature", "properties": { "id": 128863, "nach": 0.41022507751848603 }, "geometry": { "type": "LineString", "coordinates": [ [ -3.0315133, 54.452290299999987 ], [ -3.0315148, 54.4521285 ], [ -3.0314556, 54.451977 ] ] } },
{ "type": "Feature", "properties": { "id": 120879, "nach": 0.44659071308556902 }, "geometry": { "type": "LineString", "coordinates": [ [ -3.0308566, 54.4546713 ], [ -3.0310339, 54.4545656 ] ] } },
{ "type": "Feature", "properties": { "id": 120874, "nach": 0.44559542118360512 }, "geometry": { "type": "LineString", "coordinates": [ [ -3.0310339, 54.4545656 ], [ -3.0312028, 54.4544667 ], [ -3.0313573, 54.4543432 ], [ -3.0313789, 54.4542504 ], [ -3.031377, 54.4542038 ] ] } },
{ "type": "Feature", "properties": { "id": 128862, "nach": 0.41721240554467598 }, "geometry": { "type": "LineString", "coordinates": [ [ -3.0315133, 54.452290299999987 ], [ -3.0315127, 54.4523547 ], [ -3.0314931, 54.4528941 ], [ -3.03152, 54.4530179 ], [ -3.0316382, 54.4531186 ], [ -3.0316133, 54.4532454 ], [ -3.031552, 54.453330499999986 ], [ -3.0313938, 54.453595 ], [ -3.03135110000001, 54.4537486 ], [ -3.0313747, 54.4539632 ], [ -3.0313514, 54.4541072 ], [ -3.031377, 54.4542038 ] ] } },
{ "type": "Feature", "properties": { "id": 120203, "nach": 0.41187360392695516 }, "geometry": { "type": "LineString", "coordinates": [ [ -3.0321413, 54.4531372 ], [ -3.0319663, 54.4532124 ], [ -3.0318141, 54.4533996 ], [ -3.0317893, 54.453580700000018 ], [ -3.0317964, 54.4537885 ], [ -3.0317114, 54.453986 ], [ -3.0315274, 54.4541403 ], [ -3.031377, 54.4542038 ] ] } },
{ "type": "Feature", "properties": { "id": 120877, "nach": 0.29001058932677443 }, "geometry": { "type": "LineString", "coordinates": [ [ -3.0310597, 54.4546157 ], [ -3.0310705, 54.4545939 ], [ -3.031057, 54.4545775 ], [ -3.0310339, 54.4545656 ] ] } },
{ "type": "Feature", "properties": { "id": 128865, "nach": 0.30035569035691589 }, "geometry": { "type": "LineString", "coordinates": [ [ -3.0318746, 54.45237030000002 ], [ -3.0317668, 54.452369 ], [ -3.03168650000001, 54.4523477 ], [ -3.0315133, 54.452290299999987 ] ] } },
{ "type": "Feature", "properties": { "id": 120207, "nach": 0.39384959996915347 }, "geometry": { "type": "LineString", "coordinates": [ [ -3.0325824, 54.4527953 ], [ -3.03255, 54.4528609 ], [ -3.0324778, 54.4529496 ], [ -3.0323606, 54.4530245 ], [ -3.032291, 54.453065299999984 ], [ -3.0321413, 54.4531372 ] ] } },
{ "type": "Feature", "properties": { "id": 120210, "nach": 0.29620203363716863 }, "geometry": { "type": "LineString", "coordinates": [ [ -3.0321945, 54.4528369 ], [ -3.0321715, 54.4530169 ], [ -3.0321413, 54.4531372 ] ] } },
{ "type": "Feature", "properties": { "id": 136444, "nach": 0.29299061881334093 }, "geometry": { "type": "LineString", "coordinates": [ [ -3.0324838, 54.4527212 ], [ -3.0325824, 54.4527953 ] ] } },
{ "type": "Feature", "properties": { "id": 136442, "nach": 0.35274125843262194 }, "geometry": { "type": "LineString", "coordinates": [ [ -3.0330808, 54.4526835 ], [ -3.0328694, 54.4528032 ], [ -3.0327864, 54.4528296 ], [ -3.0326783, 54.4528002 ], [ -3.0325824, 54.4527953 ] ] } },
{ "type": "Feature", "properties": { "id": 136445, "nach": 0.28633282647693009 }, "geometry": { "type": "LineString", "coordinates": [ [ -3.0320852, 54.4524397 ], [ -3.0321238, 54.452405400000011 ], [ -3.0322473, 54.452369899999987 ], [ -3.0323314, 54.4523668 ], [ -3.0324394, 54.4523927 ], [ -3.0324876, 54.4524117 ], [ -3.0325219, 54.4524526 ], [ -3.0325802, 54.4526484 ], [ -3.0325947, 54.452714800000017 ], [ -3.0325824, 54.4527953 ] ] } },
{ "type": "Feature", "properties": { "id": 136441, "nach": 0.28133018120542064 }, "geometry": { "type": "LineString", "coordinates": [ [ -3.0330808, 54.4526835 ], [ -3.0331015, 54.4526384 ], [ -3.0330577, 54.452426 ], [ -3.0330386, 54.4521589 ] ] } },
{ "type": "Feature", "properties": { "id": 136443, "nach": 0.28962113478938334 }, "geometry": { "type": "LineString", "coordinates": [ [ -3.0330808, 54.4526835 ], [ -3.0331341, 54.4526952 ], [ -3.0331549, 54.4527087 ], [ -3.033168, 54.452741 ], [ -3.0331499, 54.4527795 ] ] } },
{ "type": "Feature", "properties": { "id": 120217, "nach": 0.29443624232966908 }, "geometry": { "type": "LineString", "coordinates": [ [ -3.03232420000001, 54.4519421 ], [ -3.0323253, 54.4518506 ], [ -3.0323053, 54.4517971 ], [ -3.0322249, 54.4517602 ], [ -3.0320659, 54.4517418 ], [ -3.0319386, 54.451756500000016 ], [ -3.0318508, 54.4517926 ], [ -3.0317154, 54.4518918 ], [ -3.0316336, 54.451921899999988 ], [ -3.0315944, 54.4519529 ] ] } },
{ "type": "Feature", "properties": { "id": 120218, "nach": 0.29443624232966908 }, "geometry": { "type": "LineString", "coordinates": [ [ -3.0323146, 54.4520439 ], [ -3.0323053, 54.4521607 ], [ -3.0322679, 54.4521905 ], [ -3.0321855, 54.4522057 ], [ -3.0321006, 54.4521817 ], [ -3.0320297, 54.4521417 ], [ -3.0319083, 54.4520168 ], [ -3.0318389, 54.4519758 ], [ -3.0317374, 54.4519565 ], [ -3.0315944, 54.4519529 ] ] } }
]
}
