{
"type": "FeatureCollection",
"name": "28b82e7c42f0_visibility",
"crs": { "type": "name", "properties": { "name": "urn:ogc:def:crs:OGC:1.3:CRS84" } },
"features": [
{ "type": "Feature", "properties": { "visible_points": 0, "total_points": 71, "visibility_pct": 0.0 }, "geometry": { "type": "Point", "coordinates": [ -2.786413946496096, 54.051099099062704 ] } },
{ "type": "Feature", "properties": { "visible_points": 0, "total_points": 65, "visibility_pct": 0.0 }, "geometry": { "type": "Point", "coordinates": [ -2.786202323986681, 54.051100483901969 ] } },
{ "type": "Feature", "properties": { "visible_points": 0, "total_points": 58, "visibility_pct": 0.0 }, "geometry": { "type": "Point", "coordinates": [ -2.78599070145916, 54.051101868368931 ] } },
{ "type": "Feature", "properties": { "visible_points": 0, "total_points": 50, "visibility_pct": 0.0 }, "geometry": { "type": "Point", "coordinates": [ -2.78577907891354, 54.051103252463619 ] } },
{ "type": "Feature", "properties": { "visible_points": 1, "total_points": 78, "visibility_pct": 1.2820512820512819 }, "geometry": { "type": "Point", "coordinates": [ -2.78736829094694, 54.051200703051649 ] } },
{ "type": "Feature", "properties": { "visible_points": 0, "total_points": 82, "visibility_pct": 0.0 }, "geometry": { "type": "Point", "coordinates": [ -2.787156667957785, 54.051202089574439 ] } },
{ "type": "Feature", "properties": { "visible_points": 0, "total_points": 85, "visibility_pct": 0.0 }, "geometry": { "type": "Point", "coordinates": [ -2.786945044950513, 54.051203475724947 ] } },
{ "type": "Feature", "properties": { "visible_points": 8, "total_points": 88, "visibility_pct": 9.0909090909090917 }, "geometry": { "type": "Point", "coordinates": [ -2.786733421925117, 54.051204861503173 ] } },
{ "type": "Feature", "properties": { "visible_points": 0, "total_points": 84, "visibility_pct": 0.0 }, "geometry": { "type": "Point", "coordinates": [ -2.78652179888161, 54.051206246909103 ] } },
{ "type": "Feature", "properties": { "visible_points": 14, "total_points": 77, "visibility_pct": 18.181818181818183 }, "geometry": { "type": "Point", "coordinates": [ -2.786310175819988, 54.051207631942781 ] } },
{ "type": "Feature", "properties": { "visible_points": 17, "total_points": 69, "visibility_pct": 24.637681159420293 }, "geometry": { "type": "Point", "coordinates": [ -2.78609855274026, 54.051209016604162 ] } },
{ "type": "Feature", "properties": { "visible_points": 21, "total_points": 60, "visibility_pct": 35.0 }, "geometry": { "type": "Point", "coordinates": [ -2.785886929642434, 54.051210400893275 ] } },
{ "type": "Feature", "properties": { "visible_points": 0, "total_points": 81, "visibility_pct": 0.0 }, "geometry": { "type": "Point", "coordinates": [ -2.78789939313982, 54.051305075465748 ] } },
{ "type": "Feature", "properties": { "visible_points": 0, "total_points": 84, "visibility_pct": 0.0 }, "geometry": { "type": "Point", "coordinates": [ -2.787687769634743, 54.051306462927506 ] } },
{ "type": "Feature", "properties": { "visible_points": 0, "total_points": 87, "visibility_pct": 0.0 }, "geometry": { "type": "Point", "coordinates": [ -2.787476146111539, 54.051307850016983 ] } },
{ "type": "Feature", "properties": { "visible_points": 3, "total_points": 90, "visibility_pct": 3.3333333333333335 }, "geometry": { "type": "Point", "coordinates": [ -2.787264522570188, 54.051309236734191 ] } },
{ "type": "Feature", "properties": { "visible_points": 2, "total_points": 94, "visibility_pct": 2.1276595744680851 }, "geometry": { "type": "Point", "coordinates": [ -2.787052899010719, 54.051310623079118 ] } },
{ "type": "Feature", "properties": { "visible_points": 11, "total_points": 97, "visibility_pct": 11.340206185567011 }, "geometry": { "type": "Point", "coordinates": [ -2.786841275433124, 54.051312009051763 ] } },
{ "type": "Feature", "properties": { "visible_points": 7, "total_points": 97, "visibility_pct": 7.216494845360824 }, "geometry": { "type": "Point", "coordinates": [ -2.786629651837409, 54.051313394652134 ] } },
{ "type": "Feature", "properties": { "visible_points": 9, "total_points": 89, "visibility_pct": 10.112359550561797 }, "geometry": { "type": "Point", "coordinates": [ -2.786418028223583, 54.051314779880222 ] } },
{ "type": "Feature", "properties": { "visible_points": 15, "total_points": 80, "visibility_pct": 18.75 }, "geometry": { "type": "Point", "coordinates": [ -2.786206404591648, 54.051316164736015 ] } },
{ "type": "Feature", "properties": { "visible_points": 21, "total_points": 70, "visibility_pct": 30.0 }, "geometry": { "type": "Point", "coordinates": [ -2.785994780941612, 54.051317549219533 ] } },
{ "type": "Feature", "properties": { "visible_points": 15, "total_points": 60, "visibility_pct": 25.0 }, "geometry": { "type": "Point", "coordinates": [ -2.785783157273477, 54.051318933330784 ] } },
{ "type": "Feature", "properties": { "visible_points": 0, "total_points": 68, "visibility_pct": 0.0 }, "geometry": { "type": "Point", "coordinates": [ -2.789700241783603, 54.051401107287205 ] } },
{ "type": "Feature", "properties": { "visible_points": 0, "total_points": 73, "visibility_pct": 0.0 }, "geometry": { "type": "Point", "coordinates": [ -2.789488617871636, 54.051402497921636 ] } },
{ "type": "Feature", "properties": { "visible_points": 0, "total_points": 77, "visibility_pct": 0.0 }, "geometry": { "type": "Point", "coordinates": [ -2.789276993941491, 54.051403888183785 ] } },
{ "type": "Feature", "properties": { "visible_points": 0, "total_points": 79, "visibility_pct": 0.0 }, "geometry": { "type": "Point", "coordinates": [ -2.789065369993168, 54.051405278073666 ] } },
{ "type": "Feature", "properties": { "visible_points": 5, "total_points": 81, "visibility_pct": 6.1728395061728394 }, "geometry": { "type": "Point", "coordinates": [ -2.788853746026676, 54.051406667591237 ] } },
{ "type": "Feature", "properties": { "visible_points": 0, "total_points": 85, "visibility_pct": 0.0 }, "geometry": { "type": "Point", "coordinates": [ -2.788430498039202, 54.051409445509599 ] } },
{ "type": "Feature", "properties": { "visible_points": 2, "total_points": 87, "visibility_pct": 2.2988505747126435 }, "geometry": { "type": "Point", "coordinates": [ -2.788218874018233, 54.051410833910346 ] } },
{ "type": "Feature", "properties": { "visible_points": 0, "total_points": 90, "visibility_pct": 0.0 }, "geometry": { "type": "Point", "coordinates": [ -2.788007249979113, 54.051412221938818 ] } },
{ "type": "Feature", "properties": { "visible_points": 1, "total_points": 93, "visibility_pct": 1.0752688172043012 }, "geometry": { "type": "Point", "coordinates": [ -2.787795625921845, 54.051413609594995 ] } },
{ "type": "Feature", "properties": { "visible_points": 0, "total_points": 96, "visibility_pct": 0.0 }, "geometry": { "type": "Point", "coordinates": [ -2.78758400184644, 54.051414996878911 ] } },
{ "type": "Feature", "properties": { "visible_points": 0, "total_points": 99, "visibility_pct": 0.0 }, "geometry": { "type": "Point", "coordinates": [ -2.787372377752898, 54.051416383790546 ] } },
{ "type": "Feature", "properties": { "visible_points": 7, "total_points": 102, "visibility_pct": 6.8627450980392162 }, "geometry": { "type": "Point", "coordinates": [ -2.787160753641226, 54.051417770329891 ] } },
{ "type": "Feature", "properties": { "visible_points": 9, "total_points": 105, "visibility_pct": 8.5714285714285712 }, "geometry": { "type": "Point", "coordinates": [ -2.786949129511428, 54.051419156496969 ] } },
{ "type": "Feature", "properties": { "visible_points": 13, "total_points": 107, "visibility_pct": 12.149532710280374 }, "geometry": { "type": "Point", "coordinates": [ -2.786737505363511, 54.051420542291751 ] } },
{ "type": "Feature", "properties": { "visible_points": 14, "total_points": 101, "visibility_pct": 13.861386138613863 }, "geometry": { "type": "Point", "coordinates": [ -2.786525881197477, 54.051421927714259 ] } },
{ "type": "Feature", "properties": { "visible_points": 12, "total_points": 91, "visibility_pct": 13.186813186813188 }, "geometry": { "type": "Point", "coordinates": [ -2.786314257013332, 54.051423312764484 ] } },
{ "type": "Feature", "properties": { "visible_points": 16, "total_points": 80, "visibility_pct": 20.0 }, "geometry": { "type": "Point", "coordinates": [ -2.786102632811083, 54.051424697442421 ] } },
{ "type": "Feature", "properties": { "visible_points": 28, "total_points": 69, "visibility_pct": 40.579710144927539 }, "geometry": { "type": "Point", "coordinates": [ -2.78589100859073, 54.051426081748083 ] } },
{ "type": "Feature", "properties": { "visible_points": 0, "total_points": 61, "visibility_pct": 0.0 }, "geometry": { "type": "Point", "coordinates": [ -2.790019728056626, 54.051506860900233 ] } },
{ "type": "Feature", "properties": { "visible_points": 0, "total_points": 70, "visibility_pct": 0.0 }, "geometry": { "type": "Point", "coordinates": [ -2.78980810361067, 54.051508252101378 ] } },
{ "type": "Feature", "properties": { "visible_points": 0, "total_points": 79, "visibility_pct": 0.0 }, "geometry": { "type": "Point", "coordinates": [ -2.789596479146528, 54.051509642930263 ] } },
{ "type": "Feature", "properties": { "visible_points": 2, "total_points": 85, "visibility_pct": 2.3529411764705883 }, "geometry": { "type": "Point", "coordinates": [ -2.789384854664207, 54.051511033386866 ] } },
{ "type": "Feature", "properties": { "visible_points": 0, "total_points": 89, "visibility_pct": 0.0 }, "geometry": { "type": "Point", "coordinates": [ -2.789173230163707, 54.051512423471159 ] } },
{ "type": "Feature", "properties": { "visible_points": 0, "total_points": 90, "visibility_pct": 0.0 }, "geometry": { "type": "Point", "coordinates": [ -2.788961605645034, 54.051513813183192 ] } },
{ "type": "Feature", "properties": { "visible_points": 0, "total_points": 92, "visibility_pct": 0.0 }, "geometry": { "type": "Point", "coordinates": [ -2.788749981108193, 54.051515202522936 ] } },
{ "type": "Feature", "properties": { "visible_points": 0, "total_points": 94, "visibility_pct": 0.0 }, "geometry": { "type": "Point", "coordinates": [ -2.78853835655319, 54.051516591490405 ] } },
{ "type": "Feature", "properties": { "visible_points": 5, "total_points": 96, "visibility_pct": 5.2083333333333339 }, "geometry": { "type": "Point", "coordinates": [ -2.78832673198003, 54.051517980085585 ] } },
{ "type": "Feature", "properties": { "visible_points": 7, "total_points": 98, "visibility_pct": 7.1428571428571423 }, "geometry": { "type": "Point", "coordinates": [ -2.788115107388718, 54.051519368308497 ] } },
{ "type": "Feature", "properties": { "visible_points": 4, "total_points": 101, "visibility_pct": 3.9603960396039604 }, "geometry": { "type": "Point", "coordinates": [ -2.787903482779257, 54.051520756159114 ] } },
{ "type": "Feature", "properties": { "visible_points": 0, "total_points": 104, "visibility_pct": 0.0 }, "geometry": { "type": "Point", "coordinates": [ -2.787691858151655, 54.051522143637442 ] } },
{ "type": "Feature", "properties": { "visible_points": 6, "total_points": 107, "visibility_pct": 5.6074766355140184 }, "geometry": { "type": "Point", "coordinates": [ -2.787480233505915, 54.051523530743495 ] } },
{ "type": "Feature", "properties": { "visible_points": 13, "total_points": 110, "visibility_pct": 11.818181818181818 }, "geometry": { "type": "Point", "coordinates": [ -2.78726860884204, 54.051524917477273 ] } },
{ "type": "Feature", "properties": { "visible_points": 12, "total_points": 112, "visibility_pct": 10.714285714285714 }, "geometry": { "type": "Point", "coordinates": [ -2.787056984160039, 54.051526303838763 ] } },
{ "type": "Feature", "properties": { "visible_points": 15, "total_points": 113, "visibility_pct": 13.274336283185843 }, "geometry": { "type": "Point", "coordinates": [ -2.786845359459912, 54.051527689827971 ] } },
{ "type": "Feature", "properties": { "visible_points": 20, "total_points": 109, "visibility_pct": 18.348623853211009 }, "geometry": { "type": "Point", "coordinates": [ -2.786633734741667, 54.05152907544489 ] } },
{ "type": "Feature", "properties": { "visible_points": 21, "total_points": 101, "visibility_pct": 20.792079207920793 }, "geometry": { "type": "Point", "coordinates": [ -2.78642211000531, 54.051530460689534 ] } },
{ "type": "Feature", "properties": { "visible_points": 23, "total_points": 90, "visibility_pct": 25.555555555555554 }, "geometry": { "type": "Point", "coordinates": [ -2.786210485250849, 54.051531845561911 ] } },
{ "type": "Feature", "properties": { "visible_points": 36, "total_points": 78, "visibility_pct": 46.153846153846153 }, "geometry": { "type": "Point", "coordinates": [ -2.785998860478278, 54.051533230061978 ] } },
{ "type": "Feature", "properties": { "visible_points": 0, "total_points": 62, "visibility_pct": 0.0 }, "geometry": { "type": "Point", "coordinates": [ -2.790127591006205, 54.05161400541656 ] } },
{ "type": "Feature", "properties": { "visible_points": 0, "total_points": 72, "visibility_pct": 0.0 }, "geometry": { "type": "Point", "coordinates": [ -2.789915966008076, 54.051615396812146 ] } },
{ "type": "Feature", "properties": { "visible_points": 2, "total_points": 82, "visibility_pct": 2.4390243902439024 }, "geometry": { "type": "Point", "coordinates": [ -2.78970434099176, 54.051616787835464 ] } },
{ "type": "Feature", "properties": { "visible_points": 5, "total_points": 91, "visibility_pct": 5.4945054945054945 }, "geometry": { "type": "Point", "coordinates": [ -2.789492715957258, 54.051618178486493 ] } },
{ "type": "Feature", "properties": { "visible_points": 3, "total_points": 96, "visibility_pct": 3.125 }, "geometry": { "type": "Point", "coordinates": [ -2.789281090904576, 54.051619568765247 ] } },
{ "type": "Feature", "properties": { "visible_points": 8, "total_points": 99, "visibility_pct": 8.0808080808080813 }, "geometry": { "type": "Point", "coordinates": [ -2.789069465833723, 54.051620958671727 ] } },
{ "type": "Feature", "properties": { "visible_points": 7, "total_points": 100, "visibility_pct": 7.0000000000000009 }, "geometry": { "type": "Point", "coordinates": [ -2.788857840744694, 54.051622348205903 ] } },
{ "type": "Feature", "properties": { "visible_points": 6, "total_points": 102, "visibility_pct": 5.8823529411764701 }, "geometry": { "type": "Point", "coordinates": [ -2.788646215637503, 54.051623737367805 ] } },
{ "type": "Feature", "properties": { "visible_points": 7, "total_points": 104, "visibility_pct": 6.7307692307692308 }, "geometry": { "type": "Point", "coordinates": [ -2.788434590512157, 54.051625126157425 ] } },
{ "type": "Feature", "properties": { "visible_points": 9, "total_points": 106, "visibility_pct": 8.4905660377358494 }, "geometry": { "type": "Point", "coordinates": [ -2.788222965368643, 54.05162651457475 ] } },
{ "type": "Feature", "properties": { "visible_points": 12, "total_points": 108, "visibility_pct": 11.111111111111111 }, "geometry": { "type": "Point", "coordinates": [ -2.788011340206991, 54.051627902619813 ] } },
{ "type": "Feature", "properties": { "visible_points": 14, "total_points": 110, "visibility_pct": 12.727272727272727 }, "geometry": { "type": "Point", "coordinates": [ -2.78779971502719, 54.05162929029256 ] } },
{ "type": "Feature", "properties": { "visible_points": 0, "total_points": 113, "visibility_pct": 0.0 }, "geometry": { "type": "Point", "coordinates": [ -2.787588089829244, 54.051630677593053 ] } },
{ "type": "Feature", "properties": { "visible_points": 14, "total_points": 116, "visibility_pct": 12.068965517241379 }, "geometry": { "type": "Point", "coordinates": [ -2.787376464613169, 54.051632064521264 ] } },
{ "type": "Feature", "properties": { "visible_points": 24, "total_points": 118, "visibility_pct": 20.33898305084746 }, "geometry": { "type": "Point", "coordinates": [ -2.787164839378955, 54.051633451077173 ] } },
{ "type": "Feature", "properties": { "visible_points": 25, "total_points": 119, "visibility_pct": 21.008403361344538 }, "geometry": { "type": "Point", "coordinates": [ -2.786953214126623, 54.051634837260814 ] } },
{ "type": "Feature", "properties": { "visible_points": 25, "total_points": 115, "visibility_pct": 21.739130434782609 }, "geometry": { "type": "Point", "coordinates": [ -2.786741588856166, 54.051636223072144 ] } },
{ "type": "Feature", "properties": { "visible_points": 25, "total_points": 106, "visibility_pct": 23.584905660377359 }, "geometry": { "type": "Point", "coordinates": [ -2.786529963567597, 54.051637608511228 ] } },
{ "type": "Feature", "properties": { "visible_points": 21, "total_points": 95, "visibility_pct": 22.105263157894736 }, "geometry": { "type": "Point", "coordinates": [ -2.786318338260913, 54.051638993577996 ] } },
{ "type": "Feature", "properties": { "visible_points": 33, "total_points": 83, "visibility_pct": 39.75903614457831 }, "geometry": { "type": "Point", "coordinates": [ -2.786106712936122, 54.051640378272488 ] } },
{ "type": "Feature", "properties": { "visible_points": 0, "total_points": 51, "visibility_pct": 0.0 }, "geometry": { "type": "Point", "coordinates": [ -2.790447080058231, 54.051719757867126 ] } },
{ "type": "Feature", "properties": { "visible_points": 0, "total_points": 62, "visibility_pct": 0.0 }, "geometry": { "type": "Point", "coordinates": [ -2.790235454526127, 54.051721149829469 ] } },
{ "type": "Feature", "properties": { "visible_points": 0, "total_points": 73, "visibility_pct": 0.0 }, "geometry": { "type": "Point", "coordinates": [ -2.790023828975827, 54.051722541419508 ] } },
{ "type": "Feature", "properties": { "visible_points": 7, "total_points": 84, "visibility_pct": 8.3333333333333321 }, "geometry": { "type": "Point", "coordinates": [ -2.789812203407329, 54.051723932637259 ] } },
{ "type": "Feature", "properties": { "visible_points": 4, "total_points": 94, "visibility_pct": 4.2553191489361701 }, "geometry": { "type": "Point", "coordinates": [ -2.789600577820647, 54.051725323482735 ] } },
{ "type": "Feature", "properties": { "visible_points": 6, "total_points": 103, "visibility_pct": 5.825242718446602 }, "geometry": { "type": "Point", "coordinates": [ -2.789388952215784, 54.051726713955929 ] } },
{ "type": "Feature", "properties": { "visible_points": 10, "total_points": 105, "visibility_pct": 9.5238095238095237 }, "geometry": { "type": "Point", "coordinates": [ -2.789177326592744, 54.051728104056835 ] } },
{ "type": "Feature", "properties": { "visible_points": 12, "total_points": 108, "visibility_pct": 11.111111111111111 }, "geometry": { "type": "Point", "coordinates": [ -2.788965700951532, 54.051729493785444 ] } },
{ "type": "Feature", "properties": { "visible_points": 14, "total_points": 109, "visibility_pct": 12.844036697247708 }, "geometry": { "type": "Point", "coordinates": [ -2.788754075292146, 54.051730883141786 ] } },
{ "type": "Feature", "properties": { "visible_points": 12, "total_points": 110, "visibility_pct": 10.909090909090908 }, "geometry": { "type": "Point", "coordinates": [ -2.788542449614601, 54.05173227212584 ] } },
{ "type": "Feature", "properties": { "visible_points": 10, "total_points": 112, "visibility_pct": 8.9285714285714288 }, "geometry": { "type": "Point", "coordinates": [ -2.788330823918901, 54.051733660737611 ] } },
{ "type": "Feature", "properties": { "visible_points": 20, "total_points": 114, "visibility_pct": 17.543859649122805 }, "geometry": { "type": "Point", "coordinates": [ -2.788119198205043, 54.051735048977093 ] } },
{ "type": "Feature", "properties": { "visible_points": 21, "total_points": 116, "visibility_pct": 18.103448275862068 }, "geometry": { "type": "Point", "coordinates": [ -2.787907572473041, 54.051736436844287 ] } },
{ "type": "Feature", "properties": { "visible_points": 16, "total_points": 118, "visibility_pct": 13.559322033898304 }, "geometry": { "type": "Point", "coordinates": [ -2.787695946722895, 54.051737824339206 ] } },
{ "type": "Feature", "properties": { "visible_points": 18, "total_points": 120, "visibility_pct": 15.0 }, "geometry": { "type": "Point", "coordinates": [ -2.787484320954609, 54.051739211461829 ] } },
{ "type": "Feature", "properties": { "visible_points": 26, "total_points": 120, "visibility_pct": 21.666666666666668 }, "geometry": { "type": "Point", "coordinates": [ -2.787272695168191, 54.051740598212177 ] } },
{ "type": "Feature", "properties": { "visible_points": 31, "total_points": 120, "visibility_pct": 25.833333333333336 }, "geometry": { "type": "Point", "coordinates": [ -2.787061069363644, 54.051741984590237 ] } },
{ "type": "Feature", "properties": { "visible_points": 24, "total_points": 115, "visibility_pct": 20.869565217391305 }, "geometry": { "type": "Point", "coordinates": [ -2.786849443540972, 54.051743370596 ] } },
{ "type": "Feature", "properties": { "visible_points": 29, "total_points": 107, "visibility_pct": 27.102803738317753 }, "geometry": { "type": "Point", "coordinates": [ -2.786637817700187, 54.051744756229489 ] } },
{ "type": "Feature", "properties": { "visible_points": 26, "total_points": 97, "visibility_pct": 26.804123711340207 }, "geometry": { "type": "Point", "coordinates": [ -2.786426191841283, 54.051746141490682 ] } },
{ "type": "Feature", "properties": { "visible_points": 31, "total_points": 85, "visibility_pct": 36.470588235294116 }, "geometry": { "type": "Point", "coordinates": [ -2.786214565964269, 54.0517475263796 ] } },
{ "type": "Feature", "properties": { "visible_points": 0, "total_points": 60, "visibility_pct": 0.0 }, "geometry": { "type": "Point", "coordinates": [ -2.790343318616403, 54.051828294138943 ] } },
{ "type": "Feature", "properties": { "visible_points": 10, "total_points": 96, "visibility_pct": 10.416666666666668 }, "geometry": { "type": "Point", "coordinates": [ -2.789708440254386, 54.051832468375551 ] } },
{ "type": "Feature", "properties": { "visible_points": 9, "total_points": 107, "visibility_pct": 8.4112149532710276 }, "geometry": { "type": "Point", "coordinates": [ -2.789496814097336, 54.051833859043171 ] } },
{ "type": "Feature", "properties": { "visible_points": 6, "total_points": 111, "visibility_pct": 5.4054054054054053 }, "geometry": { "type": "Point", "coordinates": [ -2.789285187922104, 54.051835249338524 ] } },
{ "type": "Feature", "properties": { "visible_points": 15, "total_points": 113, "visibility_pct": 13.274336283185843 }, "geometry": { "type": "Point", "coordinates": [ -2.789073561728701, 54.051836639261587 ] } },
{ "type": "Feature", "properties": { "visible_points": 17, "total_points": 114, "visibility_pct": 14.912280701754385 }, "geometry": { "type": "Point", "coordinates": [ -2.788861935517127, 54.051838028812355 ] } },
{ "type": "Feature", "properties": { "visible_points": 18, "total_points": 114, "visibility_pct": 15.789473684210526 }, "geometry": { "type": "Point", "coordinates": [ -2.788650309287384, 54.051839417990848 ] } },
{ "type": "Feature", "properties": { "visible_points": 16, "total_points": 114, "visibility_pct": 14.035087719298245 }, "geometry": { "type": "Point", "coordinates": [ -2.788438683039483, 54.051840806797046 ] } },
{ "type": "Feature", "properties": { "visible_points": 21, "total_points": 114, "visibility_pct": 18.421052631578945 }, "geometry": { "type": "Point", "coordinates": [ -2.788227056773427, 54.051842195230975 ] } },
{ "type": "Feature", "properties": { "visible_points": 23, "total_points": 114, "visibility_pct": 20.175438596491226 }, "geometry": { "type": "Point", "coordinates": [ -2.788015430489224, 54.051843583292602 ] } },
{ "type": "Feature", "properties": { "visible_points": 21, "total_points": 116, "visibility_pct": 18.103448275862068 }, "geometry": { "type": "Point", "coordinates": [ -2.787803804186864, 54.051844970981939 ] } },
{ "type": "Feature", "properties": { "visible_points": 16, "total_points": 117, "visibility_pct": 13.675213675213676 }, "geometry": { "type": "Point", "coordinates": [ -2.787592177866375, 54.051846358299009 ] } },
{ "type": "Feature", "properties": { "visible_points": 24, "total_points": 118, "visibility_pct": 20.33898305084746 }, "geometry": { "type": "Point", "coordinates": [ -2.787380551527743, 54.051847745243769 ] } },
{ "type": "Feature", "properties": { "visible_points": 20, "total_points": 119, "visibility_pct": 16.806722689075631 }, "geometry": { "type": "Point", "coordinates": [ -2.787168925170983, 54.051849131816255 ] } },
{ "type": "Feature", "properties": { "visible_points": 27, "total_points": 114, "visibility_pct": 23.684210526315788 }, "geometry": { "type": "Point", "coordinates": [ -2.786957298796095, 54.051850518016458 ] } },
{ "type": "Feature", "properties": { "visible_points": 22, "total_points": 106, "visibility_pct": 20.754716981132077 }, "geometry": { "type": "Point", "coordinates": [ -2.786745672403088, 54.051851903844359 ] } },
{ "type": "Feature", "properties": { "visible_points": 27, "total_points": 97, "visibility_pct": 27.835051546391753 }, "geometry": { "type": "Point", "coordinates": [ -2.786534045991966, 54.051853289299977 ] } },
{ "type": "Feature", "properties": { "visible_points": 24, "total_points": 86, "visibility_pct": 27.906976744186046 }, "geometry": { "type": "Point", "coordinates": [ -2.786322419562724, 54.051854674383314 ] } },
{ "type": "Feature", "properties": { "visible_points": 0, "total_points": 94, "visibility_pct": 0.0 }, "geometry": { "type": "Point", "coordinates": [ -2.789816303258465, 54.051939613164933 ] } },
{ "type": "Feature", "properties": { "visible_points": 5, "total_points": 106, "visibility_pct": 4.716981132075472 }, "geometry": { "type": "Point", "coordinates": [ -2.789604676549231, 54.051941004027029 ] } },
{ "type": "Feature", "properties": { "visible_points": 5, "total_points": 113, "visibility_pct": 4.4247787610619467 }, "geometry": { "type": "Point", "coordinates": [ -2.789393049821813, 54.051942394516807 ] } },
{ "type": "Feature", "properties": { "visible_points": 18, "total_points": 114, "visibility_pct": 15.789473684210526 }, "geometry": { "type": "Point", "coordinates": [ -2.789181423076213, 54.051943784634318 ] } },
{ "type": "Feature", "properties": { "visible_points": 22, "total_points": 114, "visibility_pct": 19.298245614035086 }, "geometry": { "type": "Point", "coordinates": [ -2.788969796312443, 54.051945174379519 ] } },
{ "type": "Feature", "properties": { "visible_points": 19, "total_points": 114, "visibility_pct": 16.666666666666664 }, "geometry": { "type": "Point", "coordinates": [ -2.788758169530507, 54.051946563752445 ] } },
{ "type": "Feature", "properties": { "visible_points": 20, "total_points": 112, "visibility_pct": 17.857142857142858 }, "geometry": { "type": "Point", "coordinates": [ -2.788546542730402, 54.051947952753082 ] } },
{ "type": "Feature", "properties": { "visible_points": 20, "total_points": 110, "visibility_pct": 18.181818181818183 }, "geometry": { "type": "Point", "coordinates": [ -2.788334915912145, 54.051949341381452 ] } },
{ "type": "Feature", "properties": { "visible_points": 21, "total_points": 110, "visibility_pct": 19.090909090909093 }, "geometry": { "type": "Point", "coordinates": [ -2.788123289075731, 54.051950729637518 ] } },
{ "type": "Feature", "properties": { "visible_points": 20, "total_points": 110, "visibility_pct": 18.181818181818183 }, "geometry": { "type": "Point", "coordinates": [ -2.787911662221169, 54.051952117521274 ] } },
{ "type": "Feature", "properties": { "visible_points": 18, "total_points": 110, "visibility_pct": 16.363636363636363 }, "geometry": { "type": "Point", "coordinates": [ -2.787700035348466, 54.05195350503277 ] } },
{ "type": "Feature", "properties": { "visible_points": 19, "total_points": 111, "visibility_pct": 17.117117117117118 }, "geometry": { "type": "Point", "coordinates": [ -2.787488408457617, 54.051954892171977 ] } },
{ "type": "Feature", "properties": { "visible_points": 22, "total_points": 112, "visibility_pct": 19.642857142857142 }, "geometry": { "type": "Point", "coordinates": [ -2.787276781548642, 54.051956278938881 ] } },
{ "type": "Feature", "properties": { "visible_points": 26, "total_points": 108, "visibility_pct": 24.074074074074073 }, "geometry": { "type": "Point", "coordinates": [ -2.787065154621539, 54.051957665333511 ] } },
{ "type": "Feature", "properties": { "visible_points": 21, "total_points": 102, "visibility_pct": 20.588235294117645 }, "geometry": { "type": "Point", "coordinates": [ -2.786853527676306, 54.051959051355844 ] } },
{ "type": "Feature", "properties": { "visible_points": 29, "total_points": 95, "visibility_pct": 30.526315789473685 }, "geometry": { "type": "Point", "coordinates": [ -2.786641900712958, 54.051960437005889 ] } },
{ "type": "Feature", "properties": { "visible_points": 18, "total_points": 86, "visibility_pct": 20.930232558139537 }, "geometry": { "type": "Point", "coordinates": [ -2.786430273731497, 54.051961822283651 ] } },
{ "type": "Feature", "properties": { "visible_points": 0, "total_points": 94, "visibility_pct": 0.0 }, "geometry": { "type": "Point", "coordinates": [ -2.789712539571481, 54.052048148907446 ] } },
{ "type": "Feature", "properties": { "visible_points": 6, "total_points": 101, "visibility_pct": 5.9405940594059405 }, "geometry": { "type": "Point", "coordinates": [ -2.789500912291867, 54.052049539591685 ] } },
{ "type": "Feature", "properties": { "visible_points": 5, "total_points": 106, "visibility_pct": 4.716981132075472 }, "geometry": { "type": "Point", "coordinates": [ -2.789289284994074, 54.052050929903615 ] } },
{ "type": "Feature", "properties": { "visible_points": 9, "total_points": 107, "visibility_pct": 8.4112149532710276 }, "geometry": { "type": "Point", "coordinates": [ -2.789077657678105, 54.05205231984327 ] } },
{ "type": "Feature", "properties": { "visible_points": 12, "total_points": 107, "visibility_pct": 11.214953271028037 }, "geometry": { "type": "Point", "coordinates": [ -2.788866030343969, 54.052053709410636 ] } },
{ "type": "Feature", "properties": { "visible_points": 18, "total_points": 106, "visibility_pct": 16.981132075471699 }, "geometry": { "type": "Point", "coordinates": [ -2.788654402991664, 54.05205509860572 ] } },
{ "type": "Feature", "properties": { "visible_points": 18, "total_points": 104, "visibility_pct": 17.307692307692307 }, "geometry": { "type": "Point", "coordinates": [ -2.788442775621197, 54.052056487428501 ] } },
{ "type": "Feature", "properties": { "visible_points": 19, "total_points": 103, "visibility_pct": 18.446601941747574 }, "geometry": { "type": "Point", "coordinates": [ -2.788231148232579, 54.052057875879001 ] } },
{ "type": "Feature", "properties": { "visible_points": 17, "total_points": 102, "visibility_pct": 16.666666666666664 }, "geometry": { "type": "Point", "coordinates": [ -2.788019520825803, 54.052059263957211 ] } },
{ "type": "Feature", "properties": { "visible_points": 19, "total_points": 102, "visibility_pct": 18.627450980392158 }, "geometry": { "type": "Point", "coordinates": [ -2.787807893400886, 54.05206065166314 ] } },
{ "type": "Feature", "properties": { "visible_points": 23, "total_points": 103, "visibility_pct": 22.330097087378643 }, "geometry": { "type": "Point", "coordinates": [ -2.787596265957826, 54.052062038996752 ] } },
{ "type": "Feature", "properties": { "visible_points": 22, "total_points": 103, "visibility_pct": 21.359223300970871 }, "geometry": { "type": "Point", "coordinates": [ -2.787384638496631, 54.05206342595811 ] } },
{ "type": "Feature", "properties": { "visible_points": 22, "total_points": 100, "visibility_pct": 22.0 }, "geometry": { "type": "Point", "coordinates": [ -2.787173011017303, 54.052064812547165 ] } },
{ "type": "Feature", "properties": { "visible_points": 23, "total_points": 95, "visibility_pct": 24.210526315789473 }, "geometry": { "type": "Point", "coordinates": [ -2.78696138351985, 54.052066198763917 ] } },
{ "type": "Feature", "properties": { "visible_points": 26, "total_points": 89, "visibility_pct": 29.213483146067414 }, "geometry": { "type": "Point", "coordinates": [ -2.786749756004273, 54.052067584608388 ] } },
{ "type": "Feature", "properties": { "visible_points": 16, "total_points": 82, "visibility_pct": 19.512195121951219 }, "geometry": { "type": "Point", "coordinates": [ -2.786538128470584, 54.052068970080583 ] } },
{ "type": "Feature", "properties": { "visible_points": 0, "total_points": 88, "visibility_pct": 0.0 }, "geometry": { "type": "Point", "coordinates": [ -2.789608775332276, 54.052156684563123 ] } },
{ "type": "Feature", "properties": { "visible_points": 7, "total_points": 93, "visibility_pct": 7.5268817204301079 }, "geometry": { "type": "Point", "coordinates": [ -2.789397147482288, 54.052158075069499 ] } },
{ "type": "Feature", "properties": { "visible_points": 8, "total_points": 97, "visibility_pct": 8.2474226804123703 }, "geometry": { "type": "Point", "coordinates": [ -2.78918551961412, 54.052159465203616 ] } },
{ "type": "Feature", "properties": { "visible_points": 12, "total_points": 98, "visibility_pct": 12.244897959183673 }, "geometry": { "type": "Point", "coordinates": [ -2.788973891727776, 54.052160854965415 ] } },
{ "type": "Feature", "properties": { "visible_points": 13, "total_points": 98, "visibility_pct": 13.26530612244898 }, "geometry": { "type": "Point", "coordinates": [ -2.78876226382327, 54.052162244354932 ] } },
{ "type": "Feature", "properties": { "visible_points": 16, "total_points": 96, "visibility_pct": 16.666666666666664 }, "geometry": { "type": "Point", "coordinates": [ -2.788550635900591, 54.052163633372153 ] } },
{ "type": "Feature", "properties": { "visible_points": 15, "total_points": 95, "visibility_pct": 15.789473684210526 }, "geometry": { "type": "Point", "coordinates": [ -2.788339007959766, 54.052165022017093 ] } },
{ "type": "Feature", "properties": { "visible_points": 11, "total_points": 94, "visibility_pct": 11.702127659574469 }, "geometry": { "type": "Point", "coordinates": [ -2.788127380000778, 54.052166410289743 ] } },
{ "type": "Feature", "properties": { "visible_points": 12, "total_points": 93, "visibility_pct": 12.903225806451612 }, "geometry": { "type": "Point", "coordinates": [ -2.787915752023643, 54.052167798190091 ] } },
{ "type": "Feature", "properties": { "visible_points": 14, "total_points": 94, "visibility_pct": 14.893617021276595 }, "geometry": { "type": "Point", "coordinates": [ -2.787704124028364, 54.052169185718164 ] } },
{ "type": "Feature", "properties": { "visible_points": 18, "total_points": 93, "visibility_pct": 19.35483870967742 }, "geometry": { "type": "Point", "coordinates": [ -2.787492496014949, 54.052170572873933 ] } },
{ "type": "Feature", "properties": { "visible_points": 13, "total_points": 91, "visibility_pct": 14.285714285714285 }, "geometry": { "type": "Point", "coordinates": [ -2.787280867983397, 54.052171959657407 ] } },
{ "type": "Feature", "properties": { "visible_points": 16, "total_points": 87, "visibility_pct": 18.390804597701148 }, "geometry": { "type": "Point", "coordinates": [ -2.78706923993372, 54.052173346068606 ] } },
{ "type": "Feature", "properties": { "visible_points": 17, "total_points": 82, "visibility_pct": 20.73170731707317 }, "geometry": { "type": "Point", "coordinates": [ -2.786857611865913, 54.05217473210751 ] } },
{ "type": "Feature", "properties": { "visible_points": 16, "total_points": 76, "visibility_pct": 21.052631578947366 }, "geometry": { "type": "Point", "coordinates": [ -2.786645983779991, 54.052176117774117 ] } },
{ "type": "Feature", "properties": { "visible_points": 0, "total_points": 80, "visibility_pct": 0.0 }, "geometry": { "type": "Point", "coordinates": [ -2.789505010540855, 54.052265220131979 ] } },
{ "type": "Feature", "properties": { "visible_points": 6, "total_points": 84, "visibility_pct": 7.1428571428571423 }, "geometry": { "type": "Point", "coordinates": [ -2.789293382120489, 54.052266610460528 ] } },
{ "type": "Feature", "properties": { "visible_points": 4, "total_points": 88, "visibility_pct": 4.5454545454545459 }, "geometry": { "type": "Point", "coordinates": [ -2.789081753681938, 54.052268000416774 ] } },
{ "type": "Feature", "properties": { "visible_points": 5, "total_points": 88, "visibility_pct": 5.6818181818181817 }, "geometry": { "type": "Point", "coordinates": [ -2.788870125225223, 54.052269390000731 ] } },
{ "type": "Feature", "properties": { "visible_points": 1, "total_points": 87, "visibility_pct": 1.1494252873563218 }, "geometry": { "type": "Point", "coordinates": [ -2.788658496750339, 54.0522707792124 ] } },
{ "type": "Feature", "properties": { "visible_points": 0, "total_points": 86, "visibility_pct": 0.0 }, "geometry": { "type": "Point", "coordinates": [ -2.788446868257295, 54.052272168051772 ] } },
{ "type": "Feature", "properties": { "visible_points": 2, "total_points": 85, "visibility_pct": 2.3529411764705883 }, "geometry": { "type": "Point", "coordinates": [ -2.788235239746097, 54.052273556518848 ] } },
{ "type": "Feature", "properties": { "visible_points": 1, "total_points": 84, "visibility_pct": 1.1904761904761905 }, "geometry": { "type": "Point", "coordinates": [ -2.788023611216742, 54.052274944613636 ] } },
{ "type": "Feature", "properties": { "visible_points": 1, "total_points": 84, "visibility_pct": 1.1904761904761905 }, "geometry": { "type": "Point", "coordinates": [ -2.787811982669244, 54.052276332336142 ] } },
{ "type": "Feature", "properties": { "visible_points": 0, "total_points": 83, "visibility_pct": 0.0 }, "geometry": { "type": "Point", "coordinates": [ -2.787600354103603, 54.052277719686359 ] } },
{ "type": "Feature", "properties": { "visible_points": 4, "total_points": 81, "visibility_pct": 4.9382716049382713 }, "geometry": { "type": "Point", "coordinates": [ -2.787388725519827, 54.052279106664251 ] } },
{ "type": "Feature", "properties": { "visible_points": 13, "total_points": 78, "visibility_pct": 16.666666666666664 }, "geometry": { "type": "Point", "coordinates": [ -2.787177096917921, 54.052280493269883 ] } },
{ "type": "Feature", "properties": { "visible_points": 13, "total_points": 74, "visibility_pct": 17.567567567567568 }, "geometry": { "type": "Point", "coordinates": [ -2.786965468297884, 54.052281879503205 ] } },
{ "type": "Feature", "properties": { "visible_points": 18, "total_points": 69, "visibility_pct": 26.086956521739129 }, "geometry": { "type": "Point", "coordinates": [ -2.786753839659729, 54.052283265364245 ] } },
{ "type": "Feature", "properties": { "visible_points": 3, "total_points": 62, "visibility_pct": 4.838709677419355 }, "geometry": { "type": "Point", "coordinates": [ -2.78982450312418, 54.05237097419576 ] } },
{ "type": "Feature", "properties": { "visible_points": 0, "total_points": 67, "visibility_pct": 0.0 }, "geometry": { "type": "Point", "coordinates": [ -2.789612874169787, 54.052372365091045 ] } },
{ "type": "Feature", "properties": { "visible_points": 0, "total_points": 71, "visibility_pct": 0.0 }, "geometry": { "type": "Point", "coordinates": [ -2.789401245197213, 54.05237375561402 ] } },
{ "type": "Feature", "properties": { "visible_points": 2, "total_points": 75, "visibility_pct": 2.666666666666667 }, "geometry": { "type": "Point", "coordinates": [ -2.789189616206457, 54.052375145764714 ] } },
{ "type": "Feature", "properties": { "visible_points": 3, "total_points": 78, "visibility_pct": 3.8461538461538463 }, "geometry": { "type": "Point", "coordinates": [ -2.788977987197534, 54.052376535543118 ] } },
{ "type": "Feature", "properties": { "visible_points": 1, "total_points": 65, "visibility_pct": 1.5384615384615385 }, "geometry": { "type": "Point", "coordinates": [ -2.787073325300188, 54.05238902679551 ] } },
{ "type": "Feature", "properties": { "visible_points": 11, "total_points": 61, "visibility_pct": 18.032786885245901 }, "geometry": { "type": "Point", "coordinates": [ -2.786861696109795, 54.052390412850976 ] } }
]
}
