{
"type": "FeatureCollection",
"name": "RIBVA_17_NACH",
"crs": { "type": "name", "properties": { "name": "urn:ogc:def:crs:OGC:1.3:CRS84" } },
"features": [
{"type":"Feature","properties":{"id":21551,"nach":0.28789094417912259},"geometry":{"type":"LineString","coordinates":[[-2.4282442,53.8595831],[-2.4282154,53.85958]]}},
{"type":"Feature","properties":{"id":21553,"nach":0.0},"geometry":{"type":"LineString","coordinates":[[-2.4282442,53.8595831],[-2.4283459,53.859604],[-2.4284667,53.8595503],[-2.4285203,53.8590061],[-2.4285092,53.8587577],[-2.4285265,53.8584616],[-2.42854470000001,53.858172],[-2.428518,53.8578873],[-2.4286156,53.8569586],[-2.4291702,53.8557797],[-2.4291718,53.855112],[-2.4296568,53.8545814],[-2.4300461,53.8543094],[-2.4302371,53.8542058],[-2.4301579,53.85411340000001],[-2.430363,53.8538353],[-2.4307711,53.8531061],[-2.4315887,53.8514123],[-2.4321788,53.8507138],[-2.4321401,53.85069630000001],[-2.4320716,53.8506726],[-2.4323453,53.8502438],[-2.4325772,53.8499812],[-2.4339169,53.8484883],[-2.4340463,53.8481901]]}},
{"type":"Feature","properties":{"id":21552,"nach":0.31978627173015156},"geometry":{"type":"LineString","coordinates":[[-2.4282442,53.8595831],[-2.4282879,53.8596508],[-2.4281841,53.8597823],[-2.4275107,53.8606543],[-2.4274124,53.8608387],[-2.4273247,53.8611383],[-2.4272488,53.8613004],[-2.42709540000001,53.861523]]}},
{"type":"Feature","properties":{"id":42968,"nach":0.25586643432880057},"geometry":{"type":"LineString","coordinates":[[-2.4282758,53.8594678],[-2.4282442,53.8595831]]}},
{"type":"Feature","properties":{"id":35804,"nach":0.33566255017840385},"geometry":{"type":"LineString","coordinates":[[-2.42455410000001,53.8615727],[-2.4246472,53.8615743],[-2.42498030000001,53.8615714],[-2.4256022,53.861724],[-2.4260616,53.8617482],[-2.4266152,53.8617309],[-2.426793,53.8617601],[-2.42687270000001,53.8618218]]}},
{"type":"Feature","properties":{"id":33116,"nach":0.3388971888599252},"geometry":{"type":"LineString","coordinates":[[-2.42687270000001,53.8618218],[-2.4269071,53.8617275],[-2.4269636,53.8616713],[-2.42709540000001,53.861523]]}}
]
}
