{
"type": "FeatureCollection",
"name": "c1aeb0e8513f_visibility",
"crs": { "type": "name", "properties": { "name": "urn:ogc:def:crs:OGC:1.3:CRS84" } },
"features": [
{ "type": "Feature", "properties": { "visible_points": 0, "total_points": 56, "visibility_pct": 0.0 }, "geometry": { "type": "Point", "coordinates": [ -2.453226209370631, 53.067022572373581 ] } },
{ "type": "Feature", "properties": { "visible_points": 3, "total_points": 65, "visibility_pct": 4.6153846153846159 }, "geometry": { "type": "Point", "coordinates": [ -2.453019433958229, 53.067023358698265 ] } },
{ "type": "Feature", "properties": { "visible_points": 5, "total_points": 73, "visibility_pct": 6.8493150684931505 }, "geometry": { "type": "Point", "coordinates": [ -2.452812658538099, 53.067024144662774 ] } },
{ "type": "Feature", "properties": { "visible_points": 0, "total_points": 80, "visibility_pct": 0.0 }, "geometry": { "type": "Point", "coordinates": [ -2.452605883110254, 53.06702493026711 ] } },
{ "type": "Feature", "properties": { "visible_points": 0, "total_points": 82, "visibility_pct": 0.0 }, "geometry": { "type": "Point", "coordinates": [ -2.45239910767469, 53.067025715511271 ] } },
{ "type": "Feature", "properties": { "visible_points": 0, "total_points": 80, "visibility_pct": 0.0 }, "geometry": { "type": "Point", "coordinates": [ -2.452192332231419, 53.067026500395251 ] } },
{ "type": "Feature", "properties": { "visible_points": 0, "total_points": 77, "visibility_pct": 0.0 }, "geometry": { "type": "Point", "coordinates": [ -2.451985556780436, 53.06702728491905 ] } },
{ "type": "Feature", "properties": { "visible_points": 0, "total_points": 68, "visibility_pct": 0.0 }, "geometry": { "type": "Point", "coordinates": [ -2.451778781321748, 53.067028069082674 ] } },
{ "type": "Feature", "properties": { "visible_points": 0, "total_points": 59, "visibility_pct": 0.0 }, "geometry": { "type": "Point", "coordinates": [ -2.451572005855355, 53.067028852886153 ] } },
{ "type": "Feature", "properties": { "visible_points": 0, "total_points": 55, "visibility_pct": 0.0 }, "geometry": { "type": "Point", "coordinates": [ -2.453330738341427, 53.067130041195988 ] } },
{ "type": "Feature", "properties": { "visible_points": 3, "total_points": 65, "visibility_pct": 4.6153846153846159 }, "geometry": { "type": "Point", "coordinates": [ -2.453123962557721, 53.067130827629995 ] } },
{ "type": "Feature", "properties": { "visible_points": 4, "total_points": 75, "visibility_pct": 5.3333333333333339 }, "geometry": { "type": "Point", "coordinates": [ -2.452917186766354, 53.067131613703651 ] } },
{ "type": "Feature", "properties": { "visible_points": 1, "total_points": 83, "visibility_pct": 1.2048192771084338 }, "geometry": { "type": "Point", "coordinates": [ -2.452710410967331, 53.067132399416998 ] } },
{ "type": "Feature", "properties": { "visible_points": 1, "total_points": 91, "visibility_pct": 1.098901098901099 }, "geometry": { "type": "Point", "coordinates": [ -2.452503635160652, 53.067133184769972 ] } },
{ "type": "Feature", "properties": { "visible_points": 0, "total_points": 92, "visibility_pct": 0.0 }, "geometry": { "type": "Point", "coordinates": [ -2.45229685934632, 53.067133969762629 ] } },
{ "type": "Feature", "properties": { "visible_points": 1, "total_points": 88, "visibility_pct": 1.1363636363636365 }, "geometry": { "type": "Point", "coordinates": [ -2.452090083524345, 53.067134754394942 ] } },
{ "type": "Feature", "properties": { "visible_points": 1, "total_points": 80, "visibility_pct": 1.25 }, "geometry": { "type": "Point", "coordinates": [ -2.451883307694722, 53.067135538666932 ] } },
{ "type": "Feature", "properties": { "visible_points": 2, "total_points": 70, "visibility_pct": 2.8571428571428572 }, "geometry": { "type": "Point", "coordinates": [ -2.451676531857455, 53.06713632257857 ] } },
{ "type": "Feature", "properties": { "visible_points": 0, "total_points": 60, "visibility_pct": 0.0 }, "geometry": { "type": "Point", "coordinates": [ -2.451469756441079, 53.067137106022024 ] } },
{ "type": "Feature", "properties": { "visible_points": 0, "total_points": 50, "visibility_pct": 0.0 }, "geometry": { "type": "Point", "coordinates": [ -2.451262984307736, 53.067137887209554 ] } },
{ "type": "Feature", "properties": { "visible_points": 0, "total_points": 63, "visibility_pct": 0.0 }, "geometry": { "type": "Point", "coordinates": [ -2.453228491638754, 53.067238296293212 ] } },
{ "type": "Feature", "properties": { "visible_points": 4, "total_points": 74, "visibility_pct": 5.4054054054054053 }, "geometry": { "type": "Point", "coordinates": [ -2.45302171547409, 53.067239082480889 ] } },
{ "type": "Feature", "properties": { "visible_points": 3, "total_points": 84, "visibility_pct": 3.5714285714285712 }, "geometry": { "type": "Point", "coordinates": [ -2.452814939301771, 53.067239868308206 ] } },
{ "type": "Feature", "properties": { "visible_points": 3, "total_points": 93, "visibility_pct": 3.225806451612903 }, "geometry": { "type": "Point", "coordinates": [ -2.452608163121793, 53.06724065377518 ] } },
{ "type": "Feature", "properties": { "visible_points": 0, "total_points": 72, "visibility_pct": 0.0 }, "geometry": { "type": "Point", "coordinates": [ -2.451574282107181, 53.067244575705004 ] } },
{ "type": "Feature", "properties": { "visible_points": 1, "total_points": 61, "visibility_pct": 1.639344262295082 }, "geometry": { "type": "Point", "coordinates": [ -2.451367507734193, 53.067245358310885 ] } },
{ "type": "Feature", "properties": { "visible_points": 4, "total_points": 50, "visibility_pct": 8.0 }, "geometry": { "type": "Point", "coordinates": [ -2.451160736658063, 53.067246138374948 ] } },
{ "type": "Feature", "properties": { "visible_points": 0, "total_points": 70, "visibility_pct": 0.0 }, "geometry": { "type": "Point", "coordinates": [ -2.453126244562752, 53.067346551232987 ] } },
{ "type": "Feature", "properties": { "visible_points": 2, "total_points": 81, "visibility_pct": 2.4691358024691357 }, "geometry": { "type": "Point", "coordinates": [ -2.45291946801713, 53.067347337174297 ] } },
{ "type": "Feature", "properties": { "visible_points": 7, "total_points": 92, "visibility_pct": 7.608695652173914 }, "geometry": { "type": "Point", "coordinates": [ -2.45271269146386, 53.067348122755277 ] } },
{ "type": "Feature", "properties": { "visible_points": 4, "total_points": 100, "visibility_pct": 4.0 }, "geometry": { "type": "Point", "coordinates": [ -2.452505914902924, 53.067348907975905 ] } },
{ "type": "Feature", "properties": { "visible_points": 5, "total_points": 53, "visibility_pct": 9.433962264150944 }, "geometry": { "type": "Point", "coordinates": [ -2.449611092841685, 53.067359837300273 ] } },
{ "type": "Feature", "properties": { "visible_points": 11, "total_points": 54, "visibility_pct": 20.37037037037037 }, "geometry": { "type": "Point", "coordinates": [ -2.449404322005063, 53.067360614122585 ] } },
{ "type": "Feature", "properties": { "visible_points": 12, "total_points": 53, "visibility_pct": 22.641509433962266 }, "geometry": { "type": "Point", "coordinates": [ -2.449197551157159, 53.067361390586328 ] } },
{ "type": "Feature", "properties": { "visible_points": 0, "total_points": 51, "visibility_pct": 0.0 }, "geometry": { "type": "Point", "coordinates": [ -2.448990780297979, 53.067362166691481 ] } },
{ "type": "Feature", "properties": { "visible_points": 0, "total_points": 76, "visibility_pct": 0.0 }, "geometry": { "type": "Point", "coordinates": [ -2.453023997113422, 53.06745480601527 ] } },
{ "type": "Feature", "properties": { "visible_points": 6, "total_points": 88, "visibility_pct": 6.8181818181818175 }, "geometry": { "type": "Point", "coordinates": [ -2.452817220186846, 53.067455591710228 ] } },
{ "type": "Feature", "properties": { "visible_points": 9, "total_points": 96, "visibility_pct": 9.375 }, "geometry": { "type": "Point", "coordinates": [ -2.452610443252606, 53.067456377044856 ] } },
{ "type": "Feature", "properties": { "visible_points": 10, "total_points": 102, "visibility_pct": 9.8039215686274517 }, "geometry": { "type": "Point", "coordinates": [ -2.452403666310719, 53.067457162019132 ] } },
{ "type": "Feature", "properties": { "visible_points": 6, "total_points": 104, "visibility_pct": 5.7692307692307692 }, "geometry": { "type": "Point", "coordinates": [ -2.452196889361187, 53.067457946633063 ] } },
{ "type": "Feature", "properties": { "visible_points": 14, "total_points": 59, "visibility_pct": 23.728813559322035 }, "geometry": { "type": "Point", "coordinates": [ -2.449508839472498, 53.067468087531118 ] } },
{ "type": "Feature", "properties": { "visible_points": 12, "total_points": 58, "visibility_pct": 20.689655172413794 }, "geometry": { "type": "Point", "coordinates": [ -2.44930206799788, 53.067468864230221 ] } },
{ "type": "Feature", "properties": { "visible_points": 9, "total_points": 57, "visibility_pct": 15.789473684210526 }, "geometry": { "type": "Point", "coordinates": [ -2.449095296511981, 53.067469640570756 ] } },
{ "type": "Feature", "properties": { "visible_points": 0, "total_points": 54, "visibility_pct": 0.0 }, "geometry": { "type": "Point", "coordinates": [ -2.448888525014805, 53.067470416552709 ] } },
{ "type": "Feature", "properties": { "visible_points": 2, "total_points": 85, "visibility_pct": 2.3529411764705883 }, "geometry": { "type": "Point", "coordinates": [ -2.452714971983219, 53.067563846088674 ] } },
{ "type": "Feature", "properties": { "visible_points": 13, "total_points": 92, "visibility_pct": 14.130434782608695 }, "geometry": { "type": "Point", "coordinates": [ -2.452508194668027, 53.06756463117695 ] } },
{ "type": "Feature", "properties": { "visible_points": 15, "total_points": 97, "visibility_pct": 15.463917525773196 }, "geometry": { "type": "Point", "coordinates": [ -2.45230141734518, 53.067565415904866 ] } },
{ "type": "Feature", "properties": { "visible_points": 13, "total_points": 100, "visibility_pct": 13.0 }, "geometry": { "type": "Point", "coordinates": [ -2.452094640014688, 53.067566200272452 ] } },
{ "type": "Feature", "properties": { "visible_points": 11, "total_points": 65, "visibility_pct": 16.923076923076923 }, "geometry": { "type": "Point", "coordinates": [ -2.449613357577908, 53.067575560791369 ] } },
{ "type": "Feature", "properties": { "visible_points": 5, "total_points": 64, "visibility_pct": 7.8125 }, "geometry": { "type": "Point", "coordinates": [ -2.449406585476566, 53.067576337725846 ] } },
{ "type": "Feature", "properties": { "visible_points": 5, "total_points": 62, "visibility_pct": 8.064516129032258 }, "geometry": { "type": "Point", "coordinates": [ -2.449199813363945, 53.067577114301749 ] } },
{ "type": "Feature", "properties": { "visible_points": 0, "total_points": 60, "visibility_pct": 0.0 }, "geometry": { "type": "Point", "coordinates": [ -2.448993041240045, 53.067577890519075 ] } },
{ "type": "Feature", "properties": { "visible_points": 0, "total_points": 81, "visibility_pct": 0.0 }, "geometry": { "type": "Point", "coordinates": [ -2.452612723406258, 53.067672100309629 ] } },
{ "type": "Feature", "properties": { "visible_points": 10, "total_points": 87, "visibility_pct": 11.494252873563218 }, "geometry": { "type": "Point", "coordinates": [ -2.452405945710099, 53.067672885151538 ] } },
{ "type": "Feature", "properties": { "visible_points": 12, "total_points": 92, "visibility_pct": 13.043478260869565 }, "geometry": { "type": "Point", "coordinates": [ -2.452199168006295, 53.067673669633116 ] } },
{ "type": "Feature", "properties": { "visible_points": 14, "total_points": 95, "visibility_pct": 14.736842105263156 }, "geometry": { "type": "Point", "coordinates": [ -2.451992390294843, 53.067674453754343 ] } },
{ "type": "Feature", "properties": { "visible_points": 15, "total_points": 71, "visibility_pct": 21.12676056338028 }, "geometry": { "type": "Point", "coordinates": [ -2.449511103593228, 53.067683811073209 ] } },
{ "type": "Feature", "properties": { "visible_points": 4, "total_points": 69, "visibility_pct": 5.7971014492753623 }, "geometry": { "type": "Point", "coordinates": [ -2.449304330853881, 53.067684587884472 ] } },
{ "type": "Feature", "properties": { "visible_points": 8, "total_points": 66, "visibility_pct": 12.121212121212121 }, "geometry": { "type": "Point", "coordinates": [ -2.449097558103252, 53.067685364337166 ] } },
{ "type": "Feature", "properties": { "visible_points": 0, "total_points": 62, "visibility_pct": 0.0 }, "geometry": { "type": "Point", "coordinates": [ -2.448890785341354, 53.067686140431299 ] } },
{ "type": "Feature", "properties": { "visible_points": 0, "total_points": 77, "visibility_pct": 0.0 }, "geometry": { "type": "Point", "coordinates": [ -2.452510474455948, 53.067780354373092 ] } },
{ "type": "Feature", "properties": { "visible_points": 11, "total_points": 82, "visibility_pct": 13.414634146341465 }, "geometry": { "type": "Point", "coordinates": [ -2.452303696378834, 53.067781138968648 ] } },
{ "type": "Feature", "properties": { "visible_points": 11, "total_points": 87, "visibility_pct": 12.643678160919542 }, "geometry": { "type": "Point", "coordinates": [ -2.452096918294064, 53.067781923203867 ] } },
{ "type": "Feature", "properties": { "visible_points": 13, "total_points": 89, "visibility_pct": 14.606741573033707 }, "geometry": { "type": "Point", "coordinates": [ -2.451890140201651, 53.067782707078734 ] } },
{ "type": "Feature", "properties": { "visible_points": 13, "total_points": 88, "visibility_pct": 14.772727272727273 }, "geometry": { "type": "Point", "coordinates": [ -2.451683362101597, 53.06778349059325 ] } },
{ "type": "Feature", "properties": { "visible_points": 11, "total_points": 75, "visibility_pct": 14.666666666666666 }, "geometry": { "type": "Point", "coordinates": [ -2.449615622347865, 53.067791284272289 ] } },
{ "type": "Feature", "properties": { "visible_points": 12, "total_points": 75, "visibility_pct": 16.0 }, "geometry": { "type": "Point", "coordinates": [ -2.449408848981794, 53.067792061318926 ] } },
{ "type": "Feature", "properties": { "visible_points": 0, "total_points": 73, "visibility_pct": 0.0 }, "geometry": { "type": "Point", "coordinates": [ -2.449202075604432, 53.067792838006987 ] } },
{ "type": "Feature", "properties": { "visible_points": 0, "total_points": 67, "visibility_pct": 0.0 }, "geometry": { "type": "Point", "coordinates": [ -2.448995302215805, 53.067793614336473 ] } },
{ "type": "Feature", "properties": { "visible_points": 0, "total_points": 72, "visibility_pct": 0.0 }, "geometry": { "type": "Point", "coordinates": [ -2.4524082251323, 53.067888608279056 ] } },
{ "type": "Feature", "properties": { "visible_points": 9, "total_points": 78, "visibility_pct": 11.538461538461538 }, "geometry": { "type": "Point", "coordinates": [ -2.452201446674215, 53.067889392628253 ] } },
{ "type": "Feature", "properties": { "visible_points": 13, "total_points": 82, "visibility_pct": 15.853658536585366 }, "geometry": { "type": "Point", "coordinates": [ -2.451994668208485, 53.067890176617134 ] } },
{ "type": "Feature", "properties": { "visible_points": 12, "total_points": 84, "visibility_pct": 14.285714285714285 }, "geometry": { "type": "Point", "coordinates": [ -2.451787889735108, 53.067890960245627 ] } },
{ "type": "Feature", "properties": { "visible_points": 8, "total_points": 82, "visibility_pct": 9.7560975609756095 }, "geometry": { "type": "Point", "coordinates": [ -2.451581111254094, 53.067891743513805 ] } },
{ "type": "Feature", "properties": { "visible_points": 12, "total_points": 76, "visibility_pct": 15.789473684210526 }, "geometry": { "type": "Point", "coordinates": [ -2.449513367747683, 53.067899534605097 ] } },
{ "type": "Feature", "properties": { "visible_points": 12, "total_points": 73, "visibility_pct": 16.43835616438356 }, "geometry": { "type": "Point", "coordinates": [ -2.449306593743594, 53.067900311528518 ] } },
{ "type": "Feature", "properties": { "visible_points": 0, "total_points": 69, "visibility_pct": 0.0 }, "geometry": { "type": "Point", "coordinates": [ -2.449099819728226, 53.067901088093386 ] } },
{ "type": "Feature", "properties": { "visible_points": 0, "total_points": 74, "visibility_pct": 0.0 }, "geometry": { "type": "Point", "coordinates": [ -2.452099196596246, 53.06799764613038 ] } },
{ "type": "Feature", "properties": { "visible_points": 15, "total_points": 78, "visibility_pct": 19.230769230769234 }, "geometry": { "type": "Point", "coordinates": [ -2.451892417749551, 53.06799842987288 ] } },
{ "type": "Feature", "properties": { "visible_points": 19, "total_points": 79, "visibility_pct": 24.050632911392405 }, "geometry": { "type": "Point", "coordinates": [ -2.451685638895212, 53.06799921325505 ] } },
{ "type": "Feature", "properties": { "visible_points": 14, "total_points": 78, "visibility_pct": 17.948717948717949 }, "geometry": { "type": "Point", "coordinates": [ -2.451478860240468, 53.067999996223577 ] } },
{ "type": "Feature", "properties": { "visible_points": 7, "total_points": 77, "visibility_pct": 9.0909090909090917 }, "geometry": { "type": "Point", "coordinates": [ -2.44961788715156, 53.068007007742978 ] } },
{ "type": "Feature", "properties": { "visible_points": 10, "total_points": 73, "visibility_pct": 13.698630136986301 }, "geometry": { "type": "Point", "coordinates": [ -2.449411112520737, 53.068007784901788 ] } },
{ "type": "Feature", "properties": { "visible_points": 0, "total_points": 69, "visibility_pct": 0.0 }, "geometry": { "type": "Point", "coordinates": [ -2.449204337878633, 53.068008561702023 ] } },
{ "type": "Feature", "properties": { "visible_points": 0, "total_points": 70, "visibility_pct": 0.0 }, "geometry": { "type": "Point", "coordinates": [ -2.451996946144924, 53.068105899475022 ] } },
{ "type": "Feature", "properties": { "visible_points": 22, "total_points": 73, "visibility_pct": 30.136986301369863 }, "geometry": { "type": "Point", "coordinates": [ -2.451790166917262, 53.068106682971155 ] } },
{ "type": "Feature", "properties": { "visible_points": 20, "total_points": 74, "visibility_pct": 27.027027027027028 }, "geometry": { "type": "Point", "coordinates": [ -2.451583387681952, 53.068107466106945 ] } },
{ "type": "Feature", "properties": { "visible_points": 14, "total_points": 75, "visibility_pct": 18.666666666666668 }, "geometry": { "type": "Point", "coordinates": [ -2.451376609573706, 53.068108248475951 ] } },
{ "type": "Feature", "properties": { "visible_points": 9, "total_points": 77, "visibility_pct": 11.688311688311687 }, "geometry": { "type": "Point", "coordinates": [ -2.449722407193429, 53.068114480732582 ] } },
{ "type": "Feature", "properties": { "visible_points": 13, "total_points": 73, "visibility_pct": 17.80821917808219 }, "geometry": { "type": "Point", "coordinates": [ -2.449515631935869, 53.068115258126774 ] } },
{ "type": "Feature", "properties": { "visible_points": 0, "total_points": 67, "visibility_pct": 0.0 }, "geometry": { "type": "Point", "coordinates": [ -2.449308856667021, 53.068116035162376 ] } },
{ "type": "Feature", "properties": { "visible_points": 0, "total_points": 71, "visibility_pct": 0.0 }, "geometry": { "type": "Point", "coordinates": [ -2.451687915711609, 53.068214935911904 ] } },
{ "type": "Feature", "properties": { "visible_points": 17, "total_points": 73, "visibility_pct": 23.287671232876711 }, "geometry": { "type": "Point", "coordinates": [ -2.451481136259616, 53.068215718758744 ] } },
{ "type": "Feature", "properties": { "visible_points": 15, "total_points": 76, "visibility_pct": 19.736842105263158 }, "geometry": { "type": "Point", "coordinates": [ -2.451274358746849, 53.068216500126823 ] } },
{ "type": "Feature", "properties": { "visible_points": 12, "total_points": 78, "visibility_pct": 15.384615384615385 }, "geometry": { "type": "Point", "coordinates": [ -2.451067582941724, 53.068217280266424 ] } },
{ "type": "Feature", "properties": { "visible_points": 8, "total_points": 78, "visibility_pct": 10.256410256410255 }, "geometry": { "type": "Point", "coordinates": [ -2.449826927873294, 53.068221953573925 ] } },
{ "type": "Feature", "properties": { "visible_points": 11, "total_points": 73, "visibility_pct": 15.068493150684931 }, "geometry": { "type": "Point", "coordinates": [ -2.449620151988993, 53.06822273120347 ] } },
{ "type": "Feature", "properties": { "visible_points": 0, "total_points": 67, "visibility_pct": 0.0 }, "geometry": { "type": "Point", "coordinates": [ -2.449413376093406, 53.068223508474453 ] } },
{ "type": "Feature", "properties": { "visible_points": 0, "total_points": 70, "visibility_pct": 0.0 }, "geometry": { "type": "Point", "coordinates": [ -2.451585664132593, 53.068323188695182 ] } },
{ "type": "Feature", "properties": { "visible_points": 13, "total_points": 73, "visibility_pct": 17.80821917808219 }, "geometry": { "type": "Point", "coordinates": [ -2.451378885105891, 53.068323970994648 ] } },
{ "type": "Feature", "properties": { "visible_points": 12, "total_points": 77, "visibility_pct": 15.584415584415584 }, "geometry": { "type": "Point", "coordinates": [ -2.45117210801998, 53.068324751547173 ] } },
{ "type": "Feature", "properties": { "visible_points": 13, "total_points": 81, "visibility_pct": 16.049382716049383 }, "geometry": { "type": "Point", "coordinates": [ -2.450965331576803, 53.068325531563573 ] } },
{ "type": "Feature", "properties": { "visible_points": 9, "total_points": 79, "visibility_pct": 11.39240506329114 }, "geometry": { "type": "Point", "coordinates": [ -2.44993144919116, 53.068329426266956 ] } },
{ "type": "Feature", "properties": { "visible_points": 6, "total_points": 73, "visibility_pct": 8.2191780821917799 }, "geometry": { "type": "Point", "coordinates": [ -2.449724672680119, 53.068330204131897 ] } },
{ "type": "Feature", "properties": { "visible_points": 0, "total_points": 67, "visibility_pct": 0.0 }, "geometry": { "type": "Point", "coordinates": [ -2.449517896157785, 53.068330981638255 ] } },
{ "type": "Feature", "properties": { "visible_points": 0, "total_points": 73, "visibility_pct": 0.0 }, "geometry": { "type": "Point", "coordinates": [ -2.451276633736261, 53.068432222679618 ] } },
{ "type": "Feature", "properties": { "visible_points": 9, "total_points": 78, "visibility_pct": 11.538461538461538 }, "geometry": { "type": "Point", "coordinates": [ -2.451069856666353, 53.068433002931414 ] } },
{ "type": "Feature", "properties": { "visible_points": 13, "total_points": 81, "visibility_pct": 16.049382716049383 }, "geometry": { "type": "Point", "coordinates": [ -2.450863079585123, 53.068433782824634 ] } },
{ "type": "Feature", "properties": { "visible_points": 11, "total_points": 84, "visibility_pct": 13.095238095238097 }, "geometry": { "type": "Point", "coordinates": [ -2.450656302492572, 53.068434562359265 ] } },
{ "type": "Feature", "properties": { "visible_points": 9, "total_points": 84, "visibility_pct": 10.714285714285714 }, "geometry": { "type": "Point", "coordinates": [ -2.450242748273523, 53.068436120352814 ] } },
{ "type": "Feature", "properties": { "visible_points": 1, "total_points": 79, "visibility_pct": 1.2658227848101267 }, "geometry": { "type": "Point", "coordinates": [ -2.450035971147031, 53.068436898811697 ] } },
{ "type": "Feature", "properties": { "visible_points": 0, "total_points": 73, "visibility_pct": 0.0 }, "geometry": { "type": "Point", "coordinates": [ -2.449829194009245, 53.068437676912026 ] } },
{ "type": "Feature", "properties": { "visible_points": 4, "total_points": 66, "visibility_pct": 6.0606060606060606 }, "geometry": { "type": "Point", "coordinates": [ -2.449622416860163, 53.068438454653752 ] } },
{ "type": "Feature", "properties": { "visible_points": 0, "total_points": 72, "visibility_pct": 0.0 }, "geometry": { "type": "Point", "coordinates": [ -2.451174382393925, 53.068540474150971 ] } },
{ "type": "Feature", "properties": { "visible_points": 9, "total_points": 76, "visibility_pct": 11.842105263157894 }, "geometry": { "type": "Point", "coordinates": [ -2.450967604685966, 53.068541254279566 ] } },
{ "type": "Feature", "properties": { "visible_points": 15, "total_points": 77, "visibility_pct": 19.480519480519483 }, "geometry": { "type": "Point", "coordinates": [ -2.450760826966676, 53.068542034049599 ] } },
{ "type": "Feature", "properties": { "visible_points": 18, "total_points": 78, "visibility_pct": 23.076923076923077 }, "geometry": { "type": "Point", "coordinates": [ -2.450554049236066, 53.068542813461029 ] } },
{ "type": "Feature", "properties": { "visible_points": 15, "total_points": 79, "visibility_pct": 18.9873417721519 }, "geometry": { "type": "Point", "coordinates": [ -2.450347271494145, 53.068543592513905 ] } },
{ "type": "Feature", "properties": { "visible_points": 0, "total_points": 77, "visibility_pct": 0.0 }, "geometry": { "type": "Point", "coordinates": [ -2.450140493740915, 53.068544371208169 ] } },
{ "type": "Feature", "properties": { "visible_points": 2, "total_points": 72, "visibility_pct": 2.7777777777777777 }, "geometry": { "type": "Point", "coordinates": [ -2.449933715976385, 53.068545149543866 ] } },
{ "type": "Feature", "properties": { "visible_points": 12, "total_points": 70, "visibility_pct": 17.142857142857142 }, "geometry": { "type": "Point", "coordinates": [ -2.450865352078809, 53.068649505591615 ] } },
{ "type": "Feature", "properties": { "visible_points": 16, "total_points": 72, "visibility_pct": 22.222222222222221 }, "geometry": { "type": "Point", "coordinates": [ -2.450658573721454, 53.068650285238448 ] } },
{ "type": "Feature", "properties": { "visible_points": 0, "total_points": 72, "visibility_pct": 0.0 }, "geometry": { "type": "Point", "coordinates": [ -2.450451795352795, 53.068651064526698 ] } },
{ "type": "Feature", "properties": { "visible_points": 0, "total_points": 71, "visibility_pct": 0.0 }, "geometry": { "type": "Point", "coordinates": [ -2.450245016972812, 53.068651843456351 ] } },
{ "type": "Feature", "properties": { "visible_points": 0, "total_points": 64, "visibility_pct": 0.0 }, "geometry": { "type": "Point", "coordinates": [ -2.450763098844876, 53.068757756867562 ] } },
{ "type": "Feature", "properties": { "visible_points": 0, "total_points": 65, "visibility_pct": 0.0 }, "geometry": { "type": "Point", "coordinates": [ -2.450556319849463, 53.068758536391208 ] } },
{ "type": "Feature", "properties": { "visible_points": 0, "total_points": 65, "visibility_pct": 0.0 }, "geometry": { "type": "Point", "coordinates": [ -2.450349540842734, 53.068759315556235 ] } },
{ "type": "Feature", "properties": { "visible_points": 0, "total_points": 56, "visibility_pct": 0.0 }, "geometry": { "type": "Point", "coordinates": [ -2.450660844984165, 53.068866008107413 ] } },
{ "type": "Feature", "properties": { "visible_points": 4, "total_points": 56, "visibility_pct": 7.1428571428571423 }, "geometry": { "type": "Point", "coordinates": [ -2.450454065350683, 53.068866787507851 ] } }
]
}
