{
"type": "FeatureCollection",
"name": "fd850d93ac36_visibility",
"crs": { "type": "name", "properties": { "name": "urn:ogc:def:crs:OGC:1.3:CRS84" } },
"features": [
{ "type": "Feature", "properties": { "visible_points": 0, "total_points": 67, "visibility_pct": 0.0 }, "geometry": { "type": "Point", "coordinates": [ -2.21968858109198, 53.349329609448958 ] } },
{ "type": "Feature", "properties": { "visible_points": 23, "total_points": 73, "visibility_pct": 31.506849315068493 }, "geometry": { "type": "Point", "coordinates": [ -2.219480434122129, 53.349329994218394 ] } },
{ "type": "Feature", "properties": { "visible_points": 27, "total_points": 79, "visibility_pct": 34.177215189873415 }, "geometry": { "type": "Point", "coordinates": [ -2.219272287147513, 53.349330378624771 ] } },
{ "type": "Feature", "properties": { "visible_points": 30, "total_points": 84, "visibility_pct": 35.714285714285715 }, "geometry": { "type": "Point", "coordinates": [ -2.219064140168138, 53.349330762668082 ] } },
{ "type": "Feature", "properties": { "visible_points": 11, "total_points": 86, "visibility_pct": 12.790697674418606 }, "geometry": { "type": "Point", "coordinates": [ -2.218855993184004, 53.34933114634832 ] } },
{ "type": "Feature", "properties": { "visible_points": 18, "total_points": 86, "visibility_pct": 20.930232558139537 }, "geometry": { "type": "Point", "coordinates": [ -2.218647846195124, 53.349331529665498 ] } },
{ "type": "Feature", "properties": { "visible_points": 0, "total_points": 85, "visibility_pct": 0.0 }, "geometry": { "type": "Point", "coordinates": [ -2.218439699201498, 53.349331912619604 ] } },
{ "type": "Feature", "properties": { "visible_points": 0, "total_points": 84, "visibility_pct": 0.0 }, "geometry": { "type": "Point", "coordinates": [ -2.218231552203128, 53.349332295210651 ] } },
{ "type": "Feature", "properties": { "visible_points": 0, "total_points": 81, "visibility_pct": 0.0 }, "geometry": { "type": "Point", "coordinates": [ -2.218023405302107, 53.349332677525858 ] } },
{ "type": "Feature", "properties": { "visible_points": 0, "total_points": 75, "visibility_pct": 0.0 }, "geometry": { "type": "Point", "coordinates": [ -2.217815258517491, 53.349333059599161 ] } },
{ "type": "Feature", "properties": { "visible_points": 0, "total_points": 67, "visibility_pct": 0.0 }, "geometry": { "type": "Point", "coordinates": [ -2.217607111740644, 53.349333441315082 ] } },
{ "type": "Feature", "properties": { "visible_points": 0, "total_points": 59, "visibility_pct": 0.0 }, "geometry": { "type": "Point", "coordinates": [ -2.217398964959089, 53.349333822667958 ] } },
{ "type": "Feature", "properties": { "visible_points": 0, "total_points": 74, "visibility_pct": 0.0 }, "geometry": { "type": "Point", "coordinates": [ -2.219793208256062, 53.34943727972248 ] } },
{ "type": "Feature", "properties": { "visible_points": 17, "total_points": 80, "visibility_pct": 21.25 }, "geometry": { "type": "Point", "coordinates": [ -2.219585060759928, 53.349437664673069 ] } },
{ "type": "Feature", "properties": { "visible_points": 27, "total_points": 86, "visibility_pct": 31.395348837209301 }, "geometry": { "type": "Point", "coordinates": [ -2.21937691325903, 53.349438049260563 ] } },
{ "type": "Feature", "properties": { "visible_points": 32, "total_points": 92, "visibility_pct": 34.782608695652172 }, "geometry": { "type": "Point", "coordinates": [ -2.21916876575337, 53.349438433485027 ] } },
{ "type": "Feature", "properties": { "visible_points": 37, "total_points": 97, "visibility_pct": 38.144329896907216 }, "geometry": { "type": "Point", "coordinates": [ -2.218960618242955, 53.349438817346396 ] } },
{ "type": "Feature", "properties": { "visible_points": 41, "total_points": 97, "visibility_pct": 42.268041237113401 }, "geometry": { "type": "Point", "coordinates": [ -2.218752470727779, 53.349439200844706 ] } },
{ "type": "Feature", "properties": { "visible_points": 24, "total_points": 96, "visibility_pct": 25.0 }, "geometry": { "type": "Point", "coordinates": [ -2.218544323207862, 53.349439583979937 ] } },
{ "type": "Feature", "properties": { "visible_points": 30, "total_points": 95, "visibility_pct": 31.578947368421051 }, "geometry": { "type": "Point", "coordinates": [ -2.218336175683198, 53.349439966752122 ] } },
{ "type": "Feature", "properties": { "visible_points": 20, "total_points": 94, "visibility_pct": 21.276595744680851 }, "geometry": { "type": "Point", "coordinates": [ -2.21812802819376, 53.34944034917946 ] } },
{ "type": "Feature", "properties": { "visible_points": 28, "total_points": 88, "visibility_pct": 31.818181818181817 }, "geometry": { "type": "Point", "coordinates": [ -2.217919880828701, 53.349440731397912 ] } },
{ "type": "Feature", "properties": { "visible_points": 25, "total_points": 80, "visibility_pct": 31.25 }, "geometry": { "type": "Point", "coordinates": [ -2.217711733528058, 53.349441113297928 ] } },
{ "type": "Feature", "properties": { "visible_points": 13, "total_points": 71, "visibility_pct": 18.30985915492958 }, "geometry": { "type": "Point", "coordinates": [ -2.217503586222704, 53.349441494834885 ] } },
{ "type": "Feature", "properties": { "visible_points": 6, "total_points": 61, "visibility_pct": 9.8360655737704921 }, "geometry": { "type": "Point", "coordinates": [ -2.217295438912641, 53.349441876008811 ] } },
{ "type": "Feature", "properties": { "visible_points": 0, "total_points": 81, "visibility_pct": 0.0 }, "geometry": { "type": "Point", "coordinates": [ -2.219897835951183, 53.349544949903674 ] } },
{ "type": "Feature", "properties": { "visible_points": 0, "total_points": 87, "visibility_pct": 0.0 }, "geometry": { "type": "Point", "coordinates": [ -2.219689687928771, 53.349545335035394 ] } },
{ "type": "Feature", "properties": { "visible_points": 36, "total_points": 93, "visibility_pct": 38.70967741935484 }, "geometry": { "type": "Point", "coordinates": [ -2.219481539901588, 53.349545719804055 ] } },
{ "type": "Feature", "properties": { "visible_points": 38, "total_points": 99, "visibility_pct": 38.383838383838381 }, "geometry": { "type": "Point", "coordinates": [ -2.219273391869636, 53.349546104209644 ] } },
{ "type": "Feature", "properties": { "visible_points": 42, "total_points": 105, "visibility_pct": 40.0 }, "geometry": { "type": "Point", "coordinates": [ -2.219065243832934, 53.349546488252152 ] } },
{ "type": "Feature", "properties": { "visible_points": 45, "total_points": 107, "visibility_pct": 42.056074766355138 }, "geometry": { "type": "Point", "coordinates": [ -2.218857095791469, 53.349546871931594 ] } },
{ "type": "Feature", "properties": { "visible_points": 24, "total_points": 106, "visibility_pct": 22.641509433962266 }, "geometry": { "type": "Point", "coordinates": [ -2.218648947745256, 53.349547255247977 ] } },
{ "type": "Feature", "properties": { "visible_points": 32, "total_points": 105, "visibility_pct": 30.476190476190478 }, "geometry": { "type": "Point", "coordinates": [ -2.218440799694299, 53.349547638201273 ] } },
{ "type": "Feature", "properties": { "visible_points": 36, "total_points": 104, "visibility_pct": 34.615384615384613 }, "geometry": { "type": "Point", "coordinates": [ -2.218232651638598, 53.349548020791509 ] } },
{ "type": "Feature", "properties": { "visible_points": 34, "total_points": 101, "visibility_pct": 33.663366336633665 }, "geometry": { "type": "Point", "coordinates": [ -2.218024503681725, 53.349548403107434 ] } },
{ "type": "Feature", "properties": { "visible_points": 35, "total_points": 93, "visibility_pct": 37.634408602150536 }, "geometry": { "type": "Point", "coordinates": [ -2.217816355843973, 53.349548785185483 ] } },
{ "type": "Feature", "properties": { "visible_points": 30, "total_points": 83, "visibility_pct": 36.144578313253014 }, "geometry": { "type": "Point", "coordinates": [ -2.217608208014815, 53.349549166906527 ] } },
{ "type": "Feature", "properties": { "visible_points": 3, "total_points": 72, "visibility_pct": 4.1666666666666661 }, "geometry": { "type": "Point", "coordinates": [ -2.217400060180948, 53.349549548264534 ] } },
{ "type": "Feature", "properties": { "visible_points": 5, "total_points": 61, "visibility_pct": 8.1967213114754092 }, "geometry": { "type": "Point", "coordinates": [ -2.21719191234239, 53.349549929259481 ] } },
{ "type": "Feature", "properties": { "visible_points": 27, "total_points": 94, "visibility_pct": 28.723404255319153 }, "geometry": { "type": "Point", "coordinates": [ -2.219794315628657, 53.349653005305413 ] } },
{ "type": "Feature", "properties": { "visible_points": 34, "total_points": 100, "visibility_pct": 34.0 }, "geometry": { "type": "Point", "coordinates": [ -2.21958616707519, 53.349653390255213 ] } },
{ "type": "Feature", "properties": { "visible_points": 38, "total_points": 106, "visibility_pct": 35.849056603773583 }, "geometry": { "type": "Point", "coordinates": [ -2.219378018516951, 53.349653774841947 ] } },
{ "type": "Feature", "properties": { "visible_points": 38, "total_points": 112, "visibility_pct": 33.928571428571431 }, "geometry": { "type": "Point", "coordinates": [ -2.219169869953957, 53.349654159065594 ] } },
{ "type": "Feature", "properties": { "visible_points": 40, "total_points": 115, "visibility_pct": 34.782608695652172 }, "geometry": { "type": "Point", "coordinates": [ -2.218961721386198, 53.349654542926174 ] } },
{ "type": "Feature", "properties": { "visible_points": 0, "total_points": 115, "visibility_pct": 0.0 }, "geometry": { "type": "Point", "coordinates": [ -2.218753572813685, 53.349654926423675 ] } },
{ "type": "Feature", "properties": { "visible_points": 27, "total_points": 114, "visibility_pct": 23.684210526315788 }, "geometry": { "type": "Point", "coordinates": [ -2.218545424236435, 53.349655309558138 ] } },
{ "type": "Feature", "properties": { "visible_points": 42, "total_points": 113, "visibility_pct": 37.168141592920357 }, "geometry": { "type": "Point", "coordinates": [ -2.21833727565443, 53.349655692329499 ] } },
{ "type": "Feature", "properties": { "visible_points": 45, "total_points": 112, "visibility_pct": 40.178571428571431 }, "geometry": { "type": "Point", "coordinates": [ -2.218129127107932, 53.349656074756261 ] } },
{ "type": "Feature", "properties": { "visible_points": 43, "total_points": 106, "visibility_pct": 40.566037735849058 }, "geometry": { "type": "Point", "coordinates": [ -2.217920978688394, 53.349656456977726 ] } },
{ "type": "Feature", "properties": { "visible_points": 37, "total_points": 95, "visibility_pct": 38.94736842105263 }, "geometry": { "type": "Point", "coordinates": [ -2.217712830335433, 53.349656838882879 ] } },
{ "type": "Feature", "properties": { "visible_points": 34, "total_points": 84, "visibility_pct": 40.476190476190474 }, "geometry": { "type": "Point", "coordinates": [ -2.217504681977763, 53.34965722042498 ] } },
{ "type": "Feature", "properties": { "visible_points": 9, "total_points": 72, "visibility_pct": 12.5 }, "geometry": { "type": "Point", "coordinates": [ -2.217296533615388, 53.349657601604022 ] } },
{ "type": "Feature", "properties": { "visible_points": 35, "total_points": 99, "visibility_pct": 35.353535353535356 }, "geometry": { "type": "Point", "coordinates": [ -2.219898943859599, 53.349760675483104 ] } },
{ "type": "Feature", "properties": { "visible_points": 38, "total_points": 105, "visibility_pct": 36.19047619047619 }, "geometry": { "type": "Point", "coordinates": [ -2.219690794779841, 53.34976106061405 ] } },
{ "type": "Feature", "properties": { "visible_points": 38, "total_points": 111, "visibility_pct": 34.234234234234236 }, "geometry": { "type": "Point", "coordinates": [ -2.21948264569531, 53.349761445381922 ] } },
{ "type": "Feature", "properties": { "visible_points": 40, "total_points": 117, "visibility_pct": 34.188034188034187 }, "geometry": { "type": "Point", "coordinates": [ -2.219274496606018, 53.349761829786722 ] } },
{ "type": "Feature", "properties": { "visible_points": 38, "total_points": 120, "visibility_pct": 31.666666666666664 }, "geometry": { "type": "Point", "coordinates": [ -2.219066347511967, 53.349762213828427 ] } },
{ "type": "Feature", "properties": { "visible_points": 20, "total_points": 120, "visibility_pct": 16.666666666666664 }, "geometry": { "type": "Point", "coordinates": [ -2.218858198413161, 53.34976259750708 ] } },
{ "type": "Feature", "properties": { "visible_points": 0, "total_points": 120, "visibility_pct": 0.0 }, "geometry": { "type": "Point", "coordinates": [ -2.218650049309602, 53.349762980822653 ] } },
{ "type": "Feature", "properties": { "visible_points": 39, "total_points": 120, "visibility_pct": 32.5 }, "geometry": { "type": "Point", "coordinates": [ -2.218441900201302, 53.349763363775153 ] } },
{ "type": "Feature", "properties": { "visible_points": 46, "total_points": 119, "visibility_pct": 38.655462184873954 }, "geometry": { "type": "Point", "coordinates": [ -2.218233751088248, 53.349763746364587 ] } },
{ "type": "Feature", "properties": { "visible_points": 46, "total_points": 116, "visibility_pct": 39.655172413793103 }, "geometry": { "type": "Point", "coordinates": [ -2.218025602075485, 53.349764128681194 ] } },
{ "type": "Feature", "properties": { "visible_points": 45, "total_points": 107, "visibility_pct": 42.056074766355138 }, "geometry": { "type": "Point", "coordinates": [ -2.217817453184557, 53.349764510763926 ] } },
{ "type": "Feature", "properties": { "visible_points": 40, "total_points": 95, "visibility_pct": 42.105263157894733 }, "geometry": { "type": "Point", "coordinates": [ -2.217609304303079, 53.349764892490121 ] } },
{ "type": "Feature", "properties": { "visible_points": 32, "total_points": 82, "visibility_pct": 39.024390243902438 }, "geometry": { "type": "Point", "coordinates": [ -2.217401155416893, 53.349765273853258 ] } },
{ "type": "Feature", "properties": { "visible_points": 8, "total_points": 70, "visibility_pct": 11.428571428571429 }, "geometry": { "type": "Point", "coordinates": [ -2.217193006526006, 53.349765654853357 ] } },
{ "type": "Feature", "properties": { "visible_points": 1, "total_points": 55, "visibility_pct": 1.8181818181818181 }, "geometry": { "type": "Point", "coordinates": [ -2.222917666602775, 53.349862913076599 ] } },
{ "type": "Feature", "properties": { "visible_points": 3, "total_points": 63, "visibility_pct": 4.7619047619047619 }, "geometry": { "type": "Point", "coordinates": [ -2.222709517064001, 53.349863303471707 ] } },
{ "type": "Feature", "properties": { "visible_points": 0, "total_points": 71, "visibility_pct": 0.0 }, "geometry": { "type": "Point", "coordinates": [ -2.222501367520388, 53.349863693503742 ] } },
{ "type": "Feature", "properties": { "visible_points": 5, "total_points": 78, "visibility_pct": 6.4102564102564097 }, "geometry": { "type": "Point", "coordinates": [ -2.222293217971946, 53.349864083172704 ] } },
{ "type": "Feature", "properties": { "visible_points": 0, "total_points": 84, "visibility_pct": 0.0 }, "geometry": { "type": "Point", "coordinates": [ -2.220836170997993, 53.349866800689405 ] } },
{ "type": "Feature", "properties": { "visible_points": 0, "total_points": 88, "visibility_pct": 0.0 }, "geometry": { "type": "Point", "coordinates": [ -2.220628021411072, 53.349867187453796 ] } },
{ "type": "Feature", "properties": { "visible_points": 0, "total_points": 103, "visibility_pct": 0.0 }, "geometry": { "type": "Point", "coordinates": [ -2.220003572621594, 53.349868345568481 ] } },
{ "type": "Feature", "properties": { "visible_points": 40, "total_points": 108, "visibility_pct": 37.037037037037038 }, "geometry": { "type": "Point", "coordinates": [ -2.219795423015546, 53.349868730880559 ] } },
{ "type": "Feature", "properties": { "visible_points": 40, "total_points": 113, "visibility_pct": 35.398230088495573 }, "geometry": { "type": "Point", "coordinates": [ -2.219587273404721, 53.349869115829577 ] } },
{ "type": "Feature", "properties": { "visible_points": 39, "total_points": 117, "visibility_pct": 33.333333333333329 }, "geometry": { "type": "Point", "coordinates": [ -2.219379123789135, 53.349869500415508 ] } },
{ "type": "Feature", "properties": { "visible_points": 38, "total_points": 120, "visibility_pct": 31.666666666666664 }, "geometry": { "type": "Point", "coordinates": [ -2.219170974168784, 53.349869884638373 ] } },
{ "type": "Feature", "properties": { "visible_points": 0, "total_points": 120, "visibility_pct": 0.0 }, "geometry": { "type": "Point", "coordinates": [ -2.218962824543677, 53.349870268498151 ] } },
{ "type": "Feature", "properties": { "visible_points": 0, "total_points": 120, "visibility_pct": 0.0 }, "geometry": { "type": "Point", "coordinates": [ -2.218754674913817, 53.34987065199487 ] } },
{ "type": "Feature", "properties": { "visible_points": 0, "total_points": 120, "visibility_pct": 0.0 }, "geometry": { "type": "Point", "coordinates": [ -2.218546525279206, 53.349871035128508 ] } },
{ "type": "Feature", "properties": { "visible_points": 43, "total_points": 120, "visibility_pct": 35.833333333333336 }, "geometry": { "type": "Point", "coordinates": [ -2.218338375639856, 53.349871417899067 ] } },
{ "type": "Feature", "properties": { "visible_points": 50, "total_points": 120, "visibility_pct": 41.666666666666671 }, "geometry": { "type": "Point", "coordinates": [ -2.21813022603626, 53.349871800325268 ] } },
{ "type": "Feature", "properties": { "visible_points": 46, "total_points": 114, "visibility_pct": 40.350877192982452 }, "geometry": { "type": "Point", "coordinates": [ -2.217922076562199, 53.349872182549696 ] } },
{ "type": "Feature", "properties": { "visible_points": 42, "total_points": 104, "visibility_pct": 40.384615384615387 }, "geometry": { "type": "Point", "coordinates": [ -2.217713927156904, 53.349872564459979 ] } },
{ "type": "Feature", "properties": { "visible_points": 35, "total_points": 93, "visibility_pct": 37.634408602150536 }, "geometry": { "type": "Point", "coordinates": [ -2.217505777746905, 53.34987294600721 ] } },
{ "type": "Feature", "properties": { "visible_points": 9, "total_points": 80, "visibility_pct": 11.25 }, "geometry": { "type": "Point", "coordinates": [ -2.217297628332206, 53.349873327191382 ] } },
{ "type": "Feature", "properties": { "visible_points": 2, "total_points": 54, "visibility_pct": 3.7037037037037033 }, "geometry": { "type": "Point", "coordinates": [ -2.223022303263697, 53.349970580533451 ] } },
{ "type": "Feature", "properties": { "visible_points": 7, "total_points": 62, "visibility_pct": 11.29032258064516 }, "geometry": { "type": "Point", "coordinates": [ -2.222814153198659, 53.349970971109727 ] } },
{ "type": "Feature", "properties": { "visible_points": 14, "total_points": 70, "visibility_pct": 20.0 }, "geometry": { "type": "Point", "coordinates": [ -2.222606003128783, 53.349971361322922 ] } },
{ "type": "Feature", "properties": { "visible_points": 17, "total_points": 79, "visibility_pct": 21.518987341772153 }, "geometry": { "type": "Point", "coordinates": [ -2.222397853054081, 53.349971751173058 ] } },
{ "type": "Feature", "properties": { "visible_points": 19, "total_points": 86, "visibility_pct": 22.093023255813954 }, "geometry": { "type": "Point", "coordinates": [ -2.222189702974542, 53.349972140660114 ] } },
{ "type": "Feature", "properties": { "visible_points": 21, "total_points": 88, "visibility_pct": 23.863636363636363 }, "geometry": { "type": "Point", "coordinates": [ -2.221981552890187, 53.34997252978409 ] } },
{ "type": "Feature", "properties": { "visible_points": 18, "total_points": 89, "visibility_pct": 20.224719101123593 }, "geometry": { "type": "Point", "coordinates": [ -2.221773402801008, 53.349972918544985 ] } },
{ "type": "Feature", "properties": { "visible_points": 32, "total_points": 89, "visibility_pct": 35.955056179775283 }, "geometry": { "type": "Point", "coordinates": [ -2.221565252707018, 53.349973306942836 ] } },
{ "type": "Feature", "properties": { "visible_points": 34, "total_points": 88, "visibility_pct": 38.636363636363633 }, "geometry": { "type": "Point", "coordinates": [ -2.221357102608214, 53.349973694977571 ] } },
{ "type": "Feature", "properties": { "visible_points": 37, "total_points": 89, "visibility_pct": 41.573033707865171 }, "geometry": { "type": "Point", "coordinates": [ -2.221148952504605, 53.349974082649247 ] } },
{ "type": "Feature", "properties": { "visible_points": 37, "total_points": 91, "visibility_pct": 40.659340659340657 }, "geometry": { "type": "Point", "coordinates": [ -2.220940802396199, 53.349974469957857 ] } },
{ "type": "Feature", "properties": { "visible_points": 34, "total_points": 94, "visibility_pct": 36.170212765957451 }, "geometry": { "type": "Point", "coordinates": [ -2.220732652282992, 53.349974856903394 ] } },
{ "type": "Feature", "properties": { "visible_points": 24, "total_points": 98, "visibility_pct": 24.489795918367346 }, "geometry": { "type": "Point", "coordinates": [ -2.220524502165001, 53.349975243485837 ] } },
{ "type": "Feature", "properties": { "visible_points": 16, "total_points": 102, "visibility_pct": 15.686274509803921 }, "geometry": { "type": "Point", "coordinates": [ -2.220316352042217, 53.349975629705227 ] } },
{ "type": "Feature", "properties": { "visible_points": 3, "total_points": 106, "visibility_pct": 2.8301886792452833 }, "geometry": { "type": "Point", "coordinates": [ -2.220108201914651, 53.349976015561523 ] } },
{ "type": "Feature", "properties": { "visible_points": 43, "total_points": 110, "visibility_pct": 39.090909090909093 }, "geometry": { "type": "Point", "coordinates": [ -2.219900051782305, 53.349976401054754 ] } },
{ "type": "Feature", "properties": { "visible_points": 41, "total_points": 114, "visibility_pct": 35.964912280701753 }, "geometry": { "type": "Point", "coordinates": [ -2.219691901645188, 53.349976786184904 ] } },
{ "type": "Feature", "properties": { "visible_points": 37, "total_points": 117, "visibility_pct": 31.623931623931622 }, "geometry": { "type": "Point", "coordinates": [ -2.219483751503307, 53.349977170951988 ] } },
{ "type": "Feature", "properties": { "visible_points": 41, "total_points": 120, "visibility_pct": 34.166666666666664 }, "geometry": { "type": "Point", "coordinates": [ -2.219275601356651, 53.34997755535597 ] } },
{ "type": "Feature", "properties": { "visible_points": 35, "total_points": 120, "visibility_pct": 29.166666666666668 }, "geometry": { "type": "Point", "coordinates": [ -2.219067451205242, 53.349977939396915 ] } },
{ "type": "Feature", "properties": { "visible_points": 0, "total_points": 120, "visibility_pct": 0.0 }, "geometry": { "type": "Point", "coordinates": [ -2.218859301049076, 53.349978323074772 ] } },
{ "type": "Feature", "properties": { "visible_points": 15, "total_points": 120, "visibility_pct": 12.5 }, "geometry": { "type": "Point", "coordinates": [ -2.218651150888163, 53.34997870638955 ] } },
{ "type": "Feature", "properties": { "visible_points": 44, "total_points": 120, "visibility_pct": 36.666666666666664 }, "geometry": { "type": "Point", "coordinates": [ -2.218443000722496, 53.349979089341232 ] } },
{ "type": "Feature", "properties": { "visible_points": 49, "total_points": 120, "visibility_pct": 40.833333333333336 }, "geometry": { "type": "Point", "coordinates": [ -2.218234850552094, 53.349979471929863 ] } },
{ "type": "Feature", "properties": { "visible_points": 48, "total_points": 117, "visibility_pct": 41.025641025641022 }, "geometry": { "type": "Point", "coordinates": [ -2.218026700483386, 53.349979854247103 ] } },
{ "type": "Feature", "properties": { "visible_points": 47, "total_points": 109, "visibility_pct": 43.119266055045877 }, "geometry": { "type": "Point", "coordinates": [ -2.217818550539251, 53.349980236334524 ] } },
{ "type": "Feature", "properties": { "visible_points": 43, "total_points": 98, "visibility_pct": 43.877551020408163 }, "geometry": { "type": "Point", "coordinates": [ -2.217610400605437, 53.349980618065864 ] } },
{ "type": "Feature", "properties": { "visible_points": 3, "total_points": 86, "visibility_pct": 3.4883720930232558 }, "geometry": { "type": "Point", "coordinates": [ -2.217402250666909, 53.349980999434138 ] } },
{ "type": "Feature", "properties": { "visible_points": 0, "total_points": 51, "visibility_pct": 0.0 }, "geometry": { "type": "Point", "coordinates": [ -2.223126940455712, 53.35007824789794 ] } },
{ "type": "Feature", "properties": { "visible_points": 0, "total_points": 59, "visibility_pct": 0.0 }, "geometry": { "type": "Point", "coordinates": [ -2.222918789864413, 53.350078638655397 ] } },
{ "type": "Feature", "properties": { "visible_points": 0, "total_points": 68, "visibility_pct": 0.0 }, "geometry": { "type": "Point", "coordinates": [ -2.222710639268275, 53.35007902904978 ] } },
{ "type": "Feature", "properties": { "visible_points": 18, "total_points": 77, "visibility_pct": 23.376623376623375 }, "geometry": { "type": "Point", "coordinates": [ -2.222502488667299, 53.350079419081055 ] } },
{ "type": "Feature", "properties": { "visible_points": 22, "total_points": 86, "visibility_pct": 25.581395348837212 }, "geometry": { "type": "Point", "coordinates": [ -2.222294338061497, 53.350079808749278 ] } },
{ "type": "Feature", "properties": { "visible_points": 27, "total_points": 90, "visibility_pct": 30.0 }, "geometry": { "type": "Point", "coordinates": [ -2.222086187450862, 53.350080198054421 ] } },
{ "type": "Feature", "properties": { "visible_points": 33, "total_points": 93, "visibility_pct": 35.483870967741936 }, "geometry": { "type": "Point", "coordinates": [ -2.221878036835411, 53.350080586996476 ] } },
{ "type": "Feature", "properties": { "visible_points": 37, "total_points": 95, "visibility_pct": 38.94736842105263 }, "geometry": { "type": "Point", "coordinates": [ -2.221669886215144, 53.350080975575487 ] } },
{ "type": "Feature", "properties": { "visible_points": 38, "total_points": 96, "visibility_pct": 39.583333333333329 }, "geometry": { "type": "Point", "coordinates": [ -2.221461735590062, 53.350081363791382 ] } },
{ "type": "Feature", "properties": { "visible_points": 37, "total_points": 98, "visibility_pct": 37.755102040816325 }, "geometry": { "type": "Point", "coordinates": [ -2.221253584960174, 53.350081751644211 ] } },
{ "type": "Feature", "properties": { "visible_points": 40, "total_points": 99, "visibility_pct": 40.404040404040401 }, "geometry": { "type": "Point", "coordinates": [ -2.221045434325478, 53.350082139133974 ] } },
{ "type": "Feature", "properties": { "visible_points": 35, "total_points": 101, "visibility_pct": 34.653465346534652 }, "geometry": { "type": "Point", "coordinates": [ -2.220837283685991, 53.350082526260643 ] } },
{ "type": "Feature", "properties": { "visible_points": 31, "total_points": 103, "visibility_pct": 30.097087378640776 }, "geometry": { "type": "Point", "coordinates": [ -2.220629133041706, 53.350082913024266 ] } },
{ "type": "Feature", "properties": { "visible_points": 24, "total_points": 106, "visibility_pct": 22.641509433962266 }, "geometry": { "type": "Point", "coordinates": [ -2.220420982392631, 53.350083299424796 ] } },
{ "type": "Feature", "properties": { "visible_points": 0, "total_points": 109, "visibility_pct": 0.0 }, "geometry": { "type": "Point", "coordinates": [ -2.220212831738773, 53.350083685462238 ] } },
{ "type": "Feature", "properties": { "visible_points": 44, "total_points": 112, "visibility_pct": 39.285714285714285 }, "geometry": { "type": "Point", "coordinates": [ -2.220004681080132, 53.350084071136614 ] } },
{ "type": "Feature", "properties": { "visible_points": 44, "total_points": 115, "visibility_pct": 38.260869565217391 }, "geometry": { "type": "Point", "coordinates": [ -2.219796530416717, 53.350084456447924 ] } },
{ "type": "Feature", "properties": { "visible_points": 37, "total_points": 117, "visibility_pct": 31.623931623931622 }, "geometry": { "type": "Point", "coordinates": [ -2.21958837974853, 53.350084841396139 ] } },
{ "type": "Feature", "properties": { "visible_points": 35, "total_points": 118, "visibility_pct": 29.66101694915254 }, "geometry": { "type": "Point", "coordinates": [ -2.219380229075579, 53.350085225981282 ] } },
{ "type": "Feature", "properties": { "visible_points": 35, "total_points": 117, "visibility_pct": 29.914529914529915 }, "geometry": { "type": "Point", "coordinates": [ -2.219172078397865, 53.350085610203344 ] } },
{ "type": "Feature", "properties": { "visible_points": 0, "total_points": 117, "visibility_pct": 0.0 }, "geometry": { "type": "Point", "coordinates": [ -2.218963927715388, 53.350085994062333 ] } },
{ "type": "Feature", "properties": { "visible_points": 0, "total_points": 117, "visibility_pct": 0.0 }, "geometry": { "type": "Point", "coordinates": [ -2.218755777028164, 53.350086377558256 ] } },
{ "type": "Feature", "properties": { "visible_points": 5, "total_points": 118, "visibility_pct": 4.2372881355932197 }, "geometry": { "type": "Point", "coordinates": [ -2.218547626336189, 53.350086760691092 ] } },
{ "type": "Feature", "properties": { "visible_points": 46, "total_points": 119, "visibility_pct": 38.655462184873954 }, "geometry": { "type": "Point", "coordinates": [ -2.218339475639472, 53.350087143460854 ] } },
{ "type": "Feature", "properties": { "visible_points": 49, "total_points": 119, "visibility_pct": 41.17647058823529 }, "geometry": { "type": "Point", "coordinates": [ -2.218131324978744, 53.350087525886451 ] } },
{ "type": "Feature", "properties": { "visible_points": 49, "total_points": 113, "visibility_pct": 43.362831858407077 }, "geometry": { "type": "Point", "coordinates": [ -2.217923174450113, 53.350087908113785 ] } },
{ "type": "Feature", "properties": { "visible_points": 46, "total_points": 103, "visibility_pct": 44.660194174757287 }, "geometry": { "type": "Point", "coordinates": [ -2.217715023992481, 53.35008829002922 ] } },
{ "type": "Feature", "properties": { "visible_points": 28, "total_points": 91, "visibility_pct": 30.76923076923077 }, "geometry": { "type": "Point", "coordinates": [ -2.217506873530136, 53.350088671581574 ] } },
{ "type": "Feature", "properties": { "visible_points": 12, "total_points": 78, "visibility_pct": 15.384615384615385 }, "geometry": { "type": "Point", "coordinates": [ -2.217298723063089, 53.35008905277089 ] } },
{ "type": "Feature", "properties": { "visible_points": 0, "total_points": 64, "visibility_pct": 0.0 }, "geometry": { "type": "Point", "coordinates": [ -2.22281527593886, 53.350186696684268 ] } },
{ "type": "Feature", "properties": { "visible_points": 0, "total_points": 73, "visibility_pct": 0.0 }, "geometry": { "type": "Point", "coordinates": [ -2.222607124811614, 53.350187086896732 ] } },
{ "type": "Feature", "properties": { "visible_points": 0, "total_points": 83, "visibility_pct": 0.0 }, "geometry": { "type": "Point", "coordinates": [ -2.222398973679539, 53.350187476746115 ] } },
{ "type": "Feature", "properties": { "visible_points": 26, "total_points": 88, "visibility_pct": 29.545454545454547 }, "geometry": { "type": "Point", "coordinates": [ -2.222190822542633, 53.35018786623241 ] } },
{ "type": "Feature", "properties": { "visible_points": 31, "total_points": 92, "visibility_pct": 33.695652173913047 }, "geometry": { "type": "Point", "coordinates": [ -2.221982671400898, 53.350188255355647 ] } },
{ "type": "Feature", "properties": { "visible_points": 37, "total_points": 95, "visibility_pct": 38.94736842105263 }, "geometry": { "type": "Point", "coordinates": [ -2.221774520254357, 53.350188644115782 ] } },
{ "type": "Feature", "properties": { "visible_points": 37, "total_points": 98, "visibility_pct": 37.755102040816325 }, "geometry": { "type": "Point", "coordinates": [ -2.22156636910299, 53.350189032512844 ] } },
{ "type": "Feature", "properties": { "visible_points": 37, "total_points": 101, "visibility_pct": 36.633663366336634 }, "geometry": { "type": "Point", "coordinates": [ -2.221358217946817, 53.35018942054684 ] } },
{ "type": "Feature", "properties": { "visible_points": 39, "total_points": 104, "visibility_pct": 37.5 }, "geometry": { "type": "Point", "coordinates": [ -2.221150066785842, 53.350189808217756 ] } },
{ "type": "Feature", "properties": { "visible_points": 36, "total_points": 107, "visibility_pct": 33.644859813084111 }, "geometry": { "type": "Point", "coordinates": [ -2.220941915620058, 53.350190195525606 ] } },
{ "type": "Feature", "properties": { "visible_points": 32, "total_points": 109, "visibility_pct": 29.357798165137616 }, "geometry": { "type": "Point", "coordinates": [ -2.220733764449483, 53.35019058247034 ] } },
{ "type": "Feature", "properties": { "visible_points": 29, "total_points": 111, "visibility_pct": 26.126126126126124 }, "geometry": { "type": "Point", "coordinates": [ -2.220525613274118, 53.350190969052036 ] } },
{ "type": "Feature", "properties": { "visible_points": 0, "total_points": 113, "visibility_pct": 0.0 }, "geometry": { "type": "Point", "coordinates": [ -2.220317462093963, 53.350191355270631 ] } },
{ "type": "Feature", "properties": { "visible_points": 22, "total_points": 115, "visibility_pct": 19.130434782608695 }, "geometry": { "type": "Point", "coordinates": [ -2.220109310909027, 53.350191741126146 ] } },
{ "type": "Feature", "properties": { "visible_points": 47, "total_points": 116, "visibility_pct": 40.517241379310342 }, "geometry": { "type": "Point", "coordinates": [ -2.219901159719308, 53.350192126618595 ] } },
{ "type": "Feature", "properties": { "visible_points": 44, "total_points": 117, "visibility_pct": 37.606837606837608 }, "geometry": { "type": "Point", "coordinates": [ -2.219693008524823, 53.350192511747977 ] } },
{ "type": "Feature", "properties": { "visible_points": 36, "total_points": 116, "visibility_pct": 31.03448275862069 }, "geometry": { "type": "Point", "coordinates": [ -2.219484857325561, 53.350192896514258 ] } },
{ "type": "Feature", "properties": { "visible_points": 35, "total_points": 115, "visibility_pct": 30.434782608695656 }, "geometry": { "type": "Point", "coordinates": [ -2.219276706121543, 53.350193280917473 ] } },
{ "type": "Feature", "properties": { "visible_points": 31, "total_points": 114, "visibility_pct": 27.192982456140353 }, "geometry": { "type": "Point", "coordinates": [ -2.219068554912756, 53.350193664957608 ] } },
{ "type": "Feature", "properties": { "visible_points": 11, "total_points": 113, "visibility_pct": 9.7345132743362832 }, "geometry": { "type": "Point", "coordinates": [ -2.218860403699222, 53.350194048634648 ] } },
{ "type": "Feature", "properties": { "visible_points": 2, "total_points": 112, "visibility_pct": 1.7857142857142856 }, "geometry": { "type": "Point", "coordinates": [ -2.21865225248093, 53.350194431948644 ] } },
{ "type": "Feature", "properties": { "visible_points": 37, "total_points": 112, "visibility_pct": 33.035714285714285 }, "geometry": { "type": "Point", "coordinates": [ -2.218444101257898, 53.350194814899538 ] } },
{ "type": "Feature", "properties": { "visible_points": 41, "total_points": 113, "visibility_pct": 36.283185840707965 }, "geometry": { "type": "Point", "coordinates": [ -2.21823595003012, 53.350195197487359 ] } },
{ "type": "Feature", "properties": { "visible_points": 44, "total_points": 110, "visibility_pct": 40.0 }, "geometry": { "type": "Point", "coordinates": [ -2.218027798905432, 53.350195579805145 ] } },
{ "type": "Feature", "properties": { "visible_points": 42, "total_points": 102, "visibility_pct": 41.17647058823529 }, "geometry": { "type": "Point", "coordinates": [ -2.217819647908049, 53.350195961897271 ] } },
{ "type": "Feature", "properties": { "visible_points": 40, "total_points": 91, "visibility_pct": 43.956043956043956 }, "geometry": { "type": "Point", "coordinates": [ -2.217611496921881, 53.350196343633741 ] } },
{ "type": "Feature", "properties": { "visible_points": 4, "total_points": 80, "visibility_pct": 5.0 }, "geometry": { "type": "Point", "coordinates": [ -2.217403345931011, 53.350196725007137 ] } },
{ "type": "Feature", "properties": { "visible_points": 0, "total_points": 77, "visibility_pct": 0.0 }, "geometry": { "type": "Point", "coordinates": [ -2.222503609858368, 53.350295144705825 ] } },
{ "type": "Feature", "properties": { "visible_points": 0, "total_points": 83, "visibility_pct": 0.0 }, "geometry": { "type": "Point", "coordinates": [ -2.222295458194792, 53.350295534374055 ] } },
{ "type": "Feature", "properties": { "visible_points": 15, "total_points": 87, "visibility_pct": 17.241379310344829 }, "geometry": { "type": "Point", "coordinates": [ -2.22208730652638, 53.350295923679241 ] } },
{ "type": "Feature", "properties": { "visible_points": 30, "total_points": 91, "visibility_pct": 32.967032967032964 }, "geometry": { "type": "Point", "coordinates": [ -2.221879154853136, 53.350296312621339 ] } },
{ "type": "Feature", "properties": { "visible_points": 33, "total_points": 96, "visibility_pct": 34.375 }, "geometry": { "type": "Point", "coordinates": [ -2.221671003175067, 53.35029670120035 ] } },
{ "type": "Feature", "properties": { "visible_points": 37, "total_points": 100, "visibility_pct": 37.0 }, "geometry": { "type": "Point", "coordinates": [ -2.221462851492177, 53.350297089416294 ] } },
{ "type": "Feature", "properties": { "visible_points": 36, "total_points": 104, "visibility_pct": 34.615384615384613 }, "geometry": { "type": "Point", "coordinates": [ -2.221254699804475, 53.35029747726918 ] } },
{ "type": "Feature", "properties": { "visible_points": 34, "total_points": 108, "visibility_pct": 31.481481481481481 }, "geometry": { "type": "Point", "coordinates": [ -2.221046548111956, 53.350297864758979 ] } },
{ "type": "Feature", "properties": { "visible_points": 35, "total_points": 111, "visibility_pct": 31.531531531531531 }, "geometry": { "type": "Point", "coordinates": [ -2.220838396414631, 53.350298251885711 ] } },
{ "type": "Feature", "properties": { "visible_points": 30, "total_points": 114, "visibility_pct": 26.315789473684209 }, "geometry": { "type": "Point", "coordinates": [ -2.220630244712505, 53.350298638649342 ] } },
{ "type": "Feature", "properties": { "visible_points": 17, "total_points": 117, "visibility_pct": 14.529914529914532 }, "geometry": { "type": "Point", "coordinates": [ -2.220422093005578, 53.350299025049921 ] } },
{ "type": "Feature", "properties": { "visible_points": 10, "total_points": 118, "visibility_pct": 8.4745762711864394 }, "geometry": { "type": "Point", "coordinates": [ -2.220213941293862, 53.350299411087427 ] } },
{ "type": "Feature", "properties": { "visible_points": 41, "total_points": 118, "visibility_pct": 34.745762711864408 }, "geometry": { "type": "Point", "coordinates": [ -2.220005789577353, 53.350299796761853 ] } },
{ "type": "Feature", "properties": { "visible_points": 45, "total_points": 117, "visibility_pct": 38.461538461538467 }, "geometry": { "type": "Point", "coordinates": [ -2.219797637856062, 53.350300182073198 ] } },
{ "type": "Feature", "properties": { "visible_points": 44, "total_points": 114, "visibility_pct": 38.596491228070171 }, "geometry": { "type": "Point", "coordinates": [ -2.219589486129991, 53.350300567021492 ] } },
{ "type": "Feature", "properties": { "visible_points": 35, "total_points": 112, "visibility_pct": 31.25 }, "geometry": { "type": "Point", "coordinates": [ -2.219381334399142, 53.350300951606684 ] } },
{ "type": "Feature", "properties": { "visible_points": 28, "total_points": 110, "visibility_pct": 25.454545454545453 }, "geometry": { "type": "Point", "coordinates": [ -2.219173182663525, 53.350301335828817 ] } },
{ "type": "Feature", "properties": { "visible_points": 19, "total_points": 108, "visibility_pct": 17.592592592592592 }, "geometry": { "type": "Point", "coordinates": [ -2.21896503092314, 53.35030171968787 ] } },
{ "type": "Feature", "properties": { "visible_points": 5, "total_points": 106, "visibility_pct": 4.716981132075472 }, "geometry": { "type": "Point", "coordinates": [ -2.218756879177993, 53.350302103183843 ] } },
{ "type": "Feature", "properties": { "visible_points": 31, "total_points": 105, "visibility_pct": 29.523809523809526 }, "geometry": { "type": "Point", "coordinates": [ -2.218548727428096, 53.35030248631675 ] } },
{ "type": "Feature", "properties": { "visible_points": 35, "total_points": 104, "visibility_pct": 33.653846153846153 }, "geometry": { "type": "Point", "coordinates": [ -2.218340575673438, 53.350302869086583 ] } },
{ "type": "Feature", "properties": { "visible_points": 37, "total_points": 103, "visibility_pct": 35.922330097087382 }, "geometry": { "type": "Point", "coordinates": [ -2.218132423955211, 53.350303251512315 ] } },
{ "type": "Feature", "properties": { "visible_points": 41, "total_points": 97, "visibility_pct": 42.268041237113401 }, "geometry": { "type": "Point", "coordinates": [ -2.217924272372109, 53.350303633742044 ] } },
{ "type": "Feature", "properties": { "visible_points": 37, "total_points": 89, "visibility_pct": 41.573033707865171 }, "geometry": { "type": "Point", "coordinates": [ -2.217716120862193, 53.350304015661862 ] } },
{ "type": "Feature", "properties": { "visible_points": 32, "total_points": 79, "visibility_pct": 40.506329113924053 }, "geometry": { "type": "Point", "coordinates": [ -2.217507969347567, 53.350304397218594 ] } },
{ "type": "Feature", "properties": { "visible_points": 0, "total_points": 84, "visibility_pct": 0.0 }, "geometry": { "type": "Point", "coordinates": [ -2.221983790053729, 53.350403981116358 ] } },
{ "type": "Feature", "properties": { "visible_points": 0, "total_points": 89, "visibility_pct": 0.0 }, "geometry": { "type": "Point", "coordinates": [ -2.22177563784748, 53.350404369878028 ] } },
{ "type": "Feature", "properties": { "visible_points": 0, "total_points": 94, "visibility_pct": 0.0 }, "geometry": { "type": "Point", "coordinates": [ -2.221567485636399, 53.350404758276625 ] } },
{ "type": "Feature", "properties": { "visible_points": 28, "total_points": 99, "visibility_pct": 28.28282828282828 }, "geometry": { "type": "Point", "coordinates": [ -2.22135933342049, 53.350405146312163 ] } },
{ "type": "Feature", "properties": { "visible_points": 32, "total_points": 103, "visibility_pct": 31.067961165048541 }, "geometry": { "type": "Point", "coordinates": [ -2.221151181199755, 53.350405533984606 ] } },
{ "type": "Feature", "properties": { "visible_points": 29, "total_points": 108, "visibility_pct": 26.851851851851855 }, "geometry": { "type": "Point", "coordinates": [ -2.220943028974208, 53.350405921294005 ] } },
{ "type": "Feature", "properties": { "visible_points": 26, "total_points": 112, "visibility_pct": 23.214285714285715 }, "geometry": { "type": "Point", "coordinates": [ -2.220734876743843, 53.350406308240302 ] } },
{ "type": "Feature", "properties": { "visible_points": 0, "total_points": 115, "visibility_pct": 0.0 }, "geometry": { "type": "Point", "coordinates": [ -2.22052672450867, 53.350406694823548 ] } },
{ "type": "Feature", "properties": { "visible_points": 9, "total_points": 118, "visibility_pct": 7.6271186440677967 }, "geometry": { "type": "Point", "coordinates": [ -2.220318572268693, 53.350407081043727 ] } },
{ "type": "Feature", "properties": { "visible_points": 32, "total_points": 119, "visibility_pct": 26.890756302521009 }, "geometry": { "type": "Point", "coordinates": [ -2.220110420023917, 53.350407466900826 ] } },
{ "type": "Feature", "properties": { "visible_points": 40, "total_points": 116, "visibility_pct": 34.482758620689658 }, "geometry": { "type": "Point", "coordinates": [ -2.219902267774344, 53.350407852394859 ] } },
{ "type": "Feature", "properties": { "visible_points": 42, "total_points": 112, "visibility_pct": 37.5 }, "geometry": { "type": "Point", "coordinates": [ -2.219694115519986, 53.350408237525812 ] } },
{ "type": "Feature", "properties": { "visible_points": 0, "total_points": 109, "visibility_pct": 0.0 }, "geometry": { "type": "Point", "coordinates": [ -2.219485963260834, 53.350408622293699 ] } },
{ "type": "Feature", "properties": { "visible_points": 0, "total_points": 106, "visibility_pct": 0.0 }, "geometry": { "type": "Point", "coordinates": [ -2.219277810996902, 53.350409006698513 ] } },
{ "type": "Feature", "properties": { "visible_points": 0, "total_points": 103, "visibility_pct": 0.0 }, "geometry": { "type": "Point", "coordinates": [ -2.219069658728197, 53.350409390740261 ] } },
{ "type": "Feature", "properties": { "visible_points": 0, "total_points": 100, "visibility_pct": 0.0 }, "geometry": { "type": "Point", "coordinates": [ -2.218861506454717, 53.350409774418928 ] } },
{ "type": "Feature", "properties": { "visible_points": 22, "total_points": 98, "visibility_pct": 22.448979591836736 }, "geometry": { "type": "Point", "coordinates": [ -2.218653354176469, 53.350410157734551 ] } },
{ "type": "Feature", "properties": { "visible_points": 30, "total_points": 96, "visibility_pct": 31.25 }, "geometry": { "type": "Point", "coordinates": [ -2.218445201893463, 53.350410540687065 ] } },
{ "type": "Feature", "properties": { "visible_points": 30, "total_points": 95, "visibility_pct": 31.578947368421051 }, "geometry": { "type": "Point", "coordinates": [ -2.218237049605689, 53.35041092327652 ] } },
{ "type": "Feature", "properties": { "visible_points": 34, "total_points": 90, "visibility_pct": 37.777777777777779 }, "geometry": { "type": "Point", "coordinates": [ -2.218028897423885, 53.350411305595138 ] } },
{ "type": "Feature", "properties": { "visible_points": 32, "total_points": 84, "visibility_pct": 38.095238095238095 }, "geometry": { "type": "Point", "coordinates": [ -2.217820745373168, 53.350411687689153 ] } },
{ "type": "Feature", "properties": { "visible_points": 31, "total_points": 76, "visibility_pct": 40.789473684210527 }, "geometry": { "type": "Point", "coordinates": [ -2.217612593334684, 53.350412069427811 ] } },
{ "type": "Feature", "properties": { "visible_points": 4, "total_points": 67, "visibility_pct": 5.9701492537313428 }, "geometry": { "type": "Point", "coordinates": [ -2.217404441291499, 53.350412450803375 ] } },
{ "type": "Feature", "properties": { "visible_points": 0, "total_points": 82, "visibility_pct": 0.0 }, "geometry": { "type": "Point", "coordinates": [ -2.221672120325401, 53.350512427074918 ] } },
{ "type": "Feature", "properties": { "visible_points": 0, "total_points": 87, "visibility_pct": 0.0 }, "geometry": { "type": "Point", "coordinates": [ -2.22146396758085, 53.350512815293037 ] } },
{ "type": "Feature", "properties": { "visible_points": 23, "total_points": 92, "visibility_pct": 25.0 }, "geometry": { "type": "Point", "coordinates": [ -2.221255814831473, 53.35051320314809 ] } },
{ "type": "Feature", "properties": { "visible_points": 25, "total_points": 97, "visibility_pct": 25.773195876288657 }, "geometry": { "type": "Point", "coordinates": [ -2.22104766207727, 53.35051359064007 ] } },
{ "type": "Feature", "properties": { "visible_points": 21, "total_points": 102, "visibility_pct": 20.588235294117645 }, "geometry": { "type": "Point", "coordinates": [ -2.22083950931826, 53.350513977768991 ] } },
{ "type": "Feature", "properties": { "visible_points": 9, "total_points": 107, "visibility_pct": 8.4112149532710276 }, "geometry": { "type": "Point", "coordinates": [ -2.220631356554435, 53.350514364534831 ] } },
{ "type": "Feature", "properties": { "visible_points": 11, "total_points": 111, "visibility_pct": 9.9099099099099099 }, "geometry": { "type": "Point", "coordinates": [ -2.220423203785799, 53.350514750937599 ] } },
{ "type": "Feature", "properties": { "visible_points": 18, "total_points": 114, "visibility_pct": 15.789473684210526 }, "geometry": { "type": "Point", "coordinates": [ -2.220215051012368, 53.3505151369773 ] } },
{ "type": "Feature", "properties": { "visible_points": 23, "total_points": 113, "visibility_pct": 20.353982300884958 }, "geometry": { "type": "Point", "coordinates": [ -2.220006898234134, 53.350515522653915 ] } },
{ "type": "Feature", "properties": { "visible_points": 34, "total_points": 110, "visibility_pct": 30.909090909090907 }, "geometry": { "type": "Point", "coordinates": [ -2.21979874545111, 53.350515907967477 ] } },
{ "type": "Feature", "properties": { "visible_points": 26, "total_points": 106, "visibility_pct": 24.528301886792452 }, "geometry": { "type": "Point", "coordinates": [ -2.219590592663295, 53.350516292917945 ] } },
{ "type": "Feature", "properties": { "visible_points": 0, "total_points": 94, "visibility_pct": 0.0 }, "geometry": { "type": "Point", "coordinates": [ -2.218966134271173, 53.35051744559096 ] } },
{ "type": "Feature", "properties": { "visible_points": 0, "total_points": 91, "visibility_pct": 0.0 }, "geometry": { "type": "Point", "coordinates": [ -2.218757981464252, 53.350517829089135 ] } },
{ "type": "Feature", "properties": { "visible_points": 0, "total_points": 88, "visibility_pct": 0.0 }, "geometry": { "type": "Point", "coordinates": [ -2.218549828652564, 53.350518212224266 ] } },
{ "type": "Feature", "properties": { "visible_points": 0, "total_points": 86, "visibility_pct": 0.0 }, "geometry": { "type": "Point", "coordinates": [ -2.218341675836117, 53.350518594996295 ] } },
{ "type": "Feature", "properties": { "visible_points": 0, "total_points": 82, "visibility_pct": 0.0 }, "geometry": { "type": "Point", "coordinates": [ -2.218133523056973, 53.350518977423754 ] } },
{ "type": "Feature", "properties": { "visible_points": 23, "total_points": 77, "visibility_pct": 29.870129870129869 }, "geometry": { "type": "Point", "coordinates": [ -2.2179253704178, 53.350519359653035 ] } },
{ "type": "Feature", "properties": { "visible_points": 27, "total_points": 71, "visibility_pct": 38.028169014084504 }, "geometry": { "type": "Point", "coordinates": [ -2.217717217855343, 53.350519741572811 ] } },
{ "type": "Feature", "properties": { "visible_points": 18, "total_points": 64, "visibility_pct": 28.125 }, "geometry": { "type": "Point", "coordinates": [ -2.217509065288169, 53.350520123129506 ] } },
{ "type": "Feature", "properties": { "visible_points": 0, "total_points": 85, "visibility_pct": 0.0 }, "geometry": { "type": "Point", "coordinates": [ -2.221152295713801, 53.350621259892378 ] } },
{ "type": "Feature", "properties": { "visible_points": 0, "total_points": 91, "visibility_pct": 0.0 }, "geometry": { "type": "Point", "coordinates": [ -2.220944142426129, 53.35062164720388 ] } },
{ "type": "Feature", "properties": { "visible_points": 12, "total_points": 96, "visibility_pct": 12.5 }, "geometry": { "type": "Point", "coordinates": [ -2.220735989133651, 53.35062203415233 ] } },
{ "type": "Feature", "properties": { "visible_points": 2, "total_points": 101, "visibility_pct": 1.9801980198019802 }, "geometry": { "type": "Point", "coordinates": [ -2.220527835836359, 53.350622420737686 ] } },
{ "type": "Feature", "properties": { "visible_points": 16, "total_points": 104, "visibility_pct": 15.384615384615385 }, "geometry": { "type": "Point", "coordinates": [ -2.220319682534266, 53.35062280695999 ] } },
{ "type": "Feature", "properties": { "visible_points": 20, "total_points": 103, "visibility_pct": 19.417475728155338 }, "geometry": { "type": "Point", "coordinates": [ -2.220111529227372, 53.350623192819207 ] } },
{ "type": "Feature", "properties": { "visible_points": 22, "total_points": 101, "visibility_pct": 21.782178217821784 }, "geometry": { "type": "Point", "coordinates": [ -2.21990337591568, 53.350623578315343 ] } },
{ "type": "Feature", "properties": { "visible_points": 23, "total_points": 99, "visibility_pct": 23.232323232323232 }, "geometry": { "type": "Point", "coordinates": [ -2.219695222599204, 53.35062396344842 ] } },
{ "type": "Feature", "properties": { "visible_points": 0, "total_points": 96, "visibility_pct": 0.0 }, "geometry": { "type": "Point", "coordinates": [ -2.219487069277934, 53.350624348218432 ] } },
{ "type": "Feature", "properties": { "visible_points": 0, "total_points": 58, "visibility_pct": 0.0 }, "geometry": { "type": "Point", "coordinates": [ -2.217613689813521, 53.350627795363337 ] } },
{ "type": "Feature", "properties": { "visible_points": 0, "total_points": 84, "visibility_pct": 0.0 }, "geometry": { "type": "Point", "coordinates": [ -2.22084062224633, 53.350729703676038 ] } },
{ "type": "Feature", "properties": { "visible_points": 0, "total_points": 89, "visibility_pct": 0.0 }, "geometry": { "type": "Point", "coordinates": [ -2.220632468420375, 53.350730090444003 ] } },
{ "type": "Feature", "properties": { "visible_points": 16, "total_points": 93, "visibility_pct": 17.20430107526882 }, "geometry": { "type": "Point", "coordinates": [ -2.220424314589622, 53.350730476848888 ] } },
{ "type": "Feature", "properties": { "visible_points": 18, "total_points": 92, "visibility_pct": 19.565217391304348 }, "geometry": { "type": "Point", "coordinates": [ -2.220216160754062, 53.350730862890714 ] } },
{ "type": "Feature", "properties": { "visible_points": 19, "total_points": 91, "visibility_pct": 20.87912087912088 }, "geometry": { "type": "Point", "coordinates": [ -2.220008006913707, 53.350731248569446 ] } },
{ "type": "Feature", "properties": { "visible_points": 18, "total_points": 89, "visibility_pct": 20.224719101123593 }, "geometry": { "type": "Point", "coordinates": [ -2.219799853068559, 53.350731633885118 ] } },
{ "type": "Feature", "properties": { "visible_points": 0, "total_points": 87, "visibility_pct": 0.0 }, "geometry": { "type": "Point", "coordinates": [ -2.21959169921862, 53.350732018837711 ] } },
{ "type": "Feature", "properties": { "visible_points": 0, "total_points": 81, "visibility_pct": 0.0 }, "geometry": { "type": "Point", "coordinates": [ -2.220528947178435, 53.350838146644016 ] } },
{ "type": "Feature", "properties": { "visible_points": 9, "total_points": 81, "visibility_pct": 11.111111111111111 }, "geometry": { "type": "Point", "coordinates": [ -2.22032079281421, 53.350838532868423 ] } },
{ "type": "Feature", "properties": { "visible_points": 19, "total_points": 80, "visibility_pct": 23.75 }, "geometry": { "type": "Point", "coordinates": [ -2.220112638445187, 53.350838918729757 ] } },
{ "type": "Feature", "properties": { "visible_points": 20, "total_points": 78, "visibility_pct": 25.641025641025639 }, "geometry": { "type": "Point", "coordinates": [ -2.219904484071363, 53.350839304228032 ] } },
{ "type": "Feature", "properties": { "visible_points": 0, "total_points": 77, "visibility_pct": 0.0 }, "geometry": { "type": "Point", "coordinates": [ -2.219696329692757, 53.350839689363205 ] } },
{ "type": "Feature", "properties": { "visible_points": 0, "total_points": 69, "visibility_pct": 0.0 }, "geometry": { "type": "Point", "coordinates": [ -2.220217270510124, 53.350946588796297 ] } },
{ "type": "Feature", "properties": { "visible_points": 0, "total_points": 68, "visibility_pct": 0.0 }, "geometry": { "type": "Point", "coordinates": [ -2.220009115607632, 53.350946974477147 ] } },
{ "type": "Feature", "properties": { "visible_points": 16, "total_points": 66, "visibility_pct": 24.242424242424242 }, "geometry": { "type": "Point", "coordinates": [ -2.219800960700344, 53.350947359794944 ] } },
{ "type": "Feature", "properties": { "visible_points": 0, "total_points": 56, "visibility_pct": 0.0 }, "geometry": { "type": "Point", "coordinates": [ -2.219905592241394, 53.351055030132862 ] } },
{ "type": "Feature", "properties": { "visible_points": 0, "total_points": 54, "visibility_pct": 0.0 }, "geometry": { "type": "Point", "coordinates": [ -2.219697436800637, 53.35105541527016 ] } }
]
}
