{
"type": "FeatureCollection",
"name": "WESFU_154",
"crs": { "type": "name", "properties": { "name": "urn:ogc:def:crs:OGC:1.3:CRS84" } },
"features": [
{ "type": "Feature", "properties": { "osm_id": 1808099881, "name": null, "amenity": "bench", "man_made": null, "leisure": null, "playground": null, "memorial": null }, "geometry": { "type": "Point", "coordinates": [ -2.9421246, 54.3999938 ] } },
{ "type": "Feature", "properties": { "osm_id": 1808099888, "name": null, "amenity": "bench", "man_made": null, "leisure": null, "playground": null, "memorial": null }, "geometry": { "type": "Point", "coordinates": [ -2.9419596, 54.4000188 ] } },
{ "type": "Feature", "properties": { "osm_id": 1808099944, "name": null, "amenity": "bench", "man_made": null, "leisure": null, "playground": null, "memorial": null }, "geometry": { "type": "Point", "coordinates": [ -2.9421501, 54.4001016 ] } },
{ "type": "Feature", "properties": { "osm_id": 1808099940, "name": null, "amenity": "bench", "man_made": null, "leisure": null, "playground": null, "memorial": null }, "geometry": { "type": "Point", "coordinates": [ -2.9420213, 54.4001117 ] } },
{ "type": "Feature", "properties": { "osm_id": 1808099890, "name": null, "amenity": "bench", "man_made": null, "leisure": null, "playground": null, "memorial": null }, "geometry": { "type": "Point", "coordinates": [ -2.9420629, 54.4001453 ] } },
{ "type": "Feature", "properties": { "osm_id": 1808099912, "name": null, "amenity": "bench", "man_made": null, "leisure": null, "playground": null, "memorial": null }, "geometry": { "type": "Point", "coordinates": [ -2.941977, 54.4001984 ] } }
]
}
