{
"type": "FeatureCollection",
"name": "CHORL_274_NACH",
"crs": { "type": "name", "properties": { "name": "urn:ogc:def:crs:OGC:1.3:CRS84" } },
"features": [
{"type":"Feature","properties":{"id":14178,"nach":0.55348447125668521},"geometry":{"type":"LineString","coordinates":[[-2.6746211,53.6605613],[-2.6746495,53.6606936],[-2.6746562,53.6607477],[-2.6746542,53.6607941],[-2.6746438,53.660842599999988],[-2.6745948,53.660964500000013]]}},
{"type":"Feature","properties":{"id":36538,"nach":0.56524078541342548},"geometry":{"type":"LineString","coordinates":[[-2.6740856,53.6609552],[-2.6741808,53.6609618],[-2.6742695,53.6609655],[-2.6743605,53.6609663],[-2.6745948,53.660964500000013]]}},
{"type":"Feature","properties":{"id":1601,"nach":0.60607149903015001},"geometry":{"type":"LineString","coordinates":[[-2.6746167,53.6627054],[-2.6746101,53.6621625],[-2.6746686,53.661750299999987],[-2.6746846,53.6616373],[-2.6747383,53.661325900000016],[-2.674741,53.6612651],[-2.6747365,53.6612021],[-2.6747247,53.6611474],[-2.674713,53.661097],[-2.674692,53.661059500000015],[-2.6746627,53.6610216],[-2.6745948,53.660964500000013]]}},
{"type":"Feature","properties":{"id":35098,"nach":0.66631439465228748},"geometry":{"type":"LineString","coordinates":[[-2.6746031,53.6604799],[-2.6746211,53.6605613]]}},
{"type":"Feature","properties":{"id":36539,"nach":0.64947220166877628},"geometry":{"type":"LineString","coordinates":[[-2.6740856,53.6609552],[-2.6740869,53.6608963],[-2.6740846,53.6608232],[-2.6741262,53.660740600000011],[-2.6741798,53.660691300000011],[-2.6743019,53.6606158],[-2.6744078,53.6605769],[-2.6745366,53.6605673],[-2.6746211,53.6605613]]}},
{"type":"Feature","properties":{"id":36537,"nach":0.66739227599354822},"geometry":{"type":"LineString","coordinates":[[-2.6740856,53.6609552],[-2.6739364,53.6609456]]}},
{"type":"Feature","properties":{"id":36571,"nach":0.65195976956551338},"geometry":{"type":"LineString","coordinates":[[-2.6742161,53.6589486],[-2.6741911,53.6588633]]}},
{"type":"Feature","properties":{"id":321,"nach":0.56518050807962283},"geometry":{"type":"LineString","coordinates":[[-2.6759348,53.658768400000014],[-2.675396,53.658803],[-2.6748346,53.6588331],[-2.6744238,53.6588506],[-2.6741911,53.6588633]]}},
{"type":"Feature","properties":{"id":16836,"nach":0.6443793861334679},"geometry":{"type":"LineString","coordinates":[[-2.6741133,53.6586071],[-2.6741374,53.6586597],[-2.6741911,53.6588633]]}},
{"type":"Feature","properties":{"id":36572,"nach":0.6470747589889122},"geometry":{"type":"LineString","coordinates":[[-2.6742161,53.6589486],[-2.6742971,53.6592315]]}},
{"type":"Feature","properties":{"id":36596,"nach":0.48494393523374019},"geometry":{"type":"LineString","coordinates":[[-2.6773705,53.6588399],[-2.6772295,53.6588492],[-2.6769653,53.6588873],[-2.6766555,53.6589183],[-2.6764168,53.6589032],[-2.6759219,53.6589016],[-2.6758267,53.6589398],[-2.6752795,53.6590391],[-2.6749054,53.658997],[-2.6745071,53.6589747],[-2.6743877,53.6589588],[-2.6742161,53.6589486]]}},
{"type":"Feature","properties":{"id":36584,"nach":0.52927031471831554},"geometry":{"type":"LineString","coordinates":[[-2.6783371,53.658306],[-2.6779074,53.658421499999989],[-2.6773626,53.6585631],[-2.6766131,53.6587088],[-2.6759348,53.658768400000014]]}},
{"type":"Feature","properties":{"id":16846,"nach":0.50212412292041131},"geometry":{"type":"LineString","coordinates":[[-2.6763073,53.6568192],[-2.6762837,53.6571925],[-2.6762141,53.657617],[-2.6760601,53.657862],[-2.6759633,53.6580223],[-2.6759138,53.6581783],[-2.6758708,53.6583322],[-2.6758837,53.6585391],[-2.6759348,53.658768400000014]]}},
{"type":"Feature","properties":{"id":16835,"nach":0.60941946308301742},"geometry":{"type":"LineString","coordinates":[[-2.6741133,53.6586071],[-2.6736467,53.658566]]}},
{"type":"Feature","properties":{"id":36277,"nach":0.58938699274474893},"geometry":{"type":"LineString","coordinates":[[-2.6741218,53.6584828],[-2.6741133,53.6586071]]}},
{"type":"Feature","properties":{"id":36583,"nach":0.51788582236999159},"geometry":{"type":"LineString","coordinates":[[-2.6783371,53.658306],[-2.6784525,53.6582662],[-2.6791871,53.6580501],[-2.6803428,53.6577287],[-2.6804394,53.6576986]]}},
{"type":"Feature","properties":{"id":36585,"nach":0.49280501921042597},"geometry":{"type":"LineString","coordinates":[[-2.6783371,53.658306],[-2.6784539,53.6584097],[-2.6789013,53.6584279],[-2.6790803,53.6584708],[-2.6792398,53.658568600000017],[-2.6794481,53.6587017],[-2.6795939,53.658773700000012],[-2.6797789,53.6588372]]}},
{"type":"Feature","properties":{"id":16847,"nach":0.38544087886311451},"geometry":{"type":"LineString","coordinates":[[-2.6763073,53.6568192],[-2.6763648,53.6564821],[-2.6764465,53.6563613]]}},
{"type":"Feature","properties":{"id":16852,"nach":0.45740184149811974},"geometry":{"type":"LineString","coordinates":[[-2.675561,53.65679810000001],[-2.6758894,53.65680170000001],[-2.676188,53.6568099],[-2.6763073,53.6568192]]}},
{"type":"Feature","properties":{"id":37043,"nach":0.42165162508065152},"geometry":{"type":"LineString","coordinates":[[-2.6758635,53.6533368],[-2.6759439,53.6530985]]}},
{"type":"Feature","properties":{"id":9848,"nach":0.33873641171246527},"geometry":{"type":"LineString","coordinates":[[-2.6800954,53.6538174],[-2.6797058,53.653778499999987],[-2.6787967,53.6535837],[-2.6771603,53.653272],[-2.6759439,53.6530985]]}},
{"type":"Feature","properties":{"id":16355,"nach":0.40723243849015939},"geometry":{"type":"LineString","coordinates":[[-2.6764044,53.6512546],[-2.6763935,53.6513946],[-2.6763589,53.6516741],[-2.6761892,53.6523487],[-2.6759439,53.6530985]]}},
{"type":"Feature","properties":{"id":37044,"nach":0.4272858150461411},"geometry":{"type":"LineString","coordinates":[[-2.6758635,53.6533368],[-2.6758516,53.6533721],[-2.6757564,53.6536461]]}},
{"type":"Feature","properties":{"id":37048,"nach":0.0},"geometry":{"type":"LineString","coordinates":[[-2.675724,53.6537503],[-2.6758521,53.6537437],[-2.6759688,53.6537203],[-2.6760595,53.6536842],[-2.6761214,53.6536509],[-2.6761813,53.6535881],[-2.6761879,53.6535428],[-2.6761494,53.6534944],[-2.6760827,53.6534494],[-2.6760185,53.6534124],[-2.6758635,53.6533368]]}},
{"type":"Feature","properties":{"id":38707,"nach":0.28973398097716818},"geometry":{"type":"LineString","coordinates":[[-2.6802591,53.6541242],[-2.6800954,53.6538174]]}},
{"type":"Feature","properties":{"id":43273,"nach":0.28101693447451503},"geometry":{"type":"LineString","coordinates":[[-2.6825403,53.65324660000001],[-2.6823682,53.653285],[-2.6819007,53.6534668],[-2.6814981,53.653609599999989],[-2.6808097,53.6537265],[-2.6800954,53.6538174]]}},
{"type":"Feature","properties":{"id":35931,"nach":0.4105138058290746},"geometry":{"type":"LineString","coordinates":[[-2.6764154,53.6508714],[-2.6764044,53.6512546]]}},
{"type":"Feature","properties":{"id":46333,"nach":0.35581357944211833},"geometry":{"type":"LineString","coordinates":[[-2.6806041,53.650986],[-2.6805839,53.6509834],[-2.6805614,53.65098540000001],[-2.680504,53.6509959],[-2.6803879,53.6510168],[-2.6796727,53.6511589],[-2.6795489,53.651182],[-2.6794064,53.6511992],[-2.6792518,53.6512102],[-2.6791387,53.6512132],[-2.6790113,53.6512132],[-2.6786054,53.651211499999988],[-2.6784942,53.651210700000014],[-2.6783307,53.6512168],[-2.6781689,53.651231400000015],[-2.6778382,53.651274200000024],[-2.6776402,53.6512919],[-2.6774146,53.6512987],[-2.6767019,53.651268],[-2.6765686,53.6512624],[-2.6764044,53.6512546]]}},
{"type":"Feature","properties":{"id":20118,"nach":0.38264254971698297},"geometry":{"type":"LineString","coordinates":[[-2.6774936,53.6456959],[-2.6771933,53.6459487]]}},
{"type":"Feature","properties":{"id":29132,"nach":0.4006139274478146},"geometry":{"type":"LineString","coordinates":[[-2.6769193,53.6467913],[-2.6771025,53.6460958],[-2.6771933,53.6459487]]}},
{"type":"Feature","properties":{"id":14547,"nach":0.32255528946806072},"geometry":{"type":"LineString","coordinates":[[-2.6770793,53.645718],[-2.6771352,53.6458199],[-2.6771933,53.6459487]]}},
{"type":"Feature","properties":{"id":20120,"nach":0.42624241061305651},"geometry":{"type":"LineString","coordinates":[[-2.6774936,53.6456959],[-2.6777203,53.645497400000018],[-2.6778214,53.6453819]]}},
{"type":"Feature","properties":{"id":20119,"nach":0.36651072445968191},"geometry":{"type":"LineString","coordinates":[[-2.6774936,53.6456959],[-2.6773475,53.6456989],[-2.6770793,53.645718]]}},
{"type":"Feature","properties":{"id":29134,"nach":0.11804505634955582},"geometry":{"type":"LineString","coordinates":[[-2.6769193,53.6467913],[-2.6768118,53.6467898],[-2.6765375,53.6467858],[-2.6763149,53.64687090000001],[-2.6744789,53.6476078],[-2.6718718,53.6485013],[-2.6710403,53.6485268],[-2.670697,53.6484409],[-2.6693688,53.6486297],[-2.6687215,53.648684200000019],[-2.6687215,53.648791499999987],[-2.6684533,53.6488161],[-2.6684345,53.6487144],[-2.6677761,53.6487175],[-2.6672637,53.6488654],[-2.6669633,53.6489974],[-2.6666983,53.6490554]]}},
{"type":"Feature","properties":{"id":52965,"nach":0.39570810124017719},"geometry":{"type":"LineString","coordinates":[[-2.6765048,53.649839900000011],[-2.6765292,53.64950390000002],[-2.6765901,53.648406],[-2.6767299,53.6475104],[-2.6769193,53.6467913]]}},
{"type":"Feature","properties":{"id":38523,"nach":0.38362888951496005},"geometry":{"type":"LineString","coordinates":[[-2.6768062,53.6455934],[-2.6770793,53.645718]]}},
{"type":"Feature","properties":{"id":14527,"nach":0.36060728633119299},"geometry":{"type":"LineString","coordinates":[[-2.6778214,53.6453819],[-2.677868,53.6453184],[-2.6780968,53.64491],[-2.6782639,53.6445423],[-2.6784342,53.6439159],[-2.6785518,53.643473500000013],[-2.6786854,53.6430967],[-2.6789536,53.642466],[-2.6791258,53.6419111],[-2.6791159,53.6416014],[-2.6790528,53.6413751],[-2.6788874,53.6409734]]}},
{"type":"Feature","properties":{"id":38519,"nach":0.42812642248020205},"geometry":{"type":"LineString","coordinates":[[-2.6782137,53.6453336],[-2.6778214,53.6453819]]}},
{"type":"Feature","properties":{"id":38711,"nach":0.29549402207857101},"geometry":{"type":"LineString","coordinates":[[-2.6851086,53.644028],[-2.6843226,53.644358],[-2.683463,53.6447688],[-2.6809095,53.6451504],[-2.6793712,53.645222900000014],[-2.6784667,53.6453024],[-2.6782137,53.6453336]]}},
{"type":"Feature","properties":{"id":31265,"nach":0.65648528157962571},"geometry":{"type":"LineString","coordinates":[[-2.6719354,53.6607691],[-2.6722035,53.6607689],[-2.6726443,53.6608023],[-2.6727702,53.6608096],[-2.6728563,53.6608107],[-2.6729626,53.6608059]]}},
{"type":"Feature","properties":{"id":36535,"nach":0.66928642716798681},"geometry":{"type":"LineString","coordinates":[[-2.6738943,53.660941900000012],[-2.6736875,53.6609197],[-2.6732489,53.6608546],[-2.6731225,53.6608382],[-2.6729626,53.6608059]]}},
{"type":"Feature","properties":{"id":13873,"nach":0.60888304870837684},"geometry":{"type":"LineString","coordinates":[[-2.6723523,53.6603723],[-2.6724338,53.660416100000013],[-2.6729495,53.6606354],[-2.6729739,53.660654],[-2.6729876,53.660673],[-2.6729929,53.6606938],[-2.6729908,53.6607168],[-2.6729626,53.6608059]]}},
{"type":"Feature","properties":{"id":31266,"nach":0.44745414078023094},"geometry":{"type":"LineString","coordinates":[[-2.6719354,53.6607691],[-2.6719026,53.6605626],[-2.6718731,53.6605633],[-2.6718691,53.6604902],[-2.6718932,53.6604894],[-2.6718812,53.6603686],[-2.6718585,53.6603639]]}},
{"type":"Feature","properties":{"id":31272,"nach":0.65403098719831188},"geometry":{"type":"LineString","coordinates":[[-2.6717162,53.6607797],[-2.6719354,53.6607691]]}},
{"type":"Feature","properties":{"id":36534,"nach":0.67089674413804623},"geometry":{"type":"LineString","coordinates":[[-2.6738943,53.660941900000012],[-2.6739364,53.6609456]]}},
{"type":"Feature","properties":{"id":36536,"nach":0.46723263639833962},"geometry":{"type":"LineString","coordinates":[[-2.6738943,53.660941900000012],[-2.6738895,53.660831899999984],[-2.6738834,53.6607477],[-2.6738794,53.6607112],[-2.673803,53.6606484],[-2.6737225,53.6605769],[-2.6738365,53.660494200000016]]}},
{"type":"Feature","properties":{"id":50035,"nach":0.5785793210057375},"geometry":{"type":"LineString","coordinates":[[-2.6722535,53.6603163],[-2.6723523,53.6603723]]}},
{"type":"Feature","properties":{"id":52339,"nach":0.50928002080564161},"geometry":{"type":"LineString","coordinates":[[-2.6725006,53.6599321],[-2.6725217,53.6599494],[-2.6725379,53.659969],[-2.6725477,53.6599878],[-2.6725537,53.6600065],[-2.6725569,53.660025],[-2.672556,53.6600481],[-2.6725484,53.6600705],[-2.6725352,53.6600953],[-2.6724,53.6602982],[-2.6723523,53.6603723]]}},
{"type":"Feature","properties":{"id":50036,"nach":0.56606372331635713},"geometry":{"type":"LineString","coordinates":[[-2.6722535,53.6603163],[-2.6721923,53.6602995],[-2.6720395,53.6602947]]}},
{"type":"Feature","properties":{"id":50037,"nach":0.0},"geometry":{"type":"LineString","coordinates":[[-2.6722535,53.6603163],[-2.6722543,53.6602512],[-2.6722298,53.6602211],[-2.6721989,53.6602076],[-2.6721658,53.6602039],[-2.6720185,53.6602088]]}},
{"type":"Feature","properties":{"id":52338,"nach":0.41496065011267291},"geometry":{"type":"LineString","coordinates":[[-2.6725006,53.6599321],[-2.6724666,53.6599134],[-2.6724412,53.6599024],[-2.6724199,53.6598891],[-2.6724095,53.659877],[-2.6724046,53.6598617],[-2.6724031,53.659845],[-2.6724297,53.659728],[-2.6724306,53.659710699999984],[-2.6724273,53.65969530000001],[-2.6724137,53.659676],[-2.6723962,53.6596609],[-2.6723739,53.6596486],[-2.6723387,53.6596393],[-2.6720589,53.6596106],[-2.6720255,53.6596046],[-2.6719968,53.659593300000012],[-2.6719749,53.659577600000013],[-2.6719597,53.6595576],[-2.6719182,53.6594337],[-2.6718901,53.6592611],[-2.6718792,53.659098900000011],[-2.6718741,53.6586818],[-2.671901,53.658613]]}},
{"type":"Feature","properties":{"id":52341,"nach":0.43574653456900747},"geometry":{"type":"LineString","coordinates":[[-2.6721975,53.65991480000001],[-2.6724221,53.65993550000001],[-2.6725006,53.6599321]]}},
{"type":"Feature","properties":{"id":31262,"nach":0.437105796171396},"geometry":{"type":"LineString","coordinates":[[-2.6721011,53.6605777],[-2.6720395,53.6602947]]}},
{"type":"Feature","properties":{"id":50032,"nach":0.48675801987063044},"geometry":{"type":"LineString","coordinates":[[-2.6720185,53.6602088],[-2.6720395,53.6602947]]}},
{"type":"Feature","properties":{"id":31260,"nach":0.43841694814282567},"geometry":{"type":"LineString","coordinates":[[-2.6718534,53.6603329],[-2.6718693,53.6603326],[-2.6718678,53.6602932],[-2.6719134,53.66029240000001],[-2.6719174,53.660336100000016],[-2.6720395,53.6602947]]}},
{"type":"Feature","properties":{"id":31261,"nach":0.43841694814282567},"geometry":{"type":"LineString","coordinates":[[-2.6718267,53.6601729],[-2.671852,53.6601721],[-2.6720395,53.6602947]]}},
{"type":"Feature","properties":{"id":50038,"nach":0.43337177731818693},"geometry":{"type":"LineString","coordinates":[[-2.6718263,53.6597288],[-2.6718424,53.659813],[-2.67193,53.6598496],[-2.6719443,53.6599046],[-2.6720185,53.6602088]]}},
{"type":"Feature","properties":{"id":36177,"nach":0.59656768519565284},"geometry":{"type":"LineString","coordinates":[[-2.6729673,53.6616327],[-2.6729844,53.6610253],[-2.6738951,53.6610572],[-2.6739364,53.6609456]]}},
{"type":"Feature","properties":{"id":36176,"nach":0.59076011303996556},"geometry":{"type":"LineString","coordinates":[[-2.6729673,53.6616327],[-2.673149,53.6616346]]}},
{"type":"Feature","properties":{"id":52316,"nach":0.52490840339318601},"geometry":{"type":"LineString","coordinates":[[-2.6726694,53.661632],[-2.6729673,53.6616327]]}},
{"type":"Feature","properties":{"id":13916,"nach":0.58454498682680367},"geometry":{"type":"LineString","coordinates":[[-2.673149,53.6616346],[-2.6731639,53.661842300000011],[-2.6731686,53.6619145],[-2.6731713,53.6619982],[-2.6731708,53.6620615],[-2.6731653,53.6621111],[-2.673152,53.6621856]]}},
{"type":"Feature","properties":{"id":52313,"nach":0.52288891356300049},"geometry":{"type":"LineString","coordinates":[[-2.673505,53.6616473],[-2.6734422,53.6616412],[-2.6733721,53.66163670000001],[-2.6733041,53.661635],[-2.673149,53.6616346]]}},
{"type":"Feature","properties":{"id":52311,"nach":0.44384840011758009},"geometry":{"type":"LineString","coordinates":[[-2.673505,53.6616473],[-2.6736053,53.6616595]]}},
{"type":"Feature","properties":{"id":52312,"nach":0.44293743227372312},"geometry":{"type":"LineString","coordinates":[[-2.673505,53.6616473],[-2.6735352,53.6615311]]}},
{"type":"Feature","properties":{"id":35099,"nach":0.66918161424099887},"geometry":{"type":"LineString","coordinates":[[-2.6746031,53.6604799],[-2.6745635,53.6602799],[-2.6745232,53.6601167]]}},
{"type":"Feature","properties":{"id":35100,"nach":0.43987104394386667},"geometry":{"type":"LineString","coordinates":[[-2.6746031,53.6604799],[-2.6743208,53.66048760000001],[-2.6738365,53.660494200000016]]}},
{"type":"Feature","properties":{"id":16842,"nach":0.65146097904811373},"geometry":{"type":"LineString","coordinates":[[-2.6742971,53.6592315],[-2.6745232,53.6601167]]}},
{"type":"Feature","properties":{"id":14184,"nach":0.65736797298209848},"geometry":{"type":"LineString","coordinates":[[-2.6752822,53.6600554],[-2.6752738,53.6600391],[-2.6752423,53.660016],[-2.6751053,53.6600435],[-2.6748799,53.6600865],[-2.6745232,53.6601167]]}},
{"type":"Feature","properties":{"id":16843,"nach":0.4829882756046191},"geometry":{"type":"LineString","coordinates":[[-2.6742971,53.6592315],[-2.6736026,53.6593057]]}},
{"type":"Feature","properties":{"id":51764,"nach":0.62994426733696396},"geometry":{"type":"LineString","coordinates":[[-2.6754859,53.6602943],[-2.6752822,53.6600554]]}},
{"type":"Feature","properties":{"id":31350,"nach":0.57365624405186999},"geometry":{"type":"LineString","coordinates":[[-2.675646,53.6599481],[-2.6754579,53.6600007],[-2.6752822,53.6600554]]}},
{"type":"Feature","properties":{"id":51763,"nach":0.62459874021602746},"geometry":{"type":"LineString","coordinates":[[-2.6754859,53.6602943],[-2.6755213,53.6603534]]}},
{"type":"Feature","properties":{"id":51765,"nach":0.4151405605278275},"geometry":{"type":"LineString","coordinates":[[-2.6754859,53.6602943],[-2.6756249,53.6603169]]}},
{"type":"Feature","properties":{"id":51761,"nach":0.53709354910846152},"geometry":{"type":"LineString","coordinates":[[-2.676175,53.6602141],[-2.6761503,53.6601998],[-2.6760821,53.6601776],[-2.6759799,53.660142899999983],[-2.67580870000001,53.66007050000001],[-2.6757442,53.6600254],[-2.675646,53.6599481]]}},
{"type":"Feature","properties":{"id":36558,"nach":0.47716709837531551},"geometry":{"type":"LineString","coordinates":[[-2.6761502,53.6590269],[-2.6758415,53.659082],[-2.6753683,53.6591726],[-2.6752427,53.659205],[-2.6752155,53.6592346],[-2.6752298,53.6593131],[-2.6752833,53.6594339],[-2.6753317,53.6595467],[-2.6754044,53.6596584],[-2.6755545,53.6597496],[-2.6755974,53.65980840000001],[-2.675646,53.6599481]]}},
{"type":"Feature","properties":{"id":51755,"nach":0.62060558638065699},"geometry":{"type":"LineString","coordinates":[[-2.6755913,53.660356899999989],[-2.6755213,53.6603534]]}},
{"type":"Feature","properties":{"id":14190,"nach":0.63460171574561486},"geometry":{"type":"LineString","coordinates":[[-2.6755795,53.661006],[-2.6756348,53.6609068],[-2.6756469,53.6608443],[-2.6755875,53.6607516],[-2.675509,53.660703800000014],[-2.6754316,53.6606168],[-2.6754364,53.6604715],[-2.6755213,53.6603534]]}},
{"type":"Feature","properties":{"id":51754,"nach":0.58189115105548428},"geometry":{"type":"LineString","coordinates":[[-2.6755913,53.660356899999989],[-2.6757181,53.6603632]]}},
{"type":"Feature","properties":{"id":51757,"nach":0.54813483717243128},"geometry":{"type":"LineString","coordinates":[[-2.6756249,53.6603169],[-2.6755913,53.660356899999989]]}},
{"type":"Feature","properties":{"id":52118,"nach":0.63185063240510719},"geometry":{"type":"LineString","coordinates":[[-2.6758527,53.6613109],[-2.6758621,53.6612695],[-2.6757801,53.6611386],[-2.6755795,53.661006]]}},
{"type":"Feature","properties":{"id":14196,"nach":0.44101870285922889},"geometry":{"type":"LineString","coordinates":[[-2.6748814,53.660975],[-2.6752531,53.661036300000013],[-2.6755795,53.661006]]}},
{"type":"Feature","properties":{"id":52126,"nach":0.60734348151012951},"geometry":{"type":"LineString","coordinates":[[-2.6758092,53.6615019],[-2.6758527,53.6613109]]}},
{"type":"Feature","properties":{"id":52121,"nach":0.54045220726401588},"geometry":{"type":"LineString","coordinates":[[-2.6755281,53.6613434],[-2.6755647,53.661324800000017],[-2.6755932,53.66131630000001],[-2.6756094,53.6612989],[-2.6756534,53.6613004],[-2.6757559,53.6613058],[-2.6758527,53.6613109]]}},
{"type":"Feature","properties":{"id":52127,"nach":0.63016510962561512},"geometry":{"type":"LineString","coordinates":[[-2.6758092,53.6615019],[-2.6757888,53.6615916],[-2.6757136,53.66176560000001]]}},
{"type":"Feature","properties":{"id":52275,"nach":0.44187903940559792},"geometry":{"type":"LineString","coordinates":[[-2.6758218,53.6615476],[-2.6757694,53.6617621],[-2.675754,53.6617895],[-2.6757737,53.6618423]]}},
{"type":"Feature","properties":{"id":52128,"nach":0.53466137452167706},"geometry":{"type":"LineString","coordinates":[[-2.6758092,53.6615019],[-2.6756264,53.66149],[-2.6755048,53.661482]]}},
{"type":"Feature","properties":{"id":14204,"nach":0.49606303343027813},"geometry":{"type":"LineString","coordinates":[[-2.6767689,53.660333],[-2.6757181,53.6603632]]}},
{"type":"Feature","properties":{"id":14202,"nach":0.53961378575861585},"geometry":{"type":"LineString","coordinates":[[-2.6767951,53.6606535],[-2.676465,53.660719],[-2.6764245,53.660727],[-2.6762002,53.660735699999989],[-2.6760778,53.66074050000001],[-2.6759183,53.6607238],[-2.6758639,53.6606582],[-2.6757663,53.6605124],[-2.6757181,53.6603632]]}},
{"type":"Feature","properties":{"id":14205,"nach":0.42247241598617813},"geometry":{"type":"LineString","coordinates":[[-2.6767689,53.660333],[-2.6767951,53.6606535]]}},
{"type":"Feature","properties":{"id":31348,"nach":0.49903135815044625},"geometry":{"type":"LineString","coordinates":[[-2.6769708,53.6603306],[-2.676916,53.660328],[-2.6767689,53.660333]]}},
{"type":"Feature","properties":{"id":42321,"nach":0.53750209417667372},"geometry":{"type":"LineString","coordinates":[[-2.6768643,53.6610303],[-2.6768743,53.6609833],[-2.6769135,53.6607986],[-2.6767951,53.6606535]]}},
{"type":"Feature","properties":{"id":31347,"nach":0.41785280629555888},"geometry":{"type":"LineString","coordinates":[[-2.6769708,53.6603306],[-2.6771843,53.6603407],[-2.6775061,53.6604106],[-2.6776349,53.6604805],[-2.6782035,53.660951]]}},
{"type":"Feature","properties":{"id":36619,"nach":0.44808148224201005},"geometry":{"type":"LineString","coordinates":[[-2.6769538,53.660217700000018],[-2.6769708,53.6603306]]}},
{"type":"Feature","properties":{"id":42320,"nach":0.52029998191593341},"geometry":{"type":"LineString","coordinates":[[-2.6768643,53.6610303],[-2.6768636,53.6610843]]}},
{"type":"Feature","properties":{"id":42322,"nach":0.0},"geometry":{"type":"LineString","coordinates":[[-2.6768643,53.6610303],[-2.6772513,53.6610292],[-2.6772528,53.66117460000001],[-2.6770203,53.6611831]]}},
{"type":"Feature","properties":{"id":14210,"nach":0.41979158899594982},"geometry":{"type":"LineString","coordinates":[[-2.6766,53.6611948],[-2.6768636,53.6610843]]}},
{"type":"Feature","properties":{"id":42324,"nach":0.47003323517553758},"geometry":{"type":"LineString","coordinates":[[-2.6770203,53.6611831],[-2.6768636,53.6610843]]}},
{"type":"Feature","properties":{"id":38521,"nach":0.3001370737976593},"geometry":{"type":"LineString","coordinates":[[-2.6782137,53.6453336],[-2.6781546,53.6454377],[-2.6780606,53.6455296],[-2.6777314,53.6457836]]}},
{"type":"Feature","properties":{"id":42278,"nach":0.40959022791768418},"geometry":{"type":"LineString","coordinates":[[-2.6782563,53.6452252],[-2.6782545,53.6452367],[-2.6782137,53.6453336]]}},
{"type":"Feature","properties":{"id":14539,"nach":0.32427927581424698},"geometry":{"type":"LineString","coordinates":[[-2.6708544,53.6527026],[-2.6709907,53.6527482],[-2.6710964,53.6527899]]}},
{"type":"Feature","properties":{"id":14536,"nach":0.34066028368916401},"geometry":{"type":"LineString","coordinates":[[-2.6757564,53.6536461],[-2.6752125,53.653544600000011],[-2.6741396,53.65343020000001],[-2.6729594,53.6532839],[-2.6711892,53.6527816],[-2.6710964,53.6527899]]}},
{"type":"Feature","properties":{"id":26537,"nach":0.22353211431457179},"geometry":{"type":"LineString","coordinates":[[-2.6667314,53.6491246],[-2.6668306,53.6491803],[-2.667241,53.649580100000016],[-2.667524,53.6498392],[-2.6678063,53.6500904],[-2.6681201,53.6504147],[-2.6682247,53.6505721],[-2.6682542,53.6507216],[-2.668332,53.6509568],[-2.6685465,53.6512446],[-2.6688282,53.6514624],[-2.6689569,53.6516277],[-2.6692332,53.6528963],[-2.669264,53.6529543],[-2.6693653,53.6529686],[-2.6701885,53.6528858],[-2.6710964,53.6527899]]}},
{"type":"Feature","properties":{"id":14541,"nach":0.27198900532336323},"geometry":{"type":"LineString","coordinates":[[-2.6709532,53.6522729],[-2.6708544,53.6527026]]}},
{"type":"Feature","properties":{"id":38493,"nach":0.14252212058453495},"geometry":{"type":"LineString","coordinates":[[-2.6697931,53.6486508],[-2.668924,53.6487462],[-2.6688516,53.648784300000017],[-2.669085,53.6496937],[-2.6691091,53.64988610000001],[-2.6691574,53.6500879],[-2.6693022,53.6506126],[-2.6695048,53.6513063],[-2.6699983,53.6523746],[-2.6704382,53.65259720000001],[-2.6708544,53.6527026]]}},
{"type":"Feature","properties":{"id":37046,"nach":0.43023956497165838},"geometry":{"type":"LineString","coordinates":[[-2.675724,53.6537503],[-2.6757319,53.653724699999984],[-2.6757564,53.6536461]]}},
{"type":"Feature","properties":{"id":29129,"nach":0.32055772334854749},"geometry":{"type":"LineString","coordinates":[[-2.6666983,53.6490554],[-2.6667314,53.6491246]]}},
{"type":"Feature","properties":{"id":29147,"nach":0.32748593007340226},"geometry":{"type":"LineString","coordinates":[[-2.665494,53.6499688],[-2.6660918,53.649454],[-2.6667314,53.6491246]]}},
{"type":"Feature","properties":{"id":37047,"nach":0.43430094431809824},"geometry":{"type":"LineString","coordinates":[[-2.675724,53.6537503],[-2.6754488,53.6544444],[-2.6754154,53.6546097]]}},
{"type":"Feature","properties":{"id":33171,"nach":0.25128397785080497},"geometry":{"type":"LineString","coordinates":[[-2.676035,53.6453772],[-2.675914,53.6453611],[-2.6727878,53.6441503],[-2.6708834,53.644387199999983]]}},
{"type":"Feature","properties":{"id":33170,"nach":0.25133206318409296},"geometry":{"type":"LineString","coordinates":[[-2.676035,53.6453772],[-2.6758388,53.645512299999979],[-2.6754203,53.6455743],[-2.6738003,53.6457397],[-2.6730895,53.6458589],[-2.6706594,53.6462644],[-2.6700264,53.6463963],[-2.669498,53.6463963],[-2.6691869,53.646386800000016],[-2.6688516,53.646444]]}},
{"type":"Feature","properties":{"id":38524,"nach":0.34087729395221256},"geometry":{"type":"LineString","coordinates":[[-2.6768062,53.6455934],[-2.6765428,53.6454732],[-2.676035,53.6453772]]}},
{"type":"Feature","properties":{"id":38526,"nach":0.29066382701983506},"geometry":{"type":"LineString","coordinates":[[-2.6763975,53.6457682],[-2.676645,53.645689],[-2.6766745,53.6456716],[-2.67672160000001,53.6456448],[-2.6768062,53.6455934]]}},
{"type":"Feature","properties":{"id":14896,"nach":0.44070925679181316},"geometry":{"type":"LineString","coordinates":[[-2.6747752,53.656442199999987],[-2.6748884,53.6561584],[-2.6752913,53.6549857],[-2.6753966,53.6546907],[-2.6754154,53.6546097]]}},
{"type":"Feature","properties":{"id":14894,"nach":0.27004882130182678},"geometry":{"type":"LineString","coordinates":[[-2.6762797,53.6555119],[-2.6763214,53.6553956],[-2.6763355,53.655369],[-2.6764377,53.6551526],[-2.6761907,53.654957800000012],[-2.6758395,53.6548217],[-2.6755724,53.6546763],[-2.6754154,53.6546097]]}},
{"type":"Feature","properties":{"id":14898,"nach":0.36678445926272674},"geometry":{"type":"LineString","coordinates":[[-2.6747752,53.656442199999987],[-2.6750829,53.6561707],[-2.675367,53.6560139],[-2.6759559,53.655720100000011],[-2.6762797,53.6555119]]}},
{"type":"Feature","properties":{"id":52947,"nach":0.4920248132942826},"geometry":{"type":"LineString","coordinates":[[-2.6747079,53.6566992],[-2.674747,53.6565806],[-2.6747752,53.656442199999987]]}},
{"type":"Feature","properties":{"id":21398,"nach":0.28455933149127954},"geometry":{"type":"LineString","coordinates":[[-2.6762797,53.6555119],[-2.691299287812833,53.655341192508224]]}},
{"type":"Feature","properties":{"id":52948,"nach":0.52708736767088182},"geometry":{"type":"LineString","coordinates":[[-2.6747079,53.6566992],[-2.6746961,53.6567351],[-2.6746478,53.656894],[-2.6745723,53.6571895],[-2.6744451,53.6574732]]}},
{"type":"Feature","properties":{"id":52949,"nach":0.42234921838334905},"geometry":{"type":"LineString","coordinates":[[-2.6747079,53.6566992],[-2.6742848,53.6566447],[-2.6742134,53.6566334],[-2.6742402,53.6565619]]}},
{"type":"Feature","properties":{"id":52960,"nach":0.32504502685899017},"geometry":{"type":"LineString","coordinates":[[-2.6806955,53.6510813],[-2.6807534,53.651160899999986]]}},
{"type":"Feature","properties":{"id":46336,"nach":0.2553411094297382},"geometry":{"type":"LineString","coordinates":[[-2.6810475,53.6511042],[-2.6807534,53.651160899999986]]}},
{"type":"Feature","properties":{"id":46341,"nach":0.2553411094297382},"geometry":{"type":"LineString","coordinates":[[-2.6811355,53.6512389],[-2.6809395,53.6512778],[-2.6809175,53.6512794],[-2.6808968,53.6512798],[-2.6808814,53.6512798],[-2.6808587,53.651275],[-2.6808366,53.6512663],[-2.6808052,53.6512481],[-2.6807898,53.6512362],[-2.6807805,53.6512239],[-2.6807705,53.6512073],[-2.6807631,53.6511823],[-2.6807534,53.651160899999986]]}},
{"type":"Feature","properties":{"id":52962,"nach":0.34116305313133527},"geometry":{"type":"LineString","coordinates":[[-2.6806955,53.6510813],[-2.6809953,53.651013200000016],[-2.680981,53.650982200000016],[-2.6809232,53.650860400000013],[-2.6809081,53.650828],[-2.6808532,53.6507946],[-2.6807821,53.6508002],[-2.6807177,53.650855],[-2.68065740000001,53.6509123],[-2.6806041,53.650986]]}},
{"type":"Feature","properties":{"id":46340,"nach":0.0},"geometry":{"type":"LineString","coordinates":[[-2.6811355,53.6512389],[-2.6813232,53.6512017],[-2.6814922,53.6511661],[-2.6815043,53.6511601],[-2.6815136,53.6511475],[-2.6815216,53.6511229],[-2.6815203,53.6510964],[-2.6815103,53.6510694],[-2.6814942,53.6510516],[-2.6814668,53.6510361],[-2.6814488,53.65103220000001],[-2.6814214,53.65103220000001],[-2.6810475,53.6511042]]}},
{"type":"Feature","properties":{"id":52969,"nach":0.40660734090107292},"geometry":{"type":"LineString","coordinates":[[-2.676494,53.6499887],[-2.6764892,53.6500542],[-2.6764154,53.6508714]]}},
{"type":"Feature","properties":{"id":35934,"nach":0.32411342525502246},"geometry":{"type":"LineString","coordinates":[[-2.6756688,53.6510788],[-2.675916,53.6510801],[-2.6759576,53.6510425],[-2.6759838,53.6509583],[-2.6760276,53.650887],[-2.6761019,53.6508662],[-2.6764154,53.6508714]]}},
{"type":"Feature","properties":{"id":16821,"nach":0.41212499185243406},"geometry":{"type":"LineString","coordinates":[[-2.6739204,53.657033],[-2.6737245,53.656939300000019]]}},
{"type":"Feature","properties":{"id":36540,"nach":0.41359575191596748},"geometry":{"type":"LineString","coordinates":[[-2.6740714,53.6569679],[-2.6739204,53.657033]]}},
{"type":"Feature","properties":{"id":16824,"nach":0.49300335334476564},"geometry":{"type":"LineString","coordinates":[[-2.6733094,53.6575201],[-2.6736522,53.6573983],[-2.6737804,53.657337800000015],[-2.6738661,53.6572521],[-2.6739084,53.657111500000013],[-2.6739204,53.657033]]}},
{"type":"Feature","properties":{"id":16830,"nach":0.57257504474868059},"geometry":{"type":"LineString","coordinates":[[-2.6731922,53.6583862],[-2.6731844,53.6581091],[-2.6732358,53.6579102],[-2.6733027,53.6577604],[-2.6733317,53.6576444],[-2.6733094,53.6575201]]}},
{"type":"Feature","properties":{"id":36543,"nach":0.53347558703746367},"geometry":{"type":"LineString","coordinates":[[-2.6725947,53.6573733],[-2.6728527,53.6573911],[-2.6730733,53.6574341],[-2.6732002,53.6574718],[-2.6733094,53.6575201]]}},
{"type":"Feature","properties":{"id":36545,"nach":0.48595364226114929},"geometry":{"type":"LineString","coordinates":[[-2.6730023,53.6583731],[-2.6731922,53.6583862]]}},
{"type":"Feature","properties":{"id":16833,"nach":0.59532498685145441},"geometry":{"type":"LineString","coordinates":[[-2.6736467,53.658566],[-2.6733009,53.65844340000001],[-2.6731922,53.6583862]]}},
{"type":"Feature","properties":{"id":36542,"nach":0.41551188095096225},"geometry":{"type":"LineString","coordinates":[[-2.6725947,53.6573733],[-2.6724778,53.6574595]]}},
{"type":"Feature","properties":{"id":49347,"nach":0.50024354264692839},"geometry":{"type":"LineString","coordinates":[[-2.6728953,53.6564844],[-2.6729612,53.6565575],[-2.6729724,53.656628],[-2.6729541,53.6566838],[-2.6729148,53.656732299999987],[-2.6728527,53.6567844],[-2.67271120000001,53.656835900000011],[-2.672536,53.656899],[-2.6724641,53.6569438],[-2.6724093,53.6570001],[-2.6724292,53.6570798],[-2.6724791,53.6571852],[-2.6725947,53.6573733]]}},
{"type":"Feature","properties":{"id":36546,"nach":0.4273563634658083},"geometry":{"type":"LineString","coordinates":[[-2.6730023,53.6583731],[-2.6727752,53.6582654],[-2.6726679,53.6581573],[-2.6726357,53.6580047]]}},
{"type":"Feature","properties":{"id":36547,"nach":0.30357867877796435},"geometry":{"type":"LineString","coordinates":[[-2.6730023,53.6583731],[-2.6729085,53.658389],[-2.6728368,53.658445],[-2.6727797,53.6585432],[-2.6727966,53.6586787],[-2.672861,53.6589521],[-2.6730112,53.6590919],[-2.6732003,53.6592127],[-2.6733564,53.6592553],[-2.6736026,53.6593057]]}},
{"type":"Feature","properties":{"id":36541,"nach":0.43882329766123884},"geometry":{"type":"LineString","coordinates":[[-2.673579,53.6586592],[-2.6736467,53.658566]]}},
{"type":"Feature","properties":{"id":36278,"nach":0.57182798107911148},"geometry":{"type":"LineString","coordinates":[[-2.6741218,53.6584828],[-2.674142,53.6581893],[-2.6743132,53.6577811],[-2.6744451,53.6574732]]}},
{"type":"Feature","properties":{"id":36279,"nach":0.43667700411428495},"geometry":{"type":"LineString","coordinates":[[-2.6741218,53.6584828],[-2.6746854,53.6585281],[-2.6747753,53.6583087]]}},
{"type":"Feature","properties":{"id":16844,"nach":0.43489023637177038},"geometry":{"type":"LineString","coordinates":[[-2.6733277,53.659881],[-2.6736026,53.6593057]]}},
{"type":"Feature","properties":{"id":16851,"nach":0.37555898530135029},"geometry":{"type":"LineString","coordinates":[[-2.675561,53.65679810000001],[-2.6755132,53.656746],[-2.675508,53.6566731],[-2.6755288,53.6565984]]}},
{"type":"Feature","properties":{"id":16853,"nach":0.3739004978956062},"geometry":{"type":"LineString","coordinates":[[-2.6754745,53.6571086],[-2.6754387,53.6570564],[-2.6754165,53.6569848],[-2.6754494,53.6569124],[-2.6754946,53.6568358],[-2.675561,53.65679810000001]]}},
{"type":"Feature","properties":{"id":16855,"nach":0.41984114282353313},"geometry":{"type":"LineString","coordinates":[[-2.6749612,53.6575486],[-2.674772,53.6579539],[-2.6747171,53.658081]]}},
{"type":"Feature","properties":{"id":16860,"nach":0.50332945045857724},"geometry":{"type":"LineString","coordinates":[[-2.6744451,53.6574732],[-2.6747278,53.6575152],[-2.6749612,53.6575486]]}},
{"type":"Feature","properties":{"id":54057,"nach":0.4221560732151336},"geometry":{"type":"LineString","coordinates":[[-2.6753669,53.657617300000013],[-2.6753501,53.657524400000014],[-2.6749612,53.6575486]]}},
{"type":"Feature","properties":{"id":29135,"nach":0.2937050625954753},"geometry":{"type":"LineString","coordinates":[[-2.6654076,53.6476213],[-2.665523,53.6477009],[-2.6655471,53.6477494],[-2.6656115,53.6478511],[-2.6656861,53.6480179],[-2.6657295,53.648115],[-2.6659012,53.6482835],[-2.6659334,53.648626899999989],[-2.6660514,53.64878430000001],[-2.6666629,53.6489815],[-2.6666983,53.6490554]]}},
{"type":"Feature","properties":{"id":52968,"nach":0.40202653426485147},"geometry":{"type":"LineString","coordinates":[[-2.676494,53.6499887],[-2.6765048,53.649839900000011]]}},
{"type":"Feature","properties":{"id":52967,"nach":0.30989808143958064},"geometry":{"type":"LineString","coordinates":[[-2.6760236,53.6495248],[-2.675933,53.6496009],[-2.6759349,53.6496744],[-2.6759941,53.6497496],[-2.6762666,53.6497847],[-2.6763587,53.6498014],[-2.6764339,53.6498281],[-2.6765048,53.649839900000011]]}},
{"type":"Feature","properties":{"id":31270,"nach":0.44025848431782949},"geometry":{"type":"LineString","coordinates":[[-2.6716706,53.6604942],[-2.6716371,53.6604942],[-2.6716129,53.6603488],[-2.6716357,53.6603488],[-2.6716009,53.6602105],[-2.6715781,53.6602105],[-2.6715459,53.6600762],[-2.6715687,53.660073],[-2.6715539,53.6599983],[-2.6715967,53.65999450000001]]}},
{"type":"Feature","properties":{"id":36620,"nach":0.48371311433972985},"geometry":{"type":"LineString","coordinates":[[-2.6769538,53.660217700000018],[-2.6763985,53.6602167]]}},
{"type":"Feature","properties":{"id":36621,"nach":0.48325296055027755},"geometry":{"type":"LineString","coordinates":[[-2.6769538,53.660217700000018],[-2.6770234,53.660220400000014]]}},
{"type":"Feature","properties":{"id":51760,"nach":0.5844222911548933},"geometry":{"type":"LineString","coordinates":[[-2.676175,53.6602141],[-2.6762825,53.6602156],[-2.6763985,53.6602167]]}},
{"type":"Feature","properties":{"id":51762,"nach":0.54571434498223226},"geometry":{"type":"LineString","coordinates":[[-2.676175,53.6602141],[-2.6758782,53.6603086],[-2.675823,53.6603143],[-2.6756249,53.6603169]]}},
{"type":"Feature","properties":{"id":36560,"nach":0.25365938816275624},"geometry":{"type":"LineString","coordinates":[[-2.6761502,53.6590269],[-2.6763511,53.6590915],[-2.6764995,53.6591609],[-2.6766008,53.6592315],[-2.6767167,53.6593336],[-2.676845,53.6594042],[-2.6769358,53.6594508]]}},
{"type":"Feature","properties":{"id":36612,"nach":0.46597381050668218},"geometry":{"type":"LineString","coordinates":[[-2.6773331,53.6589217],[-2.6772791,53.6589135],[-2.676858,53.6589453],[-2.6763672,53.658988200000017],[-2.6761502,53.6590269]]}},
{"type":"Feature","properties":{"id":35096,"nach":0.44982544399457741},"geometry":{"type":"LineString","coordinates":[[-2.6738365,53.660494200000016],[-2.6737949,53.6603488],[-2.6736702,53.6603019],[-2.6734342,53.6603043],[-2.6732437,53.6603305],[-2.6731874,53.6603718]]}},
{"type":"Feature","properties":{"id":52971,"nach":0.3182440686801627},"geometry":{"type":"LineString","coordinates":[[-2.6763827,53.6498548],[-2.6763677,53.6499429],[-2.6763803,53.6499747],[-2.6764041,53.6499897],[-2.676494,53.6499887]]}},
{"type":"Feature","properties":{"id":36196,"nach":0.45968513825072688},"geometry":{"type":"LineString","coordinates":[[-2.6804394,53.6576986],[-2.6803985,53.6576594],[-2.6803395,53.6574719]]}},
{"type":"Feature","properties":{"id":36191,"nach":0.38282783934423092},"geometry":{"type":"LineString","coordinates":[[-2.6803395,53.6574719],[-2.6804267,53.6573646]]}},
{"type":"Feature","properties":{"id":36192,"nach":0.37588474756193424},"geometry":{"type":"LineString","coordinates":[[-2.6803395,53.6574719],[-2.6802188,53.6574313],[-2.6801249,53.6573701],[-2.680133,53.65727480000001],[-2.680141,53.6571826],[-2.6802108,53.6571444]]}},
{"type":"Feature","properties":{"id":49345,"nach":0.43234141361579465},"geometry":{"type":"LineString","coordinates":[[-2.6728953,53.6564844],[-2.6724181,53.656052]]}},
{"type":"Feature","properties":{"id":54041,"nach":0.44072875927595995},"geometry":{"type":"LineString","coordinates":[[-2.6734754,53.6562648],[-2.6728953,53.6564844]]}},
{"type":"Feature","properties":{"id":51751,"nach":0.43966203308358537},"geometry":{"type":"LineString","coordinates":[[-2.6763491,53.6600263],[-2.6763453,53.6599846]]}},
{"type":"Feature","properties":{"id":51752,"nach":0.55639737107215437},"geometry":{"type":"LineString","coordinates":[[-2.6763491,53.6600263],[-2.6763985,53.6602167]]}},
{"type":"Feature","properties":{"id":51753,"nach":0.53053099235638645},"geometry":{"type":"LineString","coordinates":[[-2.6763491,53.6600263],[-2.6764353,53.6600573],[-2.6765104,53.6600603],[-2.6765694,53.6600389],[-2.6766189,53.6599922],[-2.6766568,53.6599499],[-2.6766696,53.6599063],[-2.6766972,53.6598755],[-2.6767034,53.6598122]]}},
{"type":"Feature","properties":{"id":36618,"nach":0.44480636943004992},"geometry":{"type":"LineString","coordinates":[[-2.6770234,53.660220400000014],[-2.6769787,53.6600198],[-2.6769385,53.6599435],[-2.6769264,53.65993850000001],[-2.6768857,53.659919],[-2.6768394,53.6599064],[-2.6767744,53.6598771],[-2.6767295,53.6598543],[-2.6767034,53.6598122]]}},
{"type":"Feature","properties":{"id":36556,"nach":0.53830682294579857},"geometry":{"type":"LineString","coordinates":[[-2.6769358,53.6594508],[-2.6768768,53.65953660000001],[-2.6768017,53.6595779],[-2.6766551,53.659646],[-2.6766356,53.6596928],[-2.676649,53.65973970000001],[-2.6767034,53.6598122]]}},
{"type":"Feature","properties":{"id":36617,"nach":0.0},"geometry":{"type":"LineString","coordinates":[[-2.6770234,53.660220400000014],[-2.6771932,53.6602104],[-2.6777279,53.6600165],[-2.6779121,53.659975300000013],[-2.6786739,53.6597432],[-2.67877580000001,53.6596606],[-2.6787973,53.6595843],[-2.6787436,53.6594921],[-2.6784486,53.6592441],[-2.6782555,53.6591249],[-2.6780436,53.6590423],[-2.6778692,53.6589882],[-2.6774857,53.6589247],[-2.6773331,53.6589217]]}},
{"type":"Feature","properties":{"id":36614,"nach":0.53179590811122068},"geometry":{"type":"LineString","coordinates":[[-2.6773331,53.6589217],[-2.677255,53.6589644],[-2.677145,53.6590391],[-2.6770297,53.6591233],[-2.6769304,53.6592123],[-2.676909,53.6592949],[-2.676917,53.6593792],[-2.6769358,53.6594508]]}},
{"type":"Feature","properties":{"id":36615,"nach":0.55448245735925183},"geometry":{"type":"LineString","coordinates":[[-2.6773331,53.6589217],[-2.6773541,53.6588834],[-2.6773705,53.6588399]]}},
{"type":"Feature","properties":{"id":36568,"nach":0.54400877972220063},"geometry":{"type":"LineString","coordinates":[[-2.6791728,53.6595231],[-2.6794703,53.659580400000017]]}},
{"type":"Feature","properties":{"id":36592,"nach":0.49023010940497525},"geometry":{"type":"LineString","coordinates":[[-2.6794958,53.6594948],[-2.6794703,53.659580400000017]]}},
{"type":"Feature","properties":{"id":36591,"nach":0.39970358542566836},"geometry":{"type":"LineString","coordinates":[[-2.6794958,53.6594948],[-2.6795941,53.6595726]]}},
{"type":"Feature","properties":{"id":52307,"nach":0.54823131622655075},"geometry":{"type":"LineString","coordinates":[[-2.6778525,53.6588083],[-2.6783307,53.6587331],[-2.67861420000001,53.6589412],[-2.6789777,53.65911280000001],[-2.679255,53.6593246],[-2.6791728,53.6595231]]}},
{"type":"Feature","properties":{"id":36593,"nach":0.49545744714741835},"geometry":{"type":"LineString","coordinates":[[-2.6794958,53.6594948],[-2.6795751,53.6592282],[-2.6796266,53.6591472],[-2.679718,53.6590545],[-2.6797587,53.6589473],[-2.6797789,53.6588372]]}},
{"type":"Feature","properties":{"id":52305,"nach":0.55667819413866315},"geometry":{"type":"LineString","coordinates":[[-2.6778525,53.6588083],[-2.6773705,53.6588399]]}},
{"type":"Feature","properties":{"id":36577,"nach":0.38476822780134712},"geometry":{"type":"LineString","coordinates":[[-2.6804932,53.6584909],[-2.6804,53.65838810000001],[-2.68031,53.6583014],[-2.6802286,53.6582308],[-2.6801008,53.6581204],[-2.6799962,53.6580473]]}},
{"type":"Feature","properties":{"id":36580,"nach":0.47105621566275302},"geometry":{"type":"LineString","coordinates":[[-2.6797789,53.6588372],[-2.6798983,53.6588199],[-2.6800177,53.6587832],[-2.6801974,53.658637],[-2.680361,53.6585591],[-2.6804932,53.6584909]]}},
{"type":"Feature","properties":{"id":42276,"nach":0.37326439802928196},"geometry":{"type":"LineString","coordinates":[[-2.6782563,53.6452252],[-2.6784735,53.6452331]]}},
{"type":"Feature","properties":{"id":42281,"nach":0.29436641952684611},"geometry":{"type":"LineString","coordinates":[[-2.6785093,53.6449827],[-2.6783113,53.6449749],[-2.6782924,53.644991],[-2.6782563,53.6452252]]}},
{"type":"Feature","properties":{"id":42279,"nach":0.080619944389797499},"geometry":{"type":"LineString","coordinates":[[-2.6785093,53.6449827],[-2.6784735,53.6452331]]}},
{"type":"Feature","properties":{"id":42283,"nach":0.34526065790289501},"geometry":{"type":"LineString","coordinates":[[-2.6787265,53.6451215],[-2.6787209,53.645156],[-2.6786925,53.6451777],[-2.6784735,53.6452331]]}},
{"type":"Feature","properties":{"id":49344,"nach":0.34314068055471547},"geometry":{"type":"LineString","coordinates":[[-2.6724181,53.656052],[-2.6725293,53.6560097],[-2.6728417,53.655906300000012],[-2.6730178,53.655908],[-2.6731365,53.6559311],[-2.673296,53.6560098],[-2.6734139,53.6560341]]}},
{"type":"Feature","properties":{"id":54045,"nach":0.3588995243441192},"geometry":{"type":"LineString","coordinates":[[-2.6723057,53.6560891],[-2.6724181,53.656052]]}},
{"type":"Feature","properties":{"id":54042,"nach":0.36187188655819047},"geometry":{"type":"LineString","coordinates":[[-2.6734754,53.6562648],[-2.6735582,53.6562353]]}},
{"type":"Feature","properties":{"id":54044,"nach":0.36089461087410302},"geometry":{"type":"LineString","coordinates":[[-2.6735931,53.6563701],[-2.6734754,53.6562648]]}},
{"type":"Feature","properties":{"id":52123,"nach":0.53813103207207247},"geometry":{"type":"LineString","coordinates":[[-2.6755048,53.661482],[-2.6755281,53.6613434]]}},
{"type":"Feature","properties":{"id":52138,"nach":0.44129287284083762},"geometry":{"type":"LineString","coordinates":[[-2.6755394,53.6612874],[-2.6755358,53.661304800000011],[-2.675514,53.6613187],[-2.6755092,53.6613402],[-2.6755281,53.6613434]]}},
{"type":"Feature","properties":{"id":52135,"nach":0.55217099736463571},"geometry":{"type":"LineString","coordinates":[[-2.675393,53.6614887],[-2.6755023,53.6614971],[-2.6755048,53.661482]]}},
{"type":"Feature","properties":{"id":52134,"nach":0.51364577486440033},"geometry":{"type":"LineString","coordinates":[[-2.675393,53.6614887],[-2.675399,53.661421600000011],[-2.6754008,53.6613976]]}},
{"type":"Feature","properties":{"id":52136,"nach":0.43855075311211283},"geometry":{"type":"LineString","coordinates":[[-2.6752922,53.6614812],[-2.675393,53.6614887]]}},
{"type":"Feature","properties":{"id":52132,"nach":0.43105920055118652},"geometry":{"type":"LineString","coordinates":[[-2.6754008,53.6613976],[-2.675354,53.6613622],[-2.6753447,53.6613394],[-2.6753424,53.6613027],[-2.675298,53.6612993],[-2.6753295,53.6610744]]}},
{"type":"Feature","properties":{"id":52137,"nach":0.43557712312919156},"geometry":{"type":"LineString","coordinates":[[-2.6754194,53.6612972],[-2.6754008,53.6613976]]}}
]
}
