{
"type": "FeatureCollection",
"name": "CHORL_392_NACH_800m",
"crs": { "type": "name", "properties": { "name": "urn:ogc:def:crs:OGC:1.3:CRS84" } },
"features": [
{"type":"Feature","properties":{"id":43473,"nach":0.35831660989088393},"geometry":{"type":"LineString","coordinates":[[-2.7263112,53.6592755],[-2.7265262,53.65948680000001],[-2.7266209,53.6596075],[-2.7267204,53.6597787],[-2.7267583,53.6599893],[-2.726782,53.6601521],[-2.7267299,53.660343],[-2.7266588,53.6604834],[-2.7265167,53.6605592],[-2.7263841,53.6606097],[-2.7254554,53.660615],[-2.7252994,53.6611344],[-2.7251875,53.6614519],[-2.7250887,53.6617047],[-2.7250132,53.6618743],[-2.7250095,53.6620009]]}},
{"type":"Feature","properties":{"id":35411,"nach":0.37198817722502575},"geometry":{"type":"LineString","coordinates":[[-2.7266503,53.662083699999982],[-2.7278119,53.662177],[-2.7292109,53.662344900000022],[-2.7300135,53.662472]]}},
{"type":"Feature","properties":{"id":35414,"nach":0.30838605865506125},"geometry":{"type":"LineString","coordinates":[[-2.7255808,53.6611933],[-2.7258114,53.6612237],[-2.7258548,53.6612225],[-2.7258962,53.661205],[-2.7259672,53.6611723],[-2.7261012,53.6611711],[-2.7262372,53.6611781],[-2.7263299,53.6611991],[-2.7264363,53.66126460000001],[-2.7265881,53.6613592],[-2.7267064,53.661476],[-2.7267655,53.6616021],[-2.7267872,53.6616769],[-2.7267912,53.6617131],[-2.7267379,53.6617849],[-2.7267133,53.6618632],[-2.7266503,53.662083699999982]]}},
{"type":"Feature","properties":{"id":43471,"nach":0.33263008744972494},"geometry":{"type":"LineString","coordinates":[[-2.7263112,53.6592755],[-2.7261965,53.6585028]]}},
{"type":"Feature","properties":{"id":43475,"nach":0.31581914849315107},"geometry":{"type":"LineString","coordinates":[[-2.7254236,53.6585531],[-2.7255273,53.6586846],[-2.7260807,53.6591423],[-2.7263112,53.6592755]]}},
{"type":"Feature","properties":{"id":52636,"nach":0.32344000031481013},"geometry":{"type":"LineString","coordinates":[[-2.7311933,53.6595381],[-2.7311691,53.659751],[-2.7310874,53.6599951],[-2.7307029,53.6605562],[-2.7303535,53.6619263],[-2.7301884,53.6622004],[-2.7300135,53.662472]]}},
{"type":"Feature","properties":{"id":40431,"nach":0.36303087557423325},"geometry":{"type":"LineString","coordinates":[[-2.7329018,53.6632877],[-2.7309299,53.662715900000016],[-2.7300135,53.662472]]}},
{"type":"Feature","properties":{"id":43976,"nach":0.11710489051976218},"geometry":{"type":"LineString","coordinates":[[-2.7288561,53.6673896],[-2.7287934,53.667215],[-2.7286098,53.6669632],[-2.7286002,53.666697],[-2.728547,53.666511],[-2.7284746,53.665918600000012],[-2.7284746,53.6655952],[-2.7285422,53.6654664],[-2.728576,53.6652232],[-2.7286919,53.6651917],[-2.7296821,53.6634802],[-2.7298415,53.6630252],[-2.7300135,53.662472]]}},
{"type":"Feature","properties":{"id":52635,"nach":0.37455298610299032},"geometry":{"type":"LineString","coordinates":[[-2.7311933,53.6595381],[-2.7312012,53.659469],[-2.7311802,53.6588673],[-2.7311969,53.65863860000001],[-2.731294,53.6584635]]}},
{"type":"Feature","properties":{"id":52637,"nach":0.35569309920791448},"geometry":{"type":"LineString","coordinates":[[-2.7311933,53.6595381],[-2.7306993,53.6595239],[-2.7300315,53.6594762]]}},
{"type":"Feature","properties":{"id":40432,"nach":0.0},"geometry":{"type":"LineString","coordinates":[[-2.7329018,53.6632877],[-2.7330087,53.6632342],[-2.7331696,53.6631794],[-2.7332434,53.663109500000012],[-2.7333252,53.6630308],[-2.73347270000001,53.6629466],[-2.7335948,53.6629219],[-2.7337168,53.6629251],[-2.7337946,53.6629537],[-2.7338429,53.6630308],[-2.7338764,53.6631206],[-2.7339086,53.6631881],[-2.7338764,53.6632517],[-2.7337933,53.6632724],[-2.7336511,53.6633058],[-2.7335747,53.6633534],[-2.7335111,53.6634281]]}},
{"type":"Feature","properties":{"id":36412,"nach":0.3410601927746546},"geometry":{"type":"LineString","coordinates":[[-2.7381901,53.6623136],[-2.7382043,53.6623395],[-2.7387802,53.6632682]]}},
{"type":"Feature","properties":{"id":36411,"nach":0.31306120843324475},"geometry":{"type":"LineString","coordinates":[[-2.7381901,53.6623136],[-2.7378987,53.6617825],[-2.7377596,53.6615751],[-2.7375347,53.6612341],[-2.7370752,53.660628],[-2.7367024,53.6599757],[-2.7362737,53.659203],[-2.7359778,53.6585769]]}},
{"type":"Feature","properties":{"id":43987,"nach":0.29764610364313221},"geometry":{"type":"LineString","coordinates":[[-2.739206,53.662345],[-2.7389404,53.6622489],[-2.7387076,53.6622417],[-2.7381901,53.6623136]]}},
{"type":"Feature","properties":{"id":39346,"nach":0.38232202258588288},"geometry":{"type":"LineString","coordinates":[[-2.735919,53.6577083],[-2.7359095,53.6580461],[-2.7359002,53.65829750000001],[-2.7359778,53.6585769]]}},
{"type":"Feature","properties":{"id":40425,"nach":0.36032156199646848},"geometry":{"type":"LineString","coordinates":[[-2.7347267,53.6579265],[-2.7350432,53.6580902],[-2.7354965,53.6584001],[-2.7357137,53.6585654],[-2.7358076,53.6586004],[-2.7358586,53.6585925],[-2.7359778,53.6585769]]}},
{"type":"Feature","properties":{"id":39345,"nach":0.40406448238017378},"geometry":{"type":"LineString","coordinates":[[-2.735919,53.6577083],[-2.7359337,53.6571846],[-2.7358945,53.6564398],[-2.7357425,53.6558691],[-2.7356708,53.655725],[-2.7355796,53.655591400000013],[-2.7354774,53.6554686],[-2.7352043,53.655152],[-2.7351397,53.6550844],[-2.7350888,53.6550462],[-2.7350338,53.6550282]]}},
{"type":"Feature","properties":{"id":39349,"nach":0.41077743712586523},"geometry":{"type":"LineString","coordinates":[[-2.7365498,53.6576716],[-2.7363882,53.657679],[-2.7362234,53.65769],[-2.7360307,53.6577048],[-2.735919,53.6577083]]}},
{"type":"Feature","properties":{"id":40424,"nach":0.29089132576077514},"geometry":{"type":"LineString","coordinates":[[-2.7347267,53.6579265],[-2.7343699,53.6579583],[-2.7338254,53.6580361],[-2.7335867,53.6580679],[-2.733525,53.6580171]]}},
{"type":"Feature","properties":{"id":40429,"nach":0.34244963548825191},"geometry":{"type":"LineString","coordinates":[[-2.7317237,53.6579705],[-2.7318969,53.6579519],[-2.7321839,53.657773900000016],[-2.7324092,53.6576865],[-2.7328491,53.6576117],[-2.7330637,53.6575386],[-2.7333775,53.657465500000015],[-2.733517,53.6574417],[-2.733694,53.6574735],[-2.7341634,53.6576261],[-2.7347267,53.6579265]]}},
{"type":"Feature","properties":{"id":45625,"nach":0.39586993427177197},"geometry":{"type":"LineString","coordinates":[[-2.7339457,53.6561376],[-2.734702,53.655589],[-2.7349665,53.6551758],[-2.7350338,53.6550282]]}},
{"type":"Feature","properties":{"id":2197,"nach":0.4488357086483854},"geometry":{"type":"LineString","coordinates":[[-2.7351161,53.6546699],[-2.73511850000001,53.654737],[-2.7350941,53.6548555],[-2.7350338,53.6550282]]}},
{"type":"Feature","properties":{"id":45626,"nach":0.34632363523089066},"geometry":{"type":"LineString","coordinates":[[-2.7339457,53.6561376],[-2.7333829,53.656546],[-2.7320799,53.6575617],[-2.7317237,53.6579705]]}},
{"type":"Feature","properties":{"id":45628,"nach":0.33065061657117023},"geometry":{"type":"LineString","coordinates":[[-2.7333118,53.6558537],[-2.7333842,53.6559586],[-2.7335881,53.6560484],[-2.7339457,53.6561376]]}},
{"type":"Feature","properties":{"id":32638,"nach":0.45742791059729498},"geometry":{"type":"LineString","coordinates":[[-2.7348953,53.6543371],[-2.7349144,53.6543945],[-2.734938,53.6544409],[-2.7350993,53.6546248],[-2.7351161,53.6546699]]}},
{"type":"Feature","properties":{"id":39285,"nach":0.0},"geometry":{"type":"LineString","coordinates":[[-2.7531005,53.6549946],[-2.7530355,53.6549938],[-2.7528746,53.6549556],[-2.7526224,53.6548952],[-2.7519197,53.6547585],[-2.7514262,53.654675799999985],[-2.751115,53.6546059],[-2.7507825,53.6545137],[-2.750525,53.6544438],[-2.7501763,53.6543992],[-2.7499724,53.65438970000001],[-2.7496988,53.6543865],[-2.7492622,53.6543888],[-2.7490015,53.6543833],[-2.7487869,53.6543516],[-2.7485348,53.654294299999989],[-2.7483363,53.654294300000011],[-2.7481485,53.6543007],[-2.7479232,53.6543007],[-2.747714,53.6543007],[-2.747419,53.6542816],[-2.7472151,53.6542911],[-2.74701660000001,53.6542911],[-2.7468181,53.6542689],[-2.7464748,53.6542339],[-2.7462442,53.6541989],[-2.7460457,53.6541989],[-2.7458719,53.654258399999989],[-2.7457592,53.6542775],[-2.7455843,53.6542753],[-2.7454556,53.6542594],[-2.7452035,53.65415440000001],[-2.745064,53.6540527],[-2.7449513,53.653951],[-2.7448977,53.6538906],[-2.7448977,53.6538397],[-2.7449567,53.6537761],[-2.7449728,53.6537252],[-2.7449728,53.6536871],[-2.7449728,53.6536458],[-2.7449138,53.6536012],[-2.744844,53.653598100000011],[-2.7447368,53.6535949],[-2.7446563,53.6536299],[-2.7445866,53.653693400000016],[-2.7445522,53.6537465],[-2.7445544,53.6538111],[-2.7445415,53.6539278],[-2.7444825,53.6539977],[-2.7443827,53.6540781],[-2.7442089,53.6541598],[-2.7440287,53.6542466],[-2.7439053,53.6542911],[-2.7438033,53.6543007],[-2.7436746,53.654288],[-2.7434708,53.6542753],[-2.7433152,53.6542753],[-2.7431167,53.6542784],[-2.7429719,53.6542943],[-2.7428217,53.654313400000014],[-2.7426607,53.6543357],[-2.7425266,53.6543706],[-2.7424515,53.6543992],[-2.7423635,53.6544237],[-2.7422101,53.6544247],[-2.7420277,53.6543961],[-2.7417434,53.6543643],[-2.7415771,53.6543643],[-2.7414108,53.6543547],[-2.7413089,53.6543484],[-2.7412392,53.6543229],[-2.741105,53.6542689],[-2.7409012,53.6542689],[-2.7407456,53.6542689],[-2.740574,53.654284800000013],[-2.7404613,53.6543198],[-2.7403433,53.6543547],[-2.7400429,53.6544565],[-2.7398605,53.654513699999988],[-2.7397854,53.654555],[-2.7396567,53.6545932],[-2.739544,53.6546027],[-2.7394421,53.6546281],[-2.7393509,53.654634500000014],[-2.7392007,53.6546186],[-2.7390022,53.6545741],[-2.7386428,53.6544978],[-2.7384067,53.654466],[-2.7382565,53.6544279],[-2.7380581,53.6543929],[-2.7378757,53.6543674],[-2.7377201,53.6543579],[-2.7375055,53.6543579],[-2.7373714,53.6543579],[-2.7371354,53.6543357],[-2.7369208,53.654342],[-2.7367599,53.6543516],[-2.7365882,53.6543674],[-2.7364949,53.6543792],[-2.7364112,53.6543833],[-2.7362717,53.6544088],[-2.7360872,53.654446],[-2.7358586,53.6544215],[-2.7356977,53.654421500000012],[-2.7355529,53.654421500000012],[-2.7354327,53.65446510000001],[-2.7353168,53.6545391],[-2.735202,53.6546208],[-2.7351161,53.6546699]]}},
{"type":"Feature","properties":{"id":40427,"nach":0.38255741433686913},"geometry":{"type":"LineString","coordinates":[[-2.7317237,53.6579705],[-2.731294,53.6584635]]}},
{"type":"Feature","properties":{"id":43469,"nach":0.29490769575011599},"geometry":{"type":"LineString","coordinates":[[-2.7261965,53.6585028],[-2.726324,53.6584848],[-2.7263483,53.6584164],[-2.7278365,53.6582472],[-2.7278912,53.6583084],[-2.7288266,53.6582688],[-2.7293976,53.6582184],[-2.7306914,53.6578584],[-2.731294,53.6584635]]}},
{"type":"Feature","properties":{"id":43484,"nach":0.26331303368623904},"geometry":{"type":"LineString","coordinates":[[-2.7255787,53.657268900000012],[-2.7255834,53.6574289],[-2.7256024,53.6575047],[-2.7261965,53.6585028]]}},
{"type":"Feature","properties":{"id":32639,"nach":0.37515270485387642},"geometry":{"type":"LineString","coordinates":[[-2.7348953,53.6543371],[-2.7345564,53.6543866],[-2.7341836,53.654458900000016],[-2.7338415,53.6545423],[-2.733629,53.6546055],[-2.7335626,53.654622200000013],[-2.7334996,53.6546468],[-2.7334439,53.6546826]]}},
{"type":"Feature","properties":{"id":32642,"nach":0.47008901127571101},"geometry":{"type":"LineString","coordinates":[[-2.734812,53.6538618],[-2.7348266,53.6540241],[-2.7348447,53.65415680000001],[-2.7348953,53.6543371]]}},
{"type":"Feature","properties":{"id":35997,"nach":0.4997544988495814},"geometry":{"type":"LineString","coordinates":[[-2.734545,53.6523232],[-2.7347562,53.6524432]]}},
{"type":"Feature","properties":{"id":40443,"nach":0.48702360903479552},"geometry":{"type":"LineString","coordinates":[[-2.7348123,53.6537522],[-2.7348154,53.6536097],[-2.7348317,53.6533639],[-2.7348923,53.6528264],[-2.7348485,53.652599],[-2.7347562,53.6524432]]}},
{"type":"Feature","properties":{"id":7945,"nach":0.35426584205717609},"geometry":{"type":"LineString","coordinates":[[-2.7365918,53.6519355],[-2.7364819,53.6520191],[-2.7363115,53.652090799999989],[-2.7360738,53.6521796],[-2.735473,53.652317],[-2.7347562,53.6524432]]}},
{"type":"Feature","properties":{"id":35998,"nach":0.51051848446665127},"geometry":{"type":"LineString","coordinates":[[-2.734545,53.6523232],[-2.7345257,53.6523122],[-2.7343569,53.6521835],[-2.7341822,53.6520647],[-2.7339298,53.6518432],[-2.7336286,53.6515513]]}},
{"type":"Feature","properties":{"id":36000,"nach":0.36800545429075759},"geometry":{"type":"LineString","coordinates":[[-2.7341742,53.6527232],[-2.7343021,53.6525415],[-2.7344088,53.6524435],[-2.734545,53.6523232]]}},
{"type":"Feature","properties":{"id":40442,"nach":0.48339427297522031},"geometry":{"type":"LineString","coordinates":[[-2.7348123,53.6537522],[-2.734812,53.6538618]]}},
{"type":"Feature","properties":{"id":40444,"nach":0.25217840363807964},"geometry":{"type":"LineString","coordinates":[[-2.7348123,53.6537522],[-2.7350941,53.6537411],[-2.7366552,53.6535075],[-2.7367678,53.653461399999983],[-2.7368215,53.6533564],[-2.7369878,53.6529717],[-2.7370897,53.6528938],[-2.7380392,53.6523152],[-2.738632,53.6523708],[-2.7391818,53.6524408],[-2.739332,53.652471],[-2.7395412,53.6525536],[-2.7397451,53.6526347],[-2.7400053,53.652660200000014],[-2.7414241,53.6528191],[-2.741569,53.6528223],[-2.7416897,53.6528064],[-2.7421027,53.6527555],[-2.7426526,53.65274440000001],[-2.7432239,53.6527301]]}},
{"type":"Feature","properties":{"id":14340,"nach":0.54766347140233484},"geometry":{"type":"LineString","coordinates":[[-2.7336286,53.6515513],[-2.7335015,53.6514303]]}},
{"type":"Feature","properties":{"id":4879,"nach":0.56058477053388878},"geometry":{"type":"LineString","coordinates":[[-2.7330701,53.6510274],[-2.7333433,53.6512637],[-2.7335015,53.6514303]]}},
{"type":"Feature","properties":{"id":18694,"nach":0.45727714552900195},"geometry":{"type":"LineString","coordinates":[[-2.7330449,53.651564800000017],[-2.7332005,53.6515442],[-2.7333078,53.6515124],[-2.7335015,53.6514303]]}},
{"type":"Feature","properties":{"id":45631,"nach":0.5020881161960048},"geometry":{"type":"LineString","coordinates":[[-2.7338364,53.6515004],[-2.7336286,53.6515513]]}},
{"type":"Feature","properties":{"id":45593,"nach":0.56931663867105176},"geometry":{"type":"LineString","coordinates":[[-2.7326478,53.650667800000015],[-2.7327617,53.6507652],[-2.732961,53.650933200000011],[-2.7330701,53.6510274]]}},
{"type":"Feature","properties":{"id":14359,"nach":0.46722107178089972},"geometry":{"type":"LineString","coordinates":[[-2.7338603,53.6508351],[-2.7333172,53.6509394],[-2.7330701,53.6510274]]}},
{"type":"Feature","properties":{"id":18697,"nach":0.37696023624477365},"geometry":{"type":"LineString","coordinates":[[-2.7329806,53.6517667],[-2.7330074,53.6516698],[-2.7330074,53.6515935],[-2.7330449,53.651564800000017]]}},
{"type":"Feature","properties":{"id":18698,"nach":0.3798694202510175},"geometry":{"type":"LineString","coordinates":[[-2.7329055,53.6515195],[-2.7329618,53.651541],[-2.7330449,53.651564800000017]]}},
{"type":"Feature","properties":{"id":45592,"nach":0.5749295214862693},"geometry":{"type":"LineString","coordinates":[[-2.7326478,53.650667800000015],[-2.7325453,53.6505803]]}},
{"type":"Feature","properties":{"id":36393,"nach":0.55245636018191591},"geometry":{"type":"LineString","coordinates":[[-2.7314139,53.6502062],[-2.7317386,53.650256],[-2.7320004,53.6503161],[-2.7321544,53.6503686],[-2.732306,53.6504359],[-2.7325453,53.6505803]]}},
{"type":"Feature","properties":{"id":14299,"nach":0.53290254580925034},"geometry":{"type":"LineString","coordinates":[[-2.7328947,53.6498304],[-2.7328458,53.6501977],[-2.7328063,53.6503472],[-2.7327634,53.6504532],[-2.7326993,53.6504984],[-2.7325453,53.6505803]]}},
{"type":"Feature","properties":{"id":45594,"nach":0.39027137315252419},"geometry":{"type":"LineString","coordinates":[[-2.7326478,53.650667800000015],[-2.7325407,53.6507048],[-2.7324602,53.6507755],[-2.7324012,53.6508193],[-2.7321732,53.6508662]]}},
{"type":"Feature","properties":{"id":36394,"nach":0.39492154376145983},"geometry":{"type":"LineString","coordinates":[[-2.7314139,53.6502062],[-2.7314071,53.6503242],[-2.7314497,53.65043150000001],[-2.7314598,53.6504445],[-2.731493,53.6504872],[-2.7315436,53.6506714]]}},
{"type":"Feature","properties":{"id":36392,"nach":0.55849995752646542},"geometry":{"type":"LineString","coordinates":[[-2.7314139,53.6502062],[-2.7313628,53.6501966]]}},
{"type":"Feature","properties":{"id":14302,"nach":0.5169982162903326},"geometry":{"type":"LineString","coordinates":[[-2.7323436,53.649022],[-2.7322832,53.6496587],[-2.732412,53.6497159],[-2.7328947,53.6498304]]}},
{"type":"Feature","properties":{"id":14308,"nach":0.47509884131650637},"geometry":{"type":"LineString","coordinates":[[-2.7337125,53.6493075],[-2.7335278,53.649735],[-2.7334419,53.6498177],[-2.733281,53.6498494],[-2.7328947,53.6498304]]}},
{"type":"Feature","properties":{"id":36386,"nach":0.57416878886438072},"geometry":{"type":"LineString","coordinates":[[-2.7300097,53.6498931],[-2.7307738,53.650086800000011]]}},
{"type":"Feature","properties":{"id":36382,"nach":0.56841748014085847},"geometry":{"type":"LineString","coordinates":[[-2.7310771,53.65014810000001],[-2.7307738,53.650086800000011]]}},
{"type":"Feature","properties":{"id":35562,"nach":0.40597543152703464},"geometry":{"type":"LineString","coordinates":[[-2.7309152,53.6497615],[-2.7307738,53.650086800000011]]}},
{"type":"Feature","properties":{"id":36387,"nach":0.58082283269453183},"geometry":{"type":"LineString","coordinates":[[-2.7300097,53.6498931],[-2.7298547,53.6498568],[-2.7292233,53.64965]]}},
{"type":"Feature","properties":{"id":36388,"nach":0.41219114648568661},"geometry":{"type":"LineString","coordinates":[[-2.7300097,53.6498931],[-2.7300651,53.6498383],[-2.7301404,53.6497665],[-2.7302649,53.649673300000011],[-2.7303917,53.64960640000001],[-2.7304557,53.6495631],[-2.7305405,53.6494332],[-2.7305779,53.6493921]]}},
{"type":"Feature","properties":{"id":36383,"nach":0.56558911627145292},"geometry":{"type":"LineString","coordinates":[[-2.7310771,53.65014810000001],[-2.731117,53.65015420000001],[-2.7311912,53.6501655]]}},
{"type":"Feature","properties":{"id":36384,"nach":0.38877611844741966},"geometry":{"type":"LineString","coordinates":[[-2.7310771,53.65014810000001],[-2.7310465,53.650272200000011],[-2.730998,53.650438500000014],[-2.7310554,53.650608600000012],[-2.7311305,53.650782300000017],[-2.7311949,53.6509969],[-2.7311998,53.651264]]}},
{"type":"Feature","properties":{"id":14246,"nach":0.53515375349144767},"geometry":{"type":"LineString","coordinates":[[-2.7289493,53.6497572],[-2.729094,53.6497374],[-2.7292233,53.64965]]}},
{"type":"Feature","properties":{"id":2216,"nach":0.59971773090870384},"geometry":{"type":"LineString","coordinates":[[-2.7283886,53.6492199],[-2.7287217,53.649401100000013],[-2.7292233,53.64965]]}},
{"type":"Feature","properties":{"id":35569,"nach":0.49847871692510087},"geometry":{"type":"LineString","coordinates":[[-2.7276202,53.6497785],[-2.7278469,53.6497724],[-2.7283068,53.6497286],[-2.7285978,53.649735],[-2.7289493,53.6497572]]}},
{"type":"Feature","properties":{"id":35563,"nach":0.41432831467715292},"geometry":{"type":"LineString","coordinates":[[-2.7291119,53.6504423],[-2.7290132,53.6502502],[-2.728942,53.6501507],[-2.7289413,53.649961],[-2.7289493,53.6497572]]}},
{"type":"Feature","properties":{"id":14277,"nach":0.57333027681576165},"geometry":{"type":"LineString","coordinates":[[-2.7295044,53.6488765],[-2.7291289,53.648921],[-2.7287749,53.6489846],[-2.728571,53.649092699999983],[-2.7283886,53.6492199]]}},
{"type":"Feature","properties":{"id":2219,"nach":0.6139918964356692},"geometry":{"type":"LineString","coordinates":[[-2.7277624,53.6487413],[-2.7279488,53.6489337],[-2.7283886,53.6492199]]}},
{"type":"Feature","properties":{"id":14312,"nach":0.54436645150710894},"geometry":{"type":"LineString","coordinates":[[-2.7298478,53.648870100000011],[-2.7295044,53.6488765]]}},
{"type":"Feature","properties":{"id":42288,"nach":0.53123156167181962},"geometry":{"type":"LineString","coordinates":[[-2.7295044,53.6486033],[-2.7295044,53.6486921],[-2.7295044,53.6488765]]}},
{"type":"Feature","properties":{"id":43456,"nach":0.39839737194777392},"geometry":{"type":"LineString","coordinates":[[-2.7374442,53.6479303],[-2.7374697,53.6478337],[-2.7374845,53.647547],[-2.7374003,53.6472007],[-2.7372077,53.6466923]]}},
{"type":"Feature","properties":{"id":43455,"nach":0.3974592365753436},"geometry":{"type":"LineString","coordinates":[[-2.7374442,53.6479303],[-2.7373429,53.6483138],[-2.7371524,53.6487712],[-2.7370006,53.6489498],[-2.7368714,53.6490303]]}},
{"type":"Feature","properties":{"id":43457,"nach":0.17210546991266706},"geometry":{"type":"LineString","coordinates":[[-2.7374442,53.6479303],[-2.7410003,53.6482448],[-2.7439854,53.6486158],[-2.7442317,53.649109400000015],[-2.7443293,53.6493048]]}},
{"type":"Feature","properties":{"id":43449,"nach":0.4139079508418308},"geometry":{"type":"LineString","coordinates":[[-2.7368714,53.6490303],[-2.736729,53.649096],[-2.7362217,53.6492561],[-2.7357258,53.6493835],[-2.735564,53.649449],[-2.7354664,53.6495415],[-2.7352671,53.6497676],[-2.7350976,53.6499962],[-2.734927,53.6501515],[-2.7346953,53.650247],[-2.7344705,53.6503523],[-2.7343407,53.6504125],[-2.7342455,53.6504915],[-2.7340803,53.6506853],[-2.7339754,53.65078350000001],[-2.7338603,53.6508351]]}},
{"type":"Feature","properties":{"id":45595,"nach":0.37931872569523073},"geometry":{"type":"LineString","coordinates":[[-2.7334057,53.650572],[-2.7335197,53.6506062],[-2.7336444,53.6506436],[-2.7337235,53.6506889],[-2.7337825,53.650742899999983],[-2.7338603,53.6508351]]}},
{"type":"Feature","properties":{"id":42472,"nach":0.3747505120035543},"geometry":{"type":"LineString","coordinates":[[-2.7239986,53.651280300000018],[-2.7237802,53.6507431],[-2.723608,53.6505036],[-2.7234984,53.6504051]]}},
{"type":"Feature","properties":{"id":35565,"nach":0.46693590027759951},"geometry":{"type":"LineString","coordinates":[[-2.7264898,53.64975720000001],[-2.7263502,53.6497541],[-2.7253631,53.649735]]}},
{"type":"Feature","properties":{"id":45606,"nach":0.36019809613014536},"geometry":{"type":"LineString","coordinates":[[-2.7261047,53.6509822],[-2.7258955,53.6507135],[-2.7257185,53.6505244],[-2.7256595,53.6504814],[-2.7255589,53.6504584],[-2.7254851,53.6504433],[-2.7254543,53.6503988],[-2.7254288,53.6503328],[-2.7254073,53.6500005],[-2.7253698,53.6498173],[-2.7253631,53.649735]]}},
{"type":"Feature","properties":{"id":45608,"nach":0.41770291957861144},"geometry":{"type":"LineString","coordinates":[[-2.7267504,53.6497631],[-2.7264898,53.64975720000001]]}},
{"type":"Feature","properties":{"id":35567,"nach":0.36157891866077368},"geometry":{"type":"LineString","coordinates":[[-2.7265766,53.6503441],[-2.7265251,53.6502494],[-2.726492,53.6498481],[-2.7264898,53.64975720000001]]}},
{"type":"Feature","properties":{"id":35571,"nach":0.40350987752706774},"geometry":{"type":"LineString","coordinates":[[-2.7276512,53.6500537],[-2.7276202,53.6497785]]}},
{"type":"Feature","properties":{"id":45600,"nach":0.43968333030777235},"geometry":{"type":"LineString","coordinates":[[-2.7267644,53.649763399999983],[-2.7271977,53.6497731],[-2.7276202,53.6497785]]}},
{"type":"Feature","properties":{"id":14311,"nach":0.52425169197912191},"geometry":{"type":"LineString","coordinates":[[-2.7298478,53.648870100000011],[-2.7305022,53.648851]]}},
{"type":"Feature","properties":{"id":14274,"nach":0.50886836254607337},"geometry":{"type":"LineString","coordinates":[[-2.7298156,53.6475855],[-2.7301053,53.6475855],[-2.7302769,53.647611],[-2.7303735,53.6476936],[-2.7305022,53.648851]]}},
{"type":"Feature","properties":{"id":14317,"nach":0.55969678595901162},"geometry":{"type":"LineString","coordinates":[[-2.7313793,53.648964],[-2.7310923,53.6488638],[-2.730867,53.6488447],[-2.7305022,53.648851]]}},
{"type":"Feature","properties":{"id":14320,"nach":0.42163264499104586},"geometry":{"type":"LineString","coordinates":[[-2.7299014,53.6493789],[-2.7298478,53.648870100000011]]}},
{"type":"Feature","properties":{"id":42289,"nach":0.51659198830734732},"geometry":{"type":"LineString","coordinates":[[-2.7295044,53.6486033],[-2.7295044,53.6483868],[-2.7293542,53.6478463],[-2.7293435,53.6477572],[-2.7293971,53.6476873],[-2.7295474,53.6476237],[-2.7298156,53.6475855]]}},
{"type":"Feature","properties":{"id":14316,"nach":0.54672700612895464},"geometry":{"type":"LineString","coordinates":[[-2.7313793,53.648964],[-2.731618,53.6489973],[-2.7319721,53.6490037],[-2.7323436,53.649022]]}},
{"type":"Feature","properties":{"id":14319,"nach":0.39950057355581586},"geometry":{"type":"LineString","coordinates":[[-2.7313927,53.6479353],[-2.7313793,53.648964]]}},
{"type":"Feature","properties":{"id":14318,"nach":0.41254435285529983},"geometry":{"type":"LineString","coordinates":[[-2.7313578,53.6492374],[-2.7313793,53.648964]]}},
{"type":"Feature","properties":{"id":42287,"nach":0.42784939899235869},"geometry":{"type":"LineString","coordinates":[[-2.7295044,53.6486033],[-2.7299376,53.648584700000015]]}},
{"type":"Feature","properties":{"id":14304,"nach":0.49888241114202231},"geometry":{"type":"LineString","coordinates":[[-2.7323798,53.6485649],[-2.7323436,53.649022]]}},
{"type":"Feature","properties":{"id":42242,"nach":0.41605956735592636},"geometry":{"type":"LineString","coordinates":[[-2.7338592,53.6489276],[-2.7337125,53.6493075]]}},
{"type":"Feature","properties":{"id":43492,"nach":0.41018904850295018},"geometry":{"type":"LineString","coordinates":[[-2.7332825,53.6490207],[-2.7333429,53.6490944],[-2.7332737,53.6492422],[-2.7337125,53.6493075]]}},
{"type":"Feature","properties":{"id":42244,"nach":0.0},"geometry":{"type":"LineString","coordinates":[[-2.7338592,53.6489276],[-2.7341876,53.6482564],[-2.7342144,53.6481134],[-2.73415,53.6479734],[-2.7340642,53.647852600000014],[-2.733914,53.6477445],[-2.7336994,53.6476618],[-2.7333239,53.6476237],[-2.7330128,53.64763],[-2.7327016,53.6476746],[-2.7324763,53.6477763],[-2.7323905,53.6479035],[-2.7323583,53.6480434],[-2.732369,53.6482723],[-2.7323798,53.6485649]]}},
{"type":"Feature","properties":{"id":43489,"nach":0.47983415196667062},"geometry":{"type":"LineString","coordinates":[[-2.7329498,53.648553],[-2.732829,53.648560100000012],[-2.7323798,53.6485649]]}},
{"type":"Feature","properties":{"id":42243,"nach":0.36475721146053075},"geometry":{"type":"LineString","coordinates":[[-2.7338592,53.6489276],[-2.7343523,53.648993800000014]]}},
{"type":"Feature","properties":{"id":43488,"nach":0.38885239854758397},"geometry":{"type":"LineString","coordinates":[[-2.7329498,53.648553],[-2.7330114,53.6485426],[-2.7330999,53.6484791],[-2.7332018,53.64828270000001],[-2.733234,53.648227]]}},
{"type":"Feature","properties":{"id":43496,"nach":0.42690728423394775},"geometry":{"type":"LineString","coordinates":[[-2.7330817,53.6487762],[-2.7330742,53.648767100000015],[-2.7330044,53.6486793],[-2.7329498,53.648553]]}},
{"type":"Feature","properties":{"id":43500,"nach":0.33325757565849357},"geometry":{"type":"LineString","coordinates":[[-2.7332216,53.6489466],[-2.7332825,53.6490207]]}},
{"type":"Feature","properties":{"id":43497,"nach":0.38255415315797858},"geometry":{"type":"LineString","coordinates":[[-2.7330817,53.6487762],[-2.7330255,53.6487947],[-2.732979,53.6488197],[-2.7329621,53.6488574],[-2.7329579,53.6489213],[-2.7329663,53.648994],[-2.7329896,53.6490141],[-2.7330509,53.6490329],[-2.7330996,53.6490417],[-2.7331419,53.6490429],[-2.7332011,53.64903790000001],[-2.7332825,53.6490207]]}},
{"type":"Feature","properties":{"id":45630,"nach":0.47388531138045825},"geometry":{"type":"LineString","coordinates":[[-2.7338364,53.6515004],[-2.7340882,53.6514387]]}},
{"type":"Feature","properties":{"id":45632,"nach":0.37962049433809886},"geometry":{"type":"LineString","coordinates":[[-2.7338364,53.6515004],[-2.7338026,53.6514416],[-2.7336444,53.6513351]]}},
{"type":"Feature","properties":{"id":14346,"nach":0.3676159740540228},"geometry":{"type":"LineString","coordinates":[[-2.7343027,53.6519157],[-2.7343545,53.6518223],[-2.7343746,53.651749400000014],[-2.7343658,53.6516936],[-2.7343431,53.6516554],[-2.7342573,53.6514883],[-2.7342031,53.6514295]]}},
{"type":"Feature","properties":{"id":43528,"nach":0.31057118201943373},"geometry":{"type":"LineString","coordinates":[[-2.7433992,53.6526528],[-2.7432062,53.6526573],[-2.7415994,53.6527082],[-2.7409511,53.6526484],[-2.7402243,53.6525155],[-2.7393649,53.652355],[-2.738739,53.6522498],[-2.737491,53.652002900000014],[-2.7368875,53.6518766],[-2.7362877,53.6516463],[-2.7358375,53.65153],[-2.7348977,53.6513573],[-2.7345371,53.651365],[-2.7342031,53.6514295]]}},
{"type":"Feature","properties":{"id":37979,"nach":0.43195630059763773},"geometry":{"type":"LineString","coordinates":[[-2.7340882,53.6514387],[-2.7341368,53.6514272],[-2.7342031,53.6514295]]}},
{"type":"Feature","properties":{"id":43525,"nach":0.24222033666631912},"geometry":{"type":"LineString","coordinates":[[-2.7433992,53.6526528],[-2.743519,53.6526045],[-2.7436987,53.6525727],[-2.7439588,53.65254250000001],[-2.7440849,53.6524424],[-2.7440903,53.6523009],[-2.7440903,53.6521721]]}},
{"type":"Feature","properties":{"id":43526,"nach":0.29370942230044544},"geometry":{"type":"LineString","coordinates":[[-2.7433992,53.6526528],[-2.7433178,53.6526856],[-2.7432239,53.6527301]]}},
{"type":"Feature","properties":{"id":43527,"nach":0.18453528828136201},"geometry":{"type":"LineString","coordinates":[[-2.7433992,53.6526528],[-2.7437232,53.652637],[-2.7442669,53.6525606],[-2.7444086,53.6523035],[-2.7452062,53.6522809],[-2.7460249,53.6521305],[-2.7470551,53.6520402],[-2.747999,53.6519562]]}},
{"type":"Feature","properties":{"id":37980,"nach":0.36962510721282493},"geometry":{"type":"LineString","coordinates":[[-2.7342251,53.6511525],[-2.733993,53.651205],[-2.7339755,53.6512115],[-2.7339652,53.6512159],[-2.7339583,53.6512203],[-2.7339529,53.6512271],[-2.7339509,53.6512338],[-2.7339517,53.6512445],[-2.7339548,53.6512545],[-2.733969,53.6512799],[-2.7339969,53.651298899999986],[-2.7340455,53.6513758],[-2.7340882,53.6514387]]}},
{"type":"Feature","properties":{"id":43453,"nach":0.078846271744595478},"geometry":{"type":"LineString","coordinates":[[-2.7443293,53.6493048],[-2.7438341,53.649476],[-2.7421902,53.6497125],[-2.7410536,53.6498541],[-2.740849,53.6498796],[-2.7406155,53.6498744],[-2.7403057,53.6498674],[-2.739666,53.6498062],[-2.7389851,53.6497003],[-2.738373,53.6495576],[-2.7376236,53.64932970000001],[-2.7368714,53.6490303]]}},
{"type":"Feature","properties":{"id":32634,"nach":0.34508508130163512},"geometry":{"type":"LineString","coordinates":[[-2.7334439,53.6546826],[-2.733405,53.654737],[-2.7333828,53.6547901]]}},
{"type":"Feature","properties":{"id":36391,"nach":0.29194917017877586},"geometry":{"type":"LineString","coordinates":[[-2.7313628,53.6501966],[-2.7313804,53.650339499999987],[-2.7315188,53.65118970000001],[-2.7315349,53.6512167],[-2.7316019,53.6512389],[-2.7318138,53.6512628],[-2.731897,53.6512723],[-2.731956,53.6512882],[-2.7319962,53.65132],[-2.7319989,53.651399499999989],[-2.7320418,53.652029],[-2.7320659,53.6523374],[-2.7321206,53.6527005],[-2.7322054,53.6530258],[-2.7323476,53.6535313],[-2.7324253,53.6537332],[-2.7325005,53.6538906],[-2.7325686,53.6540343],[-2.7326265,53.6541226],[-2.7327284,53.6542339],[-2.7329081,53.6544247],[-2.7329806,53.6545137],[-2.7330288,53.654582],[-2.7330959,53.6545995],[-2.7331603,53.6546552],[-2.7332461,53.6546568],[-2.7334439,53.6546826]]}},
{"type":"Feature","properties":{"id":36389,"nach":0.56236522320384652},"geometry":{"type":"LineString","coordinates":[[-2.7313628,53.6501966],[-2.7311912,53.6501655]]}},
{"type":"Feature","properties":{"id":32643,"nach":0.35838557099129092},"geometry":{"type":"LineString","coordinates":[[-2.734812,53.6538618],[-2.7345711,53.6538882],[-2.7343606,53.653947800000012],[-2.7343109,53.6541266],[-2.7341849,53.6541266]]}},
{"type":"Feature","properties":{"id":43477,"nach":0.22967647131057661},"geometry":{"type":"LineString","coordinates":[[-2.7213687,53.6580527],[-2.7234437,53.6584626],[-2.7234869,53.65876140000001],[-2.7254236,53.6585531]]}},
{"type":"Feature","properties":{"id":45609,"nach":0.36383909371814083},"geometry":{"type":"LineString","coordinates":[[-2.7267504,53.6497631],[-2.7267511,53.6497016],[-2.726843,53.6495888],[-2.726904,53.6495156],[-2.7269107,53.6494385]]}},
{"type":"Feature","properties":{"id":45601,"nach":0.38460327260360472},"geometry":{"type":"LineString","coordinates":[[-2.7267644,53.649763399999983],[-2.7267753,53.6500784],[-2.7269134,53.650181],[-2.727014,53.65019130000001]]}},
{"type":"Feature","properties":{"id":36380,"nach":0.39548652491497466},"geometry":{"type":"LineString","coordinates":[[-2.7311912,53.6501655],[-2.7312563,53.6500485],[-2.7312816,53.6499395],[-2.7313175,53.6498974],[-2.7314178,53.6498156],[-2.731518,53.6497397],[-2.731581,53.649651]]}},
{"type":"Feature","properties":{"id":43522,"nach":0.38419477262795104},"geometry":{"type":"LineString","coordinates":[[-2.7370518,53.657624200000015],[-2.736982,53.6576495],[-2.7367737,53.6576569],[-2.7365498,53.6576716]]}},
{"type":"Feature","properties":{"id":43521,"nach":0.29479527527661736},"geometry":{"type":"LineString","coordinates":[[-2.7369765,53.657732],[-2.7368376,53.6577955],[-2.7367701,53.6578179],[-2.7366986,53.657817899999984],[-2.736647,53.657792],[-2.7366014,53.657745],[-2.7365498,53.6576716]]}},
{"type":"Feature","properties":{"id":43524,"nach":0.36509595371488135},"geometry":{"type":"LineString","coordinates":[[-2.7370518,53.657624200000015],[-2.7371343,53.6575942],[-2.7372522,53.6575515]]}},
{"type":"Feature","properties":{"id":43523,"nach":0.0},"geometry":{"type":"LineString","coordinates":[[-2.7370518,53.657624200000015],[-2.7373934,53.6576626],[-2.7374291,53.6576979],[-2.737453,53.6580214],[-2.7378003,53.658390799999985],[-2.7378539,53.6584261],[-2.7385725,53.6583672],[-2.7399978,53.658246099999985],[-2.742505,53.6580814],[-2.7432454,53.6579885],[-2.7436305,53.6579802],[-2.7436742,53.6579979],[-2.7436901,53.6581355],[-2.7437238,53.658159],[-2.7443352,53.6582484],[-2.744492,53.6582178],[-2.7450717,53.6579532],[-2.7452297,53.6577419],[-2.7454418,53.6576568],[-2.745556,53.6576336],[-2.7457453,53.6576375],[-2.7463947,53.65773990000001],[-2.7466753,53.6577786],[-2.7471648,53.6579121],[-2.7475597,53.6579836],[-2.7478664,53.658061],[-2.7483233,53.6581325],[-2.748555,53.6581364],[-2.7485932,53.6581325],[-2.748595,53.6580658],[-2.7486468,53.6580608],[-2.748983,53.658073600000016],[-2.7491619,53.6580998],[-2.7491336,53.6577863],[-2.7489929,53.6572385],[-2.7488783,53.6565845],[-2.7500269,53.6565378],[-2.7501753,53.6566004],[-2.7502921,53.6565951],[-2.7504461,53.6565777]]}},
{"type":"Feature","properties":{"id":39353,"nach":0.28890945135111712},"geometry":{"type":"LineString","coordinates":[[-2.7372522,53.6575515],[-2.7373515,53.6575044],[-2.7372711,53.657412800000017],[-2.7371962,53.6573534],[-2.7371094,53.657174199999986]]}},
{"type":"Feature","properties":{"id":39357,"nach":0.29148455333812145},"geometry":{"type":"LineString","coordinates":[[-2.7375639,53.657687699999983],[-2.7374705,53.6575992],[-2.7372792,53.65758490000001],[-2.7372522,53.6575515]]}},
{"type":"Feature","properties":{"id":39356,"nach":0.0},"geometry":{"type":"LineString","coordinates":[[-2.7375639,53.657687699999983],[-2.7376637,53.6576841],[-2.7378635,53.6577429],[-2.7379882,53.65782080000001],[-2.7380479,53.6579637],[-2.7380741,53.658029],[-2.7380352,53.6580822],[-2.7378113,53.6580794],[-2.7376199,53.6579659],[-2.7376125,53.6578868],[-2.7375926,53.6577897],[-2.7375639,53.657687699999983]]}},
{"type":"Feature","properties":{"id":40439,"nach":0.2040514523370115},"geometry":{"type":"LineString","coordinates":[[-2.7432239,53.6527301],[-2.7436021,53.6527142],[-2.7438864,53.6527047],[-2.7441546,53.6526538],[-2.7444899,53.652622],[-2.7448306,53.652623599999984],[-2.7451631,53.652633099999989]]}},
{"type":"Feature","properties":{"id":43483,"nach":0.23539394976205352},"geometry":{"type":"LineString","coordinates":[[-2.7243801,53.65747660000001],[-2.7244701,53.65759460000001],[-2.7245696,53.6576198],[-2.7247117,53.6576142],[-2.7248965,53.6575946],[-2.7254236,53.6585531]]}},
{"type":"Feature","properties":{"id":43499,"nach":0.33954159639717268},"geometry":{"type":"LineString","coordinates":[[-2.7332216,53.6489466],[-2.7333281,53.6489226],[-2.7333894,53.648897500000011],[-2.7334169,53.6488273],[-2.7334212,53.6487959],[-2.7333979,53.6487809],[-2.7333365,53.6487608],[-2.7332477,53.6487558],[-2.7331884,53.648757],[-2.7331207,53.6487621],[-2.7330817,53.6487762]]}},
{"type":"Feature","properties":{"id":52632,"nach":0.27639611218081367},"geometry":{"type":"LineString","coordinates":[[-2.7300315,53.6594762],[-2.730006,53.6592648],[-2.7299845,53.6590995],[-2.7299362,53.6589819]]}},
{"type":"Feature","properties":{"id":52633,"nach":0.26963695475988214},"geometry":{"type":"LineString","coordinates":[[-2.7300315,53.6594762],[-2.7292013,53.6594357],[-2.729094,53.6594269],[-2.7290458,53.6594086],[-2.7290323,53.659353]]}}
]
}
