{
"type": "FeatureCollection",
"name": "STOC5_83_walking",
"crs": { "type": "name", "properties": { "name": "urn:ogc:def:crs:OGC:1.3:CRS84" } },
"features": [
{"type":"Feature","properties":{"highway":"footway","name":null,"category":"Footpath (pedestrian only)"},"geometry":{"type":"MultiLineString","coordinates":[[[-2.1890714,53.3762589],[-2.1890283,53.3762164],[-2.1888936,53.3760857],[-2.1887721,53.3759618],[-2.1889057,53.3758314],[-2.189849,53.3750207],[-2.1914537,53.373623]]]}},
{"type":"Feature","properties":{"highway":"footway","name":null,"category":"Footpath (pedestrian only)"},"geometry":{"type":"MultiLineString","coordinates":[[[-2.1906197,53.3751763],[-2.189849,53.3750207]]]}},
{"type":"Feature","properties":{"highway":"footway","name":"Lady Brook Valley Footpath","category":"Footpath (pedestrian only)"},"geometry":{"type":"MultiLineString","coordinates":[[[-2.1834557,53.3811544],[-2.1832959,53.3811066],[-2.1830998,53.3810298],[-2.18301,53.3809759],[-2.182779,53.3808961],[-2.1826231,53.3808577],[-2.1824777,53.3808048],[-2.1824334,53.3807855],[-2.1822106,53.3806885],[-2.1820894,53.3806208],[-2.1819171,53.3804777],[-2.1818014,53.3803746],[-2.1816455,53.3802436],[-2.1814143,53.3800905],[-2.1812141,53.379995],[-2.1811062,53.379987],[-2.1809473,53.3799753],[-2.1806824,53.3798797],[-2.1802512,53.3797066],[-2.1799872,53.3796015],[-2.1796628,53.379467],[-2.1793466,53.3793346],[-2.1792088,53.3792813],[-2.1789058,53.3791807],[-2.1788111,53.379103],[-2.1786882,53.3790076],[-2.1786506,53.3789729],[-2.1785404,53.3788892],[-2.1784494,53.3788275],[-2.178357,53.378773],[-2.1781663,53.3786883],[-2.1779923,53.3786158],[-2.1777203,53.3785702],[-2.1776152,53.3785314],[-2.1774537,53.3784286],[-2.177288,53.3783241],[-2.1770326,53.3782255],[-2.1767241,53.3781393],[-2.1761574,53.3779898],[-2.1759304,53.3779493],[-2.1757457,53.3779294],[-2.175563,53.3779085],[-2.1751329,53.3777597],[-2.1745099,53.3776832],[-2.1742396,53.3775611],[-2.1739207,53.3774327],[-2.173676,53.3773132],[-2.1733685,53.3771484],[-2.1733284,53.3771138]]]}},
{"type":"Feature","properties":{"highway":"footway","name":null,"category":"Footpath (pedestrian only)"},"geometry":{"type":"MultiLineString","coordinates":[[[-2.1868845,53.3776881],[-2.1871162,53.3780105]]]}},
{"type":"Feature","properties":{"highway":"footway","name":null,"category":"Footpath (pedestrian only)"},"geometry":{"type":"MultiLineString","coordinates":[[[-2.1842043,53.3807372],[-2.1842337,53.3804653],[-2.1842587,53.3803465],[-2.1842705,53.3803281],[-2.1843145,53.380259],[-2.1844017,53.3801447],[-2.184517,53.3799945],[-2.1846949,53.3798029],[-2.1847419,53.3797344],[-2.1847616,53.3797057],[-2.1847901,53.3796631],[-2.1848572,53.3795626],[-2.1852056,53.3792275],[-2.1860822,53.3784278],[-2.1868845,53.3776881],[-2.187633,53.3770311],[-2.188423,53.3763274]]]}},
{"type":"Feature","properties":{"highway":"path","name":null,"category":"Shared path"},"geometry":{"type":"MultiLineString","coordinates":[[[-2.1823672,53.3824003],[-2.1823893,53.3824509],[-2.1824945,53.3825013],[-2.1827379,53.3826029],[-2.1829112,53.3827118],[-2.1829696,53.3827782],[-2.183168,53.3829091]]]}},
{"type":"Feature","properties":{"highway":"footway","name":null,"category":"Footpath (pedestrian only)"},"geometry":{"type":"MultiLineString","coordinates":[[[-2.1894777,53.3786563],[-2.1894777,53.3786703],[-2.1895609,53.3787229],[-2.189658,53.3787843]]]}},
{"type":"Feature","properties":{"highway":"footway","name":null,"category":"Footpath (pedestrian only)"},"geometry":{"type":"MultiLineString","coordinates":[[[-2.1881591,53.3762331],[-2.1881436,53.3762254],[-2.1880708,53.3762128]]]}},
{"type":"Feature","properties":{"highway":"footway","name":null,"category":"Footpath (pedestrian only)"},"geometry":{"type":"MultiLineString","coordinates":[[[-2.188322,53.3759466],[-2.1883011,53.376006]]]}},
{"type":"Feature","properties":{"highway":"footway","name":null,"category":"Footpath (pedestrian only)"},"geometry":{"type":"MultiLineString","coordinates":[[[-2.1885085,53.3759211],[-2.1884078,53.3759727]]]}},
{"type":"Feature","properties":{"highway":"footway","name":null,"category":"Footpath (pedestrian only)"},"geometry":{"type":"MultiLineString","coordinates":[[[-2.1886445,53.3761571],[-2.1886126,53.3761415]]]}},
{"type":"Feature","properties":{"highway":"footway","name":null,"category":"Footpath (pedestrian only)"},"geometry":{"type":"MultiLineString","coordinates":[[[-2.1881467,53.3756498],[-2.1880775,53.3757095]]]}},
{"type":"Feature","properties":{"highway":"footway","name":null,"category":"Footpath (pedestrian only)"},"geometry":{"type":"MultiLineString","coordinates":[[[-2.1884463,53.3762583],[-2.1883824,53.3762402]]]}},
{"type":"Feature","properties":{"highway":"footway","name":null,"category":"Footpath (pedestrian only)"},"geometry":{"type":"MultiLineString","coordinates":[[[-2.189953,53.3768734],[-2.1900914,53.3768848],[-2.1902037,53.3769116],[-2.1903754,53.3769476],[-2.1904853,53.3769684],[-2.1905293,53.3769847],[-2.1905645,53.3770076],[-2.1906022,53.3770143],[-2.1906639,53.3770178],[-2.1907217,53.3770156],[-2.1908541,53.3769892],[-2.1909259,53.3769519],[-2.1909836,53.3768876],[-2.1910124,53.3768354],[-2.1910265,53.376784],[-2.1910245,53.3767312],[-2.1909956,53.3766952],[-2.1908582,53.3766188],[-2.1906731,53.3765476],[-2.1905899,53.3764868],[-2.1904837,53.3764457],[-2.1904116,53.376414],[-2.190373,53.3764064],[-2.1903278,53.3764036],[-2.1902815,53.3764068],[-2.1901859,53.3764464],[-2.1901095,53.3764842],[-2.1900059,53.3765564],[-2.1899653,53.3765974],[-2.1899583,53.376622],[-2.189973,53.3766924],[-2.1899912,53.3767954],[-2.1899824,53.3768232],[-2.1899696,53.3768492],[-2.189953,53.3768734],[-2.1897077,53.3769374],[-2.1895787,53.3769735]]]}},
{"type":"Feature","properties":{"highway":"footway","name":null,"category":"Footpath (pedestrian only)"},"geometry":{"type":"MultiLineString","coordinates":[[[-2.1903777,53.3782678],[-2.1903866,53.3782093]]]}},
{"type":"Feature","properties":{"highway":"footway","name":null,"category":"Footpath (pedestrian only)"},"geometry":{"type":"MultiLineString","coordinates":[[[-2.1905733,53.3783298],[-2.1905453,53.378315],[-2.1904838,53.3783534],[-2.1904454,53.3783291]]]}},
{"type":"Feature","properties":{"highway":"footway","name":null,"category":"Footpath (pedestrian only)"},"geometry":{"type":"MultiLineString","coordinates":[[[-2.1904497,53.3785079],[-2.1904756,53.3784774],[-2.1905118,53.3784926],[-2.1905464,53.3784665]]]}},
{"type":"Feature","properties":{"highway":"footway","name":null,"category":"Footpath (pedestrian only)"},"geometry":{"type":"MultiLineString","coordinates":[[[-2.1902157,53.3783744],[-2.1901161,53.3784046],[-2.190021,53.3784122]]]}},
{"type":"Feature","properties":{"highway":"footway","name":null,"category":"Footpath (pedestrian only)"},"geometry":{"type":"MultiLineString","coordinates":[[[-2.1903777,53.3782678],[-2.1902974,53.3783021]]]}},
{"type":"Feature","properties":{"highway":"footway","name":null,"category":"Footpath (pedestrian only)"},"geometry":{"type":"MultiLineString","coordinates":[[[-2.1903777,53.3782678],[-2.1904454,53.3783291]]]}},
{"type":"Feature","properties":{"highway":"footway","name":null,"category":"Footpath (pedestrian only)"},"geometry":{"type":"MultiLineString","coordinates":[[[-2.1901161,53.3784046],[-2.1901698,53.3784441]]]}},
{"type":"Feature","properties":{"highway":"footway","name":null,"category":"Footpath (pedestrian only)"},"geometry":{"type":"MultiLineString","coordinates":[[[-2.1901698,53.3784441],[-2.190214,53.3784742],[-2.1901684,53.378507],[-2.1901967,53.3785237]]]}},
{"type":"Feature","properties":{"highway":"footway","name":null,"category":"Footpath (pedestrian only)"},"geometry":{"type":"MultiLineString","coordinates":[[[-2.1902974,53.3783021],[-2.1902505,53.3783206],[-2.1902813,53.3783518],[-2.1902157,53.3783744]]]}},
{"type":"Feature","properties":{"highway":"footway","name":null,"category":"Footpath (pedestrian only)"},"geometry":{"type":"MultiLineString","coordinates":[[[-2.190001,53.37846],[-2.189917,53.3784548],[-2.1897851,53.3784471]]]}},
{"type":"Feature","properties":{"highway":"footway","name":null,"category":"Footpath (pedestrian only)"},"geometry":{"type":"MultiLineString","coordinates":[[[-2.1899287,53.3780718],[-2.1898667,53.378135],[-2.1898011,53.3782033]]]}},
{"type":"Feature","properties":{"highway":"footway","name":null,"category":"Footpath (pedestrian only)"},"geometry":{"type":"MultiLineString","coordinates":[[[-2.1891005,53.378335],[-2.1890422,53.3782351]]]}},
{"type":"Feature","properties":{"highway":"footway","name":null,"category":"Footpath (pedestrian only)"},"geometry":{"type":"MultiLineString","coordinates":[[[-2.1908121,53.3781584],[-2.1907133,53.3780997]]]}},
{"type":"Feature","properties":{"highway":"path","name":null,"category":"Shared path"},"geometry":{"type":"MultiLineString","coordinates":[[[-2.183168,53.3829091],[-2.1837352,53.3832523],[-2.1841309,53.3834787],[-2.1842757,53.3835779],[-2.1846064,53.3836742]]]}},
{"type":"Feature","properties":{"highway":"footway","name":null,"category":"Footpath (pedestrian only)"},"geometry":{"type":"MultiLineString","coordinates":[[[-2.1876636,53.3837643],[-2.1876525,53.38358],[-2.1876824,53.3834637],[-2.1877112,53.3833336],[-2.1876841,53.3832388],[-2.187521,53.3829575],[-2.1874637,53.3828972],[-2.1874013,53.3827635],[-2.1873112,53.3826241],[-2.1872971,53.3825765],[-2.1872995,53.3825059],[-2.187385,53.3822467]]]}},
{"type":"Feature","properties":{"highway":"path","name":null,"category":"Shared path"},"geometry":{"type":"MultiLineString","coordinates":[[[-2.1845605,53.3828683],[-2.1845743,53.3829461],[-2.1846476,53.3830169]]]}},
{"type":"Feature","properties":{"highway":"footway","name":null,"category":"Footpath (pedestrian only)"},"geometry":{"type":"MultiLineString","coordinates":[[[-2.1880105,53.3757423],[-2.1879181,53.3758233]]]}},
{"type":"Feature","properties":{"highway":"path","name":null,"category":"Shared path"},"geometry":{"type":"MultiLineString","coordinates":[[[-2.188371,53.376319],[-2.1883295,53.3763032],[-2.1880841,53.376243],[-2.1878766,53.3761902]]]}},
{"type":"Feature","properties":{"highway":"footway","name":null,"category":"Footpath (pedestrian only)"},"geometry":{"type":"MultiLineString","coordinates":[[[-2.188134,53.3761694],[-2.1880939,53.3761662]]]}},
{"type":"Feature","properties":{"highway":"footway","name":null,"category":"Footpath (pedestrian only)"},"geometry":{"type":"MultiLineString","coordinates":[[[-2.1878203,53.3761924],[-2.187798,53.3762128],[-2.1876619,53.3761813]]]}},
{"type":"Feature","properties":{"highway":"footway","name":null,"category":"Footpath (pedestrian only)"},"geometry":{"type":"MultiLineString","coordinates":[[[-2.1883617,53.3759329],[-2.188322,53.3759466]]]}},
{"type":"Feature","properties":{"highway":"footway","name":null,"category":"Footpath (pedestrian only)"},"geometry":{"type":"MultiLineString","coordinates":[[[-2.1874733,53.3749897],[-2.1873381,53.3747372],[-2.1873204,53.3747041],[-2.1872371,53.374609],[-2.1869403,53.3746588]]]}},
{"type":"Feature","properties":{"highway":"footway","name":null,"category":"Footpath (pedestrian only)"},"geometry":{"type":"MultiLineString","coordinates":[[[-2.18987,53.3753687],[-2.1898948,53.3753538],[-2.1898304,53.375313],[-2.1898843,53.3752816],[-2.189849,53.3750207]]]}},
{"type":"Feature","properties":{"highway":"path","name":null,"category":"Shared path"},"geometry":{"type":"MultiLineString","coordinates":[[[-2.1837468,53.3780378],[-2.1837268,53.3785858],[-2.1838224,53.3786886],[-2.1839377,53.3788246],[-2.1840424,53.3788872]]]}},
{"type":"Feature","properties":{"highway":"footway","name":null,"category":"Footpath (pedestrian only)"},"geometry":{"type":"MultiLineString","coordinates":[[[-2.1839835,53.3789318],[-2.1837553,53.3791622],[-2.1831813,53.3796054],[-2.1830852,53.3797362],[-2.1827764,53.3801563],[-2.1826638,53.3803931],[-2.1825859,53.3805206],[-2.1824334,53.3807855]]]}},
{"type":"Feature","properties":{"highway":"footway","name":null,"category":"Footpath (pedestrian only)"},"geometry":{"type":"MultiLineString","coordinates":[[[-2.186456,53.3748923],[-2.1863771,53.3748394]]]}},
{"type":"Feature","properties":{"highway":"footway","name":null,"category":"Footpath (pedestrian only)"},"geometry":{"type":"MultiLineString","coordinates":[[[-2.1880775,53.3757095],[-2.187942,53.375603],[-2.187887,53.3755616],[-2.1878384,53.3755171],[-2.1877945,53.3754768],[-2.187604,53.3753176],[-2.187491,53.375217],[-2.1874029,53.3751384],[-2.187144,53.3749288],[-2.186953,53.3747939],[-2.1867358,53.3746437],[-2.1866986,53.3746382],[-2.1866466,53.3746399],[-2.1866062,53.3746489],[-2.1863213,53.3748028],[-2.1857881,53.3750968]]]}},
{"type":"Feature","properties":{"highway":"footway","name":null,"category":"Footpath (pedestrian only)"},"geometry":{"type":"MultiLineString","coordinates":[[[-2.1830852,53.3797362],[-2.1828823,53.3798535],[-2.1826677,53.3799911],[-2.1824371,53.3800391],[-2.182083,53.3800711],[-2.1818362,53.3800711],[-2.1816002,53.3800039],[-2.1812837,53.3799783],[-2.1811062,53.379987]]]}},
{"type":"Feature","properties":{"highway":"path","name":null,"category":"Shared path"},"geometry":{"type":"MultiLineString","coordinates":[[[-2.1850339,53.3839795],[-2.185236,53.3840873],[-2.1853194,53.3841171],[-2.185459,53.384155],[-2.1857685,53.3842352],[-2.1860312,53.3842961]]]}},
{"type":"Feature","properties":{"highway":"footway","name":null,"category":"Footpath (pedestrian only)"},"geometry":{"type":"MultiLineString","coordinates":[[[-2.1896822,53.3771048],[-2.1895147,53.3771516]]]}},
{"type":"Feature","properties":{"highway":"footway","name":null,"category":"Footpath (pedestrian only)"},"geometry":{"type":"MultiLineString","coordinates":[[[-2.1895147,53.3771516],[-2.1889334,53.3773172]]]}},
{"type":"Feature","properties":{"highway":"footway","name":null,"category":"Footpath (pedestrian only)"},"geometry":{"type":"MultiLineString","coordinates":[[[-2.1889334,53.3773172],[-2.1888694,53.3773351]]]}},
{"type":"Feature","properties":{"highway":"footway","name":null,"category":"Footpath (pedestrian only)"},"geometry":{"type":"MultiLineString","coordinates":[[[-2.1887055,53.3774525],[-2.1887083,53.3773928],[-2.1888738,53.3773406]]]}},
{"type":"Feature","properties":{"highway":"footway","name":null,"category":"Footpath (pedestrian only)"},"geometry":{"type":"MultiLineString","coordinates":[[[-2.1901313,53.3767325],[-2.1901293,53.3767153],[-2.1901342,53.3767052],[-2.1901402,53.3766973],[-2.1901648,53.3766692],[-2.1901827,53.3766495]]]}},
{"type":"Feature","properties":{"highway":"footway","name":null,"category":"Footpath (pedestrian only)"},"geometry":{"type":"MultiLineString","coordinates":[[[-2.1901469,53.3767648],[-2.1901671,53.3767965],[-2.1901742,53.3768172],[-2.1901678,53.376836],[-2.1901483,53.3768566],[-2.1901225,53.3768712],[-2.1900914,53.3768848]]]}},
{"type":"Feature","properties":{"highway":"footway","name":null,"category":"Footpath (pedestrian only)"},"geometry":{"type":"MultiLineString","coordinates":[[[-2.191464,53.3829911],[-2.1914831,53.3828708],[-2.1915341,53.3828321],[-2.1915678,53.3826118],[-2.1916851,53.382528],[-2.1918437,53.3824825],[-2.1919443,53.3823932]]]}},
{"type":"Feature","properties":{"highway":"footway","name":null,"category":"Footpath (pedestrian only)"},"geometry":{"type":"MultiLineString","coordinates":[[[-2.186953,53.3747939],[-2.1868803,53.3748331]]]}},
{"type":"Feature","properties":{"highway":"footway","name":null,"category":"Footpath (pedestrian only)"},"geometry":{"type":"MultiLineString","coordinates":[[[-2.1887085,53.3748857],[-2.1887998,53.3749274]]]}},
{"type":"Feature","properties":{"highway":"footway","name":null,"category":"Footpath (pedestrian only)"},"geometry":{"type":"MultiLineString","coordinates":[[[-2.1880775,53.3757095],[-2.1880335,53.3757155]]]}},
{"type":"Feature","properties":{"highway":"footway","name":null,"category":"Footpath (pedestrian only)"},"geometry":{"type":"MultiLineString","coordinates":[[[-2.187581,53.3755197],[-2.1876138,53.3755567],[-2.1875401,53.3755852],[-2.1874421,53.3756231],[-2.1872511,53.3756949]]]}},
{"type":"Feature","properties":{"highway":"footway","name":null,"category":"Footpath (pedestrian only)"},"geometry":{"type":"MultiLineString","coordinates":[[[-2.1877385,53.3755619],[-2.1877211,53.3755699],[-2.1877056,53.3755591],[-2.1875963,53.3756107],[-2.1875983,53.3756271],[-2.1875883,53.3756315],[-2.1875735,53.3756175]]]}},
{"type":"Feature","properties":{"highway":"footway","name":null,"category":"Footpath (pedestrian only)"},"geometry":{"type":"MultiLineString","coordinates":[[[-2.1878384,53.3755171],[-2.1877962,53.3755355]]]}},
{"type":"Feature","properties":{"highway":"footway","name":null,"category":"Footpath (pedestrian only)"},"geometry":{"type":"MultiLineString","coordinates":[[[-2.1875494,53.3755947],[-2.1875401,53.3755852]]]}},
{"type":"Feature","properties":{"highway":"footway","name":null,"category":"Footpath (pedestrian only)"},"geometry":{"type":"MultiLineString","coordinates":[[[-2.1871414,53.3757483],[-2.1871854,53.3757657],[-2.1873365,53.375873]]]}},
{"type":"Feature","properties":{"highway":"footway","name":null,"category":"Footpath (pedestrian only)"},"geometry":{"type":"MultiLineString","coordinates":[[[-2.1882511,53.3773954],[-2.1882446,53.377375],[-2.1882391,53.377356],[-2.1883327,53.3773255]]]}},
{"type":"Feature","properties":{"highway":"footway","name":null,"category":"Footpath (pedestrian only)"},"geometry":{"type":"MultiLineString","coordinates":[[[-2.1887381,53.3742568],[-2.1888618,53.3742466]]]}},
{"type":"Feature","properties":{"highway":"footway","name":null,"category":"Footpath (pedestrian only)"},"geometry":{"type":"MultiLineString","coordinates":[[[-2.1887618,53.3743632],[-2.1888843,53.3743551]]]}},
{"type":"Feature","properties":{"highway":"footway","name":null,"category":"Footpath (pedestrian only)"},"geometry":{"type":"MultiLineString","coordinates":[[[-2.1889424,53.374744],[-2.1890092,53.3748603],[-2.1889869,53.3748775]]]}},
{"type":"Feature","properties":{"highway":"footway","name":null,"category":"Footpath (pedestrian only)"},"geometry":{"type":"MultiLineString","coordinates":[[[-2.1886114,53.3744244],[-2.1887728,53.3744132]]]}},
{"type":"Feature","properties":{"highway":"footway","name":null,"category":"Footpath (pedestrian only)"},"geometry":{"type":"MultiLineString","coordinates":[[[-2.1900303,53.377734],[-2.1901248,53.3777041],[-2.1902361,53.3776525]]]}},
{"type":"Feature","properties":{"highway":"footway","name":null,"category":"Footpath (pedestrian only)"},"geometry":{"type":"MultiLineString","coordinates":[[[-2.187604,53.3753176],[-2.1875651,53.3753303]]]}},
{"type":"Feature","properties":{"highway":"footway","name":null,"category":"Footpath (pedestrian only)"},"geometry":{"type":"MultiLineString","coordinates":[[[-2.1875765,53.3753655],[-2.1875553,53.3753727]]]}},
{"type":"Feature","properties":{"highway":"footway","name":null,"category":"Footpath (pedestrian only)"},"geometry":{"type":"MultiLineString","coordinates":[[[-2.1888936,53.3760857],[-2.1890207,53.3760461],[-2.1890499,53.3760378],[-2.1890807,53.3760227],[-2.1890975,53.3760039],[-2.1890921,53.3759891],[-2.1894388,53.3757867]]]}},
{"type":"Feature","properties":{"highway":"footway","name":null,"category":"Footpath (pedestrian only)"},"geometry":{"type":"MultiLineString","coordinates":[[[-2.1894388,53.3757867],[-2.1894763,53.3757642],[-2.1894985,53.3757514],[-2.1895185,53.3757642],[-2.1896903,53.3758737],[-2.189757,53.375917]]]}},
{"type":"Feature","properties":{"highway":"footway","name":null,"category":"Footpath (pedestrian only)"},"geometry":{"type":"MultiLineString","coordinates":[[[-2.1897922,53.3754078],[-2.1898513,53.3754464]]]}},
{"type":"Feature","properties":{"highway":"footway","name":null,"category":"Footpath (pedestrian only)"},"geometry":{"type":"MultiLineString","coordinates":[[[-2.1873381,53.3747372],[-2.187352,53.3747344],[-2.1874969,53.3746964],[-2.1875895,53.3746712]]]}},
{"type":"Feature","properties":{"highway":"footway","name":null,"category":"Footpath (pedestrian only)"},"geometry":{"type":"MultiLineString","coordinates":[[[-2.1874054,53.3744481],[-2.1873646,53.374459],[-2.1872057,53.3744526],[-2.1871432,53.3744683]]]}},
{"type":"Feature","properties":{"highway":"footway","name":null,"category":"Footpath (pedestrian only)"},"geometry":{"type":"MultiLineString","coordinates":[[[-2.1873282,53.3743945],[-2.187317,53.3743976],[-2.1873646,53.374459]]]}},
{"type":"Feature","properties":{"highway":"footway","name":null,"category":"Footpath (pedestrian only)"},"geometry":{"type":"MultiLineString","coordinates":[[[-2.1923148,53.3751991],[-2.1922833,53.3751942],[-2.1921805,53.3751286],[-2.1920841,53.3750436],[-2.1920125,53.3749631],[-2.1919565,53.3748697],[-2.1919228,53.3748005],[-2.1919032,53.3747232],[-2.1919032,53.3746238],[-2.19191,53.3745344],[-2.1919208,53.3744282],[-2.1919396,53.3741873],[-2.1919416,53.3740941],[-2.1919477,53.3740793],[-2.1919732,53.3740729],[-2.1921273,53.3740818],[-2.1926375,53.3741145],[-2.1928308,53.3741333],[-2.1929944,53.3741565],[-2.1930977,53.3741737],[-2.1938634,53.3743361],[-2.1939318,53.3743497],[-2.1939868,53.3743505],[-2.1940365,53.3743413],[-2.194074,53.3743293],[-2.1941223,53.3743241],[-2.1941659,53.3743293],[-2.194426,53.3744557],[-2.1944247,53.3744821],[-2.1944361,53.3745021],[-2.1944562,53.3745185],[-2.1944864,53.3745285],[-2.1945273,53.3745337],[-2.1945702,53.3745289],[-2.1946017,53.3745153],[-2.1946218,53.3744937],[-2.1946239,53.3744677],[-2.1946057,53.3744429],[-2.1945749,53.3744269],[-2.1945333,53.3744165],[-2.1944924,53.3744129],[-2.1944636,53.3744181],[-2.1942986,53.3743381],[-2.194239,53.3743093],[-2.1942121,53.3742773],[-2.1942088,53.3742661],[-2.1942021,53.3742437],[-2.1942095,53.3741985],[-2.1941967,53.3741605],[-2.1941612,53.3741261],[-2.1938205,53.3738337],[-2.1932586,53.3733488],[-2.1929025,53.3730456],[-2.1924432,53.3728571],[-2.1928549,53.3724995],[-2.1931312,53.3722419],[-2.1931634,53.3722158],[-2.1931845,53.3722116],[-2.19321,53.3722204],[-2.1937015,53.3726344],[-2.1938537,53.3727553],[-2.1939301,53.3728165],[-2.1940448,53.3729065],[-2.1946067,53.3733525],[-2.1950775,53.3737306],[-2.1952169,53.373845],[-2.1952391,53.3738662],[-2.1952485,53.3738902],[-2.1952469,53.3739115],[-2.1952435,53.3739258],[-2.1952337,53.3739406],[-2.1952029,53.3739602],[-2.1951646,53.373983],[-2.1951318,53.3740094],[-2.1951117,53.3740426],[-2.1951043,53.3740762],[-2.1951157,53.3741098],[-2.1951445,53.3741502],[-2.1951841,53.3741894],[-2.1954168,53.3743823],[-2.1959639,53.3748479],[-2.19598,53.3748751],[-2.195982,53.3749059],[-2.1959686,53.3749351],[-2.1959458,53.3749567],[-2.1956924,53.3750567],[-2.1955549,53.3751119],[-2.1954942,53.375141],[-2.1953333,53.3752312],[-2.1952585,53.3752739],[-2.1952421,53.375275],[-2.1952272,53.3752706],[-2.1951191,53.3752172],[-2.1950537,53.375193],[-2.1950037,53.37518],[-2.1949423,53.3751678],[-2.1948874,53.375158],[-2.1947831,53.3751458],[-2.19466,53.3751496],[-2.1945313,53.3751708],[-2.1944301,53.3751958],[-2.1943268,53.3752342],[-2.1942209,53.3752898],[-2.1941263,53.3753426],[-2.1940277,53.3753982],[-2.1934792,53.3757122],[-2.1933015,53.3758146],[-2.1924295,53.3752825],[-2.1924263,53.3752594]]]}},
{"type":"Feature","properties":{"highway":"footway","name":null,"category":"Footpath (pedestrian only)"},"geometry":{"type":"MultiLineString","coordinates":[[[-2.1924263,53.3752594],[-2.1923781,53.3752321],[-2.1923148,53.3751991]]]}},
{"type":"Feature","properties":{"highway":"footway","name":null,"category":"Footpath (pedestrian only)"},"geometry":{"type":"MultiLineString","coordinates":[[[-2.1984304,53.3754065],[-2.1981448,53.3754413],[-2.1980189,53.3754575],[-2.1977828,53.3754857],[-2.1974267,53.37553],[-2.1971029,53.3755721],[-2.196745,53.3756199],[-2.1964744,53.3756559],[-2.1962219,53.3756851],[-2.1960087,53.3757117],[-2.1959524,53.3757119],[-2.1959205,53.3757071],[-2.1957847,53.3756301],[-2.1956305,53.3755343],[-2.1954589,53.3754165],[-2.1953576,53.3753529],[-2.1953536,53.3753437],[-2.1953622,53.3753342],[-2.1956871,53.3751474],[-2.1958267,53.3750898],[-2.1967422,53.374723],[-2.1974309,53.3744465],[-2.1974791,53.3744344],[-2.1975062,53.3744344],[-2.1975308,53.3744344],[-2.1975679,53.3744411],[-2.1976057,53.3744594],[-2.1976448,53.3744882],[-2.1976902,53.3745224],[-2.1977246,53.3745436],[-2.1977783,53.3745664],[-2.1978319,53.3745792],[-2.1979097,53.374588],[-2.1981042,53.374592],[-2.1983865,53.3745968],[-2.1984126,53.3746044],[-2.1984381,53.3746228],[-2.1984609,53.3746344],[-2.1986527,53.3746488],[-2.1987378,53.3743148],[-2.1985306,53.374294],[-2.1984743,53.374486],[-2.1984559,53.3745038],[-2.1984213,53.3745168],[-2.1983791,53.3745244],[-2.1983288,53.3745252],[-2.1979124,53.3745232],[-2.1978628,53.3745148],[-2.1978219,53.3745028],[-2.1977883,53.3744856],[-2.1973759,53.3741216],[-2.1967865,53.3735979],[-2.1967175,53.3735339],[-2.1966725,53.3734939],[-2.1966343,53.3734739],[-2.1965867,53.3734583],[-2.1965351,53.3734507],[-2.1964982,53.3734375],[-2.1964734,53.3734187],[-2.1964533,53.3733939],[-2.1963936,53.3732659],[-2.1963755,53.3732459],[-2.1963185,53.3732031],[-2.1962514,53.3731462],[-2.1960865,53.3729934],[-2.1956808,53.3726358],[-2.195662,53.372611],[-2.1956627,53.3725886],[-2.1956808,53.372567],[-2.1957076,53.3725518],[-2.1956593,53.3725054],[-2.1955789,53.3725294],[-2.1954957,53.3725502],[-2.19543,53.3725638],[-2.1953851,53.372581],[-2.1953569,53.372595],[-2.1954242,53.3726583]]]}},
{"type":"Feature","properties":{"highway":"footway","name":null,"category":"Footpath (pedestrian only)"},"geometry":{"type":"MultiLineString","coordinates":[[[-2.1933797,53.3758637],[-2.1934589,53.3759131],[-2.1940058,53.3762768],[-2.19404,53.3762868],[-2.1940695,53.37629],[-2.1940984,53.3762884],[-2.1941239,53.376284],[-2.1941507,53.376276],[-2.1946871,53.3760376],[-2.1950157,53.3758968],[-2.1951216,53.3758572],[-2.1952283,53.37583],[-2.1956239,53.375756],[-2.1956514,53.375748],[-2.1956655,53.3757384],[-2.1956688,53.3757204],[-2.1956675,53.3756956],[-2.1956594,53.3756704],[-2.1956427,53.3756476],[-2.1953992,53.3754904],[-2.195178,53.375344],[-2.1951384,53.3753216],[-2.1950928,53.3752967],[-2.1950472,53.3752775],[-2.1949828,53.3752539],[-2.1949272,53.3752419],[-2.1948548,53.3752295],[-2.1947803,53.3752227],[-2.1946945,53.3752215],[-2.1946214,53.3752267],[-2.1945564,53.3752351],[-2.1945007,53.3752475],[-2.1944558,53.3752619],[-2.1943914,53.3752851],[-2.1943378,53.3753128],[-2.1937839,53.3756284],[-2.1933918,53.3758509],[-2.1933797,53.3758637]]]}},
{"type":"Feature","properties":{"highway":"footway","name":null,"category":"Footpath (pedestrian only)"},"geometry":{"type":"MultiLineString","coordinates":[[[-2.1933344,53.3758353],[-2.1933508,53.3758451],[-2.1933797,53.3758637]]]}},
{"type":"Feature","properties":{"highway":"footway","name":null,"category":"Footpath (pedestrian only)"},"geometry":{"type":"MultiLineString","coordinates":[[[-2.1933015,53.3758146],[-2.1933344,53.3758353]]]}},
{"type":"Feature","properties":{"highway":"footway","name":null,"category":"Footpath (pedestrian only)"},"geometry":{"type":"MultiLineString","coordinates":[[[-2.1923148,53.3751991],[-2.1923701,53.375191],[-2.1924218,53.3751654],[-2.1932281,53.3746899],[-2.193299,53.3747336],[-2.1924607,53.3752227],[-2.1924389,53.3752427],[-2.1924263,53.3752594]]]}},
{"type":"Feature","properties":{"highway":"footway","name":null,"category":"Footpath (pedestrian only)"},"geometry":{"type":"MultiLineString","coordinates":[[[-2.1959205,53.3757071],[-2.1957964,53.3757223],[-2.1956655,53.3757384]]]}},
{"type":"Feature","properties":{"highway":"footway","name":null,"category":"Footpath (pedestrian only)"},"geometry":{"type":"MultiLineString","coordinates":[[[-2.1901839,53.3766059],[-2.1901994,53.3765778],[-2.1902211,53.376538],[-2.1902241,53.376513],[-2.1902171,53.3764988],[-2.1901859,53.3764464]]]}},
{"type":"Feature","properties":{"highway":"footway","name":null,"category":"Footpath (pedestrian only)"},"geometry":{"type":"MultiLineString","coordinates":[[[-2.1902248,53.3766283],[-2.1902224,53.3766356],[-2.1902159,53.3766421],[-2.1902063,53.3766468],[-2.1901945,53.3766493],[-2.1901827,53.3766495],[-2.1901715,53.3766474],[-2.190162,53.3766433],[-2.1901551,53.3766376],[-2.1901516,53.3766309],[-2.1901518,53.3766239],[-2.1901556,53.3766172],[-2.1901628,53.3766117],[-2.1901726,53.3766078],[-2.1901839,53.3766059],[-2.1901964,53.3766063],[-2.1902079,53.3766092],[-2.1902172,53.3766143],[-2.190223,53.3766209],[-2.1902248,53.3766283]]]}},
{"type":"Feature","properties":{"highway":"footway","name":null,"category":"Footpath (pedestrian only)"},"geometry":{"type":"MultiLineString","coordinates":[[[-2.1899912,53.3767954],[-2.1900589,53.3767717],[-2.1901113,53.3767537]]]}},
{"type":"Feature","properties":{"highway":"footway","name":null,"category":"Footpath (pedestrian only)"},"geometry":{"type":"MultiLineString","coordinates":[[[-2.1901581,53.3767368],[-2.1901637,53.3767415],[-2.1901664,53.376747],[-2.1901658,53.3767527],[-2.190162,53.376758],[-2.1901554,53.3767622],[-2.1901469,53.3767648],[-2.1901381,53.3767656],[-2.1901293,53.3767647],[-2.1901214,53.3767623],[-2.1901152,53.3767585],[-2.1901113,53.3767537],[-2.1901101,53.3767484],[-2.1901117,53.3767432],[-2.190116,53.3767385],[-2.1901225,53.3767349],[-2.1901313,53.3767325],[-2.1901409,53.3767321],[-2.1901502,53.3767335],[-2.1901581,53.3767368]]]}},
{"type":"Feature","properties":{"highway":"footway","name":null,"category":"Footpath (pedestrian only)"},"geometry":{"type":"MultiLineString","coordinates":[[[-2.1886466,53.377551],[-2.1885936,53.3774646]]]}},
{"type":"Feature","properties":{"highway":"pedestrian","name":null,"category":"Pedestrian area/street"},"geometry":{"type":"MultiLineString","coordinates":[[[-2.1894587,53.3778518],[-2.1891445,53.3779125]]]}},
{"type":"Feature","properties":{"highway":"pedestrian","name":null,"category":"Pedestrian area/street"},"geometry":{"type":"MultiLineString","coordinates":[[[-2.1888493,53.3779215],[-2.1886886,53.377626],[-2.1886847,53.3776189]]]}},
{"type":"Feature","properties":{"highway":"pedestrian","name":null,"category":"Pedestrian area/street"},"geometry":{"type":"MultiLineString","coordinates":[[[-2.1890422,53.3782351],[-2.1890248,53.3782047]]]}},
{"type":"Feature","properties":{"highway":"pedestrian","name":null,"category":"Pedestrian area/street"},"geometry":{"type":"MultiLineString","coordinates":[[[-2.1890248,53.3782047],[-2.18899,53.3781427]]]}},
{"type":"Feature","properties":{"highway":"pedestrian","name":null,"category":"Pedestrian area/street"},"geometry":{"type":"MultiLineString","coordinates":[[[-2.18899,53.3781427],[-2.1889199,53.3780113]]]}},
{"type":"Feature","properties":{"highway":"pedestrian","name":null,"category":"Pedestrian area/street"},"geometry":{"type":"MultiLineString","coordinates":[[[-2.1889199,53.3780113],[-2.1888915,53.3779615],[-2.1888493,53.3779215]]]}},
{"type":"Feature","properties":{"highway":"pedestrian","name":null,"category":"Pedestrian area/street"},"geometry":{"type":"MultiLineString","coordinates":[[[-2.1889432,53.3779514],[-2.1888915,53.3779615]]]}},
{"type":"Feature","properties":{"highway":"pedestrian","name":null,"category":"Pedestrian area/street"},"geometry":{"type":"MultiLineString","coordinates":[[[-2.1900303,53.377734],[-2.189873,53.3777717]]]}},
{"type":"Feature","properties":{"highway":"pedestrian","name":null,"category":"Pedestrian area/street"},"geometry":{"type":"MultiLineString","coordinates":[[[-2.189873,53.3777717],[-2.1896641,53.3778121]]]}},
{"type":"Feature","properties":{"highway":"pedestrian","name":null,"category":"Pedestrian area/street"},"geometry":{"type":"MultiLineString","coordinates":[[[-2.1896641,53.3778121],[-2.1894587,53.3778518]]]}},
{"type":"Feature","properties":{"highway":"pedestrian","name":null,"category":"Pedestrian area/street"},"geometry":{"type":"MultiLineString","coordinates":[[[-2.1891445,53.3779125],[-2.1889432,53.3779514]]]}},
{"type":"Feature","properties":{"highway":"pedestrian","name":null,"category":"Pedestrian area/street"},"geometry":{"type":"MultiLineString","coordinates":[[[-2.1886847,53.3776189],[-2.1886466,53.377551]]]}}
]
}
