{
"type": "FeatureCollection",
"name": "CHEEA_1228_walking",
"crs": { "type": "name", "properties": { "name": "urn:ogc:def:crs:OGC:1.3:CRS84" } },
"features": [
{"type":"Feature","properties":{"highway":"footway","name":null,"category":"Footpath (pedestrian only)"},"geometry":{"type":"MultiLineString","coordinates":[[[-2.3036887,53.1014923],[-2.3036913,53.1014505],[-2.303263,53.1013381],[-2.3028182,53.1013409]]]}},
{"type":"Feature","properties":{"highway":"footway","name":null,"category":"Footpath (pedestrian only)"},"geometry":{"type":"MultiLineString","coordinates":[[[-2.301069,53.1072426],[-2.3010782,53.1072599],[-2.3011032,53.1073102]]]}},
{"type":"Feature","properties":{"highway":"footway","name":null,"category":"Footpath (pedestrian only)"},"geometry":{"type":"MultiLineString","coordinates":[[[-2.3120311,53.0997673],[-2.3123289,53.0998141],[-2.3133981,53.1000364],[-2.3151208,53.1003507],[-2.3170464,53.100702],[-2.3171043,53.1007008]]]}},
{"type":"Feature","properties":{"highway":"footway","name":null,"category":"Footpath (pedestrian only)"},"geometry":{"type":"MultiLineString","coordinates":[[[-2.309261,53.0958902],[-2.3092881,53.0959061],[-2.3093122,53.095978],[-2.3093261,53.0960163],[-2.3092894,53.0961158],[-2.3093389,53.096134],[-2.3093702,53.0961632],[-2.3093226,53.0962018],[-2.3092676,53.0961701],[-2.309243,53.0961241],[-2.3092504,53.0960091],[-2.3092209,53.0959579],[-2.3092477,53.095916],[-2.309261,53.0958902],[-2.3092522,53.0957889],[-2.3092439,53.0957218]]]}},
{"type":"Feature","properties":{"highway":"footway","name":null,"category":"Footpath (pedestrian only)"},"geometry":{"type":"MultiLineString","coordinates":[[[-2.3100726,53.0984293],[-2.3101536,53.0983657],[-2.3102657,53.0982556],[-2.3103486,53.0981963],[-2.3103956,53.0981471],[-2.3104896,53.0981169],[-2.3105648,53.0980655]]]}},
{"type":"Feature","properties":{"highway":"footway","name":null,"category":"Footpath (pedestrian only)"},"geometry":{"type":"MultiLineString","coordinates":[[[-2.3076103,53.0958138],[-2.3075979,53.0957536],[-2.3075498,53.0956696],[-2.307515,53.0956203],[-2.3074731,53.0955861],[-2.3073949,53.095552],[-2.3073184,53.095534],[-2.3070848,53.0955246],[-2.3069769,53.0955336],[-2.3068689,53.0955545],[-2.3068057,53.0955799],[-2.3067711,53.0956279],[-2.3067726,53.095717],[-2.3067915,53.0958046],[-2.3068032,53.0958669]]]}},
{"type":"Feature","properties":{"highway":"footway","name":null,"category":"Footpath (pedestrian only)"},"geometry":{"type":"MultiLineString","coordinates":[[[-2.3065789,53.0952065],[-2.3066335,53.0950962],[-2.3066774,53.0948761],[-2.3067601,53.0946495],[-2.3066002,53.0946487],[-2.305192,53.0944465],[-2.3050457,53.0944525],[-2.3049729,53.0944925],[-2.3046774,53.0948367],[-2.304764,53.0950047],[-2.3051414,53.0951833],[-2.3053803,53.0952056],[-2.3056251,53.0952111],[-2.306438,53.095152],[-2.3065789,53.0952065],[-2.3065934,53.0953906]]]}},
{"type":"Feature","properties":{"highway":"footway","name":null,"category":"Footpath (pedestrian only)"},"geometry":{"type":"MultiLineString","coordinates":[[[-2.3051855,53.0953106],[-2.3053803,53.0952056]]]}},
{"type":"Feature","properties":{"highway":"footway","name":null,"category":"Footpath (pedestrian only)"},"geometry":{"type":"MultiLineString","coordinates":[[[-2.3068689,53.0955545],[-2.3067104,53.0953772]]]}},
{"type":"Feature","properties":{"highway":"footway","name":null,"category":"Footpath (pedestrian only)"},"geometry":{"type":"MultiLineString","coordinates":[[[-2.304603,53.0949425],[-2.304484,53.0949074]]]}},
{"type":"Feature","properties":{"highway":"footway","name":null,"category":"Footpath (pedestrian only)"},"geometry":{"type":"MultiLineString","coordinates":[[[-2.3056519,53.0981645],[-2.306048,53.0977396],[-2.30608,53.0977508]]]}},
{"type":"Feature","properties":{"highway":"footway","name":null,"category":"Footpath (pedestrian only)"},"geometry":{"type":"MultiLineString","coordinates":[[[-2.3056251,53.0952111],[-2.3056734,53.0952911],[-2.3058217,53.0954438]]]}},
{"type":"Feature","properties":{"highway":"footway","name":null,"category":"Footpath (pedestrian only)"},"geometry":{"type":"MultiLineString","coordinates":[[[-2.3051414,53.0951833],[-2.3051855,53.0953106],[-2.3051435,53.0954149],[-2.3051246,53.0954662],[-2.3051189,53.0954811]]]}},
{"type":"Feature","properties":{"highway":"footway","name":null,"category":"Footpath (pedestrian only)"},"geometry":{"type":"MultiLineString","coordinates":[[[-2.3075075,53.095303],[-2.3075649,53.0953477],[-2.3075734,53.0953865],[-2.3075657,53.0954252],[-2.3075469,53.0954581]]]}},
{"type":"Feature","properties":{"highway":"footway","name":null,"category":"Footpath (pedestrian only)"},"geometry":{"type":"MultiLineString","coordinates":[[[-2.3073723,53.0952995],[-2.3072885,53.0953497],[-2.3072448,53.0953921]]]}},
{"type":"Feature","properties":{"highway":"footway","name":null,"category":"Footpath (pedestrian only)"},"geometry":{"type":"MultiLineString","coordinates":[[[-2.3056519,53.0981645],[-2.3050084,53.0988554],[-2.3047894,53.0989249]]]}},
{"type":"Feature","properties":{"highway":"footway","name":null,"category":"Footpath (pedestrian only)"},"geometry":{"type":"MultiLineString","coordinates":[[[-2.3057743,53.0955483],[-2.3057236,53.095734],[-2.305773,53.0959515]]]}},
{"type":"Feature","properties":{"highway":"footway","name":null,"category":"Footpath (pedestrian only)"},"geometry":{"type":"MultiLineString","coordinates":[[[-2.3046774,53.0948367],[-2.304603,53.0949425],[-2.304764,53.0950047]]]}},
{"type":"Feature","properties":{"highway":"footway","name":null,"category":"Footpath (pedestrian only)"},"geometry":{"type":"MultiLineString","coordinates":[[[-2.3066335,53.0950962],[-2.3069455,53.0951857],[-2.3073141,53.0952233]]]}},
{"type":"Feature","properties":{"highway":"footway","name":null,"category":"Footpath (pedestrian only)"},"geometry":{"type":"MultiLineString","coordinates":[[[-2.3073723,53.0952995],[-2.3073233,53.0952654],[-2.3073141,53.0952233],[-2.3073532,53.0951884],[-2.3074281,53.0951754],[-2.3074969,53.0951816],[-2.3075348,53.0952034],[-2.3075423,53.0952123],[-2.3075599,53.0952417],[-2.3075498,53.0952716],[-2.3075075,53.095303],[-2.3074564,53.0953103],[-2.3073723,53.0952995]]]}},
{"type":"Feature","properties":{"highway":"footway","name":null,"category":"Footpath (pedestrian only)"},"geometry":{"type":"MultiLineString","coordinates":[[[-2.3035754,53.0974503],[-2.3033639,53.0974941],[-2.3034574,53.0976618],[-2.3035814,53.0976871],[-2.3036872,53.0976888],[-2.3044982,53.0976176],[-2.3053584,53.0976831],[-2.3054144,53.097687]]]}},
{"type":"Feature","properties":{"highway":"footway","name":null,"category":"Footpath (pedestrian only)"},"geometry":{"type":"MultiLineString","coordinates":[[[-2.301504,53.0942436],[-2.3013385,53.0938875]]]}},
{"type":"Feature","properties":{"highway":"footway","name":null,"category":"Footpath (pedestrian only)"},"geometry":{"type":"MultiLineString","coordinates":[[[-2.3018022,53.1034171],[-2.3017949,53.1035741],[-2.3017851,53.1036964],[-2.3017878,53.1038201],[-2.3017421,53.1040643],[-2.3015474,53.1047589],[-2.3010497,53.106566],[-2.3010567,53.1066385]]]}},
{"type":"Feature","properties":{"highway":"footway","name":null,"category":"Footpath (pedestrian only)"},"geometry":{"type":"MultiLineString","coordinates":[[[-2.3023344,53.1012588],[-2.3023221,53.1013597],[-2.3025344,53.1018416],[-2.302545,53.1020139],[-2.3024698,53.1022233],[-2.3019216,53.1030015],[-2.3019775,53.1031357],[-2.3020166,53.1031524],[-2.3020453,53.1031878],[-2.3020331,53.1032106],[-2.302013,53.1032482],[-2.3018647,53.1033667]]]}},
{"type":"Feature","properties":{"highway":"footway","name":null,"category":"Footpath (pedestrian only)"},"geometry":{"type":"MultiLineString","coordinates":[[[-2.3018454,53.1033821],[-2.3018022,53.1034171]]]}},
{"type":"Feature","properties":{"highway":"bridleway","name":"The Salt Line","category":"Bridleway"},"geometry":{"type":"MultiLineString","coordinates":[[[-2.327126,53.1170668],[-2.3262434,53.1166171],[-2.3247808,53.1157228],[-2.3219147,53.1137711],[-2.3205555,53.1127795],[-2.3181141,53.111019],[-2.316576,53.1100143],[-2.3158218,53.1095769],[-2.3134636,53.1084389],[-2.3107603,53.1073818]]]}},
{"type":"Feature","properties":{"highway":"footway","name":null,"category":"Footpath (pedestrian only)"},"geometry":{"type":"MultiLineString","coordinates":[[[-2.3092894,53.0961158],[-2.309243,53.0961241]]]}},
{"type":"Feature","properties":{"highway":"footway","name":null,"category":"Footpath (pedestrian only)"},"geometry":{"type":"MultiLineString","coordinates":[[[-2.3093122,53.095978],[-2.3092504,53.0960091]]]}},
{"type":"Feature","properties":{"highway":"footway","name":null,"category":"Footpath (pedestrian only)"},"geometry":{"type":"MultiLineString","coordinates":[[[-2.2894347,53.098989],[-2.2891658,53.0989961],[-2.2889823,53.0989243],[-2.2885612,53.098643]]]}},
{"type":"Feature","properties":{"highway":"footway","name":null,"category":"Footpath (pedestrian only)"},"geometry":{"type":"MultiLineString","coordinates":[[[-2.2961365,53.0934463],[-2.2960366,53.0935054],[-2.2957979,53.0935247],[-2.2957452,53.0935987],[-2.2956866,53.0941006],[-2.295697,53.0942671],[-2.2955964,53.0944017],[-2.2955776,53.0946384],[-2.2958821,53.0948212],[-2.2963461,53.0948937],[-2.2967873,53.0951489],[-2.2967832,53.0954215],[-2.2965794,53.0955077],[-2.2964104,53.095538],[-2.295675,53.095621],[-2.2939831,53.0958118],[-2.2939241,53.0961728],[-2.2937564,53.0963194],[-2.2933339,53.0965574],[-2.2930963,53.0966198],[-2.2927815,53.096681],[-2.2923302,53.0967599],[-2.2918936,53.0968071],[-2.2914215,53.0968264],[-2.2912661,53.0975722],[-2.2912429,53.0976833],[-2.2911137,53.0983035],[-2.2911032,53.0983539]]]}},
{"type":"Feature","properties":{"highway":"footway","name":null,"category":"Footpath (pedestrian only)"},"geometry":{"type":"MultiLineString","coordinates":[[[-2.2942854,53.0980573],[-2.2943799,53.0982704],[-2.2944617,53.0984178],[-2.2944537,53.0984605],[-2.2944041,53.098525],[-2.2943665,53.0985547],[-2.2943585,53.0986136],[-2.294388,53.0987101],[-2.2944242,53.0987971]]]}},
{"type":"Feature","properties":{"highway":"footway","name":null,"category":"Footpath (pedestrian only)"},"geometry":{"type":"MultiLineString","coordinates":[[[-2.3073132,53.1010453],[-2.3074065,53.1010662],[-2.3077759,53.1012143],[-2.3079395,53.1013632],[-2.3079876,53.1014155],[-2.3082175,53.1015662]]]}},
{"type":"Feature","properties":{"highway":"footway","name":null,"category":"Footpath (pedestrian only)"},"geometry":{"type":"MultiLineString","coordinates":[[[-2.3079395,53.1013632],[-2.3082487,53.1013236]]]}},
{"type":"Feature","properties":{"highway":"footway","name":null,"category":"Footpath (pedestrian only)"},"geometry":{"type":"MultiLineString","coordinates":[[[-2.3112836,53.0993053],[-2.3111643,53.0992522]]]}},
{"type":"Feature","properties":{"highway":"footway","name":null,"category":"Footpath (pedestrian only)"},"geometry":{"type":"MultiLineString","coordinates":[[[-2.3028817,53.1029044],[-2.3030546,53.1027023],[-2.3030627,53.1026508],[-2.3030417,53.1026339]]]}},
{"type":"Feature","properties":{"highway":"footway","name":null,"category":"Footpath (pedestrian only)"},"geometry":{"type":"MultiLineString","coordinates":[[[-2.3027238,53.1030379],[-2.3026174,53.1030815],[-2.3023669,53.1033401]]]}},
{"type":"Feature","properties":{"highway":"footway","name":null,"category":"Footpath (pedestrian only)"},"geometry":{"type":"MultiLineString","coordinates":[[[-2.3064546,53.1026187],[-2.3063229,53.1027071],[-2.3061207,53.1027826],[-2.3060209,53.1028672],[-2.3058575,53.1029957],[-2.3057489,53.103059],[-2.305643,53.1031427],[-2.3055742,53.1032084],[-2.3054056,53.103373],[-2.3052888,53.103493],[-2.3052245,53.103559],[-2.3049778,53.1036766],[-2.3048921,53.1037054],[-2.3048472,53.1037205],[-2.3047203,53.1037635],[-2.3044292,53.1038327],[-2.3042496,53.1038553],[-2.3041167,53.1038754],[-2.3039726,53.1038773],[-2.3038415,53.1038813],[-2.3036171,53.1038852]]]}},
{"type":"Feature","properties":{"highway":"footway","name":null,"category":"Footpath (pedestrian only)"},"geometry":{"type":"MultiLineString","coordinates":[[[-2.3052888,53.103493],[-2.3047632,53.1032738]]]}},
{"type":"Feature","properties":{"highway":"track","name":null,"category":"Track"},"geometry":{"type":"MultiLineString","coordinates":[[[-2.3116591,53.1041457],[-2.3121043,53.1041091],[-2.3122446,53.1041457]]]}},
{"type":"Feature","properties":{"highway":"bridleway","name":"The Salt Line","category":"Bridleway"},"geometry":{"type":"MultiLineString","coordinates":[[[-2.3107603,53.1073818],[-2.3092732,53.1068143],[-2.308737,53.1066251],[-2.3086186,53.1065832]]]}},
{"type":"Feature","properties":{"highway":"footway","name":null,"category":"Footpath (pedestrian only)"},"geometry":{"type":"MultiLineString","coordinates":[[[-2.3145026,53.1066147],[-2.3128746,53.1070443],[-2.3121959,53.1070854],[-2.3116722,53.1071354],[-2.3111706,53.1072074],[-2.3108403,53.1073129],[-2.3107603,53.1073818]]]}},
{"type":"Feature","properties":{"highway":"footway","name":null,"category":"Footpath (pedestrian only)"},"geometry":{"type":"MultiLineString","coordinates":[[[-2.3044243,53.0963945],[-2.3043867,53.0962972],[-2.3043057,53.0961208]]]}},
{"type":"Feature","properties":{"highway":"footway","name":null,"category":"Footpath (pedestrian only)"},"geometry":{"type":"MultiLineString","coordinates":[[[-2.3043867,53.0962972],[-2.3040388,53.0963582],[-2.3039962,53.0963657],[-2.3039251,53.0963568],[-2.3038435,53.0961982]]]}},
{"type":"Feature","properties":{"highway":"footway","name":null,"category":"Footpath (pedestrian only)"},"geometry":{"type":"MultiLineString","coordinates":[[[-2.3050299,53.0962406],[-2.3047984,53.0965051]]]}},
{"type":"Feature","properties":{"highway":"footway","name":null,"category":"Footpath (pedestrian only)"},"geometry":{"type":"MultiLineString","coordinates":[[[-2.3047423,53.0964888],[-2.3047984,53.0965051]]]}},
{"type":"Feature","properties":{"highway":"footway","name":null,"category":"Footpath (pedestrian only)"},"geometry":{"type":"MultiLineString","coordinates":[[[-2.2958395,53.0959152],[-2.2957362,53.0958292],[-2.295675,53.095621]]]}},
{"type":"Feature","properties":{"highway":"footway","name":null,"category":"Footpath (pedestrian only)"},"geometry":{"type":"MultiLineString","coordinates":[[[-2.2925035,53.0971744],[-2.2925678,53.0969779],[-2.2926544,53.0969114],[-2.2927853,53.0968894]]]}},
{"type":"Feature","properties":{"highway":"footway","name":null,"category":"Footpath (pedestrian only)"},"geometry":{"type":"MultiLineString","coordinates":[[[-2.2909978,53.0983851],[-2.2908853,53.0983898]]]}},
{"type":"Feature","properties":{"highway":"footway","name":null,"category":"Footpath (pedestrian only)"},"geometry":{"type":"MultiLineString","coordinates":[[[-2.2959304,53.0999019],[-2.2957503,53.0998385],[-2.2956806,53.0998337],[-2.2954151,53.0998788],[-2.2953265,53.0998829],[-2.2951756,53.0999021]]]}},
{"type":"Feature","properties":{"highway":"footway","name":null,"category":"Footpath (pedestrian only)"},"geometry":{"type":"MultiLineString","coordinates":[[[-2.2906183,53.0986025],[-2.2915166,53.0987952]]]}},
{"type":"Feature","properties":{"highway":"footway","name":null,"category":"Footpath (pedestrian only)"},"geometry":{"type":"MultiLineString","coordinates":[[[-2.3111254,53.0992715],[-2.3111555,53.0990337]]]}},
{"type":"Feature","properties":{"highway":"footway","name":null,"category":"Footpath (pedestrian only)"},"geometry":{"type":"MultiLineString","coordinates":[[[-2.3054752,53.1026205],[-2.3060209,53.1028672]]]}},
{"type":"Feature","properties":{"highway":"footway","name":null,"category":"Footpath (pedestrian only)"},"geometry":{"type":"MultiLineString","coordinates":[[[-2.3061216,53.103465],[-2.3059782,53.1034149],[-2.3055742,53.1032084]]]}},
{"type":"Feature","properties":{"highway":"footway","name":null,"category":"Footpath (pedestrian only)"},"geometry":{"type":"MultiLineString","coordinates":[[[-2.3040388,53.0963582],[-2.3042041,53.0967063]]]}},
{"type":"Feature","properties":{"highway":"footway","name":null,"category":"Footpath (pedestrian only)"},"geometry":{"type":"MultiLineString","coordinates":[[[-2.3073906,53.106315],[-2.3076506,53.1062528],[-2.3075267,53.1062105],[-2.3062462,53.1057727],[-2.3052914,53.1055117],[-2.3051702,53.1054849],[-2.3037789,53.1051768],[-2.3023349,53.1049064],[-2.3015474,53.1047589]]]}},
{"type":"Feature","properties":{"highway":"path","name":null,"category":"Shared path"},"geometry":{"type":"MultiLineString","coordinates":[[[-2.2972225,53.1036046],[-2.2961864,53.1032549],[-2.295187,53.1028356],[-2.2942538,53.1024047],[-2.2932959,53.1019535],[-2.2924889,53.1015044],[-2.2916413,53.1009772],[-2.2903936,53.1001795],[-2.2899281,53.0998021],[-2.2899223,53.099771],[-2.2899704,53.0996823],[-2.2898814,53.09958],[-2.2893671,53.0991687],[-2.2892356,53.099088],[-2.2891658,53.0989961]]]}},
{"type":"Feature","properties":{"highway":"path","name":null,"category":"Shared path"},"geometry":{"type":"MultiLineString","coordinates":[[[-2.3010564,53.1046598],[-2.300907,53.1046678],[-2.300767,53.1046526],[-2.300392,53.1045721],[-2.3002354,53.1045519],[-2.3001541,53.1045489],[-2.3000372,53.1044512],[-2.2999275,53.1044628],[-2.2994284,53.1043445],[-2.2993461,53.1042773],[-2.2991235,53.1042548],[-2.2989081,53.1041925],[-2.2986855,53.1040943],[-2.2982836,53.1040212],[-2.2980571,53.1039214],[-2.2978023,53.1038661],[-2.2972225,53.1036046]]]}},
{"type":"Feature","properties":{"highway":"path","name":null,"category":"Shared path"},"geometry":{"type":"MultiLineString","coordinates":[[[-2.3063926,53.0964239],[-2.3057503,53.096473],[-2.305727,53.0964951]]]}},
{"type":"Feature","properties":{"highway":"footway","name":null,"category":"Footpath (pedestrian only)"},"geometry":{"type":"MultiLineString","coordinates":[[[-2.3041568,53.0968623],[-2.3042467,53.0969931],[-2.3043481,53.0971397],[-2.3044142,53.0972353],[-2.3044524,53.0972912],[-2.304526,53.0973983],[-2.3045042,53.0975923],[-2.3044982,53.0976176]]]}},
{"type":"Feature","properties":{"highway":"path","name":null,"category":"Shared path"},"geometry":{"type":"MultiLineString","coordinates":[[[-2.3015474,53.1047589],[-2.3010564,53.1046598]]]}},
{"type":"Feature","properties":{"highway":"footway","name":null,"category":"Footpath (pedestrian only)"},"geometry":{"type":"MultiLineString","coordinates":[[[-2.3018647,53.1033667],[-2.3019831,53.1034245],[-2.3020327,53.1034535],[-2.30214,53.1035196],[-2.3022245,53.1036041],[-2.3022796,53.1036185],[-2.3023716,53.1036417],[-2.3024727,53.1036687],[-2.3026798,53.1037186],[-2.3029281,53.1037815],[-2.3031039,53.103847],[-2.3033061,53.1038557],[-2.3034475,53.1038648],[-2.3036171,53.1038852],[-2.3038099,53.10395],[-2.3040067,53.1040702],[-2.3042455,53.1041951],[-2.3045661,53.104282],[-2.3046653,53.1042756],[-2.3053278,53.1042748],[-2.3059233,53.1044036],[-2.3070243,53.1046009],[-2.3072617,53.104811],[-2.3082729,53.1050059],[-2.3085639,53.1050179],[-2.3090099,53.1048951]]]}},
{"type":"Feature","properties":{"highway":"footway","name":null,"category":"Footpath (pedestrian only)"},"geometry":{"type":"MultiLineString","coordinates":[[[-2.3052245,53.103559],[-2.3050797,53.1037506],[-2.3049805,53.1038303],[-2.304723,53.1039898],[-2.3046492,53.1041234],[-2.3045661,53.104282]]]}},
{"type":"Feature","properties":{"highway":"track","name":null,"category":"Track"},"geometry":{"type":"MultiLineString","coordinates":[[[-2.2895336,53.0996337],[-2.2893445,53.0995491],[-2.2890937,53.0993784],[-2.2888228,53.0991787],[-2.2886981,53.0991223],[-2.2882824,53.0988389],[-2.2881925,53.0987624],[-2.2881216,53.0987135]]]}},
{"type":"Feature","properties":{"highway":"footway","name":null,"category":"Footpath (pedestrian only)"},"geometry":{"type":"MultiLineString","coordinates":[[[-2.3000043,53.1011579],[-2.3002128,53.1012538],[-2.3004851,53.101439],[-2.3007453,53.1014695],[-2.3010658,53.1016185],[-2.30111,53.1016741],[-2.3010564,53.1018641],[-2.3005334,53.1023867],[-2.3004945,53.1024865],[-2.3004274,53.1025727],[-2.3004046,53.1026113],[-2.3004717,53.1026548],[-2.30063,53.1027072],[-2.3007908,53.1027973],[-2.3009089,53.1028183],[-2.3010913,53.102811],[-2.3012052,53.1028641],[-2.3015244,53.1029648],[-2.3016129,53.103059],[-2.3017685,53.1031057],[-2.3019775,53.1031357]]]}},
{"type":"Feature","properties":{"highway":"footway","name":null,"category":"Footpath (pedestrian only)"},"geometry":{"type":"MultiLineString","coordinates":[[[-2.3018647,53.1033667],[-2.3018454,53.1033821]]]}},
{"type":"Feature","properties":{"highway":"footway","name":null,"category":"Footpath (pedestrian only)"},"geometry":{"type":"MultiLineString","coordinates":[[[-2.2984826,53.1007696],[-2.2980651,53.100835]]]}},
{"type":"Feature","properties":{"highway":"footway","name":null,"category":"Footpath (pedestrian only)"},"geometry":{"type":"MultiLineString","coordinates":[[[-2.3051414,53.0951833],[-2.3051427,53.0951615]]]}},
{"type":"Feature","properties":{"highway":"footway","name":null,"category":"Footpath (pedestrian only)"},"geometry":{"type":"MultiLineString","coordinates":[[[-2.3056251,53.0952111],[-2.3054554,53.0952762]]]}},
{"type":"Feature","properties":{"highway":"footway","name":null,"category":"Footpath (pedestrian only)"},"geometry":{"type":"MultiLineString","coordinates":[[[-2.3053803,53.0952056],[-2.3053733,53.0951528]]]}},
{"type":"Feature","properties":{"highway":"footway","name":null,"category":"Footpath (pedestrian only)"},"geometry":{"type":"MultiLineString","coordinates":[[[-2.3051435,53.0954149],[-2.3052996,53.095451]]]}},
{"type":"Feature","properties":{"highway":"track","name":"Percy James Close","category":"Track"},"geometry":{"type":"MultiLineString","coordinates":[[[-2.2940226,53.0991393],[-2.2936087,53.0991944]]]}},
{"type":"Feature","properties":{"highway":"footway","name":null,"category":"Footpath (pedestrian only)"},"geometry":{"type":"MultiLineString","coordinates":[[[-2.3010567,53.1066385],[-2.301045,53.1066941],[-2.301069,53.1072426]]]}},
{"type":"Feature","properties":{"highway":"footway","name":null,"category":"Footpath (pedestrian only)"},"geometry":{"type":"MultiLineString","coordinates":[[[-2.3004274,53.1025727],[-2.3000814,53.1024245],[-2.2990219,53.1022136],[-2.2986974,53.1021339],[-2.2984225,53.1020227],[-2.2979839,53.1019712],[-2.297823,53.1019132],[-2.2977398,53.1017538],[-2.2974917,53.101728],[-2.2964256,53.1014583],[-2.2961104,53.101224],[-2.2959384,53.1010285]]]}},
{"type":"Feature","properties":{"highway":"footway","name":null,"category":"Footpath (pedestrian only)"},"geometry":{"type":"MultiLineString","coordinates":[[[-2.3004717,53.1026548],[-2.3006393,53.1026323],[-2.300697,53.1026468],[-2.3007533,53.1026935],[-2.3007908,53.1027973]]]}},
{"type":"Feature","properties":{"highway":"footway","name":null,"category":"Footpath (pedestrian only)"},"geometry":{"type":"MultiLineString","coordinates":[[[-2.3013918,53.0936307],[-2.3015257,53.0937038],[-2.3015251,53.0937831],[-2.3014458,53.0938488],[-2.3013385,53.0938875],[-2.3011648,53.093886],[-2.3010695,53.0938283],[-2.3013918,53.0936307]]]}},
{"type":"Feature","properties":{"highway":"footway","name":null,"category":"Footpath (pedestrian only)"},"geometry":{"type":"MultiLineString","coordinates":[[[-2.3053584,53.0976831],[-2.3050949,53.0979618],[-2.3056519,53.0981645]]]}},
{"type":"Feature","properties":{"highway":"footway","name":null,"category":"Footpath (pedestrian only)"},"geometry":{"type":"MultiLineString","coordinates":[[[-2.3023221,53.1013597],[-2.3021561,53.1013359],[-2.3020005,53.1012812],[-2.3000043,53.1011579]]]}},
{"type":"Feature","properties":{"highway":"footway","name":null,"category":"Footpath (pedestrian only)"},"geometry":{"type":"MultiLineString","coordinates":[[[-2.3076506,53.1062528],[-2.3078865,53.1062546],[-2.3079986,53.1062321],[-2.3080546,53.1061649],[-2.3086135,53.106241]]]}},
{"type":"Feature","properties":{"highway":"footway","name":null,"category":"Footpath (pedestrian only)"},"geometry":{"type":"MultiLineString","coordinates":[[[-2.3080546,53.1061649],[-2.3080639,53.1060387],[-2.3079705,53.1059378],[-2.3078491,53.1058873],[-2.3074475,53.1059041],[-2.3073728,53.1058144],[-2.30727,53.1057583],[-2.3071673,53.1056518],[-2.3071299,53.1055565],[-2.3068684,53.1054331],[-2.3065602,53.1054163],[-2.3063454,53.1053602],[-2.3061025,53.1053154],[-2.3057103,53.1052985],[-2.3055702,53.1052537],[-2.3053834,53.1052929],[-2.3051702,53.1054849]]]}},
{"type":"Feature","properties":{"highway":"footway","name":null,"category":"Footpath (pedestrian only)"},"geometry":{"type":"MultiLineString","coordinates":[[[-2.3055702,53.1052537],[-2.3052152,53.1051584],[-2.3046548,53.1050182],[-2.3042532,53.1050406],[-2.3037789,53.1051768]]]}},
{"type":"Feature","properties":{"highway":"footway","name":null,"category":"Footpath (pedestrian only)"},"geometry":{"type":"MultiLineString","coordinates":[[[-2.3033061,53.1038557],[-2.3031768,53.1037476],[-2.3030319,53.1036477],[-2.3028656,53.1035414],[-2.3025867,53.1034255],[-2.3023669,53.1033401],[-2.3022219,53.1032838],[-2.3020652,53.1032167]]]}},
{"type":"Feature","properties":{"highway":"footway","name":null,"category":"Footpath (pedestrian only)"},"geometry":{"type":"MultiLineString","coordinates":[[[-2.3033061,53.1038557],[-2.3031607,53.1039505],[-2.3030051,53.1039344],[-2.3027959,53.1038635],[-2.3025921,53.1038184],[-2.3024097,53.1037798],[-2.3023936,53.1037154],[-2.3023716,53.1036417]]]}},
{"type":"Feature","properties":{"highway":"footway","name":null,"category":"Footpath (pedestrian only)"},"geometry":{"type":"MultiLineString","coordinates":[[[-2.2970916,53.0985173],[-2.2970213,53.0983331],[-2.2973006,53.0982118],[-2.2973615,53.0982644],[-2.2973942,53.0984321],[-2.2973472,53.098529]]]}},
{"type":"Feature","properties":{"highway":"footway","name":null,"category":"Footpath (pedestrian only)"},"geometry":{"type":"MultiLineString","coordinates":[[[-2.2973006,53.0982118],[-2.2973392,53.0981324],[-2.2973763,53.0979157],[-2.29735,53.0977834]]]}},
{"type":"Feature","properties":{"highway":"track","name":null,"category":"Track"},"geometry":{"type":"MultiLineString","coordinates":[[[-2.3009746,53.1083762],[-2.3008587,53.1084994],[-2.3006209,53.1085653],[-2.300503,53.1086544],[-2.3004217,53.1087813],[-2.3000782,53.109345],[-2.2999867,53.1095696],[-2.2999664,53.1096806],[-2.2999867,53.1097916],[-2.2999867,53.109932],[-2.2999298,53.1101723],[-2.299816,53.1104078],[-2.299759,53.1105091],[-2.2996777,53.1107092],[-2.2995944,53.110863],[-2.2995375,53.1111107],[-2.2995802,53.1111534],[-2.3002997,53.1113242],[-2.3006351,53.111395],[-2.3007571,53.1114145],[-2.3010823,53.111434],[-2.3012673,53.1114828],[-2.3017471,53.1116158],[-2.3019564,53.1116512],[-2.3020804,53.1116939],[-2.3026933,53.1118135],[-2.3030236,53.111883],[-2.3033326,53.1120014],[-2.304412,53.1123504],[-2.3047677,53.1124394],[-2.3049405,53.1124663],[-2.3051681,53.1124736],[-2.3054344,53.1124943],[-2.3053624,53.1130946],[-2.3053511,53.1131886],[-2.3055544,53.1134509]]]}},
{"type":"Feature","properties":{"highway":"track","name":null,"category":"Track"},"geometry":{"type":"MultiLineString","coordinates":[[[-2.3086523,53.1045397],[-2.3087267,53.1047136],[-2.308855,53.1048072],[-2.3090099,53.1048951]]]}},
{"type":"Feature","properties":{"highway":"track","name":null,"category":"Track"},"geometry":{"type":"MultiLineString","coordinates":[[[-2.3090099,53.1048951],[-2.309445,53.1048513],[-2.3097382,53.1049276]]]}},
{"type":"Feature","properties":{"highway":"footway","name":null,"category":"Footpath (pedestrian only)"},"geometry":{"type":"MultiLineString","coordinates":[[[-2.2918108,53.0977527],[-2.2915581,53.0977121],[-2.2912429,53.0976833]]]}},
{"type":"Feature","properties":{"highway":"footway","name":null,"category":"Footpath (pedestrian only)"},"geometry":{"type":"MultiLineString","coordinates":[[[-2.2912429,53.0976833],[-2.2909664,53.0976979],[-2.2905158,53.0977704]]]}}
]
}
