{
"type": "FeatureCollection",
"name": "CHEEA_277_walking",
"crs": { "type": "name", "properties": { "name": "urn:ogc:def:crs:OGC:1.3:CRS84" } },
"features": [
{"type":"Feature","properties":{"highway":"path","name":null,"category":"Shared path"},"geometry":{"type":"MultiLineString","coordinates":[[[-2.5474361,53.3809354],[-2.5474246,53.3810195],[-2.5475003,53.3810647]]]}},
{"type":"Feature","properties":{"highway":"path","name":null,"category":"Shared path"},"geometry":{"type":"MultiLineString","coordinates":[[[-2.546958,53.3809985],[-2.5474146,53.3808995],[-2.5474361,53.3809354]]]}},
{"type":"Feature","properties":{"highway":"path","name":null,"category":"Shared path"},"geometry":{"type":"MultiLineString","coordinates":[[[-2.5463965,53.3807474],[-2.5465521,53.3809627]]]}},
{"type":"Feature","properties":{"highway":"path","name":null,"category":"Shared path"},"geometry":{"type":"MultiLineString","coordinates":[[[-2.5481733,53.381201],[-2.5482398,53.3813031],[-2.5482662,53.3813449]]]}},
{"type":"Feature","properties":{"highway":"path","name":null,"category":"Shared path"},"geometry":{"type":"MultiLineString","coordinates":[[[-2.5480673,53.3810132],[-2.5480514,53.3811108],[-2.5481733,53.381201]]]}},
{"type":"Feature","properties":{"highway":"path","name":null,"category":"Shared path"},"geometry":{"type":"MultiLineString","coordinates":[[[-2.5575056,53.3954734],[-2.557464,53.3953809]]]}},
{"type":"Feature","properties":{"highway":"path","name":null,"category":"Shared path"},"geometry":{"type":"MultiLineString","coordinates":[[[-2.5575056,53.3954734],[-2.5575357,53.3955344]]]}},
{"type":"Feature","properties":{"highway":"footway","name":null,"category":"Footpath (pedestrian only)"},"geometry":{"type":"MultiLineString","coordinates":[[[-2.5563488,53.3933084],[-2.5563734,53.3933653],[-2.5563813,53.393389],[-2.5565007,53.3933928],[-2.5574111,53.3952444],[-2.5574367,53.3953103],[-2.557464,53.3953809]]]}},
{"type":"Feature","properties":{"highway":"path","name":null,"category":"Shared path"},"geometry":{"type":"MultiLineString","coordinates":[[[-2.5585547,53.3791409],[-2.5583759,53.3791347],[-2.5582471,53.3791467],[-2.5581274,53.3791639],[-2.5579155,53.3792151],[-2.5577278,53.3792631],[-2.5576748,53.3792863],[-2.5576473,53.3793191],[-2.5573737,53.3793687],[-2.5573228,53.3793607],[-2.5571544,53.3793839],[-2.5569821,53.3794183],[-2.5568084,53.3794703],[-2.5565992,53.3795103],[-2.5554586,53.3797671],[-2.5553625,53.3798035]]]}},
{"type":"Feature","properties":{"highway":"path","name":null,"category":"Shared path"},"geometry":{"type":"MultiLineString","coordinates":[[[-2.5507726,53.3826874],[-2.5507644,53.3826019],[-2.5502441,53.3823525],[-2.5498083,53.3823844]]]}},
{"type":"Feature","properties":{"highway":"footway","name":null,"category":"Footpath (pedestrian only)"},"geometry":{"type":"MultiLineString","coordinates":[[[-2.5566322,53.389578],[-2.5564266,53.3895283],[-2.556285,53.3894861],[-2.5562107,53.3894502],[-2.5561186,53.3894312],[-2.5558886,53.3894312],[-2.5555772,53.3894397],[-2.5552409,53.3894523],[-2.5549012,53.3894946],[-2.5546216,53.3895241],[-2.5543101,53.3896191],[-2.5539491,53.3897183],[-2.5535704,53.3898407],[-2.5530962,53.3900391],[-2.5525759,53.3903177],[-2.5523494,53.3904781],[-2.5522468,53.3906069],[-2.5522299,53.3907936],[-2.5522415,53.3909586]]]}},
{"type":"Feature","properties":{"highway":"footway","name":null,"category":"Footpath (pedestrian only)"},"geometry":{"type":"MultiLineString","coordinates":[[[-2.5522415,53.3909586],[-2.5523636,53.3911029],[-2.5525087,53.3912717],[-2.552675,53.3914532],[-2.5528237,53.391601],[-2.5528992,53.3917065],[-2.5529528,53.3918385],[-2.5529678,53.3918754],[-2.552979,53.3918947],[-2.5529901,53.391912]]]}},
{"type":"Feature","properties":{"highway":"footway","name":null,"category":"Footpath (pedestrian only)"},"geometry":{"type":"MultiLineString","coordinates":[[[-2.5574367,53.3953103],[-2.5572812,53.395298],[-2.5572387,53.395288],[-2.5571068,53.395257],[-2.5567431,53.3951376],[-2.5566798,53.3951193],[-2.556239,53.3949921],[-2.5559544,53.3948855],[-2.5556048,53.3947933],[-2.5554178,53.3947594],[-2.5550763,53.3946624],[-2.5546779,53.3945752],[-2.5544827,53.3944588],[-2.5542713,53.3941485],[-2.5540924,53.3939109],[-2.5539266,53.3938624],[-2.553929,53.3938199]]]}},
{"type":"Feature","properties":{"highway":"footway","name":null,"category":"Footpath (pedestrian only)"},"geometry":{"type":"MultiLineString","coordinates":[[[-2.553929,53.3938199],[-2.5540162,53.3937836],[-2.5541345,53.3937558],[-2.5545688,53.3936612],[-2.5550031,53.3935943],[-2.5553206,53.3935359],[-2.5555915,53.3934857],[-2.5558437,53.3934161],[-2.5561426,53.3933437],[-2.5563488,53.3933084]]]}},
{"type":"Feature","properties":{"highway":"footway","name":null,"category":"Footpath (pedestrian only)"},"geometry":{"type":"MultiLineString","coordinates":[[[-2.5565007,53.3933928],[-2.5567717,53.3934201],[-2.5569107,53.393327],[-2.5580574,53.3930865],[-2.5593643,53.3928537],[-2.5597576,53.3927666],[-2.5599918,53.3928134]]]}},
{"type":"Feature","properties":{"highway":"footway","name":null,"category":"Footpath (pedestrian only)"},"geometry":{"type":"MultiLineString","coordinates":[[[-2.5547733,53.3959129],[-2.5547975,53.3959763],[-2.554819,53.396024],[-2.5546557,53.3960461]]]}},
{"type":"Feature","properties":{"highway":"path","name":null,"category":"Shared path"},"geometry":{"type":"MultiLineString","coordinates":[[[-2.5454866,53.3815883],[-2.545468,53.3815583],[-2.5470908,53.3811997],[-2.5470785,53.3811813]]]}},
{"type":"Feature","properties":{"highway":"path","name":null,"category":"Shared path"},"geometry":{"type":"MultiLineString","coordinates":[[[-2.5456,53.3817718],[-2.5454836,53.3816993],[-2.5454866,53.3815883]]]}},
{"type":"Feature","properties":{"highway":"footway","name":null,"category":"Footpath (pedestrian only)"},"geometry":{"type":"MultiLineString","coordinates":[[[-2.552695,53.3878473],[-2.5526199,53.3879145],[-2.5524751,53.3879496],[-2.5524322,53.3879081],[-2.5523195,53.3878697],[-2.5521264,53.3878505],[-2.5520513,53.3877897]]]}},
{"type":"Feature","properties":{"highway":"footway","name":null,"category":"Footpath (pedestrian only)"},"geometry":{"type":"MultiLineString","coordinates":[[[-2.5520513,53.3877897],[-2.5519601,53.3876617],[-2.5517187,53.3874793],[-2.5515256,53.3872874],[-2.551311,53.3870954],[-2.5511554,53.3870538]]]}},
{"type":"Feature","properties":{"highway":"footway","name":null,"category":"Footpath (pedestrian only)"},"geometry":{"type":"MultiLineString","coordinates":[[[-2.5511554,53.3870538],[-2.5508175,53.3870506],[-2.55034,53.3870762],[-2.5499645,53.3871434],[-2.5495944,53.3872682],[-2.549294,53.3873994],[-2.5490687,53.3875337],[-2.5488434,53.3876393],[-2.5486288,53.3877129],[-2.5484249,53.3877385],[-2.5480012,53.3877097],[-2.5475398,53.3876521],[-2.5473574,53.3875689],[-2.5472448,53.387473],[-2.5471482,53.387409],[-2.5468585,53.3873354],[-2.546644,53.3873002],[-2.5465367,53.387297],[-2.5464884,53.3873226],[-2.5464723,53.3874026],[-2.546601,53.3876041],[-2.5466708,53.3877065],[-2.5467995,53.3878153],[-2.546998,53.3879305],[-2.5471804,53.3880328],[-2.5473467,53.3880936],[-2.5476364,53.3881832],[-2.5481943,53.3883016],[-2.5486184,53.388373],[-2.5486878,53.3883848],[-2.5489721,53.3884423],[-2.5491545,53.3885095],[-2.5493905,53.3886503],[-2.5496319,53.3887879],[-2.5498251,53.3888454],[-2.5500235,53.388855],[-2.5502006,53.3888294],[-2.550383,53.3887687],[-2.5505814,53.3886695],[-2.5508336,53.3885479],[-2.5511286,53.3884327],[-2.551429,53.3883144],[-2.551606,53.3882184],[-2.5517563,53.3881032],[-2.5519225,53.3879273],[-2.5519977,53.3878537],[-2.5520513,53.3877897]]]}},
{"type":"Feature","properties":{"highway":"footway","name":null,"category":"Footpath (pedestrian only)"},"geometry":{"type":"MultiLineString","coordinates":[[[-2.5486288,53.3877129],[-2.5485805,53.3877705],[-2.5485859,53.3880072],[-2.5485912,53.3882504],[-2.5486184,53.388373]]]}},
{"type":"Feature","properties":{"highway":"path","name":null,"category":"Shared path"},"geometry":{"type":"MultiLineString","coordinates":[[[-2.5528617,53.3876976],[-2.5531886,53.3875433],[-2.5534675,53.3874698],[-2.5538108,53.387329],[-2.5539627,53.387267],[-2.5540615,53.3872458],[-2.5541076,53.3872418]]]}},
{"type":"Feature","properties":{"highway":"path","name":null,"category":"Shared path"},"geometry":{"type":"MultiLineString","coordinates":[[[-2.5511554,53.3870538],[-2.5512359,53.386977],[-2.551293,53.386831],[-2.5515141,53.3863817],[-2.551611,53.3861848],[-2.5523221,53.3851428],[-2.552487,53.3848346]]]}},
{"type":"Feature","properties":{"highway":"path","name":null,"category":"Shared path"},"geometry":{"type":"MultiLineString","coordinates":[[[-2.5482662,53.3813449],[-2.5462165,53.3817729],[-2.5459664,53.3818314],[-2.5458315,53.3817738],[-2.5456,53.3817718]]]}},
{"type":"Feature","properties":{"highway":"path","name":null,"category":"Shared path"},"geometry":{"type":"MultiLineString","coordinates":[[[-2.5470785,53.3811813],[-2.5469767,53.3811101],[-2.5469751,53.381035]]]}},
{"type":"Feature","properties":{"highway":"path","name":null,"category":"Shared path"},"geometry":{"type":"MultiLineString","coordinates":[[[-2.5469751,53.381035],[-2.546958,53.3809985],[-2.5466253,53.3810735],[-2.5465521,53.3809627]]]}},
{"type":"Feature","properties":{"highway":"path","name":null,"category":"Shared path"},"geometry":{"type":"MultiLineString","coordinates":[[[-2.5453448,53.3828389],[-2.5454022,53.3829248],[-2.5455564,53.3829992],[-2.5455095,53.3830256]]]}},
{"type":"Feature","properties":{"highway":"path","name":null,"category":"Shared path"},"geometry":{"type":"MultiLineString","coordinates":[[[-2.5518172,53.3756883],[-2.5518598,53.3756804],[-2.5524066,53.3755786],[-2.5525257,53.3757829],[-2.5525966,53.3769164],[-2.5526505,53.3774884],[-2.5526517,53.377505],[-2.5526548,53.3775471]]]}},
{"type":"Feature","properties":{"highway":"path","name":null,"category":"Shared path"},"geometry":{"type":"MultiLineString","coordinates":[[[-2.5652337,53.3876],[-2.565188,53.3876257],[-2.5642394,53.3878407],[-2.5639961,53.3879682],[-2.5636192,53.388258],[-2.5633523,53.3885915],[-2.5631879,53.3889425],[-2.5631732,53.3891976],[-2.563165,53.3892569],[-2.5631403,53.3894352],[-2.5631818,53.3906167]]]}},
{"type":"Feature","properties":{"highway":"path","name":null,"category":"Shared path"},"geometry":{"type":"MultiLineString","coordinates":[[[-2.5603401,53.390511],[-2.5601617,53.3903603],[-2.55979,53.3900936]]]}},
{"type":"Feature","properties":{"highway":"path","name":null,"category":"Shared path"},"geometry":{"type":"MultiLineString","coordinates":[[[-2.5493952,53.3844454],[-2.5493753,53.3845104],[-2.5491987,53.3845677],[-2.5490385,53.384614],[-2.5487659,53.3846042],[-2.5487388,53.3845765],[-2.5486435,53.3845037]]]}},
{"type":"Feature","properties":{"highway":"path","name":null,"category":"Shared path"},"geometry":{"type":"MultiLineString","coordinates":[[[-2.5492029,53.3849281],[-2.5491886,53.384878],[-2.5492128,53.3848688],[-2.5492317,53.3848553],[-2.5492401,53.3848374],[-2.5492394,53.3848157],[-2.549232,53.3847936],[-2.5492175,53.3847703],[-2.5491863,53.3847494],[-2.5491572,53.3847357],[-2.549127,53.3847292],[-2.5490934,53.3847269],[-2.5490385,53.384614]]]}},
{"type":"Feature","properties":{"highway":"path","name":null,"category":"Shared path"},"geometry":{"type":"MultiLineString","coordinates":[[[-2.5497903,53.3855258],[-2.5497736,53.3855457],[-2.5497437,53.3855609],[-2.5496402,53.385604],[-2.5495842,53.3856197],[-2.5495115,53.3856345],[-2.549448,53.3856419],[-2.5493762,53.3856383],[-2.5492923,53.3856303],[-2.5492057,53.3856119],[-2.548936,53.3855396],[-2.548905,53.3855227],[-2.5488799,53.3854933],[-2.5488646,53.3854637],[-2.5488566,53.3854359],[-2.5488555,53.3854045],[-2.5488741,53.385367],[-2.5489253,53.3853236],[-2.548951,53.385285],[-2.5489627,53.3852461],[-2.5489597,53.3852219],[-2.5489281,53.3851759],[-2.5488583,53.385101],[-2.5488476,53.3850701],[-2.5488621,53.3850392],[-2.5489133,53.3850127],[-2.5489816,53.3849714],[-2.54904,53.3849543],[-2.5491134,53.3849356],[-2.5492029,53.3849281],[-2.5494191,53.3849167],[-2.5494947,53.3849275],[-2.5495714,53.3849516],[-2.5496381,53.3849772],[-2.5496777,53.3850004],[-2.5497114,53.385034],[-2.5497418,53.3850715],[-2.5498054,53.3852024],[-2.5498293,53.3852762],[-2.5498298,53.3853115],[-2.5498261,53.3853684],[-2.5498086,53.3854842],[-2.5497903,53.3855258]]]}},
{"type":"Feature","properties":{"highway":"path","name":null,"category":"Shared path"},"geometry":{"type":"MultiLineString","coordinates":[[[-2.5489133,53.3850127],[-2.5487648,53.3848266],[-2.5487405,53.3846966],[-2.5487659,53.3846042]]]}},
{"type":"Feature","properties":{"highway":"footway","name":null,"category":"Footpath (pedestrian only)"},"geometry":{"type":"MultiLineString","coordinates":[[[-2.5606061,53.381113],[-2.5605399,53.3811538],[-2.5604554,53.3812058],[-2.5604598,53.3812427],[-2.5604636,53.3812747],[-2.5604956,53.3812894],[-2.5605541,53.3813163],[-2.5606336,53.3813529]]]}},
{"type":"Feature","properties":{"highway":"footway","name":null,"category":"Footpath (pedestrian only)"},"geometry":{"type":"MultiLineString","coordinates":[[[-2.5604956,53.3812894],[-2.5604079,53.3813736],[-2.560336,53.3813736],[-2.5602443,53.3813736]]]}},
{"type":"Feature","properties":{"highway":"path","name":null,"category":"Shared path"},"geometry":{"type":"MultiLineString","coordinates":[[[-2.5592791,53.3802958],[-2.5593577,53.3804164],[-2.5593249,53.3805126],[-2.5592699,53.3805263],[-2.5592525,53.3805726]]]}},
{"type":"Feature","properties":{"highway":"path","name":null,"category":"Shared path"},"geometry":{"type":"MultiLineString","coordinates":[[[-2.5561318,53.3874516],[-2.5562095,53.3871627],[-2.5560097,53.3869942]]]}},
{"type":"Feature","properties":{"highway":"path","name":null,"category":"Shared path"},"geometry":{"type":"MultiLineString","coordinates":[[[-2.5540615,53.3872458],[-2.5538921,53.3871979]]]}},
{"type":"Feature","properties":{"highway":"path","name":null,"category":"Shared path"},"geometry":{"type":"MultiLineString","coordinates":[[[-2.5538108,53.387329],[-2.553648,53.3872827]]]}},
{"type":"Feature","properties":{"highway":"path","name":null,"category":"Shared path"},"geometry":{"type":"MultiLineString","coordinates":[[[-2.5538108,53.387329],[-2.5537768,53.3874666],[-2.5538116,53.3875978]]]}},
{"type":"Feature","properties":{"highway":"path","name":null,"category":"Shared path"},"geometry":{"type":"MultiLineString","coordinates":[[[-2.5459664,53.3818314],[-2.5460156,53.3819032]]]}},
{"type":"Feature","properties":{"highway":"footway","name":null,"category":"Footpath (pedestrian only)"},"geometry":{"type":"MultiLineString","coordinates":[[[-2.5520643,53.3782232],[-2.5519833,53.3779198],[-2.5521842,53.3776052]]]}},
{"type":"Feature","properties":{"highway":"path","name":null,"category":"Shared path"},"geometry":{"type":"MultiLineString","coordinates":[[[-2.5552008,53.3863688],[-2.5551579,53.3863946],[-2.5551412,53.3864554],[-2.5549454,53.3872409]]]}},
{"type":"Feature","properties":{"highway":"footway","name":null,"category":"Footpath (pedestrian only)"},"geometry":{"type":"MultiLineString","coordinates":[[[-2.553929,53.3938199],[-2.5538881,53.3938421],[-2.553738,53.3938294],[-2.5536141,53.3938338],[-2.5534686,53.3938744],[-2.5532733,53.3939526],[-2.5531565,53.3940089],[-2.5530067,53.3941151],[-2.5528745,53.3942235],[-2.5527921,53.3942449],[-2.552685,53.3942123]]]}},
{"type":"Feature","properties":{"highway":"path","name":null,"category":"Shared path"},"geometry":{"type":"MultiLineString","coordinates":[[[-2.5465534,53.3921994],[-2.5464564,53.392094],[-2.5462869,53.3920388],[-2.5461175,53.3919891],[-2.5457399,53.3919092],[-2.545401,53.3918899],[-2.5449443,53.3918688],[-2.5447877,53.391862],[-2.544619,53.3918324],[-2.5443362,53.3913074],[-2.5437354,53.3910771],[-2.5421475,53.3899382],[-2.5413107,53.3895415],[-2.540109,53.389196],[-2.5390546,53.3887255]]]}},
{"type":"Feature","properties":{"highway":"path","name":null,"category":"Shared path"},"geometry":{"type":"MultiLineString","coordinates":[[[-2.5465534,53.3921994],[-2.5468389,53.3921652],[-2.5470244,53.3920853],[-2.54721,53.3919198],[-2.5474198,53.3917119],[-2.5475522,53.3916715],[-2.5476974,53.3915637],[-2.5478104,53.3914915],[-2.5478975,53.391478],[-2.5479137,53.3914896]]]}},
{"type":"Feature","properties":{"highway":"footway","name":null,"category":"Footpath (pedestrian only)"},"geometry":{"type":"MultiLineString","coordinates":[[[-2.5507953,53.3907574],[-2.5504121,53.3904989],[-2.5501907,53.3904172],[-2.5486925,53.3899817],[-2.5481113,53.3898245],[-2.547896,53.3897482],[-2.5476596,53.3895955],[-2.5474398,53.389424],[-2.5467396,53.3888637],[-2.5465092,53.3886482],[-2.5460861,53.3883033],[-2.5456314,53.387928],[-2.5454673,53.3877394],[-2.5451812,53.3873209],[-2.5450155,53.3870856],[-2.5448604,53.386915],[-2.5447386,53.3868266],[-2.5441996,53.3862992],[-2.5441588,53.3862192],[-2.544041,53.3861396],[-2.5435343,53.3857162],[-2.5432885,53.3855856],[-2.5429949,53.3855346],[-2.542606,53.385493],[-2.5420104,53.385509],[-2.5413524,53.385571],[-2.5408485,53.3855973],[-2.54044,53.3855893],[-2.5403006,53.3855791],[-2.5399557,53.3854572],[-2.5397564,53.3853814],[-2.5394347,53.3853157],[-2.5387192,53.3851268],[-2.5377481,53.3848248],[-2.5371868,53.3846417],[-2.5368859,53.3846103],[-2.5363539,53.3847497],[-2.5359173,53.3848708],[-2.5356629,53.3849153],[-2.5353375,53.3849554],[-2.5350403,53.3849654]]]}},
{"type":"Feature","properties":{"highway":"footway","name":null,"category":"Footpath (pedestrian only)"},"geometry":{"type":"MultiLineString","coordinates":[[[-2.5529678,53.3918754],[-2.553061,53.3918569],[-2.5530755,53.3918183],[-2.5529444,53.3915397],[-2.5527169,53.3913431],[-2.5525265,53.3911445],[-2.5522949,53.3907901],[-2.5523172,53.3906668],[-2.5524459,53.390578],[-2.5525348,53.3904765],[-2.5527122,53.3903331],[-2.5529992,53.3902931],[-2.553423,53.3902643],[-2.5538897,53.3901939],[-2.5541091,53.3901457],[-2.5542219,53.3901055],[-2.5545742,53.3898184],[-2.5548057,53.389741],[-2.5550379,53.3897305],[-2.555383,53.3896343],[-2.5556038,53.3896421],[-2.555945,53.3896889],[-2.556348,53.3896699],[-2.5569005,53.3897627],[-2.5575496,53.3900346],[-2.557791,53.3901833],[-2.558345,53.3904849],[-2.5584052,53.3905177],[-2.558531,53.3906191],[-2.5586332,53.3907016],[-2.5586626,53.3907415],[-2.5589041,53.3908392],[-2.5590297,53.3909356],[-2.5590899,53.3910365],[-2.5591644,53.3916454],[-2.5591254,53.3917909],[-2.558834,53.3921954],[-2.558519,53.3924868],[-2.5581532,53.3928922],[-2.5580566,53.3930081],[-2.5580574,53.3930865]]]}},
{"type":"Feature","properties":{"highway":"path","name":null,"category":"Shared path"},"geometry":{"type":"MultiLineString","coordinates":[[[-2.5488621,53.3850392],[-2.5485905,53.3850121],[-2.5485679,53.3850407]]]}},
{"type":"Feature","properties":{"highway":"path","name":null,"category":"Shared path"},"geometry":{"type":"MultiLineString","coordinates":[[[-2.552695,53.3878473],[-2.5528617,53.3876976]]]}},
{"type":"Feature","properties":{"highway":"path","name":null,"category":"Shared path"},"geometry":{"type":"MultiLineString","coordinates":[[[-2.5490934,53.3847269],[-2.5490658,53.384744],[-2.5490488,53.3847632],[-2.5490427,53.3847851],[-2.5490414,53.3848051],[-2.5490492,53.3848277],[-2.5490672,53.384848],[-2.5490905,53.3848641],[-2.5491218,53.3848753],[-2.5491536,53.3848807],[-2.5491886,53.384878]]]}},
{"type":"Feature","properties":{"highway":"path","name":null,"category":"Shared path"},"geometry":{"type":"MultiLineString","coordinates":[[[-2.5552108,53.3885152],[-2.5557509,53.3885863],[-2.5559268,53.3885749],[-2.556107,53.3885776],[-2.5561767,53.3885857],[-2.5562478,53.3886047],[-2.5564674,53.3886932],[-2.5564795,53.3887212],[-2.5569431,53.3889036],[-2.5570142,53.3889023],[-2.5579466,53.3892699],[-2.5579465,53.3893024],[-2.5582316,53.3894139],[-2.5582438,53.3894595],[-2.5584125,53.3895259],[-2.5585395,53.3895073],[-2.5590111,53.3896889],[-2.5592981,53.3898227],[-2.5597459,53.3901106],[-2.55979,53.3900936]]]}},
{"type":"Feature","properties":{"highway":"path","name":null,"category":"Shared path"},"geometry":{"type":"MultiLineString","coordinates":[[[-2.5585395,53.3895073],[-2.5583907,53.3894463],[-2.5580052,53.3892922],[-2.5580294,53.3892708],[-2.5580746,53.3892392]]]}},
{"type":"Feature","properties":{"highway":"path","name":null,"category":"Shared path"},"geometry":{"type":"MultiLineString","coordinates":[[[-2.5609944,53.3914336],[-2.5609942,53.3915739],[-2.5610857,53.3917523],[-2.5611385,53.3919234],[-2.561189,53.3920521],[-2.5612842,53.3923079],[-2.5612599,53.3923693],[-2.5612963,53.3924776],[-2.5612933,53.3926095],[-2.56124,53.3927954],[-2.5611321,53.3930008],[-2.5610869,53.3931481],[-2.5611112,53.3933099],[-2.5610869,53.393397],[-2.5611852,53.3936007],[-2.5613008,53.3937851],[-2.5614432,53.394112],[-2.5615037,53.3941987],[-2.5615855,53.394242],[-2.5617003,53.3942781],[-2.5620795,53.3942967],[-2.5622534,53.3942656],[-2.562403,53.3941723],[-2.5624378,53.3940499],[-2.5624657,53.3938362],[-2.5624301,53.3936248]]]}},
{"type":"Feature","properties":{"highway":"footway","name":null,"category":"Footpath (pedestrian only)"},"geometry":{"type":"MultiLineString","coordinates":[[[-2.5542448,53.3807352],[-2.5537673,53.3807223]]]}},
{"type":"Feature","properties":{"highway":"footway","name":null,"category":"Footpath (pedestrian only)"},"geometry":{"type":"MultiLineString","coordinates":[[[-2.5602167,53.3813324],[-2.5602065,53.3812652],[-2.5602001,53.3812231],[-2.5601943,53.3811851]]]}},
{"type":"Feature","properties":{"highway":"footway","name":null,"category":"Footpath (pedestrian only)"},"geometry":{"type":"MultiLineString","coordinates":[[[-2.5605634,53.3794886],[-2.5605984,53.3795032],[-2.5606291,53.3795178],[-2.5606562,53.3795359],[-2.5606813,53.3795582],[-2.560697,53.3795853],[-2.5607,53.3796101],[-2.5606953,53.37964],[-2.5606749,53.379685],[-2.5605992,53.3799059],[-2.560575,53.3800022],[-2.5605562,53.3800768],[-2.5603949,53.3807723],[-2.5602933,53.3811229],[-2.5602773,53.3811519],[-2.5602596,53.3811688],[-2.5602283,53.3811807],[-2.5601943,53.3811851],[-2.5601478,53.3811892]]]}},
{"type":"Feature","properties":{"highway":"footway","name":null,"category":"Footpath (pedestrian only)"},"geometry":{"type":"MultiLineString","coordinates":[[[-2.5621617,53.380855],[-2.5605701,53.3809664],[-2.56055,53.3809708],[-2.5605369,53.3810518],[-2.5605512,53.3810778],[-2.5606061,53.381113],[-2.5606609,53.3811413],[-2.5607008,53.3811482],[-2.5621536,53.3810298],[-2.562219,53.3810188],[-2.5622606,53.3810078]]]}},
{"type":"Feature","properties":{"highway":"path","name":null,"category":"Shared path"},"geometry":{"type":"MultiLineString","coordinates":[[[-2.5505327,53.3791963],[-2.5504525,53.3791443]]]}},
{"type":"Feature","properties":{"highway":"path","name":null,"category":"Shared path"},"geometry":{"type":"MultiLineString","coordinates":[[[-2.5596451,53.3899983],[-2.5595748,53.389952],[-2.5595167,53.3899036],[-2.5594168,53.389795]]]}},
{"type":"Feature","properties":{"highway":"path","name":null,"category":"Shared path"},"geometry":{"type":"MultiLineString","coordinates":[[[-2.5502441,53.3823525],[-2.5503626,53.3822711],[-2.549981,53.382098]]]}},
{"type":"Feature","properties":{"highway":"path","name":null,"category":"Shared path"},"geometry":{"type":"MultiLineString","coordinates":[[[-2.5558401,53.387473],[-2.5556782,53.387753],[-2.555802,53.3879967]]]}},
{"type":"Feature","properties":{"highway":"path","name":null,"category":"Shared path"},"geometry":{"type":"MultiLineString","coordinates":[[[-2.5470908,53.3811997],[-2.5475263,53.3811017],[-2.548049,53.3809842],[-2.5480673,53.3810132]]]}},
{"type":"Feature","properties":{"highway":"path","name":null,"category":"Shared path"},"geometry":{"type":"MultiLineString","coordinates":[[[-2.5482662,53.3813449],[-2.5482896,53.3814181]]]}},
{"type":"Feature","properties":{"highway":"path","name":null,"category":"Shared path"},"geometry":{"type":"MultiLineString","coordinates":[[[-2.550805,53.3807992],[-2.5507444,53.3807912],[-2.5506963,53.3807877],[-2.5506241,53.3807948],[-2.5505418,53.3808144],[-2.5500132,53.3809749],[-2.5496595,53.3810672],[-2.5493098,53.3811486],[-2.5482662,53.3813449]]]}},
{"type":"Feature","properties":{"highway":"footway","name":null,"category":"Footpath (pedestrian only)"},"geometry":{"type":"MultiLineString","coordinates":[[[-2.5591946,53.3783308],[-2.5591674,53.3782818],[-2.5591528,53.3782721],[-2.5591306,53.3782672],[-2.5591061,53.3782672],[-2.5590162,53.3782885],[-2.5589388,53.3783058],[-2.5572049,53.3786952],[-2.5535875,53.3795107],[-2.5533372,53.3795756],[-2.5529295,53.3797156],[-2.5525285,53.3798284],[-2.5515469,53.3800517],[-2.551318,53.3800982],[-2.5510354,53.3801503],[-2.550824,53.3801788],[-2.550557,53.3801952],[-2.5491943,53.3802035],[-2.5489123,53.3802152],[-2.548564,53.3802427],[-2.5478137,53.3803135],[-2.5475996,53.3803447],[-2.5464551,53.3805935],[-2.5463236,53.3806237]]]}},
{"type":"Feature","properties":{"highway":"footway","name":null,"category":"Footpath (pedestrian only)"},"geometry":{"type":"MultiLineString","coordinates":[[[-2.5557106,53.3885186],[-2.5557348,53.3885601],[-2.555869,53.3885504],[-2.5559753,53.3885483],[-2.5561084,53.3885525],[-2.5561913,53.3885636],[-2.5562602,53.3885824],[-2.5580294,53.3892708],[-2.5589351,53.3896281],[-2.5591617,53.3897307],[-2.5593701,53.3898259],[-2.5595167,53.3899036]]]}},
{"type":"Feature","properties":{"highway":"footway","name":null,"category":"Footpath (pedestrian only)"},"geometry":{"type":"MultiLineString","coordinates":[[[-2.5605935,53.3823452],[-2.5605842,53.3823101],[-2.5605484,53.3822661]]]}},
{"type":"Feature","properties":{"highway":"footway","name":null,"category":"Footpath (pedestrian only)"},"geometry":{"type":"MultiLineString","coordinates":[[[-2.5605484,53.3822661],[-2.56048,53.3820038]]]}},
{"type":"Feature","properties":{"highway":"footway","name":null,"category":"Footpath (pedestrian only)"},"geometry":{"type":"MultiLineString","coordinates":[[[-2.56048,53.3820038],[-2.5604949,53.381905],[-2.5604848,53.3818417]]]}},
{"type":"Feature","properties":{"highway":"footway","name":null,"category":"Footpath (pedestrian only)"},"geometry":{"type":"MultiLineString","coordinates":[[[-2.5604789,53.3817801],[-2.5606455,53.3817695]]]}},
{"type":"Feature","properties":{"highway":"footway","name":null,"category":"Footpath (pedestrian only)"},"geometry":{"type":"MultiLineString","coordinates":[[[-2.5607625,53.381762],[-2.5609583,53.3817494],[-2.560963,53.3817758]]]}},
{"type":"Feature","properties":{"highway":"footway","name":null,"category":"Footpath (pedestrian only)"},"geometry":{"type":"MultiLineString","coordinates":[[[-2.5606455,53.3817695],[-2.5607037,53.3817658],[-2.5607625,53.381762]]]}},
{"type":"Feature","properties":{"highway":"footway","name":null,"category":"Footpath (pedestrian only)"},"geometry":{"type":"MultiLineString","coordinates":[[[-2.5604848,53.3818417],[-2.5604789,53.3817801],[-2.5604696,53.3815702],[-2.5604816,53.3815274],[-2.5605729,53.3814009],[-2.5606336,53.3813529],[-2.560712,53.3813097],[-2.5607884,53.3812845],[-2.5608656,53.3812653],[-2.5609333,53.3812529],[-2.5609774,53.3812526],[-2.561006,53.3812641],[-2.5610282,53.3812822],[-2.5610433,53.381318]]]}},
{"type":"Feature","properties":{"highway":"footway","name":null,"category":"Footpath (pedestrian only)"},"geometry":{"type":"MultiLineString","coordinates":[[[-2.56048,53.3820038],[-2.5605349,53.3819857]]]}},
{"type":"Feature","properties":{"highway":"footway","name":null,"category":"Footpath (pedestrian only)"},"geometry":{"type":"MultiLineString","coordinates":[[[-2.5605349,53.3819857],[-2.5605933,53.3819793]]]}},
{"type":"Feature","properties":{"highway":"footway","name":null,"category":"Footpath (pedestrian only)"},"geometry":{"type":"MultiLineString","coordinates":[[[-2.5605933,53.3819793],[-2.5607425,53.3819562]]]}},
{"type":"Feature","properties":{"highway":"footway","name":null,"category":"Footpath (pedestrian only)"},"geometry":{"type":"MultiLineString","coordinates":[[[-2.5607425,53.3819562],[-2.5608,53.3819472]]]}},
{"type":"Feature","properties":{"highway":"footway","name":null,"category":"Footpath (pedestrian only)"},"geometry":{"type":"MultiLineString","coordinates":[[[-2.5609459,53.3816877],[-2.5609583,53.3817494]]]}},
{"type":"Feature","properties":{"highway":"footway","name":null,"category":"Footpath (pedestrian only)"},"geometry":{"type":"MultiLineString","coordinates":[[[-2.5607693,53.3814238],[-2.5606336,53.3813529]]]}},
{"type":"Feature","properties":{"highway":"footway","name":null,"category":"Footpath (pedestrian only)"},"geometry":{"type":"MultiLineString","coordinates":[[[-2.5621751,53.3850836],[-2.5622547,53.3851576],[-2.5622914,53.3851798],[-2.5623259,53.3851938],[-2.5623667,53.3852035]]]}},
{"type":"Feature","properties":{"highway":"footway","name":null,"category":"Footpath (pedestrian only)"},"geometry":{"type":"MultiLineString","coordinates":[[[-2.5623667,53.3852035],[-2.5624232,53.3852655],[-2.5625127,53.3853639]]]}},
{"type":"Feature","properties":{"highway":"footway","name":null,"category":"Footpath (pedestrian only)"},"geometry":{"type":"MultiLineString","coordinates":[[[-2.5617652,53.3846589],[-2.5618726,53.3847634],[-2.5619663,53.3848547]]]}},
{"type":"Feature","properties":{"highway":"footway","name":null,"category":"Footpath (pedestrian only)"},"geometry":{"type":"MultiLineString","coordinates":[[[-2.5619876,53.3848162],[-2.5619752,53.3848326],[-2.5619663,53.3848547],[-2.5619675,53.3848745],[-2.5619749,53.3848936],[-2.5619866,53.384909]]]}},
{"type":"Feature","properties":{"highway":"footway","name":null,"category":"Footpath (pedestrian only)"},"geometry":{"type":"MultiLineString","coordinates":[[[-2.5572387,53.395288],[-2.5571732,53.3952968],[-2.5569734,53.3953024],[-2.5568245,53.3952928],[-2.5567146,53.3952848],[-2.5566247,53.3952864],[-2.5565322,53.3952944],[-2.5564517,53.395308],[-2.5563645,53.3953336],[-2.5563189,53.395348],[-2.5562653,53.3953576],[-2.5561781,53.3953608],[-2.5560054,53.3953716],[-2.5559576,53.3953777],[-2.5559109,53.3953892],[-2.5558397,53.3954159],[-2.5558021,53.3954316],[-2.5557655,53.3954401],[-2.5557117,53.3954468],[-2.5556212,53.395451],[-2.5555304,53.3954521],[-2.555444,53.395463],[-2.5553495,53.3954661],[-2.5552814,53.3954703],[-2.5552001,53.3954921],[-2.555078,53.3955124],[-2.5550262,53.3955263],[-2.5549977,53.3955427],[-2.5549591,53.3955718],[-2.5549194,53.3955942],[-2.5548717,53.3956088],[-2.5548178,53.395616],[-2.5546895,53.3956228],[-2.5545214,53.3956527],[-2.5544793,53.395659],[-2.5544466,53.3956569],[-2.5544139,53.3956478],[-2.5543754,53.395643],[-2.5543392,53.3956451],[-2.5543007,53.3956548],[-2.5542482,53.3956813],[-2.5542073,53.395698],[-2.5541257,53.3957155],[-2.5539152,53.395745],[-2.5538557,53.3957492],[-2.5538218,53.395745],[-2.553788,53.3957304],[-2.5537518,53.3957047],[-2.5537039,53.3956907],[-2.5536374,53.3956782],[-2.5535615,53.3956705],[-2.5535054,53.3956712],[-2.5534435,53.395681],[-2.5532414,53.3957288],[-2.5531716,53.39576],[-2.5531167,53.3958088],[-2.5530684,53.3958304],[-2.5530107,53.3958352],[-2.5529825,53.3958232],[-2.5529732,53.3958],[-2.5529825,53.3957552],[-2.5529839,53.39572],[-2.5529678,53.3956976],[-2.5529316,53.3956888],[-2.552852,53.3956856],[-2.5527611,53.3956957],[-2.5526794,53.3957205],[-2.5526116,53.3957343],[-2.5525546,53.3957316],[-2.5525177,53.395716],[-2.5525007,53.3956875],[-2.5524788,53.3955778],[-2.5524301,53.3954966],[-2.5523874,53.3954299],[-2.5523874,53.3953645],[-2.5523731,53.3953196],[-2.5523406,53.3952687],[-2.5521813,53.3951155]]]}},
{"type":"Feature","properties":{"highway":"footway","name":null,"category":"Footpath (pedestrian only)"},"geometry":{"type":"MultiLineString","coordinates":[[[-2.5525546,53.3957316],[-2.5524606,53.3957657],[-2.5521536,53.3958142],[-2.5520479,53.3958214],[-2.5519524,53.3958069],[-2.5516109,53.3957621],[-2.5514483,53.3957596],[-2.5512755,53.3957499],[-2.551184,53.3957354],[-2.5511068,53.3957354],[-2.5510193,53.3957439],[-2.550936,53.3957487],[-2.5508582,53.3957421]]]}},
{"type":"Feature","properties":{"highway":"footway","name":null,"category":"Footpath (pedestrian only)"},"geometry":{"type":"MultiLineString","coordinates":[[[-2.5642218,53.386677],[-2.5638667,53.3867031],[-2.5636458,53.386722],[-2.5636131,53.3867217],[-2.5635734,53.3867193],[-2.5635378,53.386714],[-2.5634908,53.3867045],[-2.5634351,53.3866902],[-2.5633889,53.386675],[-2.5633077,53.3866394],[-2.5624754,53.3862628],[-2.5624177,53.3862344],[-2.5623303,53.3861891],[-2.562221,53.3861298],[-2.5620171,53.3860035],[-2.5618658,53.3859038],[-2.5616349,53.385729],[-2.5616175,53.3857118],[-2.5616095,53.385697],[-2.5616075,53.3856842],[-2.5616108,53.3856702],[-2.5616195,53.3856578],[-2.5616379,53.3856458],[-2.5618726,53.3855242],[-2.5620347,53.3854385],[-2.562056,53.3854331],[-2.5620846,53.3854425],[-2.5621178,53.3854494],[-2.562157,53.3854508],[-2.5621943,53.3854484],[-2.5622242,53.3854421],[-2.5623512,53.3855448],[-2.562471,53.385634],[-2.5624827,53.385657],[-2.562674,53.3857744],[-2.5628257,53.3858583],[-2.5629578,53.3859286],[-2.5631255,53.3860092],[-2.5634424,53.3861461],[-2.5638874,53.3863471],[-2.5639847,53.3863788]]]}},
{"type":"Feature","properties":{"highway":"footway","name":null,"category":"Footpath (pedestrian only)"},"geometry":{"type":"MultiLineString","coordinates":[[[-2.5622242,53.3854421],[-2.5621501,53.3853837]]]}},
{"type":"Feature","properties":{"highway":"footway","name":null,"category":"Footpath (pedestrian only)"},"geometry":{"type":"MultiLineString","coordinates":[[[-2.5618902,53.3851906],[-2.5617829,53.3850721],[-2.5617027,53.3849834]]]}},
{"type":"Feature","properties":{"highway":"footway","name":null,"category":"Footpath (pedestrian only)"},"geometry":{"type":"MultiLineString","coordinates":[[[-2.5620261,53.3852651],[-2.5619847,53.3852341],[-2.5619385,53.3852087],[-2.5618902,53.3851906],[-2.5618405,53.3851796],[-2.5617776,53.3851704],[-2.5617051,53.3851597],[-2.5616443,53.3851481]]]}},
{"type":"Feature","properties":{"highway":"footway","name":null,"category":"Footpath (pedestrian only)"},"geometry":{"type":"MultiLineString","coordinates":[[[-2.5625127,53.3853639],[-2.5625211,53.3853427],[-2.5625365,53.3853207],[-2.5625554,53.3853032],[-2.56258,53.385289],[-2.5626105,53.3852759],[-2.5626393,53.385269],[-2.5628213,53.385256],[-2.5629487,53.3852395],[-2.5630554,53.3852237],[-2.5631098,53.3852192],[-2.5631378,53.3852212],[-2.5631606,53.3852275],[-2.5631802,53.3852373],[-2.5632775,53.3853058],[-2.5633855,53.3853696],[-2.5635542,53.3854651],[-2.5637351,53.385556],[-2.5638998,53.3856372],[-2.5639933,53.3856912],[-2.5640939,53.3857736],[-2.5641602,53.3858411],[-2.5641887,53.3858857],[-2.5642287,53.3859597],[-2.5642842,53.3860667],[-2.5643136,53.3861288],[-2.5643167,53.3861544],[-2.5643099,53.3861761],[-2.5642946,53.3861976],[-2.5642804,53.3862124],[-2.5642606,53.386227],[-2.5642339,53.3862402],[-2.5642011,53.38625],[-2.5641671,53.3862573],[-2.5641279,53.3862606],[-2.5640862,53.3862602],[-2.5640517,53.3862561],[-2.5640141,53.3862473],[-2.5639516,53.386224],[-2.5635589,53.3860463],[-2.5632522,53.3859041],[-2.5631424,53.3858409],[-2.5629815,53.3857457],[-2.5628669,53.3856643],[-2.5626475,53.3855119],[-2.562534,53.3854268],[-2.5625213,53.3854098],[-2.562515,53.3853924],[-2.5625121,53.3853774],[-2.5625127,53.3853639]]]}},
{"type":"Feature","properties":{"highway":"footway","name":null,"category":"Footpath (pedestrian only)"},"geometry":{"type":"MultiLineString","coordinates":[[[-2.5609967,53.3837866],[-2.5608956,53.3838042],[-2.5607995,53.3838209]]]}},
{"type":"Feature","properties":{"highway":"footway","name":null,"category":"Footpath (pedestrian only)"},"geometry":{"type":"MultiLineString","coordinates":[[[-2.5615167,53.3850128],[-2.5615567,53.3850182],[-2.5615847,53.3850203],[-2.5616133,53.38502],[-2.5616437,53.3850158],[-2.5616664,53.3850088],[-2.5616834,53.3850001],[-2.5616945,53.3849918],[-2.5617027,53.3849834],[-2.5617102,53.3849698],[-2.5617137,53.3849555],[-2.5617137,53.3849399],[-2.5617079,53.3849235],[-2.5616974,53.3849066],[-2.5614675,53.3846638],[-2.5611839,53.3843425],[-2.5610123,53.3841545],[-2.5609317,53.3840578],[-2.5608823,53.3839984],[-2.5608727,53.3839624],[-2.560699,53.3839644],[-2.5601534,53.384016],[-2.5601218,53.3840234],[-2.5601033,53.3840463],[-2.5601071,53.3840642],[-2.5603594,53.3843512],[-2.560768,53.3848089],[-2.5607812,53.3848295],[-2.5608036,53.3848542],[-2.5608334,53.3848751],[-2.5608631,53.3848887],[-2.5608888,53.3848967],[-2.5609204,53.3849047],[-2.5611417,53.3849509],[-2.5615167,53.3850128]]]}},
{"type":"Feature","properties":{"highway":"footway","name":null,"category":"Footpath (pedestrian only)"},"geometry":{"type":"MultiLineString","coordinates":[[[-2.5588589,53.3836866],[-2.5588584,53.3836675],[-2.5588675,53.3836506],[-2.5588863,53.383641],[-2.5589082,53.3836351],[-2.5605767,53.3834756],[-2.5605866,53.3834909],[-2.5606035,53.3835066],[-2.5606257,53.3835205],[-2.5606514,53.3835317],[-2.5606794,53.3835407],[-2.5606927,53.3835504],[-2.5607198,53.3836463],[-2.5607579,53.3837434],[-2.5607995,53.3838209],[-2.5608314,53.383884],[-2.5607405,53.3839033],[-2.5604942,53.3839298],[-2.5590078,53.3840701],[-2.558989,53.3840692],[-2.5589636,53.3840601],[-2.5589545,53.3840504],[-2.5588589,53.3836866]]]}},
{"type":"Feature","properties":{"highway":"footway","name":null,"category":"Footpath (pedestrian only)"},"geometry":{"type":"MultiLineString","coordinates":[[[-2.5608314,53.383884],[-2.5608512,53.3839218],[-2.5608727,53.3839624]]]}},
{"type":"Feature","properties":{"highway":"footway","name":null,"category":"Footpath (pedestrian only)"},"geometry":{"type":"MultiLineString","coordinates":[[[-2.5606794,53.3835407],[-2.5606533,53.3834463],[-2.5606262,53.3833483]]]}},
{"type":"Feature","properties":{"highway":"footway","name":null,"category":"Footpath (pedestrian only)"},"geometry":{"type":"MultiLineString","coordinates":[[[-2.5587637,53.3831409],[-2.5586612,53.3831504],[-2.5585541,53.3831604]]]}},
{"type":"Feature","properties":{"highway":"footway","name":null,"category":"Footpath (pedestrian only)"},"geometry":{"type":"MultiLineString","coordinates":[[[-2.5584991,53.3830352],[-2.5586293,53.3830224],[-2.5587631,53.3830093]]]}},
{"type":"Feature","properties":{"highway":"footway","name":null,"category":"Footpath (pedestrian only)"},"geometry":{"type":"MultiLineString","coordinates":[[[-2.5592094,53.3829484],[-2.5592787,53.3829445],[-2.559362,53.3829397]]]}},
{"type":"Feature","properties":{"highway":"footway","name":null,"category":"Footpath (pedestrian only)"},"geometry":{"type":"MultiLineString","coordinates":[[[-2.5607118,53.3827959],[-2.5607304,53.382887],[-2.5607494,53.3829799]]]}},
{"type":"Feature","properties":{"highway":"footway","name":null,"category":"Footpath (pedestrian only)"},"geometry":{"type":"MultiLineString","coordinates":[[[-2.56084,53.3833292],[-2.5608647,53.3834265],[-2.5608903,53.3835276]]]}},
{"type":"Feature","properties":{"highway":"footway","name":null,"category":"Footpath (pedestrian only)"},"geometry":{"type":"MultiLineString","coordinates":[[[-2.5607607,53.383037],[-2.5606603,53.3830467],[-2.5605593,53.3830565]]]}},
{"type":"Feature","properties":{"highway":"footway","name":null,"category":"Footpath (pedestrian only)"},"geometry":{"type":"MultiLineString","coordinates":[[[-2.5605434,53.3830098],[-2.5605158,53.3829087],[-2.560491,53.3828174]]]}},
{"type":"Feature","properties":{"highway":"footway","name":null,"category":"Footpath (pedestrian only)"},"geometry":{"type":"MultiLineString","coordinates":[[[-2.5605593,53.3830565],[-2.5606312,53.383324],[-2.5606262,53.3833483],[-2.5606058,53.3833604],[-2.560589,53.3833728],[-2.5605783,53.3833872],[-2.5605709,53.3834036],[-2.5605655,53.3834228],[-2.56053,53.3834296],[-2.55889,53.3835836],[-2.5588666,53.3835826],[-2.558844,53.3835784],[-2.5588307,53.3835686],[-2.5588223,53.3835514],[-2.5587329,53.3832296],[-2.5587294,53.3832013],[-2.558732,53.3831834],[-2.5587409,53.3831639],[-2.5587528,53.383152],[-2.5587637,53.3831409],[-2.5587837,53.3831339],[-2.5588107,53.3831282],[-2.5604048,53.3829738],[-2.5604344,53.3829742],[-2.5604645,53.3829778],[-2.5604934,53.3829838],[-2.5605202,53.382995],[-2.5605434,53.3830098],[-2.5605593,53.3830565]]]}},
{"type":"Feature","properties":{"highway":"footway","name":null,"category":"Footpath (pedestrian only)"},"geometry":{"type":"MultiLineString","coordinates":[[[-2.558844,53.3835784],[-2.5588565,53.3836167],[-2.5588675,53.3836506]]]}},
{"type":"Feature","properties":{"highway":"footway","name":null,"category":"Footpath (pedestrian only)"},"geometry":{"type":"MultiLineString","coordinates":[[[-2.5588675,53.3836506],[-2.5587951,53.3836587],[-2.5587257,53.3836664]]]}},
{"type":"Feature","properties":{"highway":"footway","name":null,"category":"Footpath (pedestrian only)"},"geometry":{"type":"MultiLineString","coordinates":[[[-2.5587046,53.3835889],[-2.558777,53.3835834],[-2.558844,53.3835784]]]}},
{"type":"Feature","properties":{"highway":"footway","name":null,"category":"Footpath (pedestrian only)"},"geometry":{"type":"MultiLineString","coordinates":[[[-2.5587257,53.3836664],[-2.5587155,53.3836289],[-2.5587046,53.3835889]]]}},
{"type":"Feature","properties":{"highway":"footway","name":null,"category":"Footpath (pedestrian only)"},"geometry":{"type":"MultiLineString","coordinates":[[[-2.5602554,53.3818522],[-2.5602608,53.3819031],[-2.5602656,53.381948]]]}},
{"type":"Feature","properties":{"highway":"footway","name":null,"category":"Footpath (pedestrian only)"},"geometry":{"type":"MultiLineString","coordinates":[[[-2.5603863,53.3824167],[-2.560492,53.3827917],[-2.560491,53.3828174],[-2.5604802,53.3828314],[-2.5604642,53.3828428],[-2.5604458,53.3828519],[-2.5604232,53.3828574],[-2.5603958,53.3828612],[-2.5594239,53.3829534],[-2.5593991,53.3829518],[-2.5593761,53.3829455],[-2.559362,53.3829397],[-2.5593523,53.3829275],[-2.5593478,53.3829106],[-2.5593505,53.3828252],[-2.5593653,53.3827194],[-2.5593682,53.3826426],[-2.5594721,53.3818406],[-2.5595243,53.3814369],[-2.5595303,53.3814068],[-2.5595369,53.3813911],[-2.559547,53.3813787],[-2.5595633,53.381368],[-2.5595787,53.3813591],[-2.5595943,53.381355],[-2.5596156,53.3813526],[-2.5600482,53.3813152],[-2.5600911,53.3813125],[-2.5601181,53.3813117],[-2.5601401,53.3813128],[-2.5601672,53.381317],[-2.5602167,53.3813324],[-2.5602316,53.3813431],[-2.5602413,53.3813574],[-2.5602443,53.3813736],[-2.5602404,53.3814757],[-2.5602395,53.3815386],[-2.5602455,53.3816947],[-2.5602554,53.3818522]]]}},
{"type":"Feature","properties":{"highway":"footway","name":null,"category":"Footpath (pedestrian only)"},"geometry":{"type":"MultiLineString","coordinates":[[[-2.5595787,53.3813591],[-2.5594442,53.3813678],[-2.5593362,53.3813791]]]}},
{"type":"Feature","properties":{"highway":"footway","name":null,"category":"Footpath (pedestrian only)"},"geometry":{"type":"MultiLineString","coordinates":[[[-2.5578106,53.3830955],[-2.5576979,53.3831084],[-2.5575658,53.3831235]]]}},
{"type":"Feature","properties":{"highway":"footway","name":null,"category":"Footpath (pedestrian only)"},"geometry":{"type":"MultiLineString","coordinates":[[[-2.5569497,53.3831808],[-2.5568333,53.3831936],[-2.5567208,53.3832059]]]}},
{"type":"Feature","properties":{"highway":"footway","name":null,"category":"Footpath (pedestrian only)"},"geometry":{"type":"MultiLineString","coordinates":[[[-2.5560834,53.383258],[-2.5559938,53.383266],[-2.5559096,53.3832735]]]}},
{"type":"Feature","properties":{"highway":"footway","name":null,"category":"Footpath (pedestrian only)"},"geometry":{"type":"MultiLineString","coordinates":[[[-2.5551241,53.3833532],[-2.5550374,53.3833613],[-2.5549484,53.3833696]]]}},
{"type":"Feature","properties":{"highway":"footway","name":null,"category":"Footpath (pedestrian only)"},"geometry":{"type":"MultiLineString","coordinates":[[[-2.5532067,53.3835441],[-2.5532187,53.3835911],[-2.553228,53.3836272]]]}},
{"type":"Feature","properties":{"highway":"footway","name":null,"category":"Footpath (pedestrian only)"},"geometry":{"type":"MultiLineString","coordinates":[[[-2.5541204,53.384007],[-2.5540397,53.3840463],[-2.5539633,53.3840836]]]}},
{"type":"Feature","properties":{"highway":"footway","name":null,"category":"Footpath (pedestrian only)"},"geometry":{"type":"MultiLineString","coordinates":[[[-2.5548747,53.3837178],[-2.5547699,53.3837545],[-2.5546783,53.3837866]]]}},
{"type":"Feature","properties":{"highway":"footway","name":null,"category":"Footpath (pedestrian only)"},"geometry":{"type":"MultiLineString","coordinates":[[[-2.5610565,53.3838597],[-2.5610798,53.3839057],[-2.5611089,53.3839632]]]}},
{"type":"Feature","properties":{"highway":"footway","name":null,"category":"Footpath (pedestrian only)"},"geometry":{"type":"MultiLineString","coordinates":[[[-2.5629258,53.3836501],[-2.5629262,53.3836637],[-2.5629215,53.3836765],[-2.5629145,53.3836852],[-2.5629035,53.3836948],[-2.5628935,53.3837002],[-2.5628789,53.3837051],[-2.5628501,53.3837092],[-2.5628148,53.3837129],[-2.5611517,53.3838712],[-2.5611161,53.383873],[-2.5610851,53.3838688],[-2.5610565,53.3838597],[-2.5610355,53.3838479],[-2.5610156,53.3838288],[-2.5609967,53.3837866],[-2.5608973,53.3835572],[-2.5608903,53.3835276],[-2.5609094,53.3835168],[-2.5609251,53.3835046],[-2.5609419,53.3834886],[-2.5609531,53.3834716],[-2.5609602,53.383457],[-2.5609637,53.3834422],[-2.5627494,53.3832747],[-2.562832,53.3833118],[-2.5629258,53.3836501]]]}},
{"type":"Feature","properties":{"highway":"footway","name":null,"category":"Footpath (pedestrian only)"},"geometry":{"type":"MultiLineString","coordinates":[[[-2.5607607,53.383037],[-2.5607494,53.3829799],[-2.5607998,53.3829436],[-2.5608253,53.3829348],[-2.5611464,53.3829042],[-2.5622902,53.3827955],[-2.562544,53.3827714],[-2.562602,53.3827685],[-2.5626387,53.3827717],[-2.5626604,53.3827796],[-2.5626759,53.3827904],[-2.5626865,53.3828044],[-2.562791,53.3831702],[-2.5627351,53.3832186],[-2.5627,53.3832241],[-2.5624073,53.383252],[-2.5612733,53.3833601],[-2.5609524,53.3833907],[-2.5609414,53.3833751],[-2.5609256,53.3833624],[-2.5609038,53.3833503],[-2.5608794,53.3833397],[-2.560855,53.3833318],[-2.56084,53.3833292],[-2.5607995,53.3831932],[-2.5607607,53.383037]]]}},
{"type":"Feature","properties":{"highway":"path","name":null,"category":"Shared path"},"geometry":{"type":"MultiLineString","coordinates":[[[-2.5612733,53.3833601],[-2.5612116,53.3831386],[-2.5611464,53.3829042]]]}},
{"type":"Feature","properties":{"highway":"path","name":null,"category":"Shared path"},"geometry":{"type":"MultiLineString","coordinates":[[[-2.5612116,53.3831386],[-2.5623521,53.3830369]]]}},
{"type":"Feature","properties":{"highway":"footway","name":null,"category":"Footpath (pedestrian only)"},"geometry":{"type":"MultiLineString","coordinates":[[[-2.5605935,53.3823452],[-2.5606131,53.3824008],[-2.5606735,53.3826234],[-2.5606967,53.3827246],[-2.5607118,53.3827959],[-2.5607985,53.3828207]]]}},
{"type":"Feature","properties":{"highway":"footway","name":null,"category":"Footpath (pedestrian only)"},"geometry":{"type":"MultiLineString","coordinates":[[[-2.5602771,53.3820046],[-2.560275,53.3819897],[-2.5602728,53.3819736]]]}},
{"type":"Feature","properties":{"highway":"footway","name":null,"category":"Footpath (pedestrian only)"},"geometry":{"type":"MultiLineString","coordinates":[[[-2.5602728,53.3819736],[-2.5602656,53.381948]]]}},
{"type":"Feature","properties":{"highway":"footway","name":null,"category":"Footpath (pedestrian only)"},"geometry":{"type":"MultiLineString","coordinates":[[[-2.5603169,53.382163],[-2.5603121,53.3821424],[-2.5603065,53.3821185]]]}},
{"type":"Feature","properties":{"highway":"footway","name":null,"category":"Footpath (pedestrian only)"},"geometry":{"type":"MultiLineString","coordinates":[[[-2.5603065,53.3821185],[-2.5602771,53.3820046]]]}},
{"type":"Feature","properties":{"highway":"footway","name":null,"category":"Footpath (pedestrian only)"},"geometry":{"type":"MultiLineString","coordinates":[[[-2.5603863,53.3824167],[-2.5603748,53.3823724],[-2.5603637,53.3823299]]]}},
{"type":"Feature","properties":{"highway":"footway","name":null,"category":"Footpath (pedestrian only)"},"geometry":{"type":"MultiLineString","coordinates":[[[-2.5603637,53.3823299],[-2.5603169,53.382163]]]}},
{"type":"Feature","properties":{"highway":"footway","name":null,"category":"Footpath (pedestrian only)"},"geometry":{"type":"MultiLineString","coordinates":[[[-2.5624591,53.3846618],[-2.5623887,53.3846663],[-2.5623075,53.3846714]]]}},
{"type":"Feature","properties":{"highway":"footway","name":null,"category":"Footpath (pedestrian only)"},"geometry":{"type":"MultiLineString","coordinates":[[[-2.5612101,53.383917],[-2.5611829,53.3839218],[-2.5611561,53.3839292],[-2.5611361,53.3839383],[-2.5611194,53.3839504],[-2.5611089,53.3839632],[-2.5611142,53.3839822],[-2.5611292,53.3840098],[-2.5615514,53.3844741],[-2.5616419,53.3845678],[-2.5616807,53.3846003],[-2.5617186,53.3846291],[-2.5617652,53.3846589],[-2.5618141,53.3846737],[-2.5618598,53.384684],[-2.5619093,53.3846922],[-2.5619862,53.3847011],[-2.5620491,53.3847057],[-2.562149,53.3847005],[-2.5622107,53.3846988],[-2.5622309,53.3846972],[-2.5622512,53.3846934],[-2.5622731,53.3846871],[-2.5622949,53.3846786],[-2.5623075,53.3846714],[-2.5623165,53.3846611],[-2.5623225,53.3846495],[-2.5623255,53.3846362],[-2.5623262,53.3846195],[-2.5622764,53.3843781],[-2.5621695,53.3839572],[-2.5621444,53.3838766],[-2.5621364,53.3838654],[-2.5621246,53.3838562],[-2.5621106,53.3838493],[-2.5620934,53.3838426],[-2.5620742,53.3838393],[-2.5620533,53.383839],[-2.5612101,53.383917]]]}},
{"type":"Feature","properties":{"highway":"footway","name":null,"category":"Footpath (pedestrian only)"},"geometry":{"type":"MultiLineString","coordinates":[[[-2.5622595,53.383836],[-2.5621848,53.3838427],[-2.5621106,53.3838493]]]}},
{"type":"Feature","properties":{"highway":"footway","name":null,"category":"Footpath (pedestrian only)"},"geometry":{"type":"MultiLineString","coordinates":[[[-2.5518598,53.3773787],[-2.5518583,53.3774042],[-2.551864,53.3774203],[-2.5518764,53.3774334],[-2.551896,53.3774437],[-2.5519199,53.3774497],[-2.5522343,53.3774664],[-2.5526505,53.3774884],[-2.5529148,53.3775024],[-2.5530587,53.3775097],[-2.5530873,53.3775067],[-2.5531108,53.3774987],[-2.5531362,53.3774837],[-2.5531541,53.3774681],[-2.5531714,53.3774504],[-2.5531818,53.3774321],[-2.5531856,53.3774144],[-2.5531851,53.3773933]]]}},
{"type":"Feature","properties":{"highway":"footway","name":null,"category":"Footpath (pedestrian only)"},"geometry":{"type":"MultiLineString","coordinates":[[[-2.5554134,53.3779374],[-2.5553127,53.3779162],[-2.5550447,53.3778669],[-2.5547283,53.3778096],[-2.5547077,53.3778094],[-2.5546915,53.3778123],[-2.5546796,53.3778182],[-2.554674,53.3778293],[-2.5546703,53.3778603],[-2.5546218,53.3780731],[-2.5544098,53.3787748],[-2.5543474,53.3787697]]]}},
{"type":"Feature","properties":{"highway":"footway","name":null,"category":"Footpath (pedestrian only)"},"geometry":{"type":"MultiLineString","coordinates":[[[-2.5546915,53.3778123],[-2.5546283,53.3777926],[-2.5545547,53.3777697],[-2.5545333,53.3777761]]]}},
{"type":"Feature","properties":{"highway":"footway","name":null,"category":"Footpath (pedestrian only)"},"geometry":{"type":"MultiLineString","coordinates":[[[-2.5543474,53.3787697],[-2.5542855,53.3787631],[-2.554419,53.3782941],[-2.5545518,53.3778266],[-2.5545588,53.3778027],[-2.5545568,53.3777879],[-2.5545487,53.3777801],[-2.5545333,53.3777761]]]}},
{"type":"Feature","properties":{"highway":"footway","name":null,"category":"Footpath (pedestrian only)"},"geometry":{"type":"MultiLineString","coordinates":[[[-2.5545333,53.3777761],[-2.5542684,53.3777335],[-2.5541742,53.3777015]]]}},
{"type":"Feature","properties":{"highway":"footway","name":null,"category":"Footpath (pedestrian only)"},"geometry":{"type":"MultiLineString","coordinates":[[[-2.5544323,53.3776916],[-2.5542831,53.3776915],[-2.5541742,53.3777015],[-2.5540409,53.3776901],[-2.5538231,53.3776834],[-2.5538155,53.3776959],[-2.5537921,53.3777733]]]}},
{"type":"Feature","properties":{"highway":"footway","name":null,"category":"Footpath (pedestrian only)"},"geometry":{"type":"MultiLineString","coordinates":[[[-2.5536865,53.3777622],[-2.5537029,53.3776948],[-2.5537033,53.3776823],[-2.5535187,53.3776781],[-2.5530368,53.3776532],[-2.5524894,53.3776215],[-2.5521842,53.3776052],[-2.5517711,53.377583],[-2.5510745,53.3775414],[-2.5510533,53.3775439],[-2.5510336,53.3775518],[-2.5510188,53.3775633],[-2.5510063,53.3775795],[-2.5509735,53.3776493]]]}},
{"type":"Feature","properties":{"highway":"footway","name":null,"category":"Footpath (pedestrian only)"},"geometry":{"type":"MultiLineString","coordinates":[[[-2.5538231,53.3776834],[-2.5537591,53.3776828],[-2.5537033,53.3776823]]]}},
{"type":"Feature","properties":{"highway":"footway","name":null,"category":"Footpath (pedestrian only)"},"geometry":{"type":"MultiLineString","coordinates":[[[-2.550844,53.377628],[-2.5508741,53.3775612],[-2.5508756,53.3775518],[-2.550871,53.3775436],[-2.5508626,53.3775368],[-2.5508501,53.3775333],[-2.5508237,53.3775305],[-2.5504024,53.3775081],[-2.5503098,53.3775194],[-2.5500228,53.3775156],[-2.5499132,53.377502],[-2.5498211,53.3775009],[-2.5497789,53.3775073],[-2.5497626,53.3775158],[-2.549754,53.3775267],[-2.5497514,53.3775662],[-2.5497524,53.3777228],[-2.5497514,53.377806],[-2.5497381,53.3778832],[-2.5497096,53.3779597],[-2.5496527,53.3780741],[-2.5495694,53.3782126],[-2.549468,53.3783709],[-2.5493438,53.3785439],[-2.5492017,53.3787228],[-2.5491594,53.3787617],[-2.5491217,53.3787881],[-2.5490907,53.3788036],[-2.5490622,53.3788121],[-2.549026,53.3788188],[-2.5489879,53.3788209],[-2.5489456,53.37882],[-2.5489003,53.3788155],[-2.5487372,53.3787891],[-2.5486232,53.378764],[-2.5484755,53.3787277],[-2.5482933,53.3786799],[-2.5481899,53.378643],[-2.5481024,53.3786061],[-2.5479883,53.37855],[-2.5479159,53.3785068],[-2.5478574,53.378463],[-2.5477737,53.3783929],[-2.5476726,53.3782996],[-2.5476088,53.3782298],[-2.5475516,53.3781498],[-2.5474509,53.3779958],[-2.547356,53.3778521],[-2.5472955,53.3777314],[-2.5472664,53.3776512],[-2.5472563,53.3776063],[-2.5472467,53.3775128],[-2.5472436,53.3774766],[-2.5472362,53.3774627]]]}},
{"type":"Feature","properties":{"highway":"footway","name":null,"category":"Footpath (pedestrian only)"},"geometry":{"type":"MultiLineString","coordinates":[[[-2.5485492,53.3774893],[-2.548046,53.3774797],[-2.5473583,53.3774627],[-2.5473552,53.3774816],[-2.5473547,53.3775132],[-2.5473624,53.3775713],[-2.5473787,53.37764],[-2.5474021,53.3777128],[-2.5474459,53.3777948],[-2.5475728,53.3779825],[-2.547699,53.3781629],[-2.5477795,53.3782612],[-2.5479133,53.3783839],[-2.5480117,53.3784595],[-2.5481003,53.3785097],[-2.5482114,53.3785617],[-2.5483146,53.3785996],[-2.5484538,53.3786404],[-2.5487705,53.3787172],[-2.5488495,53.3787326],[-2.5489185,53.3787444],[-2.5489573,53.3787471],[-2.5489901,53.3787463],[-2.5490158,53.3787423],[-2.5490389,53.3787344],[-2.549061,53.3787225],[-2.5490818,53.3787055],[-2.5491037,53.3786806],[-2.5491929,53.3785679],[-2.5493208,53.378395],[-2.5494258,53.3782301],[-2.5495019,53.3781004],[-2.5495639,53.3779909],[-2.5495915,53.3779268],[-2.5496116,53.3778619],[-2.5496217,53.3777993],[-2.5496296,53.3777198],[-2.5496387,53.3775435],[-2.549638,53.3775258],[-2.5496353,53.3775166],[-2.5496298,53.3775088]]]}},
{"type":"Feature","properties":{"highway":"footway","name":null,"category":"Footpath (pedestrian only)"},"geometry":{"type":"MultiLineString","coordinates":[[[-2.5511071,53.3811102],[-2.5510227,53.3810955]]]}},
{"type":"Feature","properties":{"highway":"footway","name":null,"category":"Footpath (pedestrian only)"},"geometry":{"type":"MultiLineString","coordinates":[[[-2.5510323,53.3808075],[-2.5510956,53.380817],[-2.5511727,53.3808286]]]}},
{"type":"Feature","properties":{"highway":"footway","name":null,"category":"Footpath (pedestrian only)"},"geometry":{"type":"MultiLineString","coordinates":[[[-2.550805,53.3807992],[-2.5508667,53.3808036],[-2.550928,53.3808106],[-2.5509736,53.3808155],[-2.5509938,53.380815],[-2.551015,53.380812],[-2.5510323,53.3808075]]]}},
{"type":"Feature","properties":{"highway":"footway","name":null,"category":"Footpath (pedestrian only)"},"geometry":{"type":"MultiLineString","coordinates":[[[-2.5534347,53.3812669],[-2.5534059,53.3813162],[-2.5533819,53.3813575]]]}},
{"type":"Feature","properties":{"highway":"footway","name":null,"category":"Footpath (pedestrian only)"},"geometry":{"type":"MultiLineString","coordinates":[[[-2.5531917,53.3813232],[-2.5530622,53.3812963],[-2.5529717,53.3812776]]]}},
{"type":"Feature","properties":{"highway":"footway","name":null,"category":"Footpath (pedestrian only)"},"geometry":{"type":"MultiLineString","coordinates":[[[-2.5537051,53.3814216],[-2.5533819,53.3813575],[-2.5532144,53.3813248],[-2.5531917,53.3813232],[-2.5531727,53.3813263],[-2.5531539,53.3813333],[-2.5531397,53.3813433],[-2.5531301,53.3813545],[-2.553124,53.3813681],[-2.5531209,53.381383]]]}},
{"type":"Feature","properties":{"highway":"footway","name":null,"category":"Footpath (pedestrian only)"},"geometry":{"type":"MultiLineString","coordinates":[[[-2.5529798,53.38137],[-2.5529836,53.3812921],[-2.5529789,53.3812837],[-2.5529717,53.3812776],[-2.55296,53.3812726],[-2.5523751,53.3811616],[-2.5521359,53.3811163],[-2.5521207,53.3811166],[-2.5521095,53.3811205],[-2.5521014,53.3811284]]]}},
{"type":"Feature","properties":{"highway":"footway","name":null,"category":"Footpath (pedestrian only)"},"geometry":{"type":"MultiLineString","coordinates":[[[-2.5521207,53.3811166],[-2.5520467,53.3811036],[-2.5519691,53.38109]]]}},
{"type":"Feature","properties":{"highway":"footway","name":null,"category":"Footpath (pedestrian only)"},"geometry":{"type":"MultiLineString","coordinates":[[[-2.5519727,53.3811109],[-2.5519771,53.3811025],[-2.5519771,53.3810971],[-2.5519742,53.3810931],[-2.5519691,53.38109],[-2.5519604,53.381086],[-2.5519442,53.381082],[-2.5514493,53.3809888],[-2.5514138,53.3809851],[-2.5513643,53.3809817],[-2.5513092,53.3809814],[-2.5512755,53.3809844],[-2.5512435,53.3809915],[-2.5512107,53.3810014],[-2.5511779,53.3810157],[-2.5511598,53.3810281],[-2.5511457,53.3810421],[-2.5511318,53.3810632],[-2.5511184,53.3810882],[-2.5511071,53.3811102],[-2.5510941,53.3811385],[-2.5511093,53.3811567],[-2.5510814,53.3811916],[-2.5510352,53.3812347],[-2.5509844,53.381273],[-2.5508751,53.3813501],[-2.5507649,53.3814262],[-2.5506953,53.3814793],[-2.5506516,53.3815166],[-2.5506003,53.3815699],[-2.5504965,53.3816834]]]}},
{"type":"Feature","properties":{"highway":"footway","name":null,"category":"Footpath (pedestrian only)"},"geometry":{"type":"MultiLineString","coordinates":[[[-2.5503995,53.3815458],[-2.5504294,53.3815143],[-2.5504615,53.3814807]]]}},
{"type":"Feature","properties":{"highway":"footway","name":null,"category":"Footpath (pedestrian only)"},"geometry":{"type":"MultiLineString","coordinates":[[[-2.550309,53.3814679],[-2.5503588,53.38145],[-2.5504203,53.3814743],[-2.5504337,53.3814785],[-2.5504452,53.3814799],[-2.5504615,53.3814807],[-2.550471,53.3814789],[-2.5504787,53.3814755],[-2.5505584,53.3814013],[-2.5506425,53.3813389],[-2.5507306,53.3812811],[-2.5508544,53.3811928],[-2.5508883,53.3811606],[-2.550916,53.3811234],[-2.5509315,53.3810932],[-2.5509531,53.3810833]]]}},
{"type":"Feature","properties":{"highway":"footway","name":null,"category":"Footpath (pedestrian only)"},"geometry":{"type":"MultiLineString","coordinates":[[[-2.5516182,53.3806264],[-2.5513744,53.380674],[-2.5513333,53.3806837],[-2.5512997,53.3806952],[-2.5512723,53.3807073],[-2.5512511,53.3807192],[-2.5512333,53.380731],[-2.5512125,53.380748],[-2.5511954,53.380766],[-2.5511818,53.3807866],[-2.5511752,53.3808006],[-2.5511721,53.3808143],[-2.5511727,53.3808286],[-2.5511774,53.3808391],[-2.5511876,53.3808491],[-2.5512022,53.3808584],[-2.5512239,53.3808649],[-2.5512694,53.3808729],[-2.5514826,53.3809075],[-2.5517677,53.3809714],[-2.5520177,53.3810181],[-2.5526568,53.3811346],[-2.5527014,53.3811407],[-2.5527202,53.3811407],[-2.5527379,53.381138],[-2.5527536,53.3811313],[-2.5527642,53.3811214],[-2.5527726,53.3811053],[-2.5527779,53.3810845]]]}},
{"type":"Feature","properties":{"highway":"footway","name":null,"category":"Footpath (pedestrian only)"},"geometry":{"type":"MultiLineString","coordinates":[[[-2.5517529,53.3806006],[-2.5516868,53.3806133],[-2.5516182,53.3806264]]]}},
{"type":"Feature","properties":{"highway":"footway","name":null,"category":"Footpath (pedestrian only)"},"geometry":{"type":"MultiLineString","coordinates":[[[-2.5529397,53.3811622],[-2.5528358,53.3811497],[-2.5527379,53.381138]]]}},
{"type":"Feature","properties":{"highway":"footway","name":null,"category":"Footpath (pedestrian only)"},"geometry":{"type":"MultiLineString","coordinates":[[[-2.5529195,53.3810856],[-2.5529168,53.381135],[-2.5529201,53.3811454],[-2.5529259,53.3811524],[-2.552932,53.3811573],[-2.5529397,53.3811622],[-2.5529495,53.381166],[-2.5534347,53.3812669],[-2.553705,53.3813283]]]}},
{"type":"Feature","properties":{"highway":"footway","name":null,"category":"Footpath (pedestrian only)"},"geometry":{"type":"MultiLineString","coordinates":[[[-2.5543759,53.3835853],[-2.5544358,53.3835732],[-2.5544984,53.3835607]]]}},
{"type":"Feature","properties":{"highway":"footway","name":null,"category":"Footpath (pedestrian only)"},"geometry":{"type":"MultiLineString","coordinates":[[[-2.5544984,53.3835607],[-2.5545127,53.3835855],[-2.5545298,53.383615]]]}},
{"type":"Feature","properties":{"highway":"footway","name":null,"category":"Footpath (pedestrian only)"},"geometry":{"type":"MultiLineString","coordinates":[[[-2.5537856,53.3846264],[-2.5537407,53.3846441],[-2.5536946,53.3846624]]]}},
{"type":"Feature","properties":{"highway":"footway","name":null,"category":"Footpath (pedestrian only)"},"geometry":{"type":"MultiLineString","coordinates":[[[-2.5530726,53.3841159],[-2.5530021,53.3841307],[-2.5529012,53.3841519]]]}},
{"type":"Feature","properties":{"highway":"footway","name":null,"category":"Footpath (pedestrian only)"},"geometry":{"type":"MultiLineString","coordinates":[[[-2.5529825,53.3842269],[-2.5529161,53.3841808]]]}},
{"type":"Feature","properties":{"highway":"footway","name":null,"category":"Footpath (pedestrian only)"},"geometry":{"type":"MultiLineString","coordinates":[[[-2.5496523,53.3843108],[-2.5497118,53.3842976],[-2.549793,53.3842796]]]}},
{"type":"Feature","properties":{"highway":"footway","name":null,"category":"Footpath (pedestrian only)"},"geometry":{"type":"MultiLineString","coordinates":[[[-2.5479214,53.3845189],[-2.5480238,53.3845092],[-2.5481072,53.3845012]]]}},
{"type":"Feature","properties":{"highway":"footway","name":null,"category":"Footpath (pedestrian only)"},"geometry":{"type":"MultiLineString","coordinates":[[[-2.5488059,53.3844326],[-2.5488862,53.3844279],[-2.5489619,53.3844235]]]}},
{"type":"Feature","properties":{"highway":"footway","name":null,"category":"Footpath (pedestrian only)"},"geometry":{"type":"MultiLineString","coordinates":[[[-2.552685,53.3942123],[-2.5526915,53.3941833],[-2.5526814,53.3941227],[-2.5527261,53.3940658],[-2.5527647,53.3940379],[-2.552793,53.3939916],[-2.5528115,53.3939615],[-2.5528481,53.3938476],[-2.5528684,53.393707],[-2.5529802,53.393547],[-2.553155,53.3932039],[-2.5532262,53.3930088],[-2.5532688,53.3928488],[-2.5532729,53.3926888],[-2.553279,53.3926148],[-2.5532546,53.3924003],[-2.5532302,53.39237],[-2.5532051,53.3922695],[-2.5532419,53.3922402],[-2.5533452,53.3921685]]]}},
{"type":"Feature","properties":{"highway":"footway","name":null,"category":"Footpath (pedestrian only)"},"geometry":{"type":"MultiLineString","coordinates":[[[-2.5563488,53.3933084],[-2.555837,53.3919442],[-2.5555336,53.3914704],[-2.5554754,53.3913045]]]}},
{"type":"Feature","properties":{"highway":"footway","name":null,"category":"Footpath (pedestrian only)"},"geometry":{"type":"MultiLineString","coordinates":[[[-2.5555336,53.3914704],[-2.554957,53.3916429],[-2.5548052,53.3916791],[-2.5546347,53.3917028],[-2.5544526,53.3917404],[-2.5536002,53.392016],[-2.5533452,53.3921685]]]}},
{"type":"Feature","properties":{"highway":"footway","name":null,"category":"Footpath (pedestrian only)"},"geometry":{"type":"MultiLineString","coordinates":[[[-2.5563813,53.393389],[-2.5563247,53.393436],[-2.5561426,53.3935781],[-2.5561636,53.3937326],[-2.5563317,53.3938454],[-2.5568673,53.3947601],[-2.5568612,53.3949013],[-2.5566798,53.3951193]]]}},
{"type":"Feature","properties":{"highway":"path","name":null,"category":"Shared path"},"geometry":{"type":"MultiLineString","coordinates":[[[-2.5628558,53.3907417],[-2.5621223,53.3910268],[-2.5610707,53.3914312],[-2.5609944,53.3914336]]]}},
{"type":"Feature","properties":{"highway":"path","name":null,"category":"Shared path"},"geometry":{"type":"MultiLineString","coordinates":[[[-2.5553407,53.3884132],[-2.5552198,53.388488],[-2.5552108,53.3885152]]]}},
{"type":"Feature","properties":{"highway":"footway","name":null,"category":"Footpath (pedestrian only)"},"geometry":{"type":"MultiLineString","coordinates":[[[-2.56194,53.388226],[-2.5619955,53.3881792],[-2.5618687,53.3876177],[-2.561885,53.3875857],[-2.5619565,53.3875391],[-2.5622948,53.3873549],[-2.5623143,53.3873364],[-2.562298,53.3872201],[-2.5622168,53.3871471]]]}},
{"type":"Feature","properties":{"highway":"footway","name":null,"category":"Footpath (pedestrian only)"},"geometry":{"type":"MultiLineString","coordinates":[[[-2.5619514,53.3882706],[-2.5618638,53.388297],[-2.5610717,53.3883639],[-2.5609559,53.3883427],[-2.560869,53.3883308],[-2.5606121,53.3883515],[-2.5605569,53.388365],[-2.5605187,53.3884001],[-2.5604975,53.3885159],[-2.5604516,53.3886257]]]}},
{"type":"Feature","properties":{"highway":"footway","name":null,"category":"Footpath (pedestrian only)"},"geometry":{"type":"MultiLineString","coordinates":[[[-2.5600031,53.3886623],[-2.5604516,53.3886257],[-2.5603407,53.3889337],[-2.5603506,53.3889822],[-2.5604627,53.3890625],[-2.5604812,53.3890778]]]}},
{"type":"Feature","properties":{"highway":"path","name":null,"category":"Shared path"},"geometry":{"type":"MultiLineString","coordinates":[[[-2.563081,53.3865829],[-2.5630688,53.3866136],[-2.5629986,53.3867904],[-2.562983,53.3868297]]]}},
{"type":"Feature","properties":{"highway":"footway","name":null,"category":"Footpath (pedestrian only)"},"geometry":{"type":"MultiLineString","coordinates":[[[-2.5626394,53.3868235],[-2.5629986,53.3867904],[-2.5631521,53.3867739],[-2.563183,53.3867675],[-2.5632031,53.38676],[-2.5632148,53.3867528],[-2.5632228,53.3867448],[-2.5632295,53.3867349],[-2.5632341,53.3867237],[-2.5632351,53.38671],[-2.5632315,53.386697],[-2.5632244,53.3866864],[-2.5632158,53.3866788],[-2.563201,53.3866715],[-2.5630688,53.3866136],[-2.5628518,53.3865179]]]}},
{"type":"Feature","properties":{"highway":"path","name":null,"category":"Shared path"},"geometry":{"type":"MultiLineString","coordinates":[[[-2.5628558,53.3907417],[-2.5630439,53.3908529],[-2.5631629,53.390851]]]}},
{"type":"Feature","properties":{"highway":"path","name":null,"category":"Shared path"},"geometry":{"type":"MultiLineString","coordinates":[[[-2.5602252,53.3850326],[-2.5602292,53.3847589],[-2.5605047,53.3845759]]]}},
{"type":"Feature","properties":{"highway":"footway","name":null,"category":"Footpath (pedestrian only)"},"geometry":{"type":"MultiLineString","coordinates":[[[-2.5553191,53.3872846],[-2.5552682,53.3872137],[-2.5552594,53.3871973],[-2.5552564,53.3871809],[-2.5552605,53.3871615],[-2.5552848,53.3870961],[-2.5552645,53.3870573],[-2.5552025,53.3870027],[-2.5551995,53.3869906],[-2.5552021,53.3869764],[-2.5552054,53.3869638],[-2.5553498,53.3869772],[-2.5553522,53.3869677],[-2.5553568,53.3869444],[-2.5553824,53.3868215]]]}},
{"type":"Feature","properties":{"highway":"footway","name":null,"category":"Footpath (pedestrian only)"},"geometry":{"type":"MultiLineString","coordinates":[[[-2.5552025,53.3870027],[-2.5551272,53.3870225]]]}},
{"type":"Feature","properties":{"highway":"footway","name":null,"category":"Footpath (pedestrian only)"},"geometry":{"type":"MultiLineString","coordinates":[[[-2.5553922,53.3869412],[-2.5553568,53.3869444],[-2.5552597,53.3869329]]]}},
{"type":"Feature","properties":{"highway":"path","name":null,"category":"Shared path"},"geometry":{"type":"MultiLineString","coordinates":[[[-2.5577883,53.3873062],[-2.5573059,53.3876648]]]}},
{"type":"Feature","properties":{"highway":"path","name":null,"category":"Shared path"},"geometry":{"type":"MultiLineString","coordinates":[[[-2.5618091,53.3869345],[-2.5619219,53.3866668]]]}},
{"type":"Feature","properties":{"highway":"path","name":null,"category":"Shared path"},"geometry":{"type":"MultiLineString","coordinates":[[[-2.5532736,53.3829513],[-2.5532808,53.3829791],[-2.5534663,53.3829621],[-2.5538212,53.3829297],[-2.5543407,53.3828821],[-2.5544469,53.3828724],[-2.5544403,53.3828467]]]}},
{"type":"Feature","properties":{"highway":"path","name":null,"category":"Shared path"},"geometry":{"type":"MultiLineString","coordinates":[[[-2.5542619,53.3829786],[-2.5542555,53.3829533],[-2.5542519,53.3829394],[-2.5543278,53.3829326],[-2.5543235,53.3829156],[-2.5542476,53.3829225],[-2.5542436,53.3829068],[-2.5543446,53.3828976]]]}},
{"type":"Feature","properties":{"highway":"path","name":null,"category":"Shared path"},"geometry":{"type":"MultiLineString","coordinates":[[[-2.5543407,53.3828821],[-2.5543446,53.3828976],[-2.5543466,53.3829061]]]}},
{"type":"Feature","properties":{"highway":"path","name":null,"category":"Shared path"},"geometry":{"type":"MultiLineString","coordinates":[[[-2.5543539,53.3829356],[-2.554356,53.3829438],[-2.5543621,53.3829686]]]}},
{"type":"Feature","properties":{"highway":"path","name":null,"category":"Shared path"},"geometry":{"type":"MultiLineString","coordinates":[[[-2.5538319,53.38297],[-2.5538379,53.3829927],[-2.5538451,53.3830201]]]}},
{"type":"Feature","properties":{"highway":"path","name":null,"category":"Shared path"},"geometry":{"type":"MultiLineString","coordinates":[[[-2.5538212,53.3829297],[-2.5538239,53.3829398]]]}},
{"type":"Feature","properties":{"highway":"path","name":null,"category":"Shared path"},"geometry":{"type":"MultiLineString","coordinates":[[[-2.5535833,53.3830465],[-2.5535758,53.3830174],[-2.5535721,53.3830029],[-2.5535005,53.3830095],[-2.553496,53.3829919],[-2.5535681,53.3829853],[-2.5535638,53.3829687],[-2.5534702,53.3829772]]]}},
{"type":"Feature","properties":{"highway":"path","name":null,"category":"Shared path"},"geometry":{"type":"MultiLineString","coordinates":[[[-2.5534728,53.3829873],[-2.5534702,53.3829772],[-2.5534663,53.3829621]]]}},
{"type":"Feature","properties":{"highway":"path","name":null,"category":"Shared path"},"geometry":{"type":"MultiLineString","coordinates":[[[-2.5534906,53.3830555],[-2.553483,53.3830262],[-2.5534811,53.383019]]]}},
{"type":"Feature","properties":{"highway":"footway","name":null,"category":"Footpath (pedestrian only)"},"geometry":{"type":"MultiLineString","coordinates":[[[-2.5532072,53.3830522],[-2.553483,53.3830262],[-2.5535758,53.3830174],[-2.5538379,53.3829927],[-2.5542555,53.3829533],[-2.554356,53.3829438],[-2.554563,53.3829242]]]}},
{"type":"Feature","properties":{"highway":"path","name":null,"category":"Shared path"},"geometry":{"type":"MultiLineString","coordinates":[[[-2.5475003,53.3810647],[-2.5475263,53.3811017]]]}},
{"type":"Feature","properties":{"highway":"path","name":null,"category":"Shared path"},"geometry":{"type":"MultiLineString","coordinates":[[[-2.55979,53.3900936],[-2.5596451,53.3899983]]]}},
{"type":"Feature","properties":{"highway":"path","name":null,"category":"Shared path"},"geometry":{"type":"MultiLineString","coordinates":[[[-2.5609944,53.3914336],[-2.5609237,53.3914054],[-2.5608119,53.3912772],[-2.5604749,53.3906889],[-2.5604561,53.390656],[-2.5603401,53.390511]]]}},
{"type":"Feature","properties":{"highway":"footway","name":null,"category":"Footpath (pedestrian only)"},"geometry":{"type":"MultiLineString","coordinates":[[[-2.5565987,53.3960758],[-2.5565191,53.3961349],[-2.5561775,53.3961792],[-2.5558749,53.3961919],[-2.5556484,53.3961771],[-2.555383,53.3961286],[-2.5550875,53.3960695],[-2.5549537,53.3960506],[-2.5549158,53.3960452],[-2.554819,53.396024]]]}},
{"type":"Feature","properties":{"highway":"footway","name":null,"category":"Footpath (pedestrian only)"},"geometry":{"type":"MultiLineString","coordinates":[[[-2.5546557,53.3960461],[-2.5544401,53.3960718],[-2.5541751,53.3960957],[-2.5537591,53.3961526],[-2.5533956,53.3962224],[-2.552995,53.3962831],[-2.5526808,53.396318],[-2.5523973,53.3964117],[-2.5522155,53.3964631],[-2.5520892,53.396487],[-2.5520276,53.396555],[-2.5519752,53.3966597],[-2.5518797,53.3967295],[-2.5517441,53.3967626],[-2.5515377,53.3967552],[-2.5513806,53.3967571],[-2.551205,53.3967313],[-2.5510447,53.3966964],[-2.5508814,53.3966799],[-2.5507859,53.3966762],[-2.5506904,53.3966817],[-2.5504778,53.3966468],[-2.5504193,53.3966229],[-2.5503453,53.3966413],[-2.5502776,53.3966762],[-2.5502339,53.3967005]]]}},
{"type":"Feature","properties":{"highway":"footway","name":null,"category":"Footpath (pedestrian only)"},"geometry":{"type":"MultiLineString","coordinates":[[[-2.5604749,53.3906889],[-2.5611563,53.390313],[-2.5611847,53.3901378],[-2.5611024,53.38993],[-2.5611087,53.3897516],[-2.5613944,53.3896437],[-2.5617741,53.3895194],[-2.562342,53.3894034],[-2.5628696,53.3892712],[-2.563165,53.3892569]]]}},
{"type":"Feature","properties":{"highway":"footway","name":null,"category":"Footpath (pedestrian only)"},"geometry":{"type":"MultiLineString","coordinates":[[[-2.552685,53.3942123],[-2.5526733,53.3942646],[-2.5526367,53.3943409],[-2.5526082,53.3944379],[-2.5525899,53.3945324],[-2.5525472,53.3946306],[-2.5524903,53.3947264],[-2.552411,53.3948597],[-2.5523013,53.3949858],[-2.5522098,53.3950973],[-2.5521813,53.3951155],[-2.5520167,53.3952209],[-2.5517768,53.3953324],[-2.5515268,53.3954391],[-2.5512991,53.3955336],[-2.5509881,53.3956742],[-2.5508582,53.3957421],[-2.5507747,53.3957857],[-2.5505558,53.3958612],[-2.5503844,53.3959167],[-2.550175,53.3959752],[-2.5500287,53.3960115],[-2.549613,53.3961265],[-2.5490494,53.3962823],[-2.548552,53.3963434],[-2.5481834,53.3963849],[-2.5479037,53.3963962],[-2.547378,53.3963814],[-2.5468142,53.3963597],[-2.5463303,53.3962764],[-2.5461329,53.3963639],[-2.5461099,53.3963678]]]}},
{"type":"Feature","properties":{"highway":"footway","name":null,"category":"Footpath (pedestrian only)"},"geometry":{"type":"MultiLineString","coordinates":[[[-2.5522949,53.3907901],[-2.5522299,53.3907936]]]}},
{"type":"Feature","properties":{"highway":"footway","name":null,"category":"Footpath (pedestrian only)"},"geometry":{"type":"MultiLineString","coordinates":[[[-2.5554754,53.3913045],[-2.5556687,53.3912148],[-2.5570822,53.3909115],[-2.5581216,53.3906245],[-2.558345,53.3904849]]]}},
{"type":"Feature","properties":{"highway":"footway","name":null,"category":"Footpath (pedestrian only)"},"geometry":{"type":"MultiLineString","coordinates":[[[-2.5542219,53.3901055],[-2.5545785,53.3901261],[-2.5547993,53.3902105],[-2.5548853,53.3903639],[-2.5549259,53.3905479],[-2.5548577,53.3905834],[-2.5548317,53.3906408],[-2.5548919,53.3908],[-2.5548675,53.3908402],[-2.554926,53.3908966],[-2.5549661,53.3909865],[-2.5549617,53.3910425],[-2.5550752,53.3911121],[-2.5552156,53.3911953],[-2.555283,53.3911972],[-2.5553574,53.3912901],[-2.5554754,53.3913045]]]}},
{"type":"Feature","properties":{"highway":"footway","name":null,"category":"Footpath (pedestrian only)"},"geometry":{"type":"MultiLineString","coordinates":[[[-2.5554754,53.3913045],[-2.5555219,53.3910355],[-2.5555207,53.3909276],[-2.5553398,53.3905851],[-2.5552063,53.3904566],[-2.5550875,53.3902904],[-2.5550031,53.3900048],[-2.5549992,53.3899351],[-2.5549608,53.3898643],[-2.5549803,53.3898145],[-2.5550379,53.3897305]]]}},
{"type":"Feature","properties":{"highway":"footway","name":null,"category":"Footpath (pedestrian only)"},"geometry":{"type":"MultiLineString","coordinates":[[[-2.5548057,53.389741],[-2.5549608,53.3898643]]]}},
{"type":"Feature","properties":{"highway":"footway","name":null,"category":"Footpath (pedestrian only)"},"geometry":{"type":"MultiLineString","coordinates":[[[-2.5586626,53.3907415],[-2.5578417,53.3909519],[-2.557432,53.3910503]]]}},
{"type":"Feature","properties":{"highway":"footway","name":null,"category":"Footpath (pedestrian only)"},"geometry":{"type":"MultiLineString","coordinates":[[[-2.5570822,53.3909115],[-2.557432,53.3910503]]]}},
{"type":"Feature","properties":{"highway":"footway","name":null,"category":"Footpath (pedestrian only)"},"geometry":{"type":"MultiLineString","coordinates":[[[-2.557432,53.3910503],[-2.5575361,53.3912606],[-2.5575233,53.3913673],[-2.5576271,53.3915342],[-2.5576264,53.3916662],[-2.5576715,53.3919309],[-2.5578432,53.3922791],[-2.5579226,53.3925133],[-2.5580221,53.3926965],[-2.5581532,53.3928922]]]}},
{"type":"Feature","properties":{"highway":"footway","name":null,"category":"Footpath (pedestrian only)"},"geometry":{"type":"MultiLineString","coordinates":[[[-2.5590889,53.3949368],[-2.5591336,53.3949799],[-2.5591438,53.3949965]]]}},
{"type":"Feature","properties":{"highway":"footway","name":null,"category":"Footpath (pedestrian only)"},"geometry":{"type":"MultiLineString","coordinates":[[[-2.5580574,53.3930865],[-2.5582338,53.3933257],[-2.5584858,53.3938954],[-2.5586037,53.3941039],[-2.5586693,53.3945024],[-2.5588419,53.3948556],[-2.559005,53.394947],[-2.5590889,53.3949368],[-2.5592908,53.3947981],[-2.5595144,53.3947454],[-2.5599843,53.39472]]]}},
{"type":"Feature","properties":{"highway":"footway","name":null,"category":"Footpath (pedestrian only)"},"geometry":{"type":"MultiLineString","coordinates":[[[-2.5599837,53.3949061],[-2.5599843,53.39472],[-2.560003,53.3946516],[-2.5600809,53.3944733],[-2.5600833,53.3943575],[-2.5600262,53.3940566],[-2.5598747,53.3937423],[-2.5598359,53.3932116],[-2.5598216,53.3930976],[-2.5596586,53.39301],[-2.5594804,53.3929181],[-2.5593643,53.3928537]]]}},
{"type":"Feature","properties":{"highway":"footway","name":null,"category":"Footpath (pedestrian only)"},"geometry":{"type":"MultiLineString","coordinates":[[[-2.5574111,53.3952444],[-2.55742,53.3952226],[-2.5574455,53.3952034],[-2.5575206,53.395181],[-2.5582887,53.3950928],[-2.5585502,53.3950775],[-2.5587814,53.3950566],[-2.5590429,53.3950148],[-2.5591438,53.3949965],[-2.5593908,53.3949536],[-2.5598007,53.3949267],[-2.5599837,53.3949061],[-2.5601829,53.394843],[-2.5605369,53.3947234],[-2.5604659,53.3945672],[-2.5602627,53.3941286],[-2.5601692,53.3939298],[-2.560096,53.3936122],[-2.560092,53.393445],[-2.5600838,53.3933989],[-2.560031,53.3932728],[-2.5600147,53.3930813],[-2.5599918,53.3928134],[-2.5599822,53.3926667],[-2.5599537,53.3922158],[-2.5598887,53.3919103],[-2.5597586,53.3915927],[-2.5596691,53.39144],[-2.5595472,53.3911854],[-2.5594171,53.3910351],[-2.5593276,53.3909187],[-2.5591406,53.3907442],[-2.5590268,53.3906836],[-2.5589234,53.3906315],[-2.5588967,53.3906181],[-2.5585755,53.3904411],[-2.5579169,53.390092],[-2.557547,53.3899247],[-2.5569656,53.3896798],[-2.5566322,53.389578]]]}},
{"type":"Feature","properties":{"highway":"footway","name":null,"category":"Footpath (pedestrian only)"},"geometry":{"type":"MultiLineString","coordinates":[[[-2.5507953,53.3907574],[-2.5509433,53.3909101],[-2.5513417,53.3914762],[-2.5514559,53.391791],[-2.5514402,53.3923598],[-2.5514896,53.3926354],[-2.551615,53.392889],[-2.5517301,53.3931766],[-2.5516656,53.3935443],[-2.5515568,53.393858],[-2.5513543,53.3941083],[-2.5509768,53.3944294],[-2.5505445,53.3946918],[-2.550164,53.3948515],[-2.5498028,53.3949719],[-2.549529,53.3950123],[-2.549172,53.3950221],[-2.548848,53.3949944],[-2.5485399,53.3949151],[-2.5483093,53.3947896],[-2.5481551,53.3946796],[-2.5480332,53.3945425],[-2.5479406,53.3942048],[-2.547882,53.3938677],[-2.547788,53.3935403],[-2.5473932,53.3929144],[-2.5470581,53.3925498],[-2.5466165,53.392249],[-2.5465534,53.3921994]]]}},
{"type":"Feature","properties":{"highway":"path","name":null,"category":"Shared path"},"geometry":{"type":"MultiLineString","coordinates":[[[-2.5515141,53.3863817],[-2.5517989,53.386355]]]}},
{"type":"Feature","properties":{"highway":"footway","name":null,"category":"Footpath (pedestrian only)"},"geometry":{"type":"MultiLineString","coordinates":[[[-2.5598216,53.3930976],[-2.5598585,53.3929922],[-2.5599131,53.3928724],[-2.5599918,53.3928134]]]}},
{"type":"Feature","properties":{"highway":"footway","name":null,"category":"Footpath (pedestrian only)"},"geometry":{"type":"MultiLineString","coordinates":[[[-2.5604659,53.3945672],[-2.5602859,53.3945503],[-2.5600809,53.3944733]]]}},
{"type":"Feature","properties":{"highway":"footway","name":null,"category":"Footpath (pedestrian only)"},"geometry":{"type":"MultiLineString","coordinates":[[[-2.5602859,53.3945503],[-2.560003,53.3946516]]]}},
{"type":"Feature","properties":{"highway":"footway","name":null,"category":"Footpath (pedestrian only)"},"geometry":{"type":"MultiLineString","coordinates":[[[-2.5567717,53.3934201],[-2.5567898,53.3935504],[-2.5569247,53.3938216]]]}},
{"type":"Feature","properties":{"highway":"footway","name":null,"category":"Footpath (pedestrian only)"},"geometry":{"type":"MultiLineString","coordinates":[[[-2.553929,53.3938199],[-2.5540118,53.3937407],[-2.5539959,53.3935808]]]}},
{"type":"Feature","properties":{"highway":"footway","name":null,"category":"Footpath (pedestrian only)"},"geometry":{"type":"MultiLineString","coordinates":[[[-2.553929,53.3938199],[-2.5539477,53.3937475],[-2.553943,53.3936361],[-2.5538589,53.3932267],[-2.5537982,53.3928675],[-2.5536955,53.3926002],[-2.55356,53.3924414],[-2.5534293,53.3922688],[-2.5533452,53.3921685],[-2.5531257,53.392007],[-2.5530463,53.3919401],[-2.5529901,53.391912]]]}},
{"type":"Feature","properties":{"highway":"footway","name":null,"category":"Footpath (pedestrian only)"},"geometry":{"type":"MultiLineString","coordinates":[[[-2.5531565,53.3940089],[-2.552793,53.3939916]]]}},
{"type":"Feature","properties":{"highway":"pedestrian","name":"Henshall Avenue","category":"Pedestrian area/street"},"geometry":{"type":"MultiLineString","coordinates":[[[-2.5607657,53.383924],[-2.5608512,53.3839218],[-2.5609595,53.3839189]]]}}
]
}
