{
"type": "FeatureCollection",
"name": "HALTO_92_toilets",
"crs": { "type": "name", "properties": { "name": "urn:ogc:def:crs:OGC:1.3:CRS84" } },
"features": [
{ "type": "Feature", "properties": { "name": "Unknown", "payment_info": "Cost unknown", "accessible": "False", "radar": "False", "women": "True", "men": "True", "baby_change": "True", "Mon": "09:00-21:00", "Tue": "09:00-21:00", "Wed": "09:00-21:00", "Thu": "09:00-21:00", "Fri": "Closed", "Sat": "Closed", "Sun": "Closed", "index_right": 72, "park_offical_id": "HALTO_92" }, "geometry": { "type": "Point", "coordinates": [ -2.689868443, 53.337627197 ] } }
]
}
