{
"type": "FeatureCollection",
"name": "CUMBE_988_NACH_800m",
"crs": { "type": "name", "properties": { "name": "urn:ogc:def:crs:OGC:1.3:CRS84" } },
"features": [
{ "type": "Feature", "properties": { "id": 110960, "nach": 0.21446951296206623 }, "geometry": { "type": "LineString", "coordinates": [ [ -2.8871603, 54.8994175 ], [ -2.925867967849239, 54.930251057454456 ] ] } },
{ "type": "Feature", "properties": { "id": 130642, "nach": 0.37382050245013032 }, "geometry": { "type": "LineString", "coordinates": [ [ -2.8954706, 54.9181369 ], [ -2.8953974, 54.9178985 ], [ -2.89540150000001, 54.91784710000001 ] ] } },
{ "type": "Feature", "properties": { "id": 130645, "nach": 0.35236158455604033 }, "geometry": { "type": "LineString", "coordinates": [ [ -2.8969421, 54.9166165 ], [ -2.8954828, 54.9177326 ], [ -2.89543, 54.917791 ], [ -2.89540150000001, 54.91784710000001 ] ] } },
{ "type": "Feature", "properties": { "id": 139856, "nach": 0.35643150368637627 }, "geometry": { "type": "LineString", "coordinates": [ [ -2.8943963, 54.91731020000001 ], [ -2.8944233, 54.9173386 ], [ -2.8945065, 54.917372 ], [ -2.8946535, 54.9173938 ], [ -2.8948893, 54.9174803 ], [ -2.8950722, 54.9175994 ], [ -2.8952592, 54.917756 ], [ -2.89540150000001, 54.91784710000001 ] ] } },
{ "type": "Feature", "properties": { "id": 130641, "nach": 0.33624132512190802 }, "geometry": { "type": "LineString", "coordinates": [ [ -2.8954706, 54.9181369 ], [ -2.8964654, 54.9195819 ], [ -2.8964654, 54.92005 ], [ -2.8956262, 54.9205081 ], [ -2.8954861, 54.920626199999987 ], [ -2.8954349, 54.9207473 ], [ -2.8955532, 54.922314900000011 ], [ -2.895604, 54.922558 ] ] } },
{ "type": "Feature", "properties": { "id": 130643, "nach": 0.34645481557268859 }, "geometry": { "type": "LineString", "coordinates": [ [ -2.8954706, 54.9181369 ], [ -2.8952969, 54.918157 ], [ -2.8950042, 54.9182458 ], [ -2.8948579, 54.9183486 ], [ -2.8947603, 54.9185963 ], [ -2.8946465, 54.9187411 ] ] } },
{ "type": "Feature", "properties": { "id": 139863, "nach": 0.35333979199636301 }, "geometry": { "type": "LineString", "coordinates": [ [ -2.897674, 54.9159558 ], [ -2.8969421, 54.9166165 ] ] } },
{ "type": "Feature", "properties": { "id": 143204, "nach": 0.24947774159458422 }, "geometry": { "type": "LineString", "coordinates": [ [ -2.901035, 54.9170061 ], [ -2.9009953, 54.917002 ], [ -2.9009303, 54.91700560000001 ], [ -2.9007168, 54.9170262 ], [ -2.900589, 54.9170339 ], [ -2.8995652, 54.9170412 ], [ -2.898983, 54.9170497 ], [ -2.8988238, 54.917049 ], [ -2.8986355, 54.9170246 ], [ -2.898039, 54.9168945 ], [ -2.897672, 54.9168121 ], [ -2.8970805, 54.9166632 ], [ -2.8970203, 54.916644400000017 ], [ -2.8969421, 54.9166165 ] ] } },
{ "type": "Feature", "properties": { "id": 130626, "nach": 0.34953702395502007 }, "geometry": { "type": "LineString", "coordinates": [ [ -2.8899962, 54.9241172 ], [ -2.8887578, 54.9244229 ] ] } },
{ "type": "Feature", "properties": { "id": 113196, "nach": 0.33428696689320764 }, "geometry": { "type": "LineString", "coordinates": [ [ -2.8886561, 54.924342499999987 ], [ -2.8887578, 54.9244229 ] ] } },
{ "type": "Feature", "properties": { "id": 130624, "nach": 0.26161806508718111 }, "geometry": { "type": "LineString", "coordinates": [ [ -2.8847304, 54.9256716 ], [ -2.8861563, 54.925129800000015 ], [ -2.8863688, 54.9250616 ], [ -2.8887578, 54.9244229 ] ] } },
{ "type": "Feature", "properties": { "id": 130627, "nach": 0.34775885631550774 }, "geometry": { "type": "LineString", "coordinates": [ [ -2.8899962, 54.9241172 ], [ -2.8920585, 54.9236082 ], [ -2.8936961, 54.9232005 ], [ -2.8944187, 54.9230714 ] ] } },
{ "type": "Feature", "properties": { "id": 130629, "nach": 0.26861806233985519 }, "geometry": { "type": "LineString", "coordinates": [ [ -2.89000580000001, 54.9245661 ], [ -2.8901277, 54.9243278 ], [ -2.8899962, 54.9241172 ] ] } },
{ "type": "Feature", "properties": { "id": 113197, "nach": 0.34341659091806481 }, "geometry": { "type": "LineString", "coordinates": [ [ -2.8886561, 54.924342499999987 ], [ -2.888119, 54.92399480000001 ], [ -2.88790440000001, 54.9238624 ], [ -2.8878362, 54.9238005 ], [ -2.8877467, 54.923705800000015 ], [ -2.8875657, 54.9234773 ], [ -2.8872536, 54.9230828 ], [ -2.8869197, 54.9226047 ], [ -2.8868586, 54.9225526 ], [ -2.8864206, 54.9222873 ] ] } },
{ "type": "Feature", "properties": { "id": 149868, "nach": 0.31930228395738958 }, "geometry": { "type": "LineString", "coordinates": [ [ -2.8871895, 54.9247982 ], [ -2.8878603, 54.924620799999985 ], [ -2.8884675, 54.9244803 ], [ -2.8885358, 54.924436700000015 ], [ -2.8885582, 54.9244046 ], [ -2.8886561, 54.924342499999987 ] ] } },
{ "type": "Feature", "properties": { "id": 113200, "nach": 0.24721661526975738 }, "geometry": { "type": "LineString", "coordinates": [ [ -2.8944365, 54.9229118 ], [ -2.8941611, 54.9229878 ], [ -2.893659, 54.9231404 ], [ -2.8927004, 54.9233795 ], [ -2.8920341, 54.9235588 ], [ -2.8908823, 54.9238416 ], [ -2.8896634, 54.9241451 ], [ -2.8890165, 54.9242963 ], [ -2.8888718, 54.9243164 ], [ -2.8887834, 54.9243147 ], [ -2.8887217, 54.9243199 ], [ -2.8886561, 54.924342499999987 ] ] } },
{ "type": "Feature", "properties": { "id": 124795, "nach": 0.33301704462462822 }, "geometry": { "type": "LineString", "coordinates": [ [ -2.8971454, 54.922335799999985 ], [ -2.896528500000011, 54.922557500000011 ] ] } },
{ "type": "Feature", "properties": { "id": 111332, "nach": 0.28755732765373448 }, "geometry": { "type": "LineString", "coordinates": [ [ -2.896528500000011, 54.922557500000011 ], [ -2.8962371, 54.9227249 ], [ -2.89607640000001, 54.9228254 ] ] } },
{ "type": "Feature", "properties": { "id": 112827, "nach": 0.30922752405394682 }, "geometry": { "type": "LineString", "coordinates": [ [ -2.8959198, 54.9226891 ], [ -2.8961814, 54.922647 ], [ -2.896528500000011, 54.922557500000011 ] ] } },
{ "type": "Feature", "properties": { "id": 124796, "nach": 0.33993656594868121 }, "geometry": { "type": "LineString", "coordinates": [ [ -2.8971454, 54.922335799999985 ], [ -2.897763, 54.9221511 ], [ -2.89831110000001, 54.9220154 ], [ -2.8999521, 54.9216385 ], [ -2.9021209, 54.9211576 ] ] } },
{ "type": "Feature", "properties": { "id": 124797, "nach": 0.25418363928201937 }, "geometry": { "type": "LineString", "coordinates": [ [ -2.8971454, 54.922335799999985 ], [ -2.8970976, 54.9222733 ], [ -2.895677, 54.9225991 ] ] } },
{ "type": "Feature", "properties": { "id": 112826, "nach": 0.27675391882682104 }, "geometry": { "type": "LineString", "coordinates": [ [ -2.8959198, 54.9226891 ], [ -2.8959952, 54.9227248 ], [ -2.896049, 54.9227716 ], [ -2.89607640000001, 54.9228254 ] ] } },
{ "type": "Feature", "properties": { "id": 112833, "nach": 0.31729674680861775 }, "geometry": { "type": "LineString", "coordinates": [ [ -2.89607640000001, 54.9228254 ], [ -2.8960781, 54.9228681 ], [ -2.8960631, 54.922909899999986 ] ] } },
{ "type": "Feature", "properties": { "id": 139896, "nach": 0.31740399961814725 }, "geometry": { "type": "LineString", "coordinates": [ [ -2.8883285, 54.9208619 ], [ -2.8882232, 54.9208299 ], [ -2.8880738, 54.920797699999987 ], [ -2.8879057, 54.9208434 ], [ -2.8878123, 54.9208944 ], [ -2.887145, 54.9213542 ] ] } },
{ "type": "Feature", "properties": { "id": 139113, "nach": 0.25337418062467909 }, "geometry": { "type": "LineString", "coordinates": [ [ -2.8879736, 54.9214551 ], [ -2.8877809, 54.9214825 ], [ -2.887627, 54.921505 ], [ -2.8875719, 54.921505 ], [ -2.8875099, 54.9214971 ], [ -2.8874295, 54.9214733 ], [ -2.887372, 54.9214495 ], [ -2.887145, 54.9213542 ] ] } },
{ "type": "Feature", "properties": { "id": 154835, "nach": 0.3415897113388322 }, "geometry": { "type": "LineString", "coordinates": [ [ -2.9025462, 54.9210568 ], [ -2.9021209, 54.9211576 ] ] } },
{ "type": "Feature", "properties": { "id": 144368, "nach": 0.16001536505752662 }, "geometry": { "type": "LineString", "coordinates": [ [ -2.908113, 54.924609100000012 ], [ -2.9071857, 54.924308 ], [ -2.90461470000001, 54.9234618 ], [ -2.9039143, 54.923219299999978 ], [ -2.9035879, 54.9229586 ], [ -2.9021209, 54.9211576 ] ] } },
{ "type": "Feature", "properties": { "id": 154836, "nach": 0.33505735687646859 }, "geometry": { "type": "LineString", "coordinates": [ [ -2.9025462, 54.9210568 ], [ -2.9036493, 54.9207952 ], [ -2.9039547, 54.9206892 ] ] } },
{ "type": "Feature", "properties": { "id": 154837, "nach": 0.25212450681645898 }, "geometry": { "type": "LineString", "coordinates": [ [ -2.9025462, 54.9210568 ], [ -2.9024801, 54.9209518 ], [ -2.9023218, 54.9208315 ], [ -2.9020388, 54.92063730000001 ], [ -2.9014675, 54.9202149 ], [ -2.9014058, 54.9201471 ], [ -2.9013844, 54.9200908 ] ] } },
{ "type": "Feature", "properties": { "id": 144367, "nach": 0.25232396459100537 }, "geometry": { "type": "LineString", "coordinates": [ [ -2.908113, 54.924609100000012 ], [ -2.9096929, 54.9251222 ], [ -2.9102342, 54.9256482 ], [ -2.9117864, 54.9259933 ] ] } },
{ "type": "Feature", "properties": { "id": 144370, "nach": 0.20080119532247787 }, "geometry": { "type": "LineString", "coordinates": [ [ -2.9091395, 54.9261729 ], [ -2.909283, 54.9260565 ], [ -2.9093791, 54.92591980000001 ], [ -2.909425, 54.9257905 ], [ -2.9094163, 54.9256612 ], [ -2.9092897, 54.9252773 ], [ -2.9091949, 54.9251972 ], [ -2.9090647, 54.9251238 ], [ -2.9087694, 54.9250107 ], [ -2.908453, 54.9248975 ], [ -2.9081738, 54.9247452 ], [ -2.908134, 54.924676599999984 ], [ -2.908113, 54.924609100000012 ] ] } },
{ "type": "Feature", "properties": { "id": 114914, "nach": 0.19003136020235356 }, "geometry": { "type": "LineString", "coordinates": [ [ -2.915168, 54.9302784 ], [ -2.9161802, 54.9306115 ], [ -2.9173261, 54.930912200000016 ], [ -2.9180703, 54.9310387 ], [ -2.9189322, 54.9311644 ], [ -2.919689, 54.9311749 ], [ -2.9203721, 54.931173 ], [ -2.9218316, 54.9311084 ], [ -2.9227718, 54.931086 ], [ -2.9233717, 54.9310872 ], [ -2.9240905, 54.93113420000001 ] ] } },
{ "type": "Feature", "properties": { "id": 125324, "nach": 0.28669086850734915 }, "geometry": { "type": "LineString", "coordinates": [ [ -2.9170762, 54.9297659 ], [ -2.916886, 54.929796 ], [ -2.916058, 54.929827 ], [ -2.915672, 54.9298546 ], [ -2.9155559, 54.9299021 ], [ -2.915168, 54.9302784 ] ] } },
{ "type": "Feature", "properties": { "id": 121928, "nach": 0.26937692121737056 }, "geometry": { "type": "LineString", "coordinates": [ [ -2.9086479, 54.9281796 ], [ -2.9101657, 54.9286717 ], [ -2.9121733, 54.9293542 ], [ -2.9139152, 54.9298627 ], [ -2.9142963, 54.9299896 ], [ -2.9148038, 54.9301586 ], [ -2.915168, 54.9302784 ] ] } },
{ "type": "Feature", "properties": { "id": 112825, "nach": 0.34645589094157214 }, "geometry": { "type": "LineString", "coordinates": [ [ -2.8954387, 54.922792200000018 ], [ -2.8954658, 54.9227572 ], [ -2.89550460000001, 54.9227261 ] ] } },
{ "type": "Feature", "properties": { "id": 112828, "nach": 0.24947622348852666 }, "geometry": { "type": "LineString", "coordinates": [ [ -2.8955197, 54.9229852 ], [ -2.8954647, 54.922943800000013 ], [ -2.8954315, 54.9228953 ], [ -2.8954226, 54.9228435 ], [ -2.8954387, 54.922792200000018 ] ] } },
{ "type": "Feature", "properties": { "id": 124799, "nach": 0.32948996512258966 }, "geometry": { "type": "LineString", "coordinates": [ [ -2.8949254, 54.922981 ], [ -2.8951958, 54.922897300000017 ], [ -2.8954387, 54.922792200000018 ] ] } },
{ "type": "Feature", "properties": { "id": 112830, "nach": 0.31250538260330363 }, "geometry": { "type": "LineString", "coordinates": [ [ -2.89550460000001, 54.9227261 ], [ -2.8955831, 54.9226887 ], [ -2.8956779, 54.9226669 ], [ -2.8957797, 54.9226629 ] ] } },
{ "type": "Feature", "properties": { "id": 112831, "nach": 0.29768146798813305 }, "geometry": { "type": "LineString", "coordinates": [ [ -2.89550460000001, 54.9227261 ], [ -2.8955601, 54.9226538 ], [ -2.895604, 54.922558 ] ] } },
{ "type": "Feature", "properties": { "id": 112832, "nach": 0.34321623769479354 }, "geometry": { "type": "LineString", "coordinates": [ [ -2.8957797, 54.9226629 ], [ -2.8958523, 54.9226714 ], [ -2.8959198, 54.9226891 ] ] } },
{ "type": "Feature", "properties": { "id": 112829, "nach": 0.30057376610550263 }, "geometry": { "type": "LineString", "coordinates": [ [ -2.8955197, 54.9229852 ], [ -2.8952322, 54.922975 ], [ -2.8949254, 54.922981 ] ] } },
{ "type": "Feature", "properties": { "id": 112836, "nach": 0.31325780598083763 }, "geometry": { "type": "LineString", "coordinates": [ [ -2.89582860000001, 54.9230345 ], [ -2.8957178, 54.9230389 ], [ -2.8956107, 54.9230218 ], [ -2.8955197, 54.9229852 ] ] } },
{ "type": "Feature", "properties": { "id": 124800, "nach": 0.35442648388972348 }, "geometry": { "type": "LineString", "coordinates": [ [ -2.8944187, 54.9230714 ], [ -2.8949254, 54.922981 ] ] } },
{ "type": "Feature", "properties": { "id": 112842, "nach": 0.29883307195010922 }, "geometry": { "type": "LineString", "coordinates": [ [ -2.895677, 54.9225991 ], [ -2.8957797, 54.9226629 ] ] } },
{ "type": "Feature", "properties": { "id": 112837, "nach": 0.33046808124749971 }, "geometry": { "type": "LineString", "coordinates": [ [ -2.895604, 54.922558 ], [ -2.895677, 54.9225991 ] ] } },
{ "type": "Feature", "properties": { "id": 113201, "nach": 0.26374245431802484 }, "geometry": { "type": "LineString", "coordinates": [ [ -2.8944365, 54.9229118 ], [ -2.8948577, 54.9228219 ], [ -2.8953544, 54.9226689 ], [ -2.895604, 54.922558 ] ] } },
{ "type": "Feature", "properties": { "id": 112834, "nach": 0.27958176095168236 }, "geometry": { "type": "LineString", "coordinates": [ [ -2.8960631, 54.922909899999986 ], [ -2.8960114, 54.9229661 ], [ -2.8959302, 54.9230093 ], [ -2.89582860000001, 54.9230345 ] ] } },
{ "type": "Feature", "properties": { "id": 112835, "nach": 0.25609794162362604 }, "geometry": { "type": "LineString", "coordinates": [ [ -2.8960631, 54.922909899999986 ], [ -2.8961863, 54.9230946 ], [ -2.8963456, 54.9232472 ] ] } },
{ "type": "Feature", "properties": { "id": 112841, "nach": 0.24244243190915957 }, "geometry": { "type": "LineString", "coordinates": [ [ -2.8963456, 54.9232472 ], [ -2.8961084, 54.9231475 ], [ -2.89582860000001, 54.9230345 ] ] } },
{ "type": "Feature", "properties": { "id": 124956, "nach": 0.23722455710904902 }, "geometry": { "type": "LineString", "coordinates": [ [ -2.8984896, 54.9244604 ], [ -2.8975574, 54.923978199999986 ], [ -2.8969978, 54.9236714 ], [ -2.8963456, 54.9232472 ] ] } },
{ "type": "Feature", "properties": { "id": 124802, "nach": 0.20521752398844406 }, "geometry": { "type": "LineString", "coordinates": [ [ -2.8944187, 54.9230714 ], [ -2.8943908, 54.9229657 ], [ -2.8944365, 54.9229118 ] ] } },
{ "type": "Feature", "properties": { "id": 124955, "nach": 0.10033598528755731 }, "geometry": { "type": "LineString", "coordinates": [ [ -2.8984896, 54.9244604 ], [ -2.8990937, 54.9247728 ], [ -2.9007677, 54.925479 ], [ -2.9014915, 54.9257838 ], [ -2.9023969, 54.926141200000011 ], [ -2.9043941, 54.926803300000024 ], [ -2.9057505, 54.9272275 ], [ -2.9069077, 54.9276117 ] ] } },
{ "type": "Feature", "properties": { "id": 124958, "nach": 0.0 }, "geometry": { "type": "LineString", "coordinates": [ [ -2.8911889, 54.9304744 ], [ -2.8915458, 54.9303363 ], [ -2.8920465, 54.93007140000001 ], [ -2.8922771, 54.9299247 ], [ -2.8926489, 54.9295757 ], [ -2.8928844, 54.9293877 ], [ -2.8929612, 54.9293279 ], [ -2.893271, 54.9288963 ], [ -2.8935735, 54.9283508 ], [ -2.8937048, 54.92817 ], [ -2.8938189, 54.9280831 ], [ -2.8942477, 54.9278894 ], [ -2.8945749, 54.9277654 ], [ -2.8950235, 54.9276629 ], [ -2.8952962, 54.9275817 ], [ -2.8957226, 54.9273923 ], [ -2.8960374, 54.9272413 ], [ -2.8968058, 54.9268168 ], [ -2.8974503, 54.9264522 ], [ -2.8976684, 54.9263012 ], [ -2.8978246, 54.926154500000017 ], [ -2.8983253, 54.9255634 ], [ -2.8984517, 54.9253782 ], [ -2.8984963, 54.92524 ], [ -2.8984988, 54.9250819 ], [ -2.8983253, 54.92478280000001 ], [ -2.8982658, 54.9246204 ], [ -2.8983005, 54.9245706 ], [ -2.8984896, 54.9244604 ] ] } },
{ "type": "Feature", "properties": { "id": 135062, "nach": 0.28563699843245516 }, "geometry": { "type": "LineString", "coordinates": [ [ -2.9189301, 54.9182324 ], [ -2.917538, 54.918789 ], [ -2.9158509, 54.9193147 ] ] } },
{ "type": "Feature", "properties": { "id": 149869, "nach": 0.2749420571704187 }, "geometry": { "type": "LineString", "coordinates": [ [ -2.8871895, 54.9247982 ], [ -2.8867954, 54.9249024 ], [ -2.8858568, 54.9251551 ], [ -2.8847738, 54.925563 ], [ -2.884649, 54.9256112 ] ] } },
{ "type": "Feature", "properties": { "id": 149871, "nach": 0.2652160989916949 }, "geometry": { "type": "LineString", "coordinates": [ [ -2.8855797, 54.9251706 ], [ -2.885857, 54.9250946 ], [ -2.8863056, 54.9249839 ], [ -2.8868949, 54.9248412 ], [ -2.8871895, 54.9247982 ] ] } },
{ "type": "Feature", "properties": { "id": 125323, "nach": 0.2755664180374045 }, "geometry": { "type": "LineString", "coordinates": [ [ -2.9170762, 54.9297659 ], [ -2.9179291, 54.929630500000016 ] ] } },
{ "type": "Feature", "properties": { "id": 125332, "nach": 0.24990411845761515 }, "geometry": { "type": "LineString", "coordinates": [ [ -2.9172011, 54.9299718 ], [ -2.9171319, 54.9298572 ], [ -2.9170762, 54.9297659 ] ] } },
{ "type": "Feature", "properties": { "id": 121930, "nach": 0.26033781649934257 }, "geometry": { "type": "LineString", "coordinates": [ [ -2.9086479, 54.9281796 ], [ -2.9087399, 54.9280901 ], [ -2.9091328, 54.9278319 ], [ -2.909922, 54.92747390000001 ], [ -2.9101485, 54.927335699999986 ] ] } },
{ "type": "Feature", "properties": { "id": 121929, "nach": 0.14954947821268366 }, "geometry": { "type": "LineString", "coordinates": [ [ -2.9086479, 54.9281796 ], [ -2.9082041, 54.928030599999985 ], [ -2.9069077, 54.9276117 ] ] } },
{ "type": "Feature", "properties": { "id": 124959, "nach": 0.068515152611225844 }, "geometry": { "type": "LineString", "coordinates": [ [ -2.9043383, 54.9335934 ], [ -2.9043087, 54.9329383 ], [ -2.904264, 54.9320836 ], [ -2.9042576, 54.9318561 ], [ -2.9042874, 54.9317436 ], [ -2.9043364, 54.931658 ], [ -2.9047684, 54.9312985 ], [ -2.905509, 54.930725 ], [ -2.9062177, 54.9301638 ], [ -2.906952, 54.9295719 ], [ -2.9075415, 54.9290815 ], [ -2.9081417, 54.928615599999986 ], [ -2.9086479, 54.9281796 ] ] } },
{ "type": "Feature", "properties": { "id": 114920, "nach": 0.23728199828292659 }, "geometry": { "type": "LineString", "coordinates": [ [ -2.9182092, 54.9297037 ], [ -2.9179291, 54.929630500000016 ] ] } },
{ "type": "Feature", "properties": { "id": 125336, "nach": 0.24508383539123563 }, "geometry": { "type": "LineString", "coordinates": [ [ -2.9183687, 54.929387100000014 ], [ -2.9182182, 54.9293762 ], [ -2.9181163, 54.9294101 ], [ -2.9179859, 54.929580100000017 ], [ -2.9179291, 54.929630500000016 ] ] } },
{ "type": "Feature", "properties": { "id": 125348, "nach": 0.26197428369505221 }, "geometry": { "type": "LineString", "coordinates": [ [ -2.9184785, 54.9298492 ], [ -2.9182092, 54.9297037 ] ] } },
{ "type": "Feature", "properties": { "id": 125334, "nach": 0.22161673282789196 }, "geometry": { "type": "LineString", "coordinates": [ [ -2.9172011, 54.9299718 ], [ -2.918104, 54.929762 ], [ -2.9182092, 54.9297037 ] ] } },
{ "type": "Feature", "properties": { "id": 125337, "nach": 0.23993831450128345 }, "geometry": { "type": "LineString", "coordinates": [ [ -2.9183687, 54.929387100000014 ], [ -2.9183335, 54.929577 ], [ -2.9183255, 54.9296536 ], [ -2.9182977, 54.9297011 ], [ -2.9182092, 54.9297037 ] ] } },
{ "type": "Feature", "properties": { "id": 125338, "nach": 0.27223939415070375 }, "geometry": { "type": "LineString", "coordinates": [ [ -2.9186262, 54.9294058 ], [ -2.9183687, 54.929387100000014 ] ] } },
{ "type": "Feature", "properties": { "id": 125349, "nach": 0.28227813123222106 }, "geometry": { "type": "LineString", "coordinates": [ [ -2.9184785, 54.9298492 ], [ -2.9185686, 54.9298979 ], [ -2.9187029, 54.9299579 ] ] } },
{ "type": "Feature", "properties": { "id": 125350, "nach": 0.20534783269571819 }, "geometry": { "type": "LineString", "coordinates": [ [ -2.9184785, 54.9298492 ], [ -2.9178411, 54.9299993 ], [ -2.9173374, 54.9301339 ] ] } },
{ "type": "Feature", "properties": { "id": 125351, "nach": 0.19531381887714269 }, "geometry": { "type": "LineString", "coordinates": [ [ -2.9184785, 54.9298492 ], [ -2.9185331, 54.9297959 ], [ -2.9186262, 54.9294058 ] ] } },
{ "type": "Feature", "properties": { "id": 125333, "nach": 0.25825544539562112 }, "geometry": { "type": "LineString", "coordinates": [ [ -2.9172011, 54.9299718 ], [ -2.9172239, 54.9300096 ], [ -2.9172811, 54.9300859 ], [ -2.9173374, 54.9301339 ] ] } },
{ "type": "Feature", "properties": { "id": 114928, "nach": 0.17644492174019172 }, "geometry": { "type": "LineString", "coordinates": [ [ -2.9174989, 54.9302716 ], [ -2.9187029, 54.9299579 ] ] } },
{ "type": "Feature", "properties": { "id": 125342, "nach": 0.28851020058442123 }, "geometry": { "type": "LineString", "coordinates": [ [ -2.91883860000001, 54.9299731 ], [ -2.9187029, 54.9299579 ] ] } },
{ "type": "Feature", "properties": { "id": 125320, "nach": 0.26008610493753986 }, "geometry": { "type": "LineString", "coordinates": [ [ -2.9173374, 54.9301339 ], [ -2.9174989, 54.9302716 ] ] } },
{ "type": "Feature", "properties": { "id": 125352, "nach": 0.24956594461873263 }, "geometry": { "type": "LineString", "coordinates": [ [ -2.9176694, 54.9303819 ], [ -2.9174989, 54.9302716 ] ] } },
{ "type": "Feature", "properties": { "id": 125341, "nach": 0.16857514347242672 }, "geometry": { "type": "LineString", "coordinates": [ [ -2.91883860000001, 54.9299731 ], [ -2.9189325, 54.929428 ] ] } },
{ "type": "Feature", "properties": { "id": 125353, "nach": 0.20961292495888997 }, "geometry": { "type": "LineString", "coordinates": [ [ -2.9176694, 54.9303819 ], [ -2.9177499, 54.9304339 ], [ -2.9181233, 54.9305142 ] ] } },
{ "type": "Feature", "properties": { "id": 125354, "nach": 0.18952040704198861 }, "geometry": { "type": "LineString", "coordinates": [ [ -2.9176694, 54.9303819 ], [ -2.9182595, 54.9302274 ], [ -2.9188177, 54.930094599999983 ] ] } },
{ "type": "Feature", "properties": { "id": 141412, "nach": 0.26056681348975308 }, "geometry": { "type": "LineString", "coordinates": [ [ -2.91734, 54.9275212 ], [ -2.9174728, 54.9275503 ], [ -2.9177112, 54.9276038 ], [ -2.9196418, 54.9282027 ], [ -2.9201424, 54.9283331 ], [ -2.920391, 54.9283712 ], [ -2.9207988, 54.9284337 ], [ -2.9216297, 54.9285416 ], [ -2.9219977, 54.9286189 ], [ -2.9224507, 54.9286798 ], [ -2.9233054, 54.928820599999987 ], [ -2.9240858, 54.928943 ], [ -2.9245391, 54.9290418 ] ] } },
{ "type": "Feature", "properties": { "id": 127773, "nach": 0.31613986275618988 }, "geometry": { "type": "LineString", "coordinates": [ [ -2.9103047, 54.9181301 ], [ -2.9112898, 54.9175789 ], [ -2.91208240000001, 54.9171186 ] ] } },
{ "type": "Feature", "properties": { "id": 150054, "nach": 0.27382902795732161 }, "geometry": { "type": "LineString", "coordinates": [ [ -2.9140123, 54.9190771 ], [ -2.9146464, 54.9188766 ], [ -2.9148865, 54.918804 ], [ -2.9148739, 54.9187386 ], [ -2.9146831, 54.9186234 ], [ -2.9142701, 54.918401800000012 ], [ -2.9129211, 54.9176067 ] ] } },
{ "type": "Feature", "properties": { "id": 140618, "nach": 0.37821142705539323 }, "geometry": { "type": "LineString", "coordinates": [ [ -2.909508, 54.9185758 ], [ -2.9103047, 54.9181301 ] ] } },
{ "type": "Feature", "properties": { "id": 127774, "nach": 0.38771705129978484 }, "geometry": { "type": "LineString", "coordinates": [ [ -2.9109418, 54.918537 ], [ -2.9103047, 54.9181301 ] ] } },
{ "type": "Feature", "properties": { "id": 150057, "nach": 0.27815713942124992 }, "geometry": { "type": "LineString", "coordinates": [ [ -2.913323, 54.919295 ], [ -2.9140123, 54.9190771 ] ] } },
{ "type": "Feature", "properties": { "id": 150059, "nach": 0.30552297922281757 }, "geometry": { "type": "LineString", "coordinates": [ [ -2.9149799, 54.9210208 ], [ -2.9155768, 54.9208281 ], [ -2.9156318, 54.9207838 ], [ -2.9156291, 54.9207316 ], [ -2.9147049, 54.9197974 ], [ -2.9140723, 54.9191319 ], [ -2.9140123, 54.9190771 ] ] } },
{ "type": "Feature", "properties": { "id": 121916, "nach": 0.31864891228614395 }, "geometry": { "type": "LineString", "coordinates": [ [ -2.9111914, 54.9268166 ], [ -2.9113441, 54.9266053 ], [ -2.9117864, 54.9259933 ] ] } },
{ "type": "Feature", "properties": { "id": 141413, "nach": 0.36045340462062753 }, "geometry": { "type": "LineString", "coordinates": [ [ -2.9117864, 54.9259933 ], [ -2.917183093443898, 54.927654102225738 ] ] } },
{ "type": "Feature", "properties": { "id": 141411, "nach": 0.24541456086467003 }, "geometry": { "type": "LineString", "coordinates": [ [ -2.91734, 54.9275212 ], [ -2.9167419, 54.9271421 ] ] } },
{ "type": "Feature", "properties": { "id": 141413, "nach": 0.36045340462062753 }, "geometry": { "type": "LineString", "coordinates": [ [ -2.916993353699557, 54.927752936191169 ], [ -2.91734, 54.9275212 ] ] } },
{ "type": "Feature", "properties": { "id": 144027, "nach": 0.32564001746362625 }, "geometry": { "type": "LineString", "coordinates": [ [ -2.9109429, 54.9269877 ], [ -2.9111914, 54.9268166 ] ] } },
{ "type": "Feature", "properties": { "id": 121926, "nach": 0.23164778713230413 }, "geometry": { "type": "LineString", "coordinates": [ [ -2.911241, 54.9273434 ], [ -2.9114408, 54.927219300000012 ], [ -2.9114678, 54.9270983 ], [ -2.9113598, 54.9269773 ], [ -2.9111914, 54.9268166 ] ] } },
{ "type": "Feature", "properties": { "id": 144026, "nach": 0.32273834370389132 }, "geometry": { "type": "LineString", "coordinates": [ [ -2.9109429, 54.9269877 ], [ -2.9102157, 54.92730310000001 ] ] } },
{ "type": "Feature", "properties": { "id": 144031, "nach": 0.29250825413045184 }, "geometry": { "type": "LineString", "coordinates": [ [ -2.9107075, 54.9268004 ], [ -2.9108521, 54.9269175 ], [ -2.9109429, 54.9269877 ] ] } },
{ "type": "Feature", "properties": { "id": 121921, "nach": 0.31442968716059916 }, "geometry": { "type": "LineString", "coordinates": [ [ -2.9101485, 54.927335699999986 ], [ -2.9102157, 54.92730310000001 ] ] } },
{ "type": "Feature", "properties": { "id": 121927, "nach": 0.22832498160440715 }, "geometry": { "type": "LineString", "coordinates": [ [ -2.9106146, 54.9264839 ], [ -2.9102959, 54.9265863 ], [ -2.9100475, 54.9266856 ], [ -2.9099773, 54.9268004 ], [ -2.9100105, 54.9269981 ], [ -2.9102157, 54.92730310000001 ] ] } },
{ "type": "Feature", "properties": { "id": 144363, "nach": 0.28388518383457029 }, "geometry": { "type": "LineString", "coordinates": [ [ -2.9096332, 54.9273571 ], [ -2.9101485, 54.927335699999986 ] ] } },
{ "type": "Feature", "properties": { "id": 144364, "nach": 0.20991951329427674 }, "geometry": { "type": "LineString", "coordinates": [ [ -2.9096332, 54.9273571 ], [ -2.9080245, 54.9273713 ], [ -2.9072005, 54.9274777 ], [ -2.9070095, 54.9275346 ], [ -2.9069077, 54.9276117 ] ] } },
{ "type": "Feature", "properties": { "id": 144366, "nach": 0.22500644955065205 }, "geometry": { "type": "LineString", "coordinates": [ [ -2.9097652, 54.9266558 ], [ -2.9096994, 54.9266558 ], [ -2.9096808, 54.9266632 ], [ -2.909677700000011, 54.9266886 ], [ -2.9096564, 54.927009 ], [ -2.9096332, 54.9273571 ] ] } },
{ "type": "Feature", "properties": { "id": 124962, "nach": 0.0 }, "geometry": { "type": "LineString", "coordinates": [ [ -2.8973065, 54.9387761 ], [ -2.8967306, 54.9386116 ], [ -2.8951074, 54.937971100000013 ], [ -2.89321, 54.9371996 ], [ -2.8915838, 54.9365538 ], [ -2.8915283, 54.9365166 ], [ -2.8915314, 54.9364547 ], [ -2.8915869, 54.9364016 ], [ -2.8929328, 54.9360247 ], [ -2.8951844, 54.9354213 ], [ -2.897442, 54.934828499999988 ], [ -2.8999307, 54.934163199999986 ], [ -2.9004297, 54.9340659 ], [ -2.9023855, 54.9338287 ], [ -2.9039933, 54.9336624 ], [ -2.9043383, 54.9335934 ] ] } },
{ "type": "Feature", "properties": { "id": 139926, "nach": 0.06848395589986081 }, "geometry": { "type": "LineString", "coordinates": [ [ -2.9071739, 54.9339619 ], [ -2.9063199, 54.9340451 ], [ -2.9062402, 54.9340315 ], [ -2.9062136, 54.934001 ], [ -2.906252, 54.93395 ], [ -2.9063997, 54.9338312 ], [ -2.9064529, 54.9337565 ], [ -2.9063909, 54.9336682 ], [ -2.9062106, 54.9335952 ], [ -2.9059553, 54.9335492 ], [ -2.9047387, 54.9335952 ], [ -2.9043383, 54.9335934 ] ] } },
{ "type": "Feature", "properties": { "id": 153024, "nach": 0.39869048242092425 }, "geometry": { "type": "LineString", "coordinates": [ [ -2.9182889, 54.9221513 ], [ -2.9185029, 54.921951 ], [ -2.9189254, 54.921806 ], [ -2.9190035, 54.9217666 ], [ -2.9190613, 54.9217174 ], [ -2.9191778, 54.9215442 ], [ -2.919282, 54.921481200000017 ] ] } },
{ "type": "Feature", "properties": { "id": 153027, "nach": 0.39679172986847172 }, "geometry": { "type": "LineString", "coordinates": [ [ -2.9178183, 54.9221688 ], [ -2.9179657, 54.9221291 ], [ -2.9181136, 54.9221105 ], [ -2.91821680000001, 54.9221193 ], [ -2.9182889, 54.9221513 ] ] } },
{ "type": "Feature", "properties": { "id": 123026, "nach": 0.40015766390236918 }, "geometry": { "type": "LineString", "coordinates": [ [ -2.9179995, 54.9226864 ], [ -2.9178666, 54.922555699999982 ] ] } },
{ "type": "Feature", "properties": { "id": 153018, "nach": 0.42980947088345089 }, "geometry": { "type": "LineString", "coordinates": [ [ -2.9180829, 54.9223354 ], [ -2.9178584, 54.9224664 ], [ -2.9178666, 54.922555699999982 ] ] } },
{ "type": "Feature", "properties": { "id": 153031, "nach": 0.37581319411785569 }, "geometry": { "type": "LineString", "coordinates": [ [ -2.9175043, 54.9222031 ], [ -2.9175314, 54.9222177 ], [ -2.9177709, 54.9224367 ], [ -2.9178666, 54.922555699999982 ] ] } },
{ "type": "Feature", "properties": { "id": 124936, "nach": 0.42191004589328629 }, "geometry": { "type": "LineString", "coordinates": [ [ -2.9183006, 54.9231054 ], [ -2.9179995, 54.9226864 ] ] } },
{ "type": "Feature", "properties": { "id": 156705, "nach": 0.39716196799593922 }, "geometry": { "type": "LineString", "coordinates": [ [ -2.9171047, 54.9231016 ], [ -2.9171054, 54.9230599 ], [ -2.9171444, 54.923022 ], [ -2.9172325, 54.9229739 ], [ -2.9179995, 54.9226864 ] ] } },
{ "type": "Feature", "properties": { "id": 153020, "nach": 0.47106399626228834 }, "geometry": { "type": "LineString", "coordinates": [ [ -2.9180829, 54.9223354 ], [ -2.9181028, 54.9223531 ], [ -2.9182384, 54.9223486 ], [ -2.91847410000001, 54.9225974 ], [ -2.9188358, 54.9225204 ] ] } },
{ "type": "Feature", "properties": { "id": 153035, "nach": 0.47890334347536317 }, "geometry": { "type": "LineString", "coordinates": [ [ -2.9181305, 54.922299400000014 ], [ -2.9181075, 54.922321 ], [ -2.9180829, 54.9223354 ] ] } },
{ "type": "Feature", "properties": { "id": 153033, "nach": 0.32917702549251371 }, "geometry": { "type": "LineString", "coordinates": [ [ -2.9170584, 54.9222654 ], [ -2.9169844, 54.9223973 ], [ -2.9170091, 54.9224186 ], [ -2.9170799, 54.9224336 ], [ -2.9171385, 54.9224248 ], [ -2.9172787, 54.9223725 ], [ -2.917405, 54.9222822 ], [ -2.9175043, 54.9222031 ] ] } },
{ "type": "Feature", "properties": { "id": 124938, "nach": 0.35814707459403866 }, "geometry": { "type": "LineString", "coordinates": [ [ -2.9183006, 54.9231054 ], [ -2.918328300000011, 54.9231511 ], [ -2.9187551, 54.9235056 ], [ -2.9190083, 54.923666 ] ] } },
{ "type": "Feature", "properties": { "id": 153009, "nach": 0.41482659966840879 }, "geometry": { "type": "LineString", "coordinates": [ [ -2.9187904, 54.922911700000014 ], [ -2.9183006, 54.9231054 ] ] } },
{ "type": "Feature", "properties": { "id": 156704, "nach": 0.32965314705761817 }, "geometry": { "type": "LineString", "coordinates": [ [ -2.9171047, 54.9231016 ], [ -2.9172093, 54.923132200000012 ], [ -2.917314, 54.9231501 ] ] } },
{ "type": "Feature", "properties": { "id": 156706, "nach": 0.32965314705761817 }, "geometry": { "type": "LineString", "coordinates": [ [ -2.9169312, 54.9231289 ], [ -2.9171047, 54.9231016 ] ] } },
{ "type": "Feature", "properties": { "id": 128139, "nach": 0.43821520104906797 }, "geometry": { "type": "LineString", "coordinates": [ [ -2.9198398, 54.9231151 ], [ -2.9204808, 54.9231981 ] ] } },
{ "type": "Feature", "properties": { "id": 123045, "nach": 0.40058600710090436 }, "geometry": { "type": "LineString", "coordinates": [ [ -2.9198144, 54.9236996 ], [ -2.9201229, 54.9235503 ], [ -2.9203318, 54.923428300000012 ] ] } },
{ "type": "Feature", "properties": { "id": 123044, "nach": 0.37397804021013775 }, "geometry": { "type": "LineString", "coordinates": [ [ -2.9198144, 54.9236996 ], [ -2.9194186, 54.923733 ], [ -2.9190083, 54.923666 ] ] } },
{ "type": "Feature", "properties": { "id": 123048, "nach": 0.33644154584109498 }, "geometry": { "type": "LineString", "coordinates": [ [ -2.919793, 54.924053900000011 ], [ -2.9199028, 54.9239908 ], [ -2.9199247, 54.9238773 ], [ -2.9198144, 54.9236996 ] ] } },
{ "type": "Feature", "properties": { "id": 123050, "nach": 0.33139176084101529 }, "geometry": { "type": "LineString", "coordinates": [ [ -2.9190316, 54.924229600000011 ], [ -2.9189242, 54.9241115 ], [ -2.9188822, 54.9239397 ], [ -2.9190083, 54.923666 ] ] } },
{ "type": "Feature", "properties": { "id": 123054, "nach": 0.31141983780601445 }, "geometry": { "type": "LineString", "coordinates": [ [ -2.9205359, 54.9244327 ], [ -2.9208943, 54.9243531 ] ] } },
{ "type": "Feature", "properties": { "id": 124461, "nach": 0.31071637927976031 }, "geometry": { "type": "LineString", "coordinates": [ [ -2.9200711, 54.9249021 ], [ -2.9203113, 54.9252814 ], [ -2.9207921, 54.9251295 ], [ -2.9210253, 54.9250803 ], [ -2.9213123, 54.9250492 ] ] } },
{ "type": "Feature", "properties": { "id": 153010, "nach": 0.44529513493383799 }, "geometry": { "type": "LineString", "coordinates": [ [ -2.9187904, 54.922911700000014 ], [ -2.9187941, 54.9229102 ], [ -2.9188373, 54.9228564 ] ] } },
{ "type": "Feature", "properties": { "id": 153011, "nach": 0.40735874897152452 }, "geometry": { "type": "LineString", "coordinates": [ [ -2.9187904, 54.922911700000014 ], [ -2.9189236, 54.9230038 ], [ -2.9190252, 54.9230631 ], [ -2.9190977, 54.9230738 ], [ -2.9192255, 54.9230313 ], [ -2.9193479, 54.922984900000017 ], [ -2.919539, 54.9230175 ] ] } },
{ "type": "Feature", "properties": { "id": 153016, "nach": 0.42167005511013905 }, "geometry": { "type": "LineString", "coordinates": [ [ -2.9202246, 54.922306 ], [ -2.9198719, 54.922437 ], [ -2.9198359, 54.9224701 ], [ -2.9188373, 54.9228564 ] ] } },
{ "type": "Feature", "properties": { "id": 153013, "nach": 0.39487288442089519 }, "geometry": { "type": "LineString", "coordinates": [ [ -2.9188358, 54.9225204 ], [ -2.9187911, 54.9225665 ], [ -2.9187572, 54.92261160000001 ], [ -2.9187495, 54.922671 ], [ -2.9187818, 54.9227214 ], [ -2.9188096, 54.92274350000001 ], [ -2.9188219, 54.9227834 ], [ -2.9188373, 54.9228564 ] ] } },
{ "type": "Feature", "properties": { "id": 153017, "nach": 0.45526006302085781 }, "geometry": { "type": "LineString", "coordinates": [ [ -2.9202246, 54.922306 ], [ -2.92009750000001, 54.9223381 ], [ -2.9199835, 54.9223558 ], [ -2.9197, 54.9223452 ], [ -2.9194951, 54.92233980000001 ], [ -2.9188358, 54.9225204 ] ] } },
{ "type": "Feature", "properties": { "id": 125329, "nach": 0.23403002551601865 }, "geometry": { "type": "LineString", "coordinates": [ [ -2.9181233, 54.9305142 ], [ -2.9186243, 54.9306219 ] ] } },
{ "type": "Feature", "properties": { "id": 125345, "nach": 0.24709459442839141 }, "geometry": { "type": "LineString", "coordinates": [ [ -2.9188177, 54.930094599999983 ], [ -2.9187906, 54.9302521 ], [ -2.9181699, 54.9304273 ], [ -2.9181233, 54.9305142 ] ] } },
{ "type": "Feature", "properties": { "id": 125339, "nach": 0.27211748403811298 }, "geometry": { "type": "LineString", "coordinates": [ [ -2.9186262, 54.9294058 ], [ -2.9189325, 54.929428 ] ] } },
{ "type": "Feature", "properties": { "id": 135940, "nach": 0.26174058552794355 }, "geometry": { "type": "LineString", "coordinates": [ [ -2.9192573, 54.9295204 ], [ -2.9192627, 54.9294969 ], [ -2.9192037, 54.9294476 ], [ -2.9189325, 54.929428 ] ] } },
{ "type": "Feature", "properties": { "id": 140622, "nach": 0.34815089271744459 }, "geometry": { "type": "LineString", "coordinates": [ [ -2.9088507, 54.9186986 ], [ -2.90891390000001, 54.91868130000001 ], [ -2.9091698, 54.9185458 ], [ -2.9092402, 54.9185218 ], [ -2.9092963, 54.918516 ], [ -2.9093724, 54.9185243 ], [ -2.909508, 54.9185758 ] ] } },
{ "type": "Feature", "properties": { "id": 142690, "nach": 0.3988516147766939 }, "geometry": { "type": "LineString", "coordinates": [ [ -2.909508, 54.9185758 ], [ -2.90682288846876, 54.919711070456358 ] ] } },
{ "type": "Feature", "properties": { "id": 142666, "nach": 0.32267890711343 }, "geometry": { "type": "LineString", "coordinates": [ [ -2.9104493, 54.9187778 ], [ -2.9108091, 54.91860470000001 ], [ -2.9109418, 54.918537 ] ] } },
{ "type": "Feature", "properties": { "id": 142655, "nach": 0.39612881840204311 }, "geometry": { "type": "LineString", "coordinates": [ [ -2.9114057, 54.918863400000014 ], [ -2.9113443, 54.9188203 ], [ -2.9109418, 54.918537 ] ] } },
{ "type": "Feature", "properties": { "id": 142665, "nach": 0.28243251543054659 }, "geometry": { "type": "LineString", "coordinates": [ [ -2.9104493, 54.9187778 ], [ -2.9100863, 54.9189523 ], [ -2.9100271, 54.9189707 ] ] } },
{ "type": "Feature", "properties": { "id": 142664, "nach": 0.10028633727472371 }, "geometry": { "type": "LineString", "coordinates": [ [ -2.9104493, 54.9187778 ], [ -2.910963, 54.9191102 ] ] } },
{ "type": "Feature", "properties": { "id": 142662, "nach": 0.36078070869874401 }, "geometry": { "type": "LineString", "coordinates": [ [ -2.910963, 54.9191102 ], [ -2.9113866, 54.9189012 ], [ -2.9114034, 54.9188843 ], [ -2.9114057, 54.918863400000014 ] ] } },
{ "type": "Feature", "properties": { "id": 150096, "nach": 0.40900343042897136 }, "geometry": { "type": "LineString", "coordinates": [ [ -2.9123324, 54.919608199999985 ], [ -2.9121131, 54.9193423 ], [ -2.91192630000001, 54.9191579 ], [ -2.9116171, 54.9189696 ], [ -2.9114057, 54.918863400000014 ] ] } },
{ "type": "Feature", "properties": { "id": 128142, "nach": 0.42393745193834076 }, "geometry": { "type": "LineString", "coordinates": [ [ -2.919539, 54.9230175 ], [ -2.9198398, 54.9231151 ] ] } },
{ "type": "Feature", "properties": { "id": 128145, "nach": 0.34378393397835816 }, "geometry": { "type": "LineString", "coordinates": [ [ -2.9197796, 54.9232188 ], [ -2.9198398, 54.9231151 ] ] } },
{ "type": "Feature", "properties": { "id": 128144, "nach": 0.34278592808998243 }, "geometry": { "type": "LineString", "coordinates": [ [ -2.9195921, 54.9229137 ], [ -2.919539, 54.9230175 ] ] } },
{ "type": "Feature", "properties": { "id": 139895, "nach": 0.25553764454172789 }, "geometry": { "type": "LineString", "coordinates": [ [ -2.8883285, 54.9208619 ], [ -2.8885018, 54.9209145 ], [ -2.8886388, 54.9209561 ], [ -2.8887416, 54.9209963 ], [ -2.8887556, 54.921042 ], [ -2.8887089, 54.921135899999989 ] ] } },
{ "type": "Feature", "properties": { "id": 139897, "nach": 0.31200573760532507 }, "geometry": { "type": "LineString", "coordinates": [ [ -2.8883285, 54.9208619 ], [ -2.8883808, 54.92081 ], [ -2.8887131, 54.9205303 ], [ -2.88915020000001, 54.9201791 ], [ -2.8895715, 54.9198346 ], [ -2.8899953, 54.919496100000011 ], [ -2.8903906, 54.919172 ], [ -2.8905348, 54.9190657 ] ] } },
{ "type": "Feature", "properties": { "id": 139852, "nach": 0.0 }, "geometry": { "type": "LineString", "coordinates": [ [ -2.891305, 54.9184962 ], [ -2.8913027, 54.91845940000001 ], [ -2.8913622, 54.9183555 ], [ -2.8918657, 54.917914 ], [ -2.893408, 54.9186492 ], [ -2.8937408, 54.9188436 ], [ -2.8938698, 54.9189002 ], [ -2.8940106, 54.9189021 ], [ -2.89421, 54.9188527 ], [ -2.8944025, 54.9188112 ], [ -2.8946465, 54.9187411 ] ] } },
{ "type": "Feature", "properties": { "id": 139850, "nach": 0.33247992464546633 }, "geometry": { "type": "LineString", "coordinates": [ [ -2.8922381, 54.9190666 ], [ -2.8923273, 54.9190745 ], [ -2.8926303, 54.9190606 ], [ -2.8934581, 54.9190277 ], [ -2.89405960000001, 54.9190106 ], [ -2.8941968, 54.9190001 ], [ -2.8943142, 54.9189672 ], [ -2.8944078, 54.9189274 ], [ -2.8945361, 54.9188457 ], [ -2.8946465, 54.9187411 ] ] } },
{ "type": "Feature", "properties": { "id": 139853, "nach": 0.23402959297858061 }, "geometry": { "type": "LineString", "coordinates": [ [ -2.891305, 54.9184962 ], [ -2.891321, 54.918519800000013 ], [ -2.8914674, 54.9186118 ], [ -2.8916206, 54.91875120000001 ], [ -2.8916595, 54.9187853 ], [ -2.8917601, 54.91883 ], [ -2.8919934, 54.9189168 ], [ -2.8920505, 54.9189496 ], [ -2.8921855, 54.9190429 ], [ -2.8922381, 54.9190666 ] ] } },
{ "type": "Feature", "properties": { "id": 139893, "nach": 0.31129363062825649 }, "geometry": { "type": "LineString", "coordinates": [ [ -2.8905348, 54.9190657 ], [ -2.8905753, 54.9190982 ], [ -2.8907492, 54.919174 ], [ -2.8908931, 54.919210200000016 ], [ -2.8910705, 54.9192188 ], [ -2.891196, 54.919216699999986 ], [ -2.891303, 54.919204 ], [ -2.8916167, 54.9191467 ], [ -2.892056, 54.9190979 ], [ -2.8922381, 54.9190666 ] ] } },
{ "type": "Feature", "properties": { "id": 139892, "nach": 0.3041774501492332 }, "geometry": { "type": "LineString", "coordinates": [ [ -2.8905348, 54.9190657 ], [ -2.8902185, 54.9188122 ], [ -2.8902024, 54.918798 ], [ -2.8901914, 54.918786 ], [ -2.8901895, 54.9187789 ] ] } },
{ "type": "Feature", "properties": { "id": 139866, "nach": 0.25997585432453302 }, "geometry": { "type": "LineString", "coordinates": [ [ -2.8991709, 54.915884 ], [ -2.8988403, 54.915884 ], [ -2.8988235, 54.9158851 ], [ -2.8988068, 54.915890500000017 ], [ -2.8987976, 54.9158978 ], [ -2.898793, 54.9159071 ], [ -2.8987801, 54.91599690000001 ], [ -2.8987772, 54.9160044 ], [ -2.8987707, 54.9160121 ], [ -2.8987555, 54.9160172 ], [ -2.8987325, 54.9160207 ], [ -2.8986564, 54.916025 ], [ -2.8985366, 54.9160275 ], [ -2.8981548, 54.9160136 ], [ -2.8980115, 54.916006599999989 ], [ -2.897875, 54.915996800000016 ], [ -2.8978417, 54.915992 ], [ -2.8978003, 54.915985 ], [ -2.897674, 54.9159558 ] ] } },
{ "type": "Feature", "properties": { "id": 137108, "nach": 0.39311689495813468 }, "geometry": { "type": "LineString", "coordinates": [ [ -2.9173688, 54.9201872 ], [ -2.9175273, 54.9201101 ], [ -2.91782720000001, 54.9198948 ], [ -2.9181203, 54.919791600000018 ], [ -2.918307, 54.919750300000011 ] ] } },
{ "type": "Feature", "properties": { "id": 137107, "nach": 0.32504629120583273 }, "geometry": { "type": "LineString", "coordinates": [ [ -2.9173688, 54.9201872 ], [ -2.9172459, 54.9202444 ] ] } },
{ "type": "Feature", "properties": { "id": 137109, "nach": 0.33908022275634969 }, "geometry": { "type": "LineString", "coordinates": [ [ -2.9173688, 54.9201872 ], [ -2.9174876, 54.9202639 ], [ -2.9176579, 54.9203947 ], [ -2.9177008, 54.9204892 ], [ -2.9176831, 54.9206029 ], [ -2.9175895, 54.9207273 ], [ -2.9172491, 54.920953300000015 ] ] } },
{ "type": "Feature", "properties": { "id": 136355, "nach": 0.36468033622477497 }, "geometry": { "type": "LineString", "coordinates": [ [ -2.9179221, 54.9212932 ], [ -2.918999, 54.9205792 ] ] } },
{ "type": "Feature", "properties": { "id": 136357, "nach": 0.34710732268371791 }, "geometry": { "type": "LineString", "coordinates": [ [ -2.9170829, 54.9218318 ], [ -2.9179221, 54.9212932 ] ] } },
{ "type": "Feature", "properties": { "id": 136362, "nach": 0.23018740159250045 }, "geometry": { "type": "LineString", "coordinates": [ [ -2.9172491, 54.920953300000015 ], [ -2.9179221, 54.9212932 ] ] } },
{ "type": "Feature", "properties": { "id": 137110, "nach": 0.28204326446843614 }, "geometry": { "type": "LineString", "coordinates": [ [ -2.9171864, 54.921883 ], [ -2.9170829, 54.9218318 ] ] } },
{ "type": "Feature", "properties": { "id": 136360, "nach": 0.27937899312190972 }, "geometry": { "type": "LineString", "coordinates": [ [ -2.9166006, 54.9215881 ], [ -2.9169604, 54.9217673 ], [ -2.9170829, 54.9218318 ] ] } },
{ "type": "Feature", "properties": { "id": 136364, "nach": 0.29411669349638858 }, "geometry": { "type": "LineString", "coordinates": [ [ -2.9172491, 54.920953300000015 ], [ -2.9171315, 54.9210237 ], [ -2.9166985, 54.921286 ] ] } },
{ "type": "Feature", "properties": { "id": 142694, "nach": 0.32361619010552106 }, "geometry": { "type": "LineString", "coordinates": [ [ -2.9051118, 54.9209186 ], [ -2.9050399, 54.920865699999986 ], [ -2.9049882, 54.9208376 ], [ -2.9049223, 54.920831 ], [ -2.9047927, 54.920824400000015 ], [ -2.9045023, 54.9208442 ], [ -2.9043557, 54.9208508 ], [ -2.9042321, 54.9208475 ], [ -2.90412, 54.9208079 ], [ -2.9040539, 54.9207715 ], [ -2.9039547, 54.9206892 ] ] } },
{ "type": "Feature", "properties": { "id": 142690, "nach": 0.3988516147766939 }, "geometry": { "type": "LineString", "coordinates": [ [ -2.907130504871488, 54.919611961966979 ], [ -2.9039547, 54.9206892 ] ] } },
{ "type": "Feature", "properties": { "id": 142648, "nach": 0.27558986869968571 }, "geometry": { "type": "LineString", "coordinates": [ [ -2.9082872, 54.9184166 ], [ -2.9086552, 54.9186697 ], [ -2.9087184, 54.9186912 ], [ -2.9087802, 54.9187036 ], [ -2.9088507, 54.9186986 ] ] } },
{ "type": "Feature", "properties": { "id": 149376, "nach": 0.29700254517093111 }, "geometry": { "type": "LineString", "coordinates": [ [ -2.907258, 54.9185128 ], [ -2.9073305, 54.918593399999985 ], [ -2.90757710000001, 54.918771200000016 ], [ -2.9078333, 54.9189018 ], [ -2.9079832, 54.9189351 ], [ -2.9081749, 54.9189632 ], [ -2.908258, 54.9189601 ], [ -2.9083412, 54.9189462 ], [ -2.90840020000001, 54.9189262 ], [ -2.9088507, 54.9186986 ] ] } },
{ "type": "Feature", "properties": { "id": 149378, "nach": 0.12130530987708864 }, "geometry": { "type": "LineString", "coordinates": [ [ -2.9116018, 54.9133833 ], [ -2.9115006, 54.9133739 ], [ -2.9114432, 54.9133995 ], [ -2.9114087, 54.91348570000001 ], [ -2.9110175, 54.9140739 ], [ -2.9107652, 54.9144736 ], [ -2.910559, 54.914767 ], [ -2.9101135, 54.9154037 ], [ -2.9098574, 54.9157462 ], [ -2.9092185, 54.9164306 ], [ -2.90886520000001, 54.9168256 ], [ -2.9086153, 54.9170931 ], [ -2.9085005, 54.917226199999988 ], [ -2.9079247, 54.9176702 ], [ -2.9077005, 54.9178207 ], [ -2.9075443, 54.9179788 ], [ -2.9073789, 54.9182043 ], [ -2.9072628, 54.9183627 ], [ -2.907258, 54.9185128 ] ] } },
{ "type": "Feature", "properties": { "id": 149379, "nach": 0.24750243021742377 }, "geometry": { "type": "LineString", "coordinates": [ [ -2.9058968, 54.917842 ], [ -2.9059856, 54.9178452 ], [ -2.9061189, 54.9178579 ], [ -2.9062828, 54.9179409 ], [ -2.9065271, 54.9181851 ], [ -2.9067021, 54.9182952 ], [ -2.9069464, 54.9183846 ], [ -2.9071436, 54.9184644 ], [ -2.907258, 54.9185128 ] ] } },
{ "type": "Feature", "properties": { "id": 142653, "nach": 0.0 }, "geometry": { "type": "LineString", "coordinates": [ [ -2.910166, 54.9194975 ], [ -2.9101159, 54.9194988 ], [ -2.9100317, 54.9194635 ], [ -2.9094972, 54.9190948 ], [ -2.909435, 54.9190494 ], [ -2.9094199, 54.9190274 ], [ -2.9094187, 54.9189914 ], [ -2.9094562, 54.9189523 ], [ -2.9095404, 54.9188948 ], [ -2.9096314, 54.9188647 ], [ -2.9097406, 54.9188569 ], [ -2.9098111, 54.9188634 ], [ -2.9099157, 54.9189092 ], [ -2.9099771, 54.9189445 ], [ -2.9100271, 54.9189707 ] ] } },
{ "type": "Feature", "properties": { "id": 142660, "nach": 0.15975388715779085 }, "geometry": { "type": "LineString", "coordinates": [ [ -2.9105212, 54.9193287 ], [ -2.9100592, 54.9190011 ], [ -2.9100271, 54.9189707 ] ] } },
{ "type": "Feature", "properties": { "id": 142659, "nach": 0.31641684474310722 }, "geometry": { "type": "LineString", "coordinates": [ [ -2.9105212, 54.9193287 ], [ -2.910241, 54.9194648 ], [ -2.910166, 54.9194975 ] ] } },
{ "type": "Feature", "properties": { "id": 143342, "nach": 0.26878829728018755 }, "geometry": { "type": "LineString", "coordinates": [ [ -2.9093889, 54.9199335 ], [ -2.9096958, 54.9198375 ], [ -2.909831, 54.9197859 ], [ -2.9100453, 54.9196698 ], [ -2.9101167, 54.91961220000001 ], [ -2.9101471, 54.9195589 ], [ -2.910166, 54.9194975 ] ] } },
{ "type": "Feature", "properties": { "id": 142663, "nach": 0.34056978483610406 }, "geometry": { "type": "LineString", "coordinates": [ [ -2.910963, 54.9191102 ], [ -2.9109121, 54.9191354 ], [ -2.9106527, 54.9192648 ], [ -2.9105212, 54.9193287 ] ] } },
{ "type": "Feature", "properties": { "id": 150094, "nach": 0.37782183126974472 }, "geometry": { "type": "LineString", "coordinates": [ [ -2.9123324, 54.919608199999985 ], [ -2.913323, 54.919295 ] ] } },
{ "type": "Feature", "properties": { "id": 150095, "nach": 0.38227944474035663 }, "geometry": { "type": "LineString", "coordinates": [ [ -2.9123324, 54.919608199999985 ], [ -2.9119356, 54.9197337 ], [ -2.9113374, 54.9199298 ] ] } },
{ "type": "Feature", "properties": { "id": 142696, "nach": 0.25426160114926494 }, "geometry": { "type": "LineString", "coordinates": [ [ -2.9056465, 54.9207005 ], [ -2.9056465, 54.9207616 ], [ -2.9056174, 54.9208291 ], [ -2.905566, 54.920910299999989 ], [ -2.9055211, 54.9209451 ], [ -2.9054482, 54.920988 ], [ -2.9053748, 54.9209995 ], [ -2.9053015, 54.92099790000001 ], [ -2.9052153, 54.9209797 ], [ -2.9051118, 54.9209186 ] ] } },
{ "type": "Feature", "properties": { "id": 144163, "nach": 0.25634034885187429 }, "geometry": { "type": "LineString", "coordinates": [ [ -2.9044967, 54.921154199999989 ], [ -2.9045454, 54.9211262 ], [ -2.9046136, 54.9210964 ], [ -2.9046902, 54.9210774 ], [ -2.9047827, 54.9210654 ], [ -2.9049136, 54.9210443 ], [ -2.9050131, 54.9210092 ], [ -2.9051118, 54.9209186 ] ] } },
{ "type": "Feature", "properties": { "id": 144032, "nach": 0.23143835689363218 }, "geometry": { "type": "LineString", "coordinates": [ [ -2.9105398, 54.9268646 ], [ -2.9107075, 54.9268004 ] ] } },
{ "type": "Feature", "properties": { "id": 144033, "nach": 0.23143835689363218 }, "geometry": { "type": "LineString", "coordinates": [ [ -2.9109442, 54.9266719 ], [ -2.9107075, 54.9268004 ] ] } },
{ "type": "Feature", "properties": { "id": 150077, "nach": 0.292811403951313 }, "geometry": { "type": "LineString", "coordinates": [ [ -2.9093681, 54.9205912 ], [ -2.9093498, 54.9206083 ] ] } },
{ "type": "Feature", "properties": { "id": 150045, "nach": 0.2831338542934474 }, "geometry": { "type": "LineString", "coordinates": [ [ -2.9104995, 54.9212801 ], [ -2.9095204, 54.9208138 ], [ -2.90940210000001, 54.9207506 ], [ -2.9093553, 54.9207095 ], [ -2.9093471, 54.9206526 ], [ -2.9093498, 54.9206083 ] ] } },
{ "type": "Feature", "properties": { "id": 150048, "nach": 0.0 }, "geometry": { "type": "LineString", "coordinates": [ [ -2.9114759, 54.9221511 ], [ -2.9110558, 54.9222663 ], [ -2.9108546, 54.92228 ], [ -2.9107493, 54.9222608 ], [ -2.9106535, 54.922203 ], [ -2.9104682, 54.9220054 ], [ -2.9103039, 54.9218562 ], [ -2.9096431, 54.921297500000016 ], [ -2.9094036, 54.9210884 ], [ -2.9091738, 54.92090120000001 ], [ -2.9090876, 54.9207581 ], [ -2.909145, 54.9206893 ], [ -2.9093498, 54.9206083 ] ] } },
{ "type": "Feature", "properties": { "id": 150078, "nach": 0.30602792144069285 }, "geometry": { "type": "LineString", "coordinates": [ [ -2.9093681, 54.9205912 ], [ -2.9093938, 54.9205672 ], [ -2.9097747, 54.9204423 ] ] } },
{ "type": "Feature", "properties": { "id": 150080, "nach": 0.2614223783985174 }, "geometry": { "type": "LineString", "coordinates": [ [ -2.9082447, 54.9196215 ], [ -2.9081011, 54.9196848 ], [ -2.9080101, 54.9197398 ], [ -2.9087428, 54.9204389 ], [ -2.908896, 54.92056 ], [ -2.9090253, 54.920582 ], [ -2.9093681, 54.9205912 ] ] } },
{ "type": "Feature", "properties": { "id": 150072, "nach": 0.27333937231502176 }, "geometry": { "type": "LineString", "coordinates": [ [ -2.9097747, 54.9204423 ], [ -2.9104995, 54.9212801 ] ] } },
{ "type": "Feature", "properties": { "id": 150047, "nach": 0.32457303892167694 }, "geometry": { "type": "LineString", "coordinates": [ [ -2.9114759, 54.9221511 ], [ -2.9113852, 54.9221321 ], [ -2.9112009, 54.9219741 ], [ -2.910593, 54.9213418 ], [ -2.9104995, 54.9212801 ] ] } },
{ "type": "Feature", "properties": { "id": 150092, "nach": 0.35687172789163923 }, "geometry": { "type": "LineString", "coordinates": [ [ -2.9119087, 54.9220104 ], [ -2.9114759, 54.9221511 ] ] } },
{ "type": "Feature", "properties": { "id": 150074, "nach": 0.33647928072392003 }, "geometry": { "type": "LineString", "coordinates": [ [ -2.9106583, 54.920152599999987 ], [ -2.9097747, 54.9204423 ] ] } },
{ "type": "Feature", "properties": { "id": 150091, "nach": 0.37252589537426362 }, "geometry": { "type": "LineString", "coordinates": [ [ -2.9119087, 54.9220104 ], [ -2.91233680000001, 54.9218713 ] ] } },
{ "type": "Feature", "properties": { "id": 150093, "nach": 0.23390361011965097 }, "geometry": { "type": "LineString", "coordinates": [ [ -2.9119087, 54.9220104 ], [ -2.9120837, 54.922054 ], [ -2.9123394, 54.922127900000028 ], [ -2.91266, 54.922203 ] ] } },
{ "type": "Feature", "properties": { "id": 150064, "nach": 0.38483567024987569 }, "geometry": { "type": "LineString", "coordinates": [ [ -2.913029, 54.9216597 ], [ -2.91233680000001, 54.9218713 ] ] } },
{ "type": "Feature", "properties": { "id": 150076, "nach": 0.32068341313029347 }, "geometry": { "type": "LineString", "coordinates": [ [ -2.9106583, 54.920152599999987 ], [ -2.910927, 54.920394699999981 ], [ -2.9117232, 54.9212445 ], [ -2.91233680000001, 54.9218713 ] ] } },
{ "type": "Feature", "properties": { "id": 150082, "nach": 0.26154075016464534 }, "geometry": { "type": "LineString", "coordinates": [ [ -2.91266, 54.922203 ], [ -2.9125834, 54.9220929 ], [ -2.9124397, 54.921949800000014 ], [ -2.91233680000001, 54.9218713 ] ] } },
{ "type": "Feature", "properties": { "id": 150065, "nach": 0.4079386917497565 }, "geometry": { "type": "LineString", "coordinates": [ [ -2.913029, 54.9216597 ], [ -2.9133297, 54.921567800000012 ], [ -2.9149552, 54.9210288 ], [ -2.9149799, 54.9210208 ] ] } },
{ "type": "Feature", "properties": { "id": 150067, "nach": 0.31698082732637578 }, "geometry": { "type": "LineString", "coordinates": [ [ -2.913029, 54.9216597 ], [ -2.9131134, 54.921742 ], [ -2.9133345, 54.9220252 ] ] } },
{ "type": "Feature", "properties": { "id": 150070, "nach": 0.29319821265864854 }, "geometry": { "type": "LineString", "coordinates": [ [ -2.9113374, 54.9199298 ], [ -2.9122224, 54.9207942 ], [ -2.913029, 54.9216597 ] ] } },
{ "type": "Feature", "properties": { "id": 150075, "nach": 0.37029991929806122 }, "geometry": { "type": "LineString", "coordinates": [ [ -2.9106583, 54.920152599999987 ], [ -2.9113374, 54.9199298 ] ] } },
{ "type": "Feature", "properties": { "id": 150089, "nach": 0.30693486835010952 }, "geometry": { "type": "LineString", "coordinates": [ [ -2.9160382, 54.923091199999988 ], [ -2.9160217, 54.9230836 ], [ -2.9159068, 54.923080900000016 ], [ -2.915835, 54.9230809 ], [ -2.9157057, 54.9230231 ], [ -2.91545190000001, 54.922957 ], [ -2.9152364, 54.9229048 ], [ -2.9150736, 54.9228855 ], [ -2.9147958, 54.9228002 ], [ -2.9146713, 54.9227066 ], [ -2.9144797, 54.922613 ], [ -2.9135268, 54.9223874 ], [ -2.9129138, 54.92229110000001 ], [ -2.91266, 54.922203 ] ] } },
{ "type": "Feature", "properties": { "id": 150061, "nach": 0.3753851288513928 }, "geometry": { "type": "LineString", "coordinates": [ [ -2.9149799, 54.9210208 ], [ -2.9148452, 54.9208723 ], [ -2.9139816, 54.9199887 ], [ -2.9134315, 54.9193849 ], [ -2.913323, 54.919295 ] ] } },
{ "type": "Feature", "properties": { "id": 150086, "nach": 0.44359815413225312 }, "geometry": { "type": "LineString", "coordinates": [ [ -2.9164628, 54.9219057 ], [ -2.9162285, 54.9218611 ], [ -2.9158547, 54.9217651 ], [ -2.9156587, 54.9216671 ], [ -2.9154716, 54.921544 ], [ -2.9152034, 54.9212385 ], [ -2.9149799, 54.9210208 ] ] } },
{ "type": "Feature", "properties": { "id": 153029, "nach": 0.46121736083537396 }, "geometry": { "type": "LineString", "coordinates": [ [ -2.9174986, 54.9222 ], [ -2.9172265, 54.922053 ], [ -2.9167983, 54.921969500000017 ], [ -2.9164628, 54.9219057 ] ] } },
{ "type": "Feature", "properties": { "id": 150090, "nach": 0.37237700898329079 }, "geometry": { "type": "LineString", "coordinates": [ [ -2.9160382, 54.923091199999988 ], [ -2.9162285, 54.9228246 ], [ -2.9162974, 54.922662 ], [ -2.9163737, 54.9225014 ], [ -2.9164628, 54.9219057 ] ] } },
{ "type": "Feature", "properties": { "id": 150088, "nach": 0.32266649507945311 }, "geometry": { "type": "LineString", "coordinates": [ [ -2.9160382, 54.923091199999988 ], [ -2.91611750000001, 54.9231277 ], [ -2.9162851, 54.9231607 ] ] } },
{ "type": "Feature", "properties": { "id": 153030, "nach": 0.46613632562420304 }, "geometry": { "type": "LineString", "coordinates": [ [ -2.9174986, 54.9222 ], [ -2.9175852, 54.9221432 ], [ -2.9176453, 54.922120200000016 ], [ -2.9177362, 54.9221353 ], [ -2.9178183, 54.9221688 ] ] } },
{ "type": "Feature", "properties": { "id": 153034, "nach": 0.38585565191770377 }, "geometry": { "type": "LineString", "coordinates": [ [ -2.9181305, 54.922299400000014 ], [ -2.918286, 54.922154 ] ] } },
{ "type": "Feature", "properties": { "id": 153036, "nach": 0.46930197255430223 }, "geometry": { "type": "LineString", "coordinates": [ [ -2.9181305, 54.922299400000014 ], [ -2.918041, 54.922270900000015 ], [ -2.9178667, 54.9222069 ], [ -2.9178183, 54.9221688 ] ] } },
{ "type": "Feature", "properties": { "id": 153023, "nach": 0.34123997561781932 }, "geometry": { "type": "LineString", "coordinates": [ [ -2.918286, 54.922154 ], [ -2.9183401, 54.9221786 ], [ -2.9184864, 54.922222 ], [ -2.918716, 54.922333599999988 ] ] } },
{ "type": "Feature", "properties": { "id": 110955, "nach": 0.26073077258508426 }, "geometry": { "type": "LineString", "coordinates": [ [ -2.901122415127341, 54.912870545883457 ], [ -2.907130504871488, 54.919611961966979 ] ] } },
{ "type": "Feature", "properties": { "id": 110955, "nach": 0.26073077258508426 }, "geometry": { "type": "LineString", "coordinates": [ [ -2.907130504871488, 54.919611961966979 ], [ -2.917183093443898, 54.927654102225738 ] ] } },
{ "type": "Feature", "properties": { "id": 142690, "nach": 0.3988516147766939 }, "geometry": { "type": "LineString", "coordinates": [ [ -2.90682288846876, 54.919711070456358 ], [ -2.907130504871488, 54.919611961966979 ] ] } },
{ "type": "Feature", "properties": { "id": 110955, "nach": 0.26073077258508426 }, "geometry": { "type": "LineString", "coordinates": [ [ -2.917183093443898, 54.927654102225738 ], [ -2.925897917325202, 54.93015116047394 ] ] } },
{ "type": "Feature", "properties": { "id": 141413, "nach": 0.36045340462062753 }, "geometry": { "type": "LineString", "coordinates": [ [ -2.917183093443898, 54.927654102225738 ], [ -2.916993353699557, 54.927752936191169 ] ] } },
{ "type": "Feature", "properties": { "id": 110960, "nach": 0.21446951296206623 }, "geometry": { "type": "LineString", "coordinates": [ [ -2.925867967849239, 54.930251057454456 ], [ -2.916993353699557, 54.927752936191169 ] ] } },
{ "type": "Feature", "properties": { "id": 110960, "nach": 0.21446951296206623 }, "geometry": { "type": "LineString", "coordinates": [ [ -2.916993353699557, 54.927752936191169 ], [ -2.90682288846876, 54.919711070456358 ] ] } },
{ "type": "Feature", "properties": { "id": 110960, "nach": 0.21446951296206623 }, "geometry": { "type": "LineString", "coordinates": [ [ -2.90682288846876, 54.919711070456358 ], [ -2.900899027065989, 54.913010868013544 ] ] } }
]
}
