{
"type": "FeatureCollection",
"name": "CUMBE_598_NACH_800m",
"crs": { "type": "name", "properties": { "name": "urn:ogc:def:crs:OGC:1.3:CRS84" } },
"features": [
{"type":"Feature","properties":{"id":31863,"nach":0.0},"geometry":{"type":"LineString","coordinates":[[-3.1584253,54.5119543],[-3.1583377,54.5119353],[-3.1582246,54.5118743],[-3.1581234,54.5118312],[-3.1578886,54.5117412],[-3.1577279,54.5115818],[-3.1575803,54.511363799999984],[-3.1573246,54.5112646],[-3.1571749,54.5111705],[-3.1569529,54.5111005],[-3.1568301,54.5110432],[-3.1567823,54.5109748],[-3.1567469,54.510895600000012],[-3.1567492,54.510824300000017],[-3.1568162,54.5107216],[-3.1568618,54.5106189],[-3.1569039,54.51049050000001],[-3.157074,54.5104379],[-3.1571614,54.5103767],[-3.1573078,54.5102322],[-3.1573935,54.5101305],[-3.1574109,54.510076],[-3.1574016,54.51001320000001],[-3.1574077,54.5099719],[-3.1574832,54.5099193],[-3.1575036,54.5098576],[-3.1576028,54.5097063],[-3.1576828,54.5095595],[-3.1576651,54.5094892],[-3.1576042,54.5093402],[-3.15755930000001,54.5092443],[-3.1575136,54.509151],[-3.1574169,54.50904580000001],[-3.1573906,54.5089283],[-3.157458,54.5087839],[-3.1575307,54.5086511],[-3.1576034,54.5085719],[-3.1577013,54.5083816],[-3.157768,54.5082837],[-3.1578458,54.5082026],[-3.157862,54.5081394],[-3.1578269,54.5080927],[-3.1577733,54.5080604],[-3.1576667,54.5080335],[-3.1575605,54.5080037],[-3.1575096,54.5079247],[-3.1574716,54.5078497],[-3.1574577,54.5078238],[-3.1574233,54.5076633],[-3.157352,54.5075279],[-3.1574269,54.5074308],[-3.15745370000001,54.507321600000012],[-3.1574986,54.5072345],[-3.1575421,54.507197],[-3.1575292,54.5070902],[-3.1575413,54.5069755],[-3.1575402,54.5069133],[-3.1576492,54.5067652],[-3.1577469,54.5066337],[-3.1577943,54.5065415],[-3.1578009,54.5064803],[-3.1578811,54.5063889],[-3.1579399,54.5062207],[-3.1579841,54.5061484],[-3.1580353,54.5060843],[-3.1580433,54.506056],[-3.1580708,54.505959],[-3.1580831,54.5058374],[-3.1580762,54.505636200000012],[-3.1580737,54.5055195],[-3.1580492,54.5054024],[-3.1580089,54.5052144],[-3.1580044,54.5051299],[-3.1580088,54.5050177],[-3.1579887,54.5049556],[-3.157998,54.5048856],[-3.1580411,54.504814],[-3.1581417,54.5047523],[-3.1582418,54.5047344],[-3.1583336,54.5047107],[-3.158418,54.5046455],[-3.1585024,54.5045693],[-3.1585663,54.504475],[-3.158635,54.5044247],[-3.1586553,54.5043545],[-3.1587033,54.5042841],[-3.1587438,54.5041217],[-3.1587678,54.5040938]]}},
{"type":"Feature","properties":{"id":36816,"nach":0.26827046577662733},"geometry":{"type":"LineString","coordinates":[[-3.1594837,54.5124814],[-3.1589942,54.512221300000022],[-3.1586832,54.512116900000017],[-3.158551,54.5120567],[-3.1584253,54.5119543]]}},
{"type":"Feature","properties":{"id":103310,"nach":0.16036389749577237},"geometry":{"type":"LineString","coordinates":[[-3.1595511,54.5115045],[-3.1595302,54.5114995],[-3.1593756,54.511555500000014],[-3.1591819,54.511656],[-3.1589958,54.511744300000011],[-3.1587971,54.5118494],[-3.1586192,54.5119321],[-3.1585259,54.5119536],[-3.1584253,54.5119543]]}},
{"type":"Feature","properties":{"id":103309,"nach":0.27318917254362862},"geometry":{"type":"LineString","coordinates":[[-3.1595511,54.5115045],[-3.1596285,54.5114321],[-3.159746,54.5113584],[-3.1598289,54.5113213],[-3.1600107,54.5112739],[-3.1604251,54.511177700000012],[-3.1606377,54.511117899999988],[-3.1613554,54.510891599999987],[-3.1615736,54.5108066],[-3.1619337,54.51064980000001],[-3.1622804,54.5104853],[-3.1625627,54.5103797],[-3.1626821,54.510331299999983],[-3.1631672,54.5101286],[-3.1636005,54.5099002],[-3.1638274,54.509802],[-3.16390650000001,54.5097716],[-3.1640203,54.509727800000014],[-3.164133,54.5096987],[-3.1642077,54.509695500000014]]}},
{"type":"Feature","properties":{"id":103308,"nach":0.29884759011279177},"geometry":{"type":"LineString","coordinates":[[-3.1595511,54.5115045],[-3.1595214,54.5115753],[-3.1595009,54.5117078],[-3.1595325,54.5118381],[-3.1596225,54.5120445],[-3.159645,54.5121116],[-3.159642,54.5122125],[-3.159592,54.512329],[-3.1594837,54.5124814]]}},
{"type":"Feature","properties":{"id":89684,"nach":0.18420391774692557},"geometry":{"type":"LineString","coordinates":[[-3.1543217,54.5094491],[-3.1543155,54.50953],[-3.154287,54.5095889],[-3.1542981,54.5096275],[-3.1542268,54.5096937],[-3.1541919,54.5097443],[-3.1541935,54.5097829],[-3.1542458,54.5098399],[-3.1542822,54.509896],[-3.1544248,54.509959499999987],[-3.1545024,54.5099963],[-3.1545531,54.5100533],[-3.1546117,54.510142500000022],[-3.1546751,54.5102161],[-3.1547179,54.5102786],[-3.1547353,54.5103577],[-3.1547749,54.510401],[-3.1548525,54.5104755],[-3.1549032,54.5105003],[-3.1549413,54.5105389],[-3.15494440000001,54.510567400000014],[-3.1549016,54.5106061],[-3.1548541,54.510654799999983],[-3.1548381,54.5107219],[-3.1547457,54.5107886],[-3.1546341,54.5108809],[-3.154502,54.510964],[-3.1543681,54.511074200000017],[-3.1543014,54.5111963],[-3.1542369,54.511339],[-3.154278,54.5113834],[-3.1542219,54.5115057],[-3.1542175,54.5116044]]}},
{"type":"Feature","properties":{"id":89686,"nach":0.068726308604884559},"geometry":{"type":"LineString","coordinates":[[-3.1543217,54.5094491],[-3.1542789,54.5094775],[-3.1541456,54.5095209],[-3.1539617,54.509575800000015],[-3.1538838,54.5096158],[-3.15382,54.5096596],[-3.1537451,54.5097096],[-3.1536078,54.5097872],[-3.153474,54.509889],[-3.1534413,54.5099908],[-3.1533745,54.5100684],[-3.1532367,54.5101393],[-3.1531006,54.510176800000011],[-3.1530398,54.510205],[-3.152922,54.5102846],[-3.1528218,54.5104588],[-3.1527249,54.51047830000001],[-3.1527071,54.5105297],[-3.1526832,54.5105954],[-3.1525975,54.510627],[-3.1525579,54.5106926],[-3.1525258,54.510789],[-3.1524304,54.5109069]]}},
{"type":"Feature","properties":{"id":40953,"nach":0.36004605170865867},"geometry":{"type":"LineString","coordinates":[[-3.1654286,54.5154711],[-3.1652824,54.515418],[-3.165084,54.5153401],[-3.1648694,54.515228],[-3.1646387,54.5151123],[-3.1645256,54.51513],[-3.1644125,54.5150367]]}},
{"type":"Feature","properties":{"id":56497,"nach":0.34255442162661021},"geometry":{"type":"LineString","coordinates":[[-3.148478,54.5153823],[-3.148554,54.5154254],[-3.1486505,54.5154464],[-3.1487392,54.5154505],[-3.1490655,54.5154764],[-3.1493014,54.515509],[-3.149459,54.5155313],[-3.149579,54.515563],[-3.1496791,54.5156166],[-3.1497804,54.5156884],[-3.1501153,54.5159532],[-3.1502957,54.51602]]}},
{"type":"Feature","properties":{"id":37383,"nach":0.35728040544157447},"geometry":{"type":"LineString","coordinates":[[-3.1500045,54.5164031],[-3.1500617,54.5163216],[-3.1502066,54.5160844],[-3.1502464,54.51605],[-3.1502957,54.51602]]}},
{"type":"Feature","properties":{"id":43176,"nach":0.32156745809042486},"geometry":{"type":"LineString","coordinates":[[-3.1513248,54.5156755],[-3.1505621,54.5159368],[-3.150502,54.5159548],[-3.1503971,54.5159819],[-3.150344,54.5159988],[-3.1502957,54.51602]]}},
{"type":"Feature","properties":{"id":56495,"nach":0.29115941001675832},"geometry":{"type":"LineString","coordinates":[[-3.148478,54.5153823],[-3.1485048,54.5153357],[-3.1486366,54.5151097],[-3.1486902,54.5150313],[-3.1488995,54.5149216],[-3.1496188,54.5145873],[-3.150195,54.514545],[-3.1504285,54.5144864]]}},
{"type":"Feature","properties":{"id":95471,"nach":0.35317687724387559},"geometry":{"type":"LineString","coordinates":[[-3.1480664,54.5157518],[-3.1480725,54.5156703],[-3.1483948,54.515395900000016],[-3.148478,54.5153823]]}},
{"type":"Feature","properties":{"id":95467,"nach":0.34021658397145743},"geometry":{"type":"LineString","coordinates":[[-3.149556,54.5168689],[-3.1499143,54.516508],[-3.1500045,54.5164031]]}},
{"type":"Feature","properties":{"id":99814,"nach":0.34845381430522471},"geometry":{"type":"LineString","coordinates":[[-3.1508066,54.5165852],[-3.150509,54.5165406],[-3.1502833,54.5164701],[-3.1500045,54.5164031]]}},
{"type":"Feature","properties":{"id":43177,"nach":0.34201962559731874},"geometry":{"type":"LineString","coordinates":[[-3.1513248,54.5156755],[-3.1516782,54.5155476],[-3.1517464,54.515531499999987],[-3.1518247,54.5155199],[-3.1518982,54.5155134],[-3.15212490000001,54.5155125],[-3.1522352,54.5155112],[-3.152322,54.5155045],[-3.1524205,54.5154906],[-3.1524971,54.5154749],[-3.1525688,54.5154558],[-3.1526372,54.5154332],[-3.152706,54.5154053],[-3.1527814,54.515367500000011]]}},
{"type":"Feature","properties":{"id":99813,"nach":0.3121329170044021},"geometry":{"type":"LineString","coordinates":[[-3.1508066,54.5165852],[-3.1508395,54.5165387],[-3.1512172,54.5159751],[-3.1513484,54.5157904],[-3.151368,54.515718],[-3.1513248,54.5156755]]}},
{"type":"Feature","properties":{"id":61827,"nach":0.39057995874401108},"geometry":{"type":"LineString","coordinates":[[-3.1481182,54.5206502],[-3.1479582,54.5205738],[-3.1477253,54.5205115],[-3.1473731,54.5204877],[-3.1471235,54.5204997],[-3.1470233,54.5205069]]}},
{"type":"Feature","properties":{"id":54511,"nach":0.32166266566505358},"geometry":{"type":"LineString","coordinates":[[-3.1465281,54.5227842],[-3.1464963,54.52273910000001],[-3.1464587,54.522663],[-3.1464374,54.5225938],[-3.1464665,54.5224872],[-3.1465464,54.5223286],[-3.1465875,54.5221894],[-3.1465721,54.5216518],[-3.1466094,54.5214647],[-3.1466728,54.5213709],[-3.14688,54.5211855],[-3.1469572,54.5211167],[-3.147013,54.521048],[-3.1470543,54.5209589],[-3.1470747,54.5208597],[-3.1470727,54.5207596],[-3.1470233,54.5205069]]}},
{"type":"Feature","properties":{"id":36725,"nach":0.40511680300818759},"geometry":{"type":"LineString","coordinates":[[-3.1484885,54.5178709],[-3.1484647,54.5178965],[-3.1484172,54.5179523],[-3.1482966,54.5181563],[-3.1482237,54.518241],[-3.148131,54.5183055],[-3.1479625,54.518411599999986],[-3.1478662,54.518489400000014],[-3.1477641,54.5185866],[-3.1473834,54.518998],[-3.1472692,54.5191296],[-3.1471887,54.519246],[-3.1471206,54.5193701],[-3.1469922,54.5196313],[-3.1469523,54.5197426],[-3.1469307,54.5198488],[-3.1469281,54.5199608],[-3.14693810000001,54.5200945],[-3.1470233,54.5205069]]}},
{"type":"Feature","properties":{"id":95451,"nach":0.38079773587623716},"geometry":{"type":"LineString","coordinates":[[-3.1483874,54.5209438],[-3.1483092,54.5208654],[-3.1481897,54.5207219],[-3.1481182,54.5206502]]}},
{"type":"Feature","properties":{"id":95449,"nach":0.25708653688237382},"geometry":{"type":"LineString","coordinates":[[-3.1485123,54.5209075],[-3.1484364,54.5208307],[-3.1482808,54.5207204],[-3.1481182,54.5206502]]}},
{"type":"Feature","properties":{"id":69590,"nach":0.29784581175906033},"geometry":{"type":"LineString","coordinates":[[-3.1463163,54.5222657],[-3.1462049,54.5225793],[-3.146205,54.5227009],[-3.1463098,54.5227631],[-3.146445,54.52279320000001],[-3.1465281,54.5227842]]}},
{"type":"Feature","properties":{"id":65140,"nach":0.35661077054884482},"geometry":{"type":"LineString","coordinates":[[-3.1469524,54.5235193],[-3.1468972,54.523500499999983],[-3.1468553,54.5234648],[-3.146559,54.5232087],[-3.1465155,54.5230848],[-3.1465018,54.52286740000001],[-3.146497,54.522832],[-3.1465281,54.5227842]]}},
{"type":"Feature","properties":{"id":99810,"nach":0.45722223019863845},"geometry":{"type":"LineString","coordinates":[[-3.14852,54.5178451],[-3.1484885,54.5178709]]}},
{"type":"Feature","properties":{"id":36730,"nach":0.43670619153680013},"geometry":{"type":"LineString","coordinates":[[-3.1502456,54.5184661],[-3.1501924,54.5184226],[-3.1500978,54.5183803],[-3.1484885,54.5178709]]}},
{"type":"Feature","properties":{"id":30146,"nach":0.40745255471470754},"geometry":{"type":"LineString","coordinates":[[-3.1462852,54.5245929],[-3.1464611,54.5245551],[-3.1466955,54.5245072],[-3.1470318,54.524438399999987],[-3.1475913,54.524293900000011],[-3.1476931,54.5242576]]}},
{"type":"Feature","properties":{"id":67559,"nach":0.43061996501457517},"geometry":{"type":"LineString","coordinates":[[-3.1472718,54.5240176],[-3.1475459,54.5241521],[-3.1476931,54.5242576]]}},
{"type":"Feature","properties":{"id":82110,"nach":0.36696963425726425},"geometry":{"type":"LineString","coordinates":[[-3.149732,54.5259305],[-3.1496901,54.5258409],[-3.1496324,54.525698],[-3.1494604,54.5255359],[-3.1492116,54.5253258],[-3.1484652,54.5247148],[-3.1482211,54.524568200000012],[-3.1476931,54.5242576]]}},
{"type":"Feature","properties":{"id":95421,"nach":0.35009440738696335},"geometry":{"type":"LineString","coordinates":[[-3.1462044,54.5247939],[-3.1462852,54.5245929]]}},
{"type":"Feature","properties":{"id":83774,"nach":0.21490927130976012},"geometry":{"type":"LineString","coordinates":[[-3.1427989,54.5204728],[-3.1428476,54.5204945],[-3.1428985,54.5205079],[-3.1430547,54.5205207],[-3.1432188,54.5205283],[-3.1433102,54.5205327],[-3.1435829,54.5204561],[-3.1437265,54.5204932],[-3.1438514,54.5205986],[-3.1441446,54.520818400000017],[-3.1443898,54.5209542],[-3.1445829,54.5211597],[-3.145125,54.521263],[-3.1451383,54.5213378],[-3.1452111,54.521643200000014],[-3.1452345,54.5219033],[-3.1452492,54.5222513],[-3.1453636,54.522520299999982],[-3.1453979,54.5229515],[-3.1454206,54.5230047],[-3.1454648,54.5230927],[-3.1457375,54.5235577],[-3.1459582,54.524107],[-3.1461025,54.5243109],[-3.1461788,54.5244708],[-3.1462852,54.5245929]]}},
{"type":"Feature","properties":{"id":58000,"nach":0.35405857221522857},"geometry":{"type":"LineString","coordinates":[[-3.1446925,54.5248345],[-3.1448086,54.52475530000001],[-3.1449084,54.5247003],[-3.1451018,54.5246635],[-3.1453298,54.5246557],[-3.1455337,54.5246822],[-3.1457448,54.5246845],[-3.1460084,54.5246417],[-3.1462852,54.5245929]]}},
{"type":"Feature","properties":{"id":64675,"nach":0.28872304835217094},"geometry":{"type":"LineString","coordinates":[[-3.1443416,54.524206],[-3.1444033,54.5242037],[-3.1444972,54.5242063],[-3.1445635,54.5242207],[-3.1446128,54.5242537],[-3.1447007,54.5243394],[-3.1447895,54.5243964],[-3.1448807,54.5244369],[-3.1450319,54.5244712],[-3.1451481,54.5244842],[-3.1452439,54.52449],[-3.1454328,54.5245003],[-3.1456282,54.5245096],[-3.1458237,54.5244865],[-3.1459901,54.5244633],[-3.146052,54.5244692],[-3.1461677,54.524527],[-3.1462852,54.5245929]]}},
{"type":"Feature","properties":{"id":82463,"nach":0.42756011146611772},"geometry":{"type":"LineString","coordinates":[[-3.1479868,54.5236133],[-3.1473468,54.523962599999983],[-3.1472718,54.5240176]]}},
{"type":"Feature","properties":{"id":95432,"nach":0.39232828972263745},"geometry":{"type":"LineString","coordinates":[[-3.1471669,54.5239549],[-3.1471911,54.5239731],[-3.1472718,54.5240176]]}},
{"type":"Feature","properties":{"id":95422,"nach":0.26851714659322862},"geometry":{"type":"LineString","coordinates":[[-3.1462044,54.5247939],[-3.1461922,54.5248274],[-3.1461148,54.5249278],[-3.1460773,54.5249558],[-3.1459689,54.5249846],[-3.1456531,54.5250103],[-3.1455082,54.5251266],[-3.1452861,54.5252696],[-3.1452148,54.5254393],[-3.1451395,54.5255494],[-3.1449941,54.5258604],[-3.1449565,54.5259017],[-3.1448504,54.5260317],[-3.144845,54.5261381],[-3.1446004,54.5261548],[-3.1443675,54.5262905],[-3.144342,54.5263629],[-3.1443848,54.5265124],[-3.1442986,54.526801699999986],[-3.144219,54.5268696],[-3.144156,54.526886900000015],[-3.1440217,54.5268759],[-3.1439198,54.5268977],[-3.1438221,54.5269823],[-3.1437444,54.5269923],[-3.1431736,54.5267319],[-3.1430549,54.5266893],[-3.1428911,54.52666090000001],[-3.1427184,54.5266591],[-3.1425954,54.5266655]]}},
{"type":"Feature","properties":{"id":95423,"nach":0.29115843858417723},"geometry":{"type":"LineString","coordinates":[[-3.1462044,54.5247939],[-3.1462548,54.5248302],[-3.1462817,54.5248635],[-3.1462042,54.5249694]]}},
{"type":"Feature","properties":{"id":83773,"nach":0.068759047759684985},"geometry":{"type":"LineString","coordinates":[[-3.1427989,54.5204728],[-3.1427795,54.5204611],[-3.1425505,54.5202504],[-3.1423306,54.519682400000015],[-3.1421513,54.5194144],[-3.1422146,54.5193659],[-3.1425032,54.519347900000014],[-3.1425606,54.5193397],[-3.1426098,54.519325],[-3.1426356,54.5193039],[-3.1426505,54.51928],[-3.1426554,54.5192373],[-3.1427008,54.5188915],[-3.1427618,54.5187776],[-3.142798,54.5187256],[-3.1427892,54.518666],[-3.1426873,54.5185233],[-3.1426429,54.5184231],[-3.1425567,54.5182641],[-3.1424444,54.5181037],[-3.142366,54.5179726],[-3.1420067,54.517649],[-3.1418036,54.5173548],[-3.1416854,54.517154],[-3.1415903,54.5170358],[-3.1414348,54.5169296],[-3.1412238,54.5168561],[-3.1408806,54.5166122],[-3.1405097,54.5163858],[-3.1404364,54.5162998],[-3.14024,54.5161587],[-3.1402312,54.5161397],[-3.1402245,54.516041],[-3.1402196,54.5159567],[-3.1401507,54.5158322],[-3.1400742,54.5157383],[-3.1399814,54.5156703],[-3.1397434,54.515444100000011],[-3.1396064,54.5152883],[-3.139434,54.5151559],[-3.1389651,54.5148362],[-3.1387041,54.5147437],[-3.138651,54.514719799999988]]}},
{"type":"Feature","properties":{"id":83772,"nach":0.068764103404187524},"geometry":{"type":"LineString","coordinates":[[-3.1427989,54.5204728],[-3.1426513,54.5207141],[-3.142576,54.520763600000016],[-3.1425496,54.5208627],[-3.1425497,54.5210312],[-3.1425712,54.521376600000011],[-3.1425774,54.521466900000014],[-3.1426993,54.5217041],[-3.1426729,54.5217688],[-3.1428244,54.5218595],[-3.1428952,54.521975],[-3.1429201,54.522179100000017],[-3.1429491,54.5222963],[-3.1429814,54.5223714],[-3.1429536,54.5224424],[-3.142962,54.5225496],[-3.1430325,54.5225795],[-3.1432313,54.5227534],[-3.1432385,54.5228189],[-3.1431913,54.5228751],[-3.1432017,54.5228943],[-3.14319,54.52308],[-3.143244,54.5231705],[-3.1432128,54.5232222],[-3.1432038,54.5233558],[-3.1431581,54.5234197],[-3.1429811,54.5236189],[-3.142997,54.5236771],[-3.1429884,54.5237276],[-3.1430021,54.5237931],[-3.1429203,54.5238343],[-3.1429167,54.5238895],[-3.1429294,54.523907800000011],[-3.1429562,54.52405370000001],[-3.14295850000001,54.5241068],[-3.1429089,54.5241742],[-3.142811,54.5242454],[-3.1426919,54.524271800000015],[-3.1426609,54.5243188],[-3.1423882,54.5244312],[-3.1423716,54.524471],[-3.1423528,54.5245778],[-3.1422611,54.5246254],[-3.1422793,54.5248802],[-3.142239200000011,54.5250175],[-3.1421305,54.5250775],[-3.1421052,54.5251111],[-3.1421159,54.525169],[-3.14212,54.5252291],[-3.1423115,54.5254116],[-3.1424266,54.5257033],[-3.1424637,54.5257747],[-3.1424424,54.5258666],[-3.1423568,54.5259407],[-3.1424355,54.5262555],[-3.1424847,54.5263321],[-3.142548900000011,54.5263867],[-3.1424984,54.5264995],[-3.1425954,54.5266655]]}},
{"type":"Feature","properties":{"id":36798,"nach":0.28506478079813208},"geometry":{"type":"LineString","coordinates":[[-3.1575352,54.525083],[-3.1575193,54.5251831],[-3.157544,54.5252167],[-3.1575871,54.525631]]}},
{"type":"Feature","properties":{"id":36386,"nach":0.29121851453660885},"geometry":{"type":"LineString","coordinates":[[-3.1548782,54.5236386],[-3.1551649,54.5237719],[-3.1554306,54.5239264],[-3.1556898,54.5241307],[-3.1560648,54.5244858],[-3.1566881,54.5249812],[-3.156928,54.525192100000012],[-3.1570312,54.5253233],[-3.1571776,54.5255814],[-3.157202,54.5256628],[-3.1572971,54.525685400000015],[-3.1575482,54.5256396],[-3.1575871,54.525631]]}},
{"type":"Feature","properties":{"id":36799,"nach":0.29013942841912371},"geometry":{"type":"LineString","coordinates":[[-3.1575352,54.525083],[-3.1574781,54.5250773],[-3.1573712,54.5250595],[-3.1569961,54.5249555],[-3.1568822,54.5248635],[-3.1564898,54.5245466],[-3.156429,54.5244949],[-3.1557063,54.5238802],[-3.1553553,54.523520500000011],[-3.1553454,54.523509299999986]]}},
{"type":"Feature","properties":{"id":36797,"nach":0.2877570937655714},"geometry":{"type":"LineString","coordinates":[[-3.1575352,54.525083],[-3.1578212,54.52493],[-3.1581756,54.5248968],[-3.1585306,54.5248406],[-3.158904,54.5247572],[-3.1592089,54.5247089],[-3.1595203,54.5246134],[-3.1596619,54.5245816],[-3.1597994,54.5245879]]}},
{"type":"Feature","properties":{"id":36389,"nach":0.3447622344162018},"geometry":{"type":"LineString","coordinates":[[-3.1553454,54.523509299999986],[-3.1552293,54.52352960000001],[-3.1549627,54.5235764],[-3.1548782,54.5236386]]}},
{"type":"Feature","properties":{"id":64632,"nach":0.36907467982114128},"geometry":{"type":"LineString","coordinates":[[-3.1507472,54.523147],[-3.151202900000011,54.523223],[-3.1517786,54.5233166],[-3.1519685,54.52333010000001],[-3.1532797,54.5235554],[-3.1533749,54.5235725],[-3.1540301,54.5235547],[-3.1544306,54.5235315],[-3.1545853,54.5235273],[-3.1546603,54.5235437],[-3.1548782,54.5236386]]}},
{"type":"Feature","properties":{"id":31810,"nach":0.37000231491558461},"geometry":{"type":"LineString","coordinates":[[-3.1487735,54.52292760000001],[-3.1487629,54.5229554],[-3.1487887,54.5230133],[-3.1488533,54.5230601],[-3.1490032,54.5231001]]}},
{"type":"Feature","properties":{"id":54423,"nach":0.44866914801575813},"geometry":{"type":"LineString","coordinates":[[-3.1491781,54.5230096],[-3.1491371,54.523047],[-3.1490032,54.5231001]]}},
{"type":"Feature","properties":{"id":95477,"nach":0.44459099756260023},"geometry":{"type":"LineString","coordinates":[[-3.1483778,54.5234166],[-3.148617,54.5232999],[-3.1490032,54.5231001]]}},
{"type":"Feature","properties":{"id":95430,"nach":0.39374691415144308},"geometry":{"type":"LineString","coordinates":[[-3.1489556,54.5228645],[-3.1487735,54.52292760000001]]}},
{"type":"Feature","properties":{"id":95437,"nach":0.39904404282956285},"geometry":{"type":"LineString","coordinates":[[-3.148039,54.5232686],[-3.1482499,54.5231921],[-3.1482631,54.5231737],[-3.1482369,54.5230901],[-3.1485764,54.5230055],[-3.1487735,54.52292760000001]]}},
{"type":"Feature","properties":{"id":54426,"nach":0.44629077168948805},"geometry":{"type":"LineString","coordinates":[[-3.1490762,54.5228096],[-3.1490721,54.5228479],[-3.1491073,54.5228873],[-3.149141,54.5229243],[-3.1491781,54.5230096]]}},
{"type":"Feature","properties":{"id":100726,"nach":0.43352704517318835},"geometry":{"type":"LineString","coordinates":[[-3.1495301,54.522991],[-3.1494225,54.5229705],[-3.1491781,54.5230096]]}},
{"type":"Feature","properties":{"id":95478,"nach":0.43845048654754593},"geometry":{"type":"LineString","coordinates":[[-3.1483778,54.5234166],[-3.1483049,54.5234522],[-3.1481568,54.5235247],[-3.1480448,54.5235866]]}},
{"type":"Feature","properties":{"id":95476,"nach":0.31540201765198878},"geometry":{"type":"LineString","coordinates":[[-3.1483778,54.5234166],[-3.14852,54.5235058]]}},
{"type":"Feature","properties":{"id":36813,"nach":0.39040107044212186},"geometry":{"type":"LineString","coordinates":[[-3.1588183,54.5131856],[-3.1588791,54.5131822],[-3.1591518,54.5131679],[-3.1612551,54.5129889],[-3.1613803,54.5129751],[-3.1614906,54.5129601],[-3.1620992,54.5128558],[-3.1622205,54.5128375],[-3.1623428,54.5128243],[-3.1625022,54.5128148],[-3.1633063,54.5127943],[-3.1634226,54.5127926],[-3.1635443,54.512797900000017],[-3.1636527,54.5128105],[-3.1640068,54.5128582],[-3.16423090000001,54.512883700000017],[-3.1644187,54.5128986],[-3.164582,54.5129032]]}},
{"type":"Feature","properties":{"id":36812,"nach":0.38473476465936829},"geometry":{"type":"LineString","coordinates":[[-3.1588183,54.5131856],[-3.1583735,54.51320650000001]]}},
{"type":"Feature","properties":{"id":64572,"nach":0.35531209908471273},"geometry":{"type":"LineString","coordinates":[[-3.1588541,54.5133858],[-3.1588587,54.5133138],[-3.1588497,54.51325210000001],[-3.1588183,54.5131856]]}},
{"type":"Feature","properties":{"id":36818,"nach":0.35568906457345922},"geometry":{"type":"LineString","coordinates":[[-3.1594837,54.5124814],[-3.1593397,54.5126171],[-3.1592432,54.5127676],[-3.1590833,54.5129436],[-3.1589344,54.5130771],[-3.1588576,54.5131496],[-3.1588183,54.5131856]]}},
{"type":"Feature","properties":{"id":56492,"nach":0.29125595735695414},"geometry":{"type":"LineString","coordinates":[[-3.1640557,54.5136791],[-3.1637449,54.5137114],[-3.1636705,54.5138191],[-3.1635439,54.513959],[-3.1633971,54.5139477],[-3.1631662,54.5138854],[-3.1629271,54.5139028],[-3.1628863,54.5139381],[-3.1626422,54.5139977],[-3.1622662,54.5141107],[-3.1617583,54.514233],[-3.1617282,54.514236],[-3.1616883,54.5145927],[-3.1615509,54.5147287]]}},
{"type":"Feature","properties":{"id":37333,"nach":0.38068125670004882},"geometry":{"type":"LineString","coordinates":[[-3.164493,54.5149593],[-3.1645912,54.5149043],[-3.1648031,54.5148242],[-3.1650004,54.5147199],[-3.1652481,54.5146271],[-3.1655042,54.5144838],[-3.1656723,54.5144283]]}},
{"type":"Feature","properties":{"id":65386,"nach":0.37104020139940036},"geometry":{"type":"LineString","coordinates":[[-3.1642874,54.5147033],[-3.1644765,54.5146722],[-3.1646869,54.5146323],[-3.1649821,54.514572099999988],[-3.1651387,54.514551],[-3.1653764,54.5144685],[-3.1656723,54.5144283]]}},
{"type":"Feature","properties":{"id":37336,"nach":0.38578253659233419},"geometry":{"type":"LineString","coordinates":[[-3.1644125,54.5150367],[-3.1644638,54.515009],[-3.164493,54.5149593]]}},
{"type":"Feature","properties":{"id":65387,"nach":0.28772493028425167},"geometry":{"type":"LineString","coordinates":[[-3.1642874,54.5147033],[-3.1643154,54.5147889],[-3.1643584,54.5148492],[-3.164493,54.5149593]]}},
{"type":"Feature","properties":{"id":65385,"nach":0.37232953971676425},"geometry":{"type":"LineString","coordinates":[[-3.1642874,54.5147033],[-3.1642267,54.5147133],[-3.1641683,54.5147146],[-3.163874,54.514670099999982],[-3.1634825,54.514679],[-3.1634066,54.5146631],[-3.1630432,54.5145732],[-3.1624377,54.5145133],[-3.1615509,54.5147287]]}},
{"type":"Feature","properties":{"id":56440,"nach":0.37426145776735575},"geometry":{"type":"LineString","coordinates":[[-3.1612139,54.51478],[-3.1615509,54.5147287]]}},
{"type":"Feature","properties":{"id":56445,"nach":0.34132010510812638},"geometry":{"type":"LineString","coordinates":[[-3.1631698,54.515409600000012],[-3.1631135,54.5153149],[-3.16267360000001,54.515229200000022],[-3.1622605,54.5151156],[-3.1619199,54.515019],[-3.1616946,54.5149069],[-3.1612139,54.51478]]}},
{"type":"Feature","properties":{"id":89661,"nach":0.38709503325570682},"geometry":{"type":"LineString","coordinates":[[-3.159652,54.5150201],[-3.1600587,54.5149539],[-3.1612139,54.51478]]}},
{"type":"Feature","properties":{"id":55827,"nach":0.0},"geometry":{"type":"LineString","coordinates":[[-3.1517782,54.5184585],[-3.1517115,54.5183674],[-3.151737,54.5181567],[-3.1517889,54.5180924],[-3.1518425,54.5180209],[-3.1519426,54.5179722],[-3.1521726,54.5179807],[-3.1522981,54.5179757]]}},
{"type":"Feature","properties":{"id":36733,"nach":0.38675340202390307},"geometry":{"type":"LineString","coordinates":[[-3.1521804,54.5183003],[-3.1522308,54.5182271],[-3.1522981,54.5179757]]}},
{"type":"Feature","properties":{"id":56439,"nach":0.36700564783132761},"geometry":{"type":"LineString","coordinates":[[-3.1524793,54.5176643],[-3.1523518,54.5179328],[-3.1522981,54.5179757]]}},
{"type":"Feature","properties":{"id":55828,"nach":0.43728029496271498},"geometry":{"type":"LineString","coordinates":[[-3.1517782,54.5184585],[-3.1518926,54.5184032],[-3.1521804,54.5183003]]}},
{"type":"Feature","properties":{"id":95462,"nach":0.4444776281073568},"geometry":{"type":"LineString","coordinates":[[-3.1515927,54.5187249],[-3.1516346,54.518682399999989],[-3.151664,54.5186395],[-3.1517051,54.5185517],[-3.1517361,54.5184974],[-3.1517782,54.5184585]]}},
{"type":"Feature","properties":{"id":95787,"nach":0.35958082713302614},"geometry":{"type":"LineString","coordinates":[[-3.1524049,54.5182714],[-3.1523349,54.518286199999984],[-3.1521804,54.5183003]]}},
{"type":"Feature","properties":{"id":95783,"nach":0.36037546786332597},"geometry":{"type":"LineString","coordinates":[[-3.1522987,54.5184227],[-3.1522879,54.5183943],[-3.1522126,54.518339399999988],[-3.1521804,54.5183003]]}},
{"type":"Feature","properties":{"id":40962,"nach":0.2461488730861642},"geometry":{"type":"LineString","coordinates":[[-3.1520452,54.51872860000001],[-3.1520242,54.5186712],[-3.1521804,54.5183003]]}},
{"type":"Feature","properties":{"id":56437,"nach":0.30685087519584942},"geometry":{"type":"LineString","coordinates":[[-3.1524793,54.5176643],[-3.1525565,54.5175494],[-3.1529406,54.516972],[-3.1530015,54.516886],[-3.153198,54.516747],[-3.1535645,54.516529200000015],[-3.1537326,54.5164293],[-3.1537611,54.516327],[-3.1540219,54.5163161],[-3.1554867,54.5161656],[-3.1565442,54.5158371],[-3.1566561,54.5158127],[-3.1569457,54.5158563],[-3.1571048,54.5158435],[-3.1574171,54.5157784],[-3.1575327,54.5157634],[-3.157614,54.515737300000012],[-3.1578252,54.5156158],[-3.1581895,54.5154847],[-3.158466,54.5153448]]}},
{"type":"Feature","properties":{"id":65388,"nach":0.31121764983247963},"geometry":{"type":"LineString","coordinates":[[-3.1527081,54.5176752],[-3.1525537,54.5176548],[-3.1524793,54.5176643]]}},
{"type":"Feature","properties":{"id":95453,"nach":0.47629958141007428},"geometry":{"type":"LineString","coordinates":[[-3.1507658,54.5189864],[-3.1508118,54.5189769],[-3.1509698,54.5189317],[-3.1510625,54.5189125],[-3.1513544,54.5188722]]}},
{"type":"Feature","properties":{"id":95463,"nach":0.45984858345557622},"geometry":{"type":"LineString","coordinates":[[-3.1515927,54.5187249],[-3.15155330000001,54.5187548],[-3.1514061,54.5188525],[-3.1513544,54.5188722]]}},
{"type":"Feature","properties":{"id":64549,"nach":0.40706163400038353},"geometry":{"type":"LineString","coordinates":[[-3.1517509,54.51938530000001],[-3.1516414,54.5193446],[-3.1516096,54.5193003],[-3.1515662,54.5191434],[-3.1515202,54.518968500000014],[-3.1513544,54.5188722]]}},
{"type":"Feature","properties":{"id":95454,"nach":0.4818427475617712},"geometry":{"type":"LineString","coordinates":[[-3.1507658,54.5189864],[-3.1507176,54.518990100000011],[-3.150644,54.518989],[-3.1503459,54.5189779],[-3.1502827,54.5189737]]}},
{"type":"Feature","properties":{"id":95457,"nach":0.32578061012616893},"geometry":{"type":"LineString","coordinates":[[-3.1508857,54.5190729],[-3.1507965,54.519046],[-3.150775,54.51900770000001],[-3.1507658,54.5189864]]}},
{"type":"Feature","properties":{"id":95464,"nach":0.34017393105559363},"geometry":{"type":"LineString","coordinates":[[-3.1515927,54.5187249],[-3.1517,54.518727],[-3.1519197,54.518728],[-3.1520452,54.51872860000001]]}},
{"type":"Feature","properties":{"id":64548,"nach":0.28880810919630057},"geometry":{"type":"LineString","coordinates":[[-3.1517509,54.51938530000001],[-3.1517242,54.5195596],[-3.151717,54.5196907],[-3.1519263,54.520106],[-3.1520778,54.5203331],[-3.1522073,54.5206165],[-3.1522995,54.520821699999985],[-3.1523934,54.5210678],[-3.1524659,54.5212129],[-3.1528786,54.521824200000012],[-3.1534961,54.5221318],[-3.1539304,54.52234820000001],[-3.1544341,54.522869],[-3.1545769,54.5230307],[-3.1546631,54.5230859],[-3.1547243,54.523185],[-3.1550475,54.52340190000001],[-3.1551841,54.523461],[-3.1553454,54.523509299999986]]}},
{"type":"Feature","properties":{"id":64553,"nach":0.38310935087283055},"geometry":{"type":"LineString","coordinates":[[-3.1520747,54.519404599999987],[-3.1518938,54.5194138],[-3.1517509,54.51938530000001]]}},
{"type":"Feature","properties":{"id":36728,"nach":0.44580407741100037},"geometry":{"type":"LineString","coordinates":[[-3.1502827,54.5189737],[-3.150243,54.5190066],[-3.150259,54.5190554],[-3.1503771,54.51915],[-3.1504008,54.5191967],[-3.150259,54.519368700000015],[-3.1500271,54.519559699999988],[-3.1499468,54.5196316],[-3.1499196,54.5200832],[-3.1498363,54.5200952],[-3.1497205,54.5202222],[-3.1495154,54.5203659],[-3.1492611,54.52048],[-3.1492641,54.5205082],[-3.1493009,54.5208342],[-3.1494166,54.5213297],[-3.1497263,54.5221633],[-3.14942,54.5222485]]}},
{"type":"Feature","properties":{"id":95445,"nach":0.41087159197211054},"geometry":{"type":"LineString","coordinates":[[-3.1486843,54.521335],[-3.1487451,54.5214307],[-3.1489275,54.5216693],[-3.1491183,54.521896],[-3.14929010000001,54.5220968],[-3.1493965,54.5222103],[-3.14942,54.5222485]]}},
{"type":"Feature","properties":{"id":31813,"nach":0.4658876249024313},"geometry":{"type":"LineString","coordinates":[[-3.1493916,54.5226716],[-3.1494095,54.5226099],[-3.1494282,54.522488899999985],[-3.1494355,54.52235970000001],[-3.14942,54.5222485]]}},
{"type":"Feature","properties":{"id":96720,"nach":0.46117034365960291},"geometry":{"type":"LineString","coordinates":[[-3.1502574,54.5189648],[-3.1502827,54.5189737]]}},
{"type":"Feature","properties":{"id":64612,"nach":0.32579619180920433},"geometry":{"type":"LineString","coordinates":[[-3.1505615,54.5187793],[-3.1504296,54.5188506],[-3.1503209,54.5189368],[-3.1502827,54.5189737]]}},
{"type":"Feature","properties":{"id":95452,"nach":0.38974346148040595},"geometry":{"type":"LineString","coordinates":[[-3.1483874,54.5209438],[-3.1484251,54.5209817],[-3.148522,54.5211104],[-3.1486843,54.521335]]}},
{"type":"Feature","properties":{"id":95448,"nach":0.30390628266638159},"geometry":{"type":"LineString","coordinates":[[-3.1485123,54.5209075],[-3.1485307,54.5209262],[-3.1486063,54.521009],[-3.1486843,54.5211102],[-3.1487157,54.5211828],[-3.148715,54.5212788],[-3.1486843,54.521335]]}},
{"type":"Feature","properties":{"id":65486,"nach":0.32078666020766128},"geometry":{"type":"LineString","coordinates":[[-3.1495793,54.5227104],[-3.1493916,54.5226716]]}},
{"type":"Feature","properties":{"id":54425,"nach":0.46723633426489636},"geometry":{"type":"LineString","coordinates":[[-3.1490762,54.5228096],[-3.1491569,54.5227647],[-3.1492318,54.522737],[-3.1493021,54.5227053],[-3.1493916,54.5226716]]}},
{"type":"Feature","properties":{"id":95429,"nach":0.4023983005382617},"geometry":{"type":"LineString","coordinates":[[-3.1489556,54.5228645],[-3.1490762,54.5228096]]}},
{"type":"Feature","properties":{"id":95431,"nach":0.32142691850858363},"geometry":{"type":"LineString","coordinates":[[-3.1489556,54.5228645],[-3.1489436,54.5229072],[-3.1489221,54.5229464],[-3.1488364,54.522965800000016]]}},
{"type":"Feature","properties":{"id":95439,"nach":0.31447463538329079},"geometry":{"type":"LineString","coordinates":[[-3.148039,54.5232686],[-3.148132,54.5233615],[-3.1482074,54.5233936]]}},
{"type":"Feature","properties":{"id":95441,"nach":0.38354042668439714},"geometry":{"type":"LineString","coordinates":[[-3.1477977,54.5233264],[-3.1479261,54.5232859],[-3.148039,54.5232686]]}},
{"type":"Feature","properties":{"id":43174,"nach":0.30957320212864198},"geometry":{"type":"LineString","coordinates":[[-3.1527814,54.515367500000011],[-3.1529663,54.5152433],[-3.153069,54.5151759],[-3.1533188,54.5150239],[-3.1533867,54.514985799999984],[-3.153461,54.5149518],[-3.1535307,54.5149258],[-3.1536042,54.5149035],[-3.1542121,54.5147516],[-3.1549238,54.5145893],[-3.155247,54.5145084],[-3.1556184,54.5144103],[-3.1559454,54.5143176],[-3.1561345,54.5142576],[-3.1562434,54.5142159],[-3.156355,54.5141652],[-3.156450500000011,54.514103],[-3.1570061,54.5136884]]}},
{"type":"Feature","properties":{"id":34341,"nach":0.34809042497838377},"geometry":{"type":"LineString","coordinates":[[-3.1583735,54.51320650000001],[-3.1578542,54.5132315],[-3.1577701,54.5132367],[-3.1576873,54.5132466],[-3.1576128,54.5132597],[-3.1575405,54.5132766],[-3.1574565,54.513305100000011],[-3.1573797,54.51333970000001],[-3.1573114,54.5133799],[-3.1572528,54.513425],[-3.1572049,54.5134741],[-3.157107200000011,54.5135936],[-3.1570542,54.5136495],[-3.1570061,54.5136884]]}},
{"type":"Feature","properties":{"id":31858,"nach":0.27010283396070461},"geometry":{"type":"LineString","coordinates":[[-3.1542175,54.5116044],[-3.1542452,54.5116602],[-3.1543022,54.5116748],[-3.1543125,54.5116754],[-3.1544523,54.5116842],[-3.1545122,54.511688],[-3.1545412,54.5117745],[-3.1546133,54.5118566],[-3.1546407,54.5120115],[-3.1546682,54.512094],[-3.1547212,54.5121288],[-3.1548803,54.5122395],[-3.155084,54.5123561],[-3.1552766,54.5124489],[-3.1555365,54.5125333],[-3.1558285,54.5125834],[-3.1559463,54.5126368],[-3.1561259,54.5127443],[-3.1563589,54.5128864],[-3.1564579,54.5129731],[-3.1568106,54.5131503],[-3.1568697,54.513211],[-3.156876,54.5132729],[-3.1568544,54.5135364],[-3.156875,54.5136096],[-3.1569841,54.5136748],[-3.1570061,54.5136884]]}},
{"type":"Feature","properties":{"id":43172,"nach":0.25069289237598413},"geometry":{"type":"LineString","coordinates":[[-3.1527814,54.515367500000011],[-3.1527512,54.5153504],[-3.1526229,54.5153166],[-3.1522751,54.514985],[-3.1521447,54.5149345],[-3.1519398,54.5148732],[-3.1514725,54.5147814],[-3.1511496,54.514702],[-3.1504285,54.5144864]]}},
{"type":"Feature","properties":{"id":64576,"nach":0.33705400297554988},"geometry":{"type":"LineString","coordinates":[[-3.1583954,54.513406600000017],[-3.1583844,54.5132601],[-3.1583735,54.51320650000001]]}},
{"type":"Feature","properties":{"id":34345,"nach":0.23815169922703439},"geometry":{"type":"LineString","coordinates":[[-3.1530575,54.512758600000012],[-3.153123,54.512627],[-3.1532101,54.5125035],[-3.1532836,54.5124473],[-3.1533494,54.5123608],[-3.1534694,54.512285500000011],[-3.153601,54.5121788],[-3.1536784,54.5120811],[-3.153839,54.5119991],[-3.1539745,54.5119306],[-3.1540306,54.5118283],[-3.1540848,54.5117171],[-3.1541433,54.5116917],[-3.1542175,54.5116044]]}},
{"type":"Feature","properties":{"id":31861,"nach":0.19046742381480888},"geometry":{"type":"LineString","coordinates":[[-3.1524304,54.5109069],[-3.1526678,54.5109452],[-3.1529847,54.5110149],[-3.1531956,54.5110988],[-3.1533414,54.51115140000001],[-3.1535895,54.5112461],[-3.153851,54.5113059],[-3.1539502,54.5113435],[-3.1540347,54.511468],[-3.1540337,54.5115307],[-3.1541025,54.5115966],[-3.1542175,54.5116044]]}},
{"type":"Feature","properties":{"id":34344,"nach":0.1694136013946462},"geometry":{"type":"LineString","coordinates":[[-3.1530575,54.512758600000012],[-3.1530829,54.5125508],[-3.1529831,54.51228110000001],[-3.1529711,54.5120288],[-3.1528219,54.5118238],[-3.1526961,54.511627],[-3.1525765,54.5113963],[-3.152439,54.511078],[-3.1524304,54.5109069]]}},
{"type":"Feature","properties":{"id":34346,"nach":0.27175528423035505},"geometry":{"type":"LineString","coordinates":[[-3.1504285,54.5144864],[-3.1507715,54.5143829],[-3.1510045,54.5142935],[-3.1512971,54.5141413],[-3.1513565,54.5141016],[-3.1512899,54.5140632],[-3.1512129,54.514001900000011],[-3.15118270000001,54.513785],[-3.1515269,54.5136414],[-3.1519212,54.513389],[-3.152587,54.513237],[-3.1526185,54.5129808],[-3.1528126,54.5128382],[-3.152948,54.5128104],[-3.1530575,54.512758600000012]]}},
{"type":"Feature","properties":{"id":64574,"nach":0.26298106419908857},"geometry":{"type":"LineString","coordinates":[[-3.1583954,54.513406600000017],[-3.1588541,54.5133858]]}},
{"type":"Feature","properties":{"id":95465,"nach":0.30939399584997923},"geometry":{"type":"LineString","coordinates":[[-3.1580357,54.5134517],[-3.15819930000001,54.5134126],[-3.1583954,54.513406600000017]]}},
{"type":"Feature","properties":{"id":64629,"nach":0.26847732999697888},"geometry":{"type":"LineString","coordinates":[[-3.1585393,54.5237481],[-3.1584468,54.5237445],[-3.1572391,54.52376240000001],[-3.1565563,54.5237242],[-3.1558988,54.523626500000013],[-3.1553673,54.5235139],[-3.1553454,54.523509299999986]]}},
{"type":"Feature","properties":{"id":64633,"nach":0.2873482970600903},"geometry":{"type":"LineString","coordinates":[[-3.1507472,54.523147],[-3.1507931,54.5233573],[-3.150789,54.523535099999989],[-3.1508123,54.5236106],[-3.1508895,54.523716],[-3.1510574,54.5238801],[-3.1511985,54.5240057],[-3.1514468,54.52423],[-3.1516145,54.5243676],[-3.1516765,54.5244126],[-3.1518104,54.5245217],[-3.1520412,54.5246279],[-3.1521351,54.5246624],[-3.1522357,54.524661400000021],[-3.1523395,54.5246442],[-3.1523791,54.5246164],[-3.1523857,54.5245657],[-3.1523329,54.524461500000015]]}},
{"type":"Feature","properties":{"id":95425,"nach":0.39545513122769377},"geometry":{"type":"LineString","coordinates":[[-3.1500729,54.5230399],[-3.1504153,54.523093500000016],[-3.1507472,54.523147]]}},
{"type":"Feature","properties":{"id":95513,"nach":0.40095076249401762},"geometry":{"type":"LineString","coordinates":[[-3.1411255,54.5139925],[-3.1411884,54.5140169],[-3.1415955,54.5141082]]}},
{"type":"Feature","properties":{"id":64592,"nach":0.40699313848733282},"geometry":{"type":"LineString","coordinates":[[-3.147208,54.5163687],[-3.1470182,54.5164345]]}},
{"type":"Feature","properties":{"id":64601,"nach":0.40508000832664026},"geometry":{"type":"LineString","coordinates":[[-3.14675620000001,54.5168053],[-3.1467835,54.516749899999986],[-3.1468197,54.516700700000015],[-3.1470028,54.5164941],[-3.1470182,54.5164345]]}},
{"type":"Feature","properties":{"id":85906,"nach":0.38177625857797343},"geometry":{"type":"LineString","coordinates":[[-3.1465258,54.5160368],[-3.1469322,54.516327600000018],[-3.1470069,54.5163844],[-3.1470182,54.5164345]]}},
{"type":"Feature","properties":{"id":95470,"nach":0.38450171205791461},"geometry":{"type":"LineString","coordinates":[[-3.1480664,54.5157518],[-3.1480619,54.5158116],[-3.1480367,54.5158518],[-3.1479394,54.5158751],[-3.1478516,54.5158959],[-3.1477192,54.5159423],[-3.1474033,54.5162369],[-3.1473228,54.5162865],[-3.147208,54.5163687]]}},
{"type":"Feature","properties":{"id":64595,"nach":0.31379162156792534},"geometry":{"type":"LineString","coordinates":[[-3.147496,54.5163491],[-3.1474025,54.5163937],[-3.1473349,54.5163949],[-3.147208,54.5163687]]}},
{"type":"Feature","properties":{"id":64600,"nach":0.43633055433723933},"geometry":{"type":"LineString","coordinates":[[-3.14675620000001,54.5168053],[-3.1467572,54.5168436]]}},
{"type":"Feature","properties":{"id":64604,"nach":0.38936142051260403},"geometry":{"type":"LineString","coordinates":[[-3.1456646,54.5164605],[-3.1457032,54.5164823],[-3.1459577,54.5166349],[-3.1460683,54.5166779],[-3.1462393,54.5167136],[-3.146596,54.5167754],[-3.14675620000001,54.5168053]]}},
{"type":"Feature","properties":{"id":85907,"nach":0.35663025584139929},"geometry":{"type":"LineString","coordinates":[[-3.1465258,54.5160368],[-3.146354,54.5159322],[-3.146229,54.5158773],[-3.1460987,54.515826],[-3.1459633,54.515770799999984],[-3.1455716,54.5155785],[-3.1454148,54.5155127],[-3.1451135,54.5153672],[-3.1449633,54.5153248],[-3.1448368,54.5153052],[-3.1446758,54.515298199999989],[-3.1444088,54.5152954],[-3.1443252,54.5152819],[-3.144288,54.515275499999987]]}},
{"type":"Feature","properties":{"id":85909,"nach":0.31297136983938206},"geometry":{"type":"LineString","coordinates":[[-3.1468037,54.5157492],[-3.1467713,54.515822800000016],[-3.1467235,54.515884],[-3.1466295,54.5159649],[-3.1465258,54.5160368]]}},
{"type":"Feature","properties":{"id":64597,"nach":0.43787000330437564},"geometry":{"type":"LineString","coordinates":[[-3.1482349,54.5177377],[-3.1475296,54.5174719],[-3.1474275,54.5174271],[-3.147345,54.5173807],[-3.1472311,54.5172798],[-3.1471645,54.5171785],[-3.1470808,54.5170774],[-3.1469455,54.5169804],[-3.1468165,54.5169134],[-3.146781,54.5168782],[-3.1467572,54.5168436]]}},
{"type":"Feature","properties":{"id":64607,"nach":0.31200598260129647},"geometry":{"type":"LineString","coordinates":[[-3.1456292,54.5170987],[-3.1460097,54.5168279],[-3.1461079,54.5167711],[-3.1462049,54.5167748],[-3.1464083,54.5167966],[-3.1465939,54.516822600000012],[-3.1467572,54.5168436]]}},
{"type":"Feature","properties":{"id":99809,"nach":0.44556254710908955},"geometry":{"type":"LineString","coordinates":[[-3.14852,54.5178451],[-3.1482349,54.5177377]]}},
{"type":"Feature","properties":{"id":64599,"nach":0.32070330421295606},"geometry":{"type":"LineString","coordinates":[[-3.148098,54.517498],[-3.1482356,54.5175004],[-3.1482438,54.5175404],[-3.1482695,54.5176752],[-3.1482349,54.5177377]]}},
{"type":"Feature","properties":{"id":99811,"nach":0.40250113605447385},"geometry":{"type":"LineString","coordinates":[[-3.14852,54.5178451],[-3.1485379,54.5178328],[-3.1485806,54.5178064],[-3.1487886,54.5176808],[-3.148853,54.51763],[-3.1489083,54.5175729]]}},
{"type":"Feature","properties":{"id":96721,"nach":0.45698527094561037},"geometry":{"type":"LineString","coordinates":[[-3.1502574,54.5189648],[-3.150233,54.5189455],[-3.1502006,54.5188795],[-3.1501933,54.518818199999984],[-3.1502082,54.5187279],[-3.1502526,54.5186241],[-3.1502719,54.5185481],[-3.150269,54.5185051],[-3.1502456,54.5184661]]}},
{"type":"Feature","properties":{"id":99812,"nach":0.37077553567524385},"geometry":{"type":"LineString","coordinates":[[-3.1508066,54.5165852],[-3.1504833,54.5170427],[-3.1503937,54.517247800000021],[-3.150304,54.5177377],[-3.1503884,54.5181633],[-3.1504939,54.5183409],[-3.1502456,54.5184661]]}},
{"type":"Feature","properties":{"id":96722,"nach":0.32581661806817896},"geometry":{"type":"LineString","coordinates":[[-3.1502574,54.5189648],[-3.1501816,54.51902170000001],[-3.1500628,54.5190352],[-3.1499279,54.5190481],[-3.1498833,54.5190878],[-3.1498394,54.5191593],[-3.1497996,54.5191811]]}},
{"type":"Feature","properties":{"id":99816,"nach":0.29780057899933171},"geometry":{"type":"LineString","coordinates":[[-3.1513302,54.5174125],[-3.1512392,54.5173575],[-3.1512259,54.5173035],[-3.1513055,54.5169876],[-3.1513112,54.5168478],[-3.1512866,54.5167531],[-3.1512524,54.5166925],[-3.1512012,54.5166573],[-3.1511329,54.5166342],[-3.1508066,54.5165852]]}},
{"type":"Feature","properties":{"id":95786,"nach":0.31625269405187234},"geometry":{"type":"LineString","coordinates":[[-3.1524049,54.5182714],[-3.1524617,54.5182593],[-3.1525266,54.5181947],[-3.1525721,54.5180643]]}},
{"type":"Feature","properties":{"id":95788,"nach":0.13746275333456642},"geometry":{"type":"LineString","coordinates":[[-3.1524049,54.5182714],[-3.1524302,54.5183172],[-3.1524206,54.518371400000014],[-3.1523919,54.5184019],[-3.1522987,54.5184227]]}},
{"type":"Feature","properties":{"id":95785,"nach":0.31782628492733628},"geometry":{"type":"LineString","coordinates":[[-3.15216,54.5185649],[-3.1522867,54.5184609],[-3.1522987,54.5184227]]}},
{"type":"Feature","properties":{"id":40961,"nach":0.29380447892318201},"geometry":{"type":"LineString","coordinates":[[-3.1520452,54.51872860000001],[-3.1520949,54.5188254],[-3.1522751,54.519102],[-3.1524006,54.5193136],[-3.1525312,54.5193725],[-3.1530784,54.51944730000001],[-3.153808,54.5195095],[-3.1542854,54.5195064],[-3.1544678,54.5194597],[-3.1548201,54.5194673],[-3.1550632,54.5196123]]}},
{"type":"Feature","properties":{"id":40964,"nach":0.21096578218425796},"geometry":{"type":"LineString","coordinates":[[-3.1570345,54.5172469],[-3.1569098,54.5172718],[-3.1566378,54.5172382],[-3.1564955,54.5172739],[-3.1563185,54.5173019],[-3.1561969,54.5173831],[-3.1559698,54.5174233],[-3.1558731,54.5177597],[-3.1560257,54.5178541],[-3.1561206,54.5180064],[-3.1562446,54.5180935],[-3.1563936,54.518158199999988],[-3.1564951,54.5182296],[-3.1564324,54.5183313],[-3.1563565,54.5183607],[-3.1561361,54.518446],[-3.1557177,54.518516299999987],[-3.1556158,54.5185848],[-3.1554924,54.5187],[-3.1554796,54.518779899999984],[-3.1557177,54.5188058],[-3.1556953,54.518907899999988],[-3.1558028,54.5190262],[-3.155934,54.5192174],[-3.1557141,54.5192221],[-3.1554817,54.5191857],[-3.1553851,54.519276],[-3.1553215,54.5193916],[-3.1550632,54.5196123]]}},
{"type":"Feature","properties":{"id":56435,"nach":0.12190937563870403},"geometry":{"type":"LineString","coordinates":[[-3.1612657,54.5226951],[-3.1606855,54.5224455],[-3.1602038,54.5219997],[-3.159423,54.521618],[-3.1592165,54.5216543],[-3.1582801,54.5210826],[-3.1573886,54.5209296],[-3.1564077,54.5205669],[-3.1560032,54.520369],[-3.1555518,54.520169700000011],[-3.1551484,54.5199458],[-3.1550632,54.5196123]]}},
{"type":"Feature","properties":{"id":40963,"nach":0.21516454089664475},"geometry":{"type":"LineString","coordinates":[[-3.1570345,54.5172469],[-3.1572386,54.51715690000001],[-3.1573967,54.5170154],[-3.1577464,54.51686140000001],[-3.1583784,54.5168597],[-3.1588748,54.5169258],[-3.1591881,54.5169142],[-3.1598653,54.51677560000001],[-3.1606507,54.516496],[-3.1612778,54.5161967],[-3.1619243,54.5159692],[-3.1623783,54.5158445],[-3.1625892,54.5158103],[-3.162847,54.5157356]]}},
{"type":"Feature","properties":{"id":40965,"nach":0.17757572663736376},"geometry":{"type":"LineString","coordinates":[[-3.1570345,54.5172469],[-3.157326,54.5174437],[-3.1576605,54.5177135],[-3.1579629,54.518042099999988],[-3.1581427,54.5183803],[-3.1583386,54.518786],[-3.1584777,54.5191034],[-3.1586664,54.51927],[-3.1590997,54.5191402],[-3.1594537,54.5192148],[-3.1602134,54.5191673],[-3.160329,54.5192628],[-3.1607567,54.5192198],[-3.1612116,54.519156],[-3.1615702,54.5191797],[-3.1618509,54.5191409],[-3.1619767,54.5192173]]}},
{"type":"Feature","properties":{"id":56436,"nach":0.24129500160162398},"geometry":{"type":"LineString","coordinates":[[-3.1612657,54.5226951],[-3.1621141,54.5228937],[-3.1632521,54.5230581],[-3.1643987,54.5230964]]}},
{"type":"Feature","properties":{"id":56434,"nach":0.24119894608388165},"geometry":{"type":"LineString","coordinates":[[-3.1612657,54.5226951],[-3.1610589,54.5229994],[-3.1607797,54.523074],[-3.1605919,54.523158],[-3.1606089,54.5235818],[-3.1604522,54.523804499999983],[-3.1604562,54.5239704],[-3.1604052,54.5240485],[-3.1600557,54.5242977],[-3.1597994,54.5245879]]}},
{"type":"Feature","properties":{"id":36809,"nach":0.26490527234747951},"geometry":{"type":"LineString","coordinates":[[-3.1591439,54.5147689],[-3.1589164,54.5149419],[-3.1585183,54.5151936],[-3.158466,54.5153448]]}},
{"type":"Feature","properties":{"id":89660,"nach":0.30876282197556576},"geometry":{"type":"LineString","coordinates":[[-3.159652,54.5150201],[-3.1596008,54.5150284],[-3.1592472,54.5150696],[-3.1590998,54.5151342],[-3.1588492,54.5151965],[-3.1587477,54.5152528],[-3.1586576,54.5152707],[-3.158466,54.5153448]]}},
{"type":"Feature","properties":{"id":89662,"nach":0.35712905709998272},"geometry":{"type":"LineString","coordinates":[[-3.159652,54.5150201],[-3.1596392,54.5149878],[-3.1595794,54.5149721],[-3.1594826,54.5149663],[-3.1594029,54.5149473],[-3.1593403,54.5149027],[-3.1593061,54.5148498],[-3.1592363,54.5148308],[-3.1592056,54.5147963],[-3.1591439,54.5147689]]}},
{"type":"Feature","properties":{"id":64573,"nach":0.3509371944445262},"geometry":{"type":"LineString","coordinates":[[-3.1588541,54.5133858],[-3.1588497,54.513453],[-3.1588578,54.513762],[-3.1588579,54.5137669],[-3.1589393,54.5140179],[-3.1590792,54.5143263],[-3.1590917,54.5145102],[-3.1591484,54.5146136],[-3.1591439,54.5147689]]}},
{"type":"Feature","properties":{"id":95418,"nach":0.28964774503882718},"geometry":{"type":"LineString","coordinates":[[-3.1499501,54.5258673],[-3.1499188,54.525923],[-3.1498532,54.5259458],[-3.1497503,54.5259632]]}},
{"type":"Feature","properties":{"id":56443,"nach":0.37698296986955432},"geometry":{"type":"LineString","coordinates":[[-3.1631698,54.515409600000012],[-3.1632287,54.5153941],[-3.1634208,54.5153264],[-3.1637022,54.515236099999989],[-3.1640534,54.5151453],[-3.1644125,54.5150367]]}},
{"type":"Feature","properties":{"id":56444,"nach":0.36189885980520464},"geometry":{"type":"LineString","coordinates":[[-3.1631698,54.515409600000012],[-3.1631076,54.515426],[-3.1630723,54.515555],[-3.1629494,54.5156661],[-3.162847,54.5157356]]}},
{"type":"Feature","properties":{"id":37343,"nach":0.32911081973995182},"geometry":{"type":"LineString","coordinates":[[-3.1625005,54.5170794],[-3.162487,54.5169415],[-3.1625139,54.5167197],[-3.162535,54.516586100000012],[-3.1626326,54.516497],[-3.162634,54.5164673],[-3.1626386,54.5163703],[-3.1627301,54.5163057],[-3.1628127,54.51619920000001],[-3.1629073,54.5160219],[-3.1628743,54.5158838],[-3.1628683,54.5157878],[-3.162847,54.5157356]]}},
{"type":"Feature","properties":{"id":37346,"nach":0.30838316672239552},"geometry":{"type":"LineString","coordinates":[[-3.1619767,54.5192173],[-3.1620071,54.5191276],[-3.1620115,54.5189538],[-3.1619967,54.5188329],[-3.1618925,54.5185282],[-3.1617839,54.5183648],[-3.1616659,54.5182427],[-3.1616719,54.51819290000001],[-3.1617739,54.5180418],[-3.161834,54.5179895],[-3.1618039,54.5179152],[-3.1617874,54.5178393],[-3.1618986,54.5176908],[-3.161927,54.5175668],[-3.1620757,54.5174891],[-3.1623203,54.517213],[-3.1625005,54.5170794]]}},
{"type":"Feature","properties":{"id":95481,"nach":0.24395303675278912},"geometry":{"type":"LineString","coordinates":[[-3.1658022,54.5158976],[-3.16561850000001,54.5159365],[-3.1652546,54.5160096],[-3.1651611,54.5160331],[-3.1650351,54.5160214],[-3.1648647,54.5160232],[-3.1646552,54.5159982],[-3.1645104,54.5160912],[-3.1642855,54.5163022],[-3.1641222,54.5163827],[-3.1639527,54.5165186],[-3.1638264,54.5165848],[-3.1635861,54.5166546],[-3.1633612,54.5168209],[-3.16293910000001,54.5169264],[-3.1627357,54.5170069],[-3.1625005,54.5170794]]}},
{"type":"Feature","properties":{"id":102901,"nach":0.31103180930998631},"geometry":{"type":"LineString","coordinates":[[-3.1632848,54.5197852],[-3.1632,54.5197666],[-3.1629884,54.5196814],[-3.1627775,54.5196969],[-3.1625788,54.5196635],[-3.1625437,54.5195905],[-3.1621714,54.5195531],[-3.1621402,54.5194241],[-3.1621053,54.5192835],[-3.1619767,54.5192173]]}},
{"type":"Feature","properties":{"id":98907,"nach":0.0},"geometry":{"type":"LineString","coordinates":[[-3.165256,54.5205174],[-3.165265,54.5206426],[-3.1649818,54.5206949],[-3.164673,54.520732300000013],[-3.1644992,54.5206688],[-3.1643512,54.5206165],[-3.1642418,54.5205903],[-3.1641002,54.5204783],[-3.1639715,54.520497],[-3.1638107,54.5204671],[-3.1635855,54.520437200000018],[-3.1634246,54.5204148],[-3.1632701,54.5203252],[-3.1631414,54.5203252],[-3.162987,54.5202467],[-3.1628776,54.5202318],[-3.1626267,54.5201422],[-3.162517300000011,54.5200824],[-3.1624465,54.5200264],[-3.1622599,54.5199218],[-3.1620861,54.5199181],[-3.1618333,54.5198992],[-3.1617453,54.5198508],[-3.1616662,54.519784799999989],[-3.1616645,54.5196907],[-3.161668,54.519611500000025],[-3.1617357,54.5195094],[-3.1618291,54.5193247],[-3.1619767,54.5192173]]}},
{"type":"Feature","properties":{"id":102900,"nach":0.29277209649390212},"geometry":{"type":"LineString","coordinates":[[-3.1632848,54.5197852],[-3.1639175,54.5199235]]}},
{"type":"Feature","properties":{"id":102902,"nach":0.2262880098686374},"geometry":{"type":"LineString","coordinates":[[-3.1632848,54.5197852],[-3.1634906,54.5197694],[-3.1636262,54.5197365],[-3.1637445,54.519687900000015],[-3.1638456,54.5196478],[-3.1640427,54.5195763],[-3.1641266,54.5195377],[-3.1642442,54.5195034],[-3.1643188,54.5195577],[-3.1645086,54.5195648],[-3.1646664,54.5195949],[-3.1647945,54.5196507],[-3.1648893,54.5196844]]}},
{"type":"Feature","properties":{"id":102899,"nach":0.26170773554662918},"geometry":{"type":"LineString","coordinates":[[-3.1641388,54.5200799],[-3.1642553,54.5201385],[-3.1647536,54.5203315],[-3.1651635,54.5205385],[-3.165256,54.5205174]]}},
{"type":"Feature","properties":{"id":102897,"nach":0.26532975645829371},"geometry":{"type":"LineString","coordinates":[[-3.1641388,54.5200799],[-3.1639175,54.5199235]]}},
{"type":"Feature","properties":{"id":102896,"nach":0.22952143366698477},"geometry":{"type":"LineString","coordinates":[[-3.164237,54.5199584],[-3.1641361,54.519911],[-3.1640202,54.5199173],[-3.1639175,54.5199235]]}},
{"type":"Feature","properties":{"id":102898,"nach":0.20652679617032974},"geometry":{"type":"LineString","coordinates":[[-3.1641388,54.5200799],[-3.164237,54.5199584]]}},
{"type":"Feature","properties":{"id":102895,"nach":0.22957112112125283},"geometry":{"type":"LineString","coordinates":[[-3.164237,54.5199584],[-3.1643507,54.5198998],[-3.1644151,54.5198737],[-3.1645181,54.5198077],[-3.1647283,54.5197167],[-3.1648893,54.5196844]]}},
{"type":"Feature","properties":{"id":95466,"nach":0.3708073206724784},"geometry":{"type":"LineString","coordinates":[[-3.149556,54.5168689],[-3.1492716,54.51714470000001],[-3.1491101,54.51732410000001],[-3.1490101,54.517447],[-3.1489083,54.5175729]]}},
{"type":"Feature","properties":{"id":95469,"nach":0.30070907738894309},"geometry":{"type":"LineString","coordinates":[[-3.1490095,54.51643880000001],[-3.1490664,54.5165492],[-3.149139,54.516624699999987],[-3.1492059,54.5166965],[-3.149274,54.5167444],[-3.1493595,54.5167943],[-3.1495133,54.516842400000016],[-3.149556,54.5168689]]}},
{"type":"Feature","properties":{"id":100725,"nach":0.42583390479957761},"geometry":{"type":"LineString","coordinates":[[-3.1495301,54.522991],[-3.1495712,54.5230395],[-3.1495801,54.5230477],[-3.1497406,54.523031]]}},
{"type":"Feature","properties":{"id":95424,"nach":0.41675490215071387},"geometry":{"type":"LineString","coordinates":[[-3.1500729,54.5230399],[-3.1499913,54.5230271],[-3.1497406,54.523031]]}},
{"type":"Feature","properties":{"id":95427,"nach":0.31536492436375757},"geometry":{"type":"LineString","coordinates":[[-3.1499785,54.5227284],[-3.1500951,54.522923199999987],[-3.1501006,54.5229941],[-3.1500729,54.5230399]]}},
{"type":"Feature","properties":{"id":102892,"nach":0.2672351206705455},"geometry":{"type":"LineString","coordinates":[[-3.1648893,54.5196844],[-3.1650695,54.5197006],[-3.1652304,54.5197803],[-3.1652798,54.5197958],[-3.1653756,54.5197577]]}},
{"type":"Feature","properties":{"id":68116,"nach":0.37465445371400674},"geometry":{"type":"LineString","coordinates":[[-3.1469398,54.5235763],[-3.1469524,54.5235193]]}},
{"type":"Feature","properties":{"id":95473,"nach":0.31296494459903867},"geometry":{"type":"LineString","coordinates":[[-3.147795,54.5156162],[-3.1478125,54.5156391],[-3.1478433,54.51565930000001],[-3.1479158,54.5156883],[-3.1479694,54.515712],[-3.1479947,54.5157408],[-3.1480257,54.5157495],[-3.1480664,54.5157518]]}},
{"type":"Feature","properties":{"id":95450,"nach":0.068701633013575319},"geometry":{"type":"LineString","coordinates":[[-3.1483874,54.5209438],[-3.1485123,54.5209075]]}},
{"type":"Feature","properties":{"id":64554,"nach":0.30940507562355413},"geometry":{"type":"LineString","coordinates":[[-3.1524829,54.5199154],[-3.1522218,54.5196872],[-3.1520747,54.519404599999987]]}},
{"type":"Feature","properties":{"id":95461,"nach":0.31769823888176807},"geometry":{"type":"LineString","coordinates":[[-3.1520704,54.519204],[-3.1521146,54.51924480000001],[-3.1521721,54.5193423],[-3.1520747,54.519404599999987]]}},
{"type":"Feature","properties":{"id":70042,"nach":0.40053023456943498},"geometry":{"type":"LineString","coordinates":[[-3.144288,54.515275499999987],[-3.1442451,54.5152654],[-3.1441524,54.5152257],[-3.1438934,54.5150988],[-3.1435382,54.5149188],[-3.1428356,54.514565],[-3.1422896,54.5143488],[-3.1417515,54.5141553],[-3.1415955,54.5141082]]}},
{"type":"Feature","properties":{"id":89679,"nach":0.2778852496374834},"geometry":{"type":"LineString","coordinates":[[-3.1418867,54.5139029],[-3.1414314,54.5138464],[-3.1412974,54.5138148],[-3.1412486,54.5138223],[-3.1412307,54.513854099999989],[-3.1412457,54.5138755],[-3.1413968,54.5139563],[-3.141501,54.5140063],[-3.1415955,54.5141082]]}},
{"type":"Feature","properties":{"id":70043,"nach":0.3676989754031898},"geometry":{"type":"LineString","coordinates":[[-3.144288,54.515275499999987],[-3.1442905,54.51533580000001],[-3.1443588,54.51549],[-3.1446561,54.5157641],[-3.1452742,54.5162587],[-3.1456646,54.5164605]]}},
{"type":"Feature","properties":{"id":64606,"nach":0.31293240705238379},"geometry":{"type":"LineString","coordinates":[[-3.1456428,54.5164712],[-3.1456646,54.5164605]]}},
{"type":"Feature","properties":{"id":95433,"nach":0.37209359262499631},"geometry":{"type":"LineString","coordinates":[[-3.1471669,54.5239549],[-3.1471286,54.5239261],[-3.1469841,54.5237422],[-3.1469413,54.5236503],[-3.1469398,54.5235763]]}},
{"type":"Feature","properties":{"id":95442,"nach":0.37490485521845979},"geometry":{"type":"LineString","coordinates":[[-3.1477977,54.5233264],[-3.1477028,54.5233564],[-3.1473473,54.5234878],[-3.147156,54.5235589],[-3.1470668,54.5235805],[-3.1469398,54.5235763]]}},
{"type":"Feature","properties":{"id":95512,"nach":0.27487003833054924},"geometry":{"type":"LineString","coordinates":[[-3.1418877,54.5137285],[-3.1417949,54.5136579],[-3.1417082,54.5135918],[-3.1415602,54.5135141],[-3.1413704,54.5134014],[-3.1412574,54.5133768],[-3.1411553,54.5133667],[-3.140998,54.5133186],[-3.1409446,54.5132999],[-3.1409094,54.5133045],[-3.1408588,54.5133176],[-3.1407323,54.5133497]]}},
{"type":"Feature","properties":{"id":89681,"nach":0.43377818345566799},"geometry":{"type":"LineString","coordinates":[[-3.1480448,54.5235866],[-3.1479868,54.5236133]]}},
{"type":"Feature","properties":{"id":82465,"nach":0.30679039231411626},"geometry":{"type":"LineString","coordinates":[[-3.1476273,54.5236848],[-3.1478504,54.5235814],[-3.1479868,54.5236133]]}},
{"type":"Feature","properties":{"id":95435,"nach":0.29783816195204338},"geometry":{"type":"LineString","coordinates":[[-3.1464528,54.5236007],[-3.1465436,54.5237517],[-3.1466038,54.523836],[-3.1467442,54.5239324],[-3.1468086,54.5239643],[-3.1468608,54.5239812],[-3.1469531,54.5239881],[-3.147061,54.5239755],[-3.1471669,54.5239549]]}},
{"type":"Feature","properties":{"id":89682,"nach":0.30487592999822455},"geometry":{"type":"LineString","coordinates":[[-3.1480448,54.5235866],[-3.1480962,54.5236201],[-3.1481321,54.5236272],[-3.1482551,54.5236041],[-3.1483422,54.5236138],[-3.148593,54.523726]]}},
{"type":"Feature","properties":{"id":95443,"nach":0.30668751293199276},"geometry":{"type":"LineString","coordinates":[[-3.1477977,54.5233264],[-3.1477643,54.5232723],[-3.1477641,54.5231863],[-3.1477977,54.523136400000013],[-3.1478655,54.5230946],[-3.1479852,54.5230705],[-3.1480695,54.52308080000001],[-3.1481466,54.52307]]}},
{"type":"Feature","properties":{"id":95474,"nach":0.31909819272654905},"geometry":{"type":"LineString","coordinates":[[-3.1486743,54.5175533],[-3.1488266,54.517559],[-3.1489083,54.5175729]]}}
]
}
