{
"type": "FeatureCollection",
"name": "MANCH_172_toilets",
"crs": { "type": "name", "properties": { "name": "urn:ogc:def:crs:OGC:1.3:CRS84" } },
"features": [
{ "type": "Feature", "properties": { "name": "New City Library Rochdale Road", "payment_info": "Free", "accessible": "False", "radar": "True", "women": "Unknown", "men": "Unknown", "baby_change": "False", "Mon": "Unknown", "Tue": "Unknown", "Wed": "Unknown", "Thu": "Unknown", "Fri": "Unknown", "Sat": "Unknown", "Sun": "Unknown", "index_right": 109, "park_offical_id": "MANCH_172" }, "geometry": { "type": "Point", "coordinates": [ -2.212667859, 53.514259028 ] } }
]
}
