{
"type": "FeatureCollection",
"name": "WIGAN_64_toilets",
"crs": { "type": "name", "properties": { "name": "urn:ogc:def:crs:OGC:1.3:CRS84" } },
"features": [
{ "type": "Feature", "properties": { "name": "BM Bargains", "payment_info": "Free", "accessible": "Unknown", "radar": "False", "women": "True", "men": "True", "baby_change": "False", "Mon": "Unknown", "Tue": "Unknown", "Wed": "Unknown", "Thu": "Unknown", "Fri": "Unknown", "Sat": "Unknown", "Sun": "Unknown", "index_right": 131, "park_offical_id": "WIGAN_64" }, "geometry": { "type": "Point", "coordinates": [ -2.475268543, 53.515628623 ] } },
{ "type": "Feature", "properties": { "name": "The Square", "payment_info": "Cost unknown", "accessible": "False", "radar": "Unknown", "women": "Unknown", "men": "Unknown", "baby_change": "Unknown", "Mon": "Unknown", "Tue": "Unknown", "Wed": "Unknown", "Thu": "Unknown", "Fri": "Unknown", "Sat": "Unknown", "Sun": "Unknown", "index_right": 131, "park_offical_id": "WIGAN_64" }, "geometry": { "type": "Point", "coordinates": [ -2.467294335, 53.514254697 ] } },
{ "type": "Feature", "properties": { "name": "McDonalds Tyldesley", "payment_info": "Free", "accessible": "True", "radar": "Unknown", "women": "True", "men": "True", "baby_change": "Unknown", "Mon": "Unknown", "Tue": "Unknown", "Wed": "Unknown", "Thu": "Unknown", "Fri": "Unknown", "Sat": "Unknown", "Sun": "Unknown", "index_right": 131, "park_offical_id": "WIGAN_64" }, "geometry": { "type": "Point", "coordinates": [ -2.476346791, 53.515878024 ] } }
]
}
