{
"type": "FeatureCollection",
"name": "LIVER_66_walking",
"crs": { "type": "name", "properties": { "name": "urn:ogc:def:crs:OGC:1.3:CRS84" } },
"features": [
{"type":"Feature","properties":{"highway":"path","name":null,"category":"Shared path"},"geometry":{"type":"MultiLineString","coordinates":[[[-2.8839999,53.4472094],[-2.8836761,53.447413],[-2.8829957,53.4478417],[-2.8824004,53.4482439],[-2.8819556,53.4486462],[-2.8814178,53.4491742],[-2.8811087,53.4494633],[-2.880936,53.449537],[-2.8808744,53.4496011],[-2.880542,53.4499468],[-2.8802169,53.4503269],[-2.8801176,53.4503368],[-2.8799188,53.4505058],[-2.8795624,53.450866],[-2.8793369,53.4510907],[-2.879148,53.4512581],[-2.8789016,53.4514642],[-2.8784896,53.4518168],[-2.8783737,53.4519729],[-2.8781755,53.4523155],[-2.8778619,53.4530958],[-2.8778751,53.453181],[-2.8784033,53.4535216],[-2.8784275,53.4535664]]]}},
{"type":"Feature","properties":{"highway":"footway","name":null,"category":"Footpath (pedestrian only)"},"geometry":{"type":"MultiLineString","coordinates":[[[-2.8819336,53.4480657],[-2.8824004,53.4482439]]]}},
{"type":"Feature","properties":{"highway":"footway","name":null,"category":"Footpath (pedestrian only)"},"geometry":{"type":"MultiLineString","coordinates":[[[-2.8845976,53.4483378],[-2.8839656,53.4484893],[-2.8836738,53.4485353],[-2.8833152,53.4484793],[-2.8831771,53.4484515],[-2.8824004,53.4482439]]]}},
{"type":"Feature","properties":{"highway":"path","name":null,"category":"Shared path"},"geometry":{"type":"MultiLineString","coordinates":[[[-2.8802169,53.4503269],[-2.8803007,53.450355],[-2.8806097,53.4506003],[-2.8807642,53.4507741],[-2.8809272,53.4508508],[-2.8809875,53.4508677],[-2.881365,53.4509735],[-2.881408,53.4509909],[-2.8818199,53.4511575],[-2.8823091,53.451459],[-2.8825838,53.4515306],[-2.8829099,53.4515357],[-2.8830579,53.4515937],[-2.8831985,53.4516507],[-2.8835107,53.4517402],[-2.8837339,53.4518935],[-2.8841373,53.4519804],[-2.8843075,53.4519845],[-2.884987,53.4520008],[-2.8854988,53.4521152],[-2.8855698,53.4521124],[-2.8857273,53.4521063],[-2.8859247,53.4520469],[-2.88612,53.4520399],[-2.8863704,53.4520471],[-2.8865993,53.4520287],[-2.886689,53.4520377],[-2.8868039,53.4521792]]]}},
{"type":"Feature","properties":{"highway":"footway","name":null,"category":"Footpath (pedestrian only)"},"geometry":{"type":"MultiLineString","coordinates":[[[-2.8793369,53.4510907],[-2.8790085,53.45098],[-2.8787557,53.4509479],[-2.8785583,53.4509377],[-2.8781549,53.4507281],[-2.8776914,53.4506106],[-2.8772966,53.450493],[-2.8771358,53.4504319],[-2.8770975,53.4503358],[-2.8772193,53.4501761],[-2.8774425,53.4499256],[-2.8780691,53.4495576],[-2.8782256,53.4494618],[-2.8787569,53.448959],[-2.8787957,53.448917]]]}},
{"type":"Feature","properties":{"highway":"track","name":null,"category":"Track"},"geometry":{"type":"MultiLineString","coordinates":[[[-2.8947825,53.4487268],[-2.8948145,53.448774],[-2.8948399,53.4487917],[-2.8950545,53.4490441],[-2.8951511,53.4494594],[-2.8949526,53.4500983],[-2.8946592,53.4507384],[-2.8940514,53.4512067],[-2.8933111,53.4522706],[-2.8932092,53.4526822],[-2.8933647,53.4531555],[-2.8936544,53.4536059],[-2.8936984,53.4539018],[-2.8936675,53.4540424],[-2.8936502,53.4541006],[-2.893404,53.4548576],[-2.8931567,53.455546],[-2.893132,53.4556169]]]}},
{"type":"Feature","properties":{"highway":"bridleway","name":null,"category":"Bridleway"},"geometry":{"type":"MultiLineString","coordinates":[[[-2.8758912,53.4439217],[-2.8750436,53.4441837],[-2.8747647,53.4443243],[-2.8747593,53.4445735],[-2.875049,53.4453787],[-2.8751402,53.4458228],[-2.8753952,53.4462243],[-2.8747982,53.4463893],[-2.8744644,53.4464774],[-2.8740047,53.4466412],[-2.8725223,53.4472796],[-2.8714763,53.4477589],[-2.8709559,53.4479442],[-2.8708969,53.4480272],[-2.8699421,53.4484138],[-2.8690784,53.4487524],[-2.8679829,53.4492312],[-2.8679401,53.4492631],[-2.8678981,53.4492749]]]}},
{"type":"Feature","properties":{"highway":"footway","name":null,"category":"Footpath (pedestrian only)"},"geometry":{"type":"MultiLineString","coordinates":[[[-2.8936731,53.4496902],[-2.893538,53.4496228],[-2.8934817,53.449586],[-2.8934575,53.449511],[-2.893428,53.4494231],[-2.8933905,53.4493368],[-2.8933277,53.449229]]]}},
{"type":"Feature","properties":{"highway":"footway","name":null,"category":"Footpath (pedestrian only)"},"geometry":{"type":"MultiLineString","coordinates":[[[-2.8922059,53.4498833],[-2.8920896,53.4499071],[-2.8919179,53.4499087],[-2.8918053,53.4499103],[-2.8916846,53.4499295],[-2.8915773,53.4499406],[-2.8915263,53.449955],[-2.8915108,53.4499797],[-2.8915022,53.4499933],[-2.8915049,53.4500445],[-2.8915601,53.4501218]]]}},
{"type":"Feature","properties":{"highway":"footway","name":null,"category":"Footpath (pedestrian only)"},"geometry":{"type":"MultiLineString","coordinates":[[[-2.8915108,53.4499797],[-2.8913568,53.4498894]]]}},
{"type":"Feature","properties":{"highway":"footway","name":null,"category":"Footpath (pedestrian only)"},"geometry":{"type":"MultiLineString","coordinates":[[[-2.890856,53.4499513],[-2.8907512,53.4500301],[-2.8906761,53.450062],[-2.8905554,53.450062],[-2.8903944,53.4500349],[-2.8902442,53.4500109],[-2.890204,53.4499518],[-2.8901396,53.4499023],[-2.8900818,53.4498828]]]}},
{"type":"Feature","properties":{"highway":"footway","name":null,"category":"Footpath (pedestrian only)"},"geometry":{"type":"MultiLineString","coordinates":[[[-2.8891961,53.4513931],[-2.889123,53.4513223],[-2.8891713,53.4511419],[-2.8892196,53.4509501],[-2.889276,53.4507537],[-2.8893511,53.4505013],[-2.8894128,53.4503032],[-2.8894154,53.4502649]]]}},
{"type":"Feature","properties":{"highway":"footway","name":null,"category":"Footpath (pedestrian only)"},"geometry":{"type":"MultiLineString","coordinates":[[[-2.89043,53.4503815],[-2.8903569,53.4503751],[-2.8901718,53.4503112],[-2.890035,53.4502569],[-2.8899492,53.4502186],[-2.8898419,53.4502505],[-2.8897132,53.4502665],[-2.8896032,53.4502793],[-2.8894745,53.4502745],[-2.8894154,53.4502649],[-2.8893933,53.4502613],[-2.8893326,53.4502514]]]}},
{"type":"Feature","properties":{"highway":"footway","name":null,"category":"Footpath (pedestrian only)"},"geometry":{"type":"MultiLineString","coordinates":[[[-2.8893933,53.4502613],[-2.8894521,53.4499358],[-2.8895218,53.4497026],[-2.8896237,53.4494151],[-2.8896291,53.4493161],[-2.8895594,53.4492298],[-2.8894105,53.4490847]]]}},
{"type":"Feature","properties":{"highway":"path","name":null,"category":"Shared path"},"geometry":{"type":"MultiLineString","coordinates":[[[-2.888335,53.4518926],[-2.8881646,53.4517983],[-2.8879715,53.4518143],[-2.8877569,53.4517887],[-2.8876014,53.4517536],[-2.8874726,53.4517568],[-2.8873653,53.4517695],[-2.8873085,53.4517804],[-2.8872151,53.4517983],[-2.8870274,53.4518718],[-2.8868825,53.4519612],[-2.886689,53.4520377]]]}},
{"type":"Feature","properties":{"highway":"path","name":null,"category":"Shared path"},"geometry":{"type":"MultiLineString","coordinates":[[[-2.8873739,53.4516445],[-2.8873117,53.451712],[-2.8873085,53.4517804]]]}},
{"type":"Feature","properties":{"highway":"path","name":null,"category":"Shared path"},"geometry":{"type":"MultiLineString","coordinates":[[[-2.8809474,53.4512628],[-2.8809817,53.4509996],[-2.8809875,53.4508677]]]}},
{"type":"Feature","properties":{"highway":"path","name":null,"category":"Shared path"},"geometry":{"type":"MultiLineString","coordinates":[[[-2.8817917,53.4506642],[-2.881408,53.4509909]]]}},
{"type":"Feature","properties":{"highway":"path","name":null,"category":"Shared path"},"geometry":{"type":"MultiLineString","coordinates":[[[-2.883338,53.4512527],[-2.8832401,53.451351],[-2.8831543,53.4514565],[-2.8830579,53.4515937]]]}},
{"type":"Feature","properties":{"highway":"path","name":null,"category":"Shared path"},"geometry":{"type":"MultiLineString","coordinates":[[[-2.8829626,53.4520395],[-2.8831985,53.4516507]]]}},
{"type":"Feature","properties":{"highway":"path","name":null,"category":"Shared path"},"geometry":{"type":"MultiLineString","coordinates":[[[-2.8842597,53.4517951],[-2.8843075,53.4519845]]]}},
{"type":"Feature","properties":{"highway":"path","name":null,"category":"Shared path"},"geometry":{"type":"MultiLineString","coordinates":[[[-2.8855825,53.4519121],[-2.8855698,53.4521124],[-2.8855307,53.4522359],[-2.8854341,53.4523286],[-2.8853983,53.4523579]]]}},
{"type":"Feature","properties":{"highway":"footway","name":null,"category":"Footpath (pedestrian only)"},"geometry":{"type":"MultiLineString","coordinates":[[[-2.8860245,53.4507486],[-2.8858472,53.4506642],[-2.8857023,53.4506514],[-2.8854655,53.4506157]]]}},
{"type":"Feature","properties":{"highway":"footway","name":null,"category":"Footpath (pedestrian only)"},"geometry":{"type":"MultiLineString","coordinates":[[[-2.886496,53.4494955],[-2.8865231,53.4497218],[-2.8863622,53.4499103],[-2.8861422,53.4501307],[-2.8859223,53.4503671],[-2.8857935,53.4505269],[-2.8857023,53.4506514]]]}},
{"type":"Feature","properties":{"highway":"footway","name":null,"category":"Footpath (pedestrian only)"},"geometry":{"type":"MultiLineString","coordinates":[[[-2.8795624,53.450866],[-2.8786626,53.450564],[-2.8784495,53.4505349],[-2.8781063,53.4505038],[-2.8777579,53.4504802],[-2.8775073,53.4504182],[-2.8772927,53.4504118],[-2.8771358,53.4504319],[-2.8770674,53.4504406],[-2.8769601,53.4504981],[-2.8769065,53.4505652],[-2.8768575,53.4506537]]]}},
{"type":"Feature","properties":{"highway":"footway","name":null,"category":"Footpath (pedestrian only)"},"geometry":{"type":"MultiLineString","coordinates":[[[-2.8789894,53.4502389],[-2.8786626,53.450564]]]}},
{"type":"Feature","properties":{"highway":"path","name":null,"category":"Shared path"},"geometry":{"type":"MultiLineString","coordinates":[[[-2.8923138,53.444877],[-2.8922116,53.4449959],[-2.8919055,53.4456041],[-2.8918374,53.4458196],[-2.8920181,53.4460307],[-2.8922219,53.4463118],[-2.8924794,53.4466633],[-2.8926296,53.4469444],[-2.8927798,53.4472],[-2.8929944,53.447462],[-2.8931661,53.4476984],[-2.893327,53.4478454],[-2.8934171,53.4479156],[-2.8935796,53.4480421],[-2.8939287,53.4482644],[-2.8946351,53.4486381]]]}},
{"type":"Feature","properties":{"highway":"footway","name":null,"category":"Footpath (pedestrian only)"},"geometry":{"type":"MultiLineString","coordinates":[[[-2.8948595,53.446597],[-2.8949221,53.4466421],[-2.8948819,53.446479],[-2.8948919,53.446391],[-2.894896,53.446361],[-2.8949032,53.4463082],[-2.8948923,53.4461802],[-2.8948784,53.4460867],[-2.8948395,53.4459821],[-2.8947436,53.4458339],[-2.8945992,53.4456369],[-2.8945573,53.445551],[-2.8945593,53.4455155],[-2.8945474,53.4453454],[-2.8945211,53.4453089],[-2.8944803,53.4452487],[-2.894319,53.445143],[-2.8941266,53.445072],[-2.8939176,53.4449927],[-2.8935863,53.4448342],[-2.8929682,53.4448615],[-2.8926652,53.4448413],[-2.8923956,53.4447869]]]}},
{"type":"Feature","properties":{"highway":"path","name":null,"category":"Shared path"},"geometry":{"type":"MultiLineString","coordinates":[[[-2.8897042,53.4444612],[-2.8896779,53.4444877],[-2.8900225,53.4447399],[-2.8901298,53.4448933],[-2.8902815,53.4450562],[-2.890414,53.4451724],[-2.8905465,53.4452449],[-2.8906594,53.4452725],[-2.8907933,53.4452892],[-2.8912728,53.4453523],[-2.891526,53.4454814],[-2.8918374,53.4458196]]]}},
{"type":"Feature","properties":{"highway":"path","name":null,"category":"Shared path"},"geometry":{"type":"MultiLineString","coordinates":[[[-2.8896779,53.4444877],[-2.889583,53.4445048],[-2.8894811,53.4445443],[-2.8894048,53.4445942],[-2.8893301,53.4446475],[-2.8892492,53.4446596],[-2.8890767,53.4446239],[-2.8887401,53.4445068],[-2.8883241,53.4443711],[-2.8882608,53.4443424],[-2.8881272,53.444286],[-2.8880321,53.444231],[-2.8879733,53.4441712]]]}},
{"type":"Feature","properties":{"highway":"footway","name":null,"category":"Footpath (pedestrian only)"},"geometry":{"type":"MultiLineString","coordinates":[[[-2.8950194,53.4438472],[-2.8952174,53.4440173],[-2.8952911,53.4440715],[-2.8955957,53.4442685],[-2.8963778,53.4447555],[-2.8975237,53.445432],[-2.89768,53.445519],[-2.8976089,53.4456573],[-2.8974514,53.4456889],[-2.8973138,53.4457454],[-2.8971348,53.4458303],[-2.8966987,53.4460678],[-2.8963338,53.4463073],[-2.896268,53.4463496],[-2.896241,53.4464535],[-2.8961207,53.4464973],[-2.8960059,53.4465249],[-2.895757,53.4465453],[-2.8952654,53.4466628],[-2.8950289,53.4466936],[-2.8949221,53.4466421]]]}},
{"type":"Feature","properties":{"highway":"footway","name":null,"category":"Footpath (pedestrian only)"},"geometry":{"type":"MultiLineString","coordinates":[[[-2.8831468,53.446327],[-2.8820349,53.4466665],[-2.8814495,53.4468595],[-2.880329,53.4472288],[-2.8789879,53.4476761],[-2.8780867,53.4479891],[-2.8776361,53.4481169],[-2.8774537,53.4480786],[-2.8753952,53.4462243]]]}},
{"type":"Feature","properties":{"highway":"footway","name":null,"category":"Footpath (pedestrian only)"},"geometry":{"type":"MultiLineString","coordinates":[[[-2.8740564,53.4466959],[-2.8740047,53.4466412],[-2.8739192,53.4465782],[-2.8720178,53.4449566],[-2.8720034,53.4449224],[-2.8720058,53.4448969],[-2.8723878,53.4442864],[-2.8734501,53.4425966],[-2.873534,53.4424491],[-2.8735495,53.4424236],[-2.8735971,53.4423452]]]}},
{"type":"Feature","properties":{"highway":"bridleway","name":null,"category":"Bridleway"},"geometry":{"type":"MultiLineString","coordinates":[[[-2.8739192,53.4465782],[-2.8725459,53.4470191],[-2.8700791,53.4478153],[-2.8699924,53.4478433],[-2.8698788,53.4478768],[-2.8687254,53.4482169],[-2.8685164,53.4482894],[-2.868315,53.4483484],[-2.8679559,53.4484357],[-2.8678202,53.4484812],[-2.8677846,53.448509],[-2.8677896,53.4485469],[-2.8677762,53.4486127],[-2.867827,53.4488376],[-2.8678424,53.4489707],[-2.8678319,53.4489999],[-2.867937,53.4490753],[-2.8680042,53.4491477],[-2.8679829,53.4492312]]]}},
{"type":"Feature","properties":{"highway":"path","name":null,"category":"Shared path"},"geometry":{"type":"MultiLineString","coordinates":[[[-2.8679401,53.4492631],[-2.8682141,53.4495677],[-2.8683536,53.449745],[-2.8684984,53.4499223],[-2.8687693,53.45009],[-2.8690939,53.4502098],[-2.8693889,53.4503344],[-2.8696196,53.4504702],[-2.8697966,53.4506139],[-2.869861,53.4507289],[-2.8699227,53.4509094],[-2.8701346,53.451157],[-2.8701963,53.4513838],[-2.8703357,53.4515292],[-2.8705879,53.4517097],[-2.87084,53.451871],[-2.8709653,53.4521028],[-2.8712499,53.4525192],[-2.8713739,53.4526633],[-2.8721057,53.4531923],[-2.8723232,53.4532613],[-2.8725366,53.4533896],[-2.8728021,53.4535014],[-2.8732133,53.4536066],[-2.8736161,53.4537128],[-2.8740667,53.4537557]]]}},
{"type":"Feature","properties":{"highway":"path","name":null,"category":"Shared path"},"geometry":{"type":"MultiLineString","coordinates":[[[-2.8763278,53.4549112],[-2.8761213,53.4549232],[-2.8759094,53.4548913],[-2.8753434,53.4547699],[-2.8750671,53.4546485],[-2.8749357,53.4545319],[-2.8748365,53.4543578],[-2.8744502,53.4540863],[-2.8743322,53.4540208],[-2.8742222,53.4538851],[-2.8741311,53.4538356],[-2.8740667,53.4537557],[-2.8741186,53.4536749],[-2.8743214,53.4534716]]]}},
{"type":"Feature","properties":{"highway":"path","name":null,"category":"Shared path"},"geometry":{"type":"MultiLineString","coordinates":[[[-2.8763278,53.4549112],[-2.8764109,53.4548897],[-2.8765665,53.4549408],[-2.8767757,53.4550095],[-2.8771593,53.4551324],[-2.8772024,53.4551981],[-2.8770012,53.4554087],[-2.8770134,53.4554704],[-2.877113,53.4555116],[-2.8777472,53.4556375],[-2.8781853,53.4557812],[-2.8783448,53.4556956],[-2.8784371,53.4556004]]]}},
{"type":"Feature","properties":{"highway":"footway","name":null,"category":"Footpath (pedestrian only)"},"geometry":{"type":"MultiLineString","coordinates":[[[-2.8836738,53.4485353],[-2.8841598,53.4485732],[-2.8844935,53.4485827]]]}},
{"type":"Feature","properties":{"highway":"footway","name":null,"category":"Footpath (pedestrian only)"},"geometry":{"type":"MultiLineString","coordinates":[[[-2.8833152,53.4484793],[-2.8834959,53.4481948]]]}},
{"type":"Feature","properties":{"highway":"footway","name":null,"category":"Footpath (pedestrian only)"},"geometry":{"type":"MultiLineString","coordinates":[[[-2.8762593,53.4550309],[-2.876301,53.4549879],[-2.8763278,53.4549112]]]}},
{"type":"Feature","properties":{"highway":"path","name":null,"category":"Shared path"},"geometry":{"type":"MultiLineString","coordinates":[[[-2.8934171,53.4479156],[-2.8936811,53.4474939],[-2.8937991,53.4471489],[-2.8938956,53.4469892],[-2.8946359,53.4466888],[-2.8947377,53.446647]]]}},
{"type":"Feature","properties":{"highway":"path","name":null,"category":"Shared path"},"geometry":{"type":"MultiLineString","coordinates":[[[-2.8947377,53.446647],[-2.8948595,53.446597]]]}},
{"type":"Feature","properties":{"highway":"footway","name":null,"category":"Footpath (pedestrian only)"},"geometry":{"type":"MultiLineString","coordinates":[[[-2.894916,53.4487047],[-2.8948553,53.4486683],[-2.8947249,53.4485899],[-2.8946565,53.4485488]]]}},
{"type":"Feature","properties":{"highway":"footway","name":null,"category":"Footpath (pedestrian only)"},"geometry":{"type":"MultiLineString","coordinates":[[[-2.8929221,53.4499695],[-2.8928192,53.4499422],[-2.8926126,53.4499231],[-2.892453,53.4499068],[-2.8924272,53.4498761]]]}},
{"type":"Feature","properties":{"highway":"path","name":null,"category":"Shared path"},"geometry":{"type":"MultiLineString","coordinates":[[[-2.8816252,53.4574665],[-2.8817397,53.457406],[-2.8816437,53.4573554],[-2.8815347,53.4572564],[-2.8814201,53.4571673],[-2.8813112,53.4571233],[-2.8812151,53.4571035],[-2.8811116,53.4570969],[-2.88101,53.4570947],[-2.8809343,53.4570728],[-2.8808604,53.4570387],[-2.8807717,53.4569881],[-2.8806535,53.4568605],[-2.8805593,53.4568066],[-2.8802933,53.4567329],[-2.8798721,53.4566273],[-2.8793937,53.4564722],[-2.8792958,53.4564447],[-2.8791591,53.4563864],[-2.8789965,53.4562775],[-2.8788616,53.4561488],[-2.8787859,53.4560663],[-2.8786455,53.4559959],[-2.8784571,53.4558837],[-2.8783204,53.4558298],[-2.8781853,53.4557812]]]}},
{"type":"Feature","properties":{"highway":"track","name":null,"category":"Track"},"geometry":{"type":"MultiLineString","coordinates":[[[-2.8812111,53.4463682],[-2.8811478,53.4463911],[-2.8813826,53.4466849],[-2.8814495,53.4468595]]]}},
{"type":"Feature","properties":{"highway":"track","name":null,"category":"Track"},"geometry":{"type":"MultiLineString","coordinates":[[[-2.8810549,53.4463799],[-2.8811478,53.4463911]]]}},
{"type":"Feature","properties":{"highway":"track","name":null,"category":"Track"},"geometry":{"type":"MultiLineString","coordinates":[[[-2.8841384,53.4450591],[-2.8842054,53.4450476],[-2.8842898,53.445059],[-2.8843228,53.4450822]]]}},
{"type":"Feature","properties":{"highway":"path","name":null,"category":"Shared path"},"geometry":{"type":"MultiLineString","coordinates":[[[-2.8883241,53.4443711],[-2.8882522,53.4443699],[-2.8881641,53.444369],[-2.8880375,53.4443803],[-2.8879267,53.4443943],[-2.8877841,53.4444094],[-2.8876927,53.4444165]]]}},
{"type":"Feature","properties":{"highway":"footway","name":null,"category":"Footpath (pedestrian only)"},"geometry":{"type":"MultiLineString","coordinates":[[[-2.8978302,53.4452942],[-2.89768,53.445519],[-2.8981418,53.4457874],[-2.8986507,53.4460562]]]}},
{"type":"Feature","properties":{"highway":"footway","name":null,"category":"Footpath (pedestrian only)"},"geometry":{"type":"MultiLineString","coordinates":[[[-2.894896,53.446361],[-2.8948644,53.4463261],[-2.894713,53.4461271]]]}},
{"type":"Feature","properties":{"highway":"footway","name":null,"category":"Footpath (pedestrian only)"},"geometry":{"type":"MultiLineString","coordinates":[[[-2.8945851,53.4459726],[-2.8945573,53.4459353],[-2.8945305,53.4458727],[-2.8945153,53.445781],[-2.8945188,53.4456593],[-2.8945573,53.445551]]]}},
{"type":"Feature","properties":{"highway":"footway","name":null,"category":"Footpath (pedestrian only)"},"geometry":{"type":"MultiLineString","coordinates":[[[-2.894713,53.4461271],[-2.8946706,53.4460927],[-2.8946082,53.4460161],[-2.8945851,53.4459726]]]}}
]
}
