{
"type": "FeatureCollection",
"name": "WYRE__18_toilets",
"crs": { "type": "name", "properties": { "name": "urn:ogc:def:crs:OGC:1.3:CRS84" } },
"features": [
{ "type": "Feature", "properties": { "name": "Unknown", "payment_info": "Free", "accessible": "False", "radar": "Unknown", "women": "Unknown", "men": "Unknown", "baby_change": "Unknown", "Mon": "Unknown", "Tue": "Unknown", "Wed": "Unknown", "Thu": "Unknown", "Fri": "Unknown", "Sat": "Unknown", "Sun": "Unknown", "index_right": 12, "park_offical_id": "WYRE__18" }, "geometry": { "type": "Point", "coordinates": [ -3.0152272, 53.9166548 ] } },
{ "type": "Feature", "properties": { "name": "Unknown", "payment_info": "Free", "accessible": "False", "radar": "Unknown", "women": "Unknown", "men": "Unknown", "baby_change": "Unknown", "Mon": "Unknown", "Tue": "Unknown", "Wed": "Unknown", "Thu": "Unknown", "Fri": "Unknown", "Sat": "Unknown", "Sun": "Unknown", "index_right": 12, "park_offical_id": "WYRE__18" }, "geometry": { "type": "Point", "coordinates": [ -3.0106064, 53.9180056 ] } },
{ "type": "Feature", "properties": { "name": "Asda supermarket", "payment_info": "Free", "accessible": "Unknown", "radar": "Unknown", "women": "True", "men": "True", "baby_change": "Unknown", "Mon": "Unknown", "Tue": "Unknown", "Wed": "Unknown", "Thu": "Unknown", "Fri": "Unknown", "Sat": "Unknown", "Sun": "Unknown", "index_right": 12, "park_offical_id": "WYRE__18" }, "geometry": { "type": "Point", "coordinates": [ -3.014534478, 53.920061916 ] } },
{ "type": "Feature", "properties": { "name": "Preston Street Public Conveniences", "payment_info": "20p Radar key access  free", "accessible": "False", "radar": "True", "women": "True", "men": "True", "baby_change": "True", "Mon": "Unknown", "Tue": "Unknown", "Wed": "Unknown", "Thu": "Unknown", "Fri": "Unknown", "Sat": "Unknown", "Sun": "Unknown", "index_right": 12, "park_offical_id": "WYRE__18" }, "geometry": { "type": "Point", "coordinates": [ -3.011878914, 53.921622951 ] } }
]
}
