{
"type": "FeatureCollection",
"name": "SEFTO_74_walking",
"crs": { "type": "name", "properties": { "name": "urn:ogc:def:crs:OGC:1.3:CRS84" } },
"features": [
{"type":"Feature","properties":{"highway":"footway","name":null,"category":"Footpath (pedestrian only)"},"geometry":{"type":"MultiLineString","coordinates":[[[-2.9955677,53.4711619],[-2.995497,53.4711556],[-2.9954553,53.4711935],[-2.9954225,53.4712232],[-2.9953194,53.4712455],[-2.9948316,53.4713611],[-2.9945848,53.4714237],[-2.9945666,53.4713962],[-2.9949309,53.471308]]]}},
{"type":"Feature","properties":{"highway":"footway","name":null,"category":"Footpath (pedestrian only)"},"geometry":{"type":"MultiLineString","coordinates":[[[-2.9949309,53.471308],[-2.9947485,53.4710601]]]}},
{"type":"Feature","properties":{"highway":"footway","name":null,"category":"Footpath (pedestrian only)"},"geometry":{"type":"MultiLineString","coordinates":[[[-2.9947485,53.4710601],[-2.9942134,53.471234],[-2.9941942,53.4712105],[-2.9948626,53.4709832],[-2.9949552,53.4709545],[-2.9949978,53.4709381],[-2.9950505,53.4709731],[-2.9951136,53.470947]]]}},
{"type":"Feature","properties":{"highway":"footway","name":null,"category":"Footpath (pedestrian only)"},"geometry":{"type":"MultiLineString","coordinates":[[[-2.9953194,53.4712455],[-2.995269,53.4712273]]]}},
{"type":"Feature","properties":{"highway":"footway","name":null,"category":"Footpath (pedestrian only)"},"geometry":{"type":"MultiLineString","coordinates":[[[-2.9920099,53.4628749],[-2.9920478,53.4628655],[-2.9921869,53.4628432],[-2.9922321,53.4628582],[-2.9923295,53.4628879],[-2.99236,53.4629201]]]}},
{"type":"Feature","properties":{"highway":"footway","name":null,"category":"Footpath (pedestrian only)"},"geometry":{"type":"MultiLineString","coordinates":[[[-2.9912226,53.4635142],[-2.9914045,53.4633671],[-2.9916357,53.4632249]]]}},
{"type":"Feature","properties":{"highway":"footway","name":null,"category":"Footpath (pedestrian only)"},"geometry":{"type":"MultiLineString","coordinates":[[[-2.9917801,53.4631642],[-2.9921587,53.4630084]]]}},
{"type":"Feature","properties":{"highway":"path","name":null,"category":"Shared path"},"geometry":{"type":"MultiLineString","coordinates":[[[-2.9771626,53.4613403],[-2.9765988,53.4618878]]]}},
{"type":"Feature","properties":{"highway":"footway","name":null,"category":"Footpath (pedestrian only)"},"geometry":{"type":"MultiLineString","coordinates":[[[-2.9876946,53.4530721],[-2.9876614,53.4531111],[-2.9874316,53.45331],[-2.9871657,53.4535301],[-2.9866192,53.4540118],[-2.9863357,53.4542647],[-2.9862013,53.4543942],[-2.9860778,53.4545302],[-2.9859892,53.45465],[-2.9859153,53.4547934],[-2.9858779,53.4549047],[-2.9858523,53.4550034],[-2.9858337,53.4551194],[-2.9858293,53.4552311],[-2.9858425,53.4553625],[-2.9858621,53.455479],[-2.9859761,53.4557626],[-2.9859715,53.4558025],[-2.985952,53.4558229],[-2.9860531,53.4560094],[-2.986105,53.4560382],[-2.9861363,53.4560674],[-2.9864877,53.4568082],[-2.9868329,53.4575271],[-2.9871367,53.458171],[-2.9874263,53.4587621],[-2.9875801,53.459062],[-2.9877343,53.4593417],[-2.9879252,53.4596386],[-2.9880372,53.4598005],[-2.9884141,53.4602133],[-2.9888435,53.4605616],[-2.9890558,53.4607151],[-2.9892835,53.4608653],[-2.9893424,53.4608996],[-2.9893642,53.4609123],[-2.989579,53.4610372],[-2.9898784,53.4611976],[-2.989986,53.461259],[-2.9908248,53.4616801],[-2.9911558,53.4618843],[-2.9912645,53.46197],[-2.9913946,53.4620725],[-2.9915358,53.4622253],[-2.9916229,53.4623199],[-2.991675,53.4623766],[-2.9917585,53.4624936],[-2.9918593,53.4626547],[-2.9920099,53.4628749],[-2.9920727,53.4629667],[-2.9921693,53.4630832],[-2.9922834,53.4631847],[-2.9923878,53.4632734],[-2.9925151,53.463365],[-2.9927362,53.4635201],[-2.9932433,53.4638554],[-2.9937572,53.4641685],[-2.994794,53.464798],[-2.9951789,53.4650508],[-2.9955506,53.4652842],[-2.996326,53.4657955],[-2.9966362,53.4659979],[-2.996937,53.4661929],[-2.9971501,53.4663575],[-2.9972328,53.4664598],[-2.9973124,53.4665551],[-2.9974644,53.4667376],[-2.9975849,53.4669352],[-2.9977065,53.4671416],[-2.9978396,53.4673828],[-2.9979929,53.4676709],[-2.9980859,53.4678204],[-2.998182,53.4679203],[-2.9982873,53.4680007],[-2.9984118,53.4680939],[-2.9985484,53.4681827],[-2.9987247,53.4682885],[-2.9987936,53.4683359],[-2.9988124,53.4683718],[-2.9991726,53.4685597],[-2.9996892,53.4688525],[-2.9999324,53.4689372],[-2.9999453,53.4689501],[-3.0000367,53.469022],[-3.0004305,53.4691441],[-3.0005286,53.4691338],[-3.0014918,53.4693974],[-3.00194,53.4695312],[-3.0023101,53.4696482],[-3.0025922,53.4697406],[-3.002884,53.4698429],[-3.0032643,53.4700061],[-3.0035822,53.4701581],[-3.0038483,53.4703067],[-3.0042955,53.4705721],[-3.0043057,53.4706215],[-3.0043469,53.4706442],[-3.0044344,53.470641],[-3.0050788,53.471037],[-3.0057287,53.471428],[-3.006415,53.4718598],[-3.0067687,53.4720756],[-3.0069349,53.4721842],[-3.007085,53.4722892],[-3.0072687,53.472423],[-3.0074323,53.4725582],[-3.0075949,53.4727057],[-3.0077565,53.4728614],[-3.008385,53.4734619],[-3.0085623,53.4736512],[-3.0087417,53.4738488],[-3.008911,53.4740649],[-3.0089798,53.4741772],[-3.0090332,53.4742847],[-3.0090635,53.4743461],[-3.0090783,53.4743919],[-3.0091014,53.474459]]]}},
{"type":"Feature","properties":{"highway":"footway","name":null,"category":"Footpath (pedestrian only)"},"geometry":{"type":"MultiLineString","coordinates":[[[-2.9812401,53.4708173],[-2.9812581,53.4705202],[-2.9812697,53.4703239],[-2.9812762,53.4702139]]]}},
{"type":"Feature","properties":{"highway":"footway","name":null,"category":"Footpath (pedestrian only)"},"geometry":{"type":"MultiLineString","coordinates":[[[-2.9820801,53.470535],[-2.9812581,53.4705202],[-2.9804139,53.4705004]]]}},
{"type":"Feature","properties":{"highway":"footway","name":null,"category":"Footpath (pedestrian only)"},"geometry":{"type":"MultiLineString","coordinates":[[[-2.9803949,53.4707986],[-2.9803994,53.4707278],[-2.9804139,53.4705004],[-2.9804248,53.4702939],[-2.98043,53.4701947]]]}},
{"type":"Feature","properties":{"highway":"footway","name":null,"category":"Footpath (pedestrian only)"},"geometry":{"type":"MultiLineString","coordinates":[[[-2.9820591,53.4708348],[-2.9820641,53.4707637],[-2.9820801,53.470535],[-2.9820894,53.4703267],[-2.9820936,53.4702323]]]}},
{"type":"Feature","properties":{"highway":"footway","name":null,"category":"Footpath (pedestrian only)"},"geometry":{"type":"MultiLineString","coordinates":[[[-2.9815913,53.4708251],[-2.9815979,53.4708889],[-2.9815925,53.4709332],[-2.9813588,53.4709282],[-2.9813544,53.4710639],[-2.9810943,53.4710597],[-2.9811016,53.4709226],[-2.980877,53.4709168],[-2.9808743,53.4708737],[-2.9809072,53.47081]]]}},
{"type":"Feature","properties":{"highway":"footway","name":null,"category":"Footpath (pedestrian only)"},"geometry":{"type":"MultiLineString","coordinates":[[[-2.976391,53.4615752],[-2.9763065,53.4615825],[-2.9762322,53.4615889],[-2.9762394,53.4616183],[-2.9761588,53.4616253],[-2.9760685,53.4616331]]]}},
{"type":"Feature","properties":{"highway":"footway","name":null,"category":"Footpath (pedestrian only)"},"geometry":{"type":"MultiLineString","coordinates":[[[-2.9768553,53.4633226],[-2.9767663,53.4633303],[-2.9766924,53.4633366],[-2.9767019,53.4633754],[-2.976619,53.4633826],[-2.9765379,53.4633895]]]}},
{"type":"Feature","properties":{"highway":"footway","name":null,"category":"Footpath (pedestrian only)"},"geometry":{"type":"MultiLineString","coordinates":[[[-2.9774733,53.4635724],[-2.9774091,53.4635412],[-2.9773115,53.4634953],[-2.9772423,53.4634619]]]}},
{"type":"Feature","properties":{"highway":"footway","name":null,"category":"Footpath (pedestrian only)"},"geometry":{"type":"MultiLineString","coordinates":[[[-2.9768254,53.4644505],[-2.9767416,53.4644324],[-2.9766741,53.4644179],[-2.9766523,53.4644535],[-2.9765713,53.464436],[-2.9765052,53.4644218],[-2.9764908,53.4644187]]]}},
{"type":"Feature","properties":{"highway":"footway","name":null,"category":"Footpath (pedestrian only)"},"geometry":{"type":"MultiLineString","coordinates":[[[-2.9814367,53.4610834],[-2.9814111,53.4610502],[-2.9812502,53.4610982],[-2.9812177,53.4610578]]]}},
{"type":"Feature","properties":{"highway":"footway","name":null,"category":"Footpath (pedestrian only)"},"geometry":{"type":"MultiLineString","coordinates":[[[-2.9719824,53.467914],[-2.9717149,53.4677325],[-2.9716483,53.4676882]]]}},
{"type":"Feature","properties":{"highway":"footway","name":null,"category":"Footpath (pedestrian only)"},"geometry":{"type":"MultiLineString","coordinates":[[[-2.976657,53.4698854],[-2.9765704,53.470066],[-2.976553,53.470094],[-2.9764715,53.4702814],[-2.9764718,53.4702993],[-2.9764872,53.4703277],[-2.9767276,53.4706139],[-2.9768109,53.4706815]]]}},
{"type":"Feature","properties":{"highway":"footway","name":null,"category":"Footpath (pedestrian only)"},"geometry":{"type":"MultiLineString","coordinates":[[[-2.990548,53.4723246],[-2.9905122,53.4723183],[-2.9905473,53.4723039],[-2.9905229,53.47228],[-2.9904769,53.4722967],[-2.9904134,53.4722454]]]}},
{"type":"Feature","properties":{"highway":"footway","name":null,"category":"Footpath (pedestrian only)"},"geometry":{"type":"MultiLineString","coordinates":[[[-2.9925992,53.4715916],[-2.9926162,53.4716094],[-2.9926278,53.4716215]]]}},
{"type":"Feature","properties":{"highway":"footway","name":null,"category":"Footpath (pedestrian only)"},"geometry":{"type":"MultiLineString","coordinates":[[[-2.9945848,53.4714237],[-2.9945111,53.4714127]]]}},
{"type":"Feature","properties":{"highway":"path","name":null,"category":"Shared path"},"geometry":{"type":"MultiLineString","coordinates":[[[-2.9751795,53.4657205],[-2.9751441,53.4657188],[-2.975046,53.4657143],[-2.9748689,53.4656696],[-2.9748,53.4656366]]]}},
{"type":"Feature","properties":{"highway":"footway","name":null,"category":"Footpath (pedestrian only)"},"geometry":{"type":"MultiLineString","coordinates":[[[-2.9761767,53.4703947],[-2.9760995,53.4704197],[-2.975977,53.4704593],[-2.975924,53.4704013],[-2.9758355,53.47043],[-2.975709,53.4704709],[-2.9756159,53.4704924]]]}},
{"type":"Feature","properties":{"highway":"footway","name":null,"category":"Footpath (pedestrian only)"},"geometry":{"type":"MultiLineString","coordinates":[[[-2.9768109,53.4706815],[-2.976851,53.4707599],[-2.9770894,53.4710383],[-2.9771234,53.471055],[-2.9770849,53.4710748]]]}},
{"type":"Feature","properties":{"highway":"footway","name":null,"category":"Footpath (pedestrian only)"},"geometry":{"type":"MultiLineString","coordinates":[[[-2.9771455,53.4640828],[-2.9771073,53.4641339],[-2.9770676,53.464187],[-2.9770274,53.4642407]]]}},
{"type":"Feature","properties":{"highway":"footway","name":null,"category":"Footpath (pedestrian only)"},"geometry":{"type":"MultiLineString","coordinates":[[[-2.9771172,53.4642383],[-2.977075,53.4642375],[-2.9770274,53.4642407],[-2.9769872,53.4642487],[-2.9769536,53.4642615],[-2.9769288,53.4642762],[-2.9769094,53.4642942],[-2.9768254,53.4644505],[-2.9768014,53.4644881]]]}},
{"type":"Feature","properties":{"highway":"footway","name":null,"category":"Footpath (pedestrian only)"},"geometry":{"type":"MultiLineString","coordinates":[[[-2.9773278,53.4634167],[-2.9773018,53.4634355],[-2.9772735,53.4634503],[-2.9772423,53.4634619],[-2.9772009,53.4634732],[-2.9771589,53.4634803],[-2.9771072,53.4634859],[-2.9770655,53.4634852],[-2.9770218,53.4634789],[-2.9769832,53.463468],[-2.9769527,53.4634553],[-2.9769258,53.463439],[-2.9769005,53.4634194],[-2.9768812,53.4633937],[-2.9768695,53.4633677],[-2.9768553,53.4633226],[-2.9768408,53.4632628]]]}},
{"type":"Feature","properties":{"highway":"footway","name":null,"category":"Footpath (pedestrian only)"},"geometry":{"type":"MultiLineString","coordinates":[[[-2.9761747,53.4642006],[-2.9761612,53.4641409],[-2.9761468,53.4640772]]]}},
{"type":"Feature","properties":{"highway":"footway","name":null,"category":"Footpath (pedestrian only)"},"geometry":{"type":"MultiLineString","coordinates":[[[-2.9764782,53.4644517],[-2.9764908,53.4644187],[-2.9764916,53.4643862],[-2.9764876,53.4643587],[-2.9764756,53.4643299],[-2.9764528,53.464304],[-2.9764139,53.4642772],[-2.9763709,53.4642545],[-2.976324,53.4642357],[-2.9762704,53.4642201],[-2.9762147,53.4642078],[-2.9761747,53.4642006],[-2.9761322,53.464197],[-2.9760746,53.4641958]]]}},
{"type":"Feature","properties":{"highway":"footway","name":null,"category":"Footpath (pedestrian only)"},"geometry":{"type":"MultiLineString","coordinates":[[[-2.9760272,53.4640856],[-2.9760628,53.464087],[-2.9761001,53.4640856],[-2.9761468,53.4640772],[-2.9761754,53.4640661],[-2.9761982,53.4640495],[-2.9762198,53.4640409],[-2.9762627,53.464032],[-2.9763121,53.4640182],[-2.9763453,53.4639992],[-2.9763851,53.4639741],[-2.9764271,53.4639597],[-2.9764526,53.4639164],[-2.9764781,53.4638873],[-2.9765,53.463855],[-2.9765154,53.4638266],[-2.9765246,53.4637991],[-2.9765277,53.4637752],[-2.9765371,53.4637555],[-2.9765254,53.4636952],[-2.9765364,53.4636545],[-2.9765688,53.4635999]]]}},
{"type":"Feature","properties":{"highway":"footway","name":null,"category":"Footpath (pedestrian only)"},"geometry":{"type":"MultiLineString","coordinates":[[[-2.9765688,53.4635999],[-2.9765723,53.4635758],[-2.9765764,53.4635472]]]}},
{"type":"Feature","properties":{"highway":"footway","name":null,"category":"Footpath (pedestrian only)"},"geometry":{"type":"MultiLineString","coordinates":[[[-2.9765764,53.4635472],[-2.9765771,53.4635313],[-2.9765379,53.4633895],[-2.976528,53.4633436]]]}},
{"type":"Feature","properties":{"highway":"footway","name":null,"category":"Footpath (pedestrian only)"},"geometry":{"type":"MultiLineString","coordinates":[[[-2.9775275,53.4635299],[-2.9774733,53.4635724],[-2.9773161,53.4636974],[-2.9771896,53.4637954],[-2.9771353,53.4638421],[-2.9771131,53.4638705],[-2.977097,53.4639016],[-2.977091,53.4639291],[-2.977091,53.4639571],[-2.9770964,53.463983],[-2.9771087,53.4640187],[-2.9771259,53.4640539],[-2.9771343,53.4640695],[-2.9771455,53.4640828],[-2.9771713,53.4641025],[-2.9771983,53.4641206],[-2.9772359,53.4641377]]]}},
{"type":"Feature","properties":{"highway":"footway","name":null,"category":"Footpath (pedestrian only)"},"geometry":{"type":"MultiLineString","coordinates":[[[-2.9827833,53.4648904],[-2.9825669,53.4648079],[-2.9823254,53.4646828],[-2.981777,53.4643987],[-2.9812413,53.4641211],[-2.9807185,53.4638502],[-2.9804705,53.4637217]]]}},
{"type":"Feature","properties":{"highway":"footway","name":null,"category":"Footpath (pedestrian only)"},"geometry":{"type":"MultiLineString","coordinates":[[[-2.979879,53.4635602],[-2.9798814,53.4636245],[-2.9799176,53.4636852],[-2.979984,53.463736],[-2.9800739,53.4637718],[-2.9801781,53.463789],[-2.9802862,53.4637858],[-2.980387,53.4637626],[-2.9804705,53.4637217],[-2.9805312,53.4636628],[-2.9805551,53.4635953],[-2.9805395,53.4635269],[-2.9804861,53.4634656],[-2.9804266,53.4634326],[-2.9804013,53.4634186],[-2.9802948,53.4633913],[-2.980179,53.4633869],[-2.9800676,53.4634059],[-2.9799733,53.4634461],[-2.9799107,53.4634986],[-2.979879,53.4635602]]]}},
{"type":"Feature","properties":{"highway":"footway","name":null,"category":"Footpath (pedestrian only)"},"geometry":{"type":"MultiLineString","coordinates":[[[-2.9799733,53.4634461],[-2.9797038,53.4633113],[-2.9791812,53.4630499],[-2.978738,53.4628282],[-2.9785353,53.4627268]]]}},
{"type":"Feature","properties":{"highway":"footway","name":null,"category":"Footpath (pedestrian only)"},"geometry":{"type":"MultiLineString","coordinates":[[[-2.9824799,53.4639077],[-2.9819475,53.463634],[-2.9814251,53.4633654],[-2.9809105,53.4631009],[-2.9803915,53.4628341],[-2.9798815,53.4625719],[-2.9791812,53.4630499],[-2.9784592,53.4635426],[-2.9775283,53.4641779],[-2.9781399,53.4643962],[-2.9787132,53.4646007],[-2.9793128,53.4648147],[-2.9798348,53.4650913],[-2.9803649,53.4653723],[-2.9808995,53.4656557],[-2.9813581,53.4658987],[-2.9815407,53.465908],[-2.9820652,53.4653941],[-2.9825582,53.464911],[-2.9825669,53.4648079]]]}},
{"type":"Feature","properties":{"highway":"footway","name":null,"category":"Footpath (pedestrian only)"},"geometry":{"type":"MultiLineString","coordinates":[[[-2.9820652,53.4653941],[-2.9816188,53.465165],[-2.9812341,53.4649675]]]}},
{"type":"Feature","properties":{"highway":"footway","name":null,"category":"Footpath (pedestrian only)"},"geometry":{"type":"MultiLineString","coordinates":[[[-2.9823254,53.4646828],[-2.9816188,53.465165],[-2.9808995,53.4656557]]]}},
{"type":"Feature","properties":{"highway":"footway","name":null,"category":"Footpath (pedestrian only)"},"geometry":{"type":"MultiLineString","coordinates":[[[-2.9808644,53.4648788],[-2.9808748,53.4649222],[-2.9809094,53.4649609],[-2.9809381,53.4649762],[-2.9809642,53.4649901],[-2.9810325,53.4650065],[-2.9811061,53.4650081],[-2.9811761,53.4649945],[-2.9812341,53.4649675],[-2.9812704,53.4649344],[-2.9812876,53.4648961],[-2.9812841,53.4648566],[-2.9812602,53.4648197],[-2.9812183,53.4647889],[-2.9811625,53.4647674],[-2.9810983,53.4647572],[-2.9810319,53.4647594],[-2.9809699,53.4647737],[-2.9809183,53.4647987],[-2.9808795,53.4648359],[-2.9808644,53.4648788]]]}},
{"type":"Feature","properties":{"highway":"footway","name":null,"category":"Footpath (pedestrian only)"},"geometry":{"type":"MultiLineString","coordinates":[[[-2.9803649,53.4653723],[-2.9809381,53.4649762]]]}},
{"type":"Feature","properties":{"highway":"footway","name":null,"category":"Footpath (pedestrian only)"},"geometry":{"type":"MultiLineString","coordinates":[[[-2.9812183,53.4647889],[-2.981777,53.4643987],[-2.9824799,53.4639077]]]}},
{"type":"Feature","properties":{"highway":"footway","name":null,"category":"Footpath (pedestrian only)"},"geometry":{"type":"MultiLineString","coordinates":[[[-2.9819475,53.463634],[-2.9812413,53.4641211],[-2.9805395,53.4646052],[-2.9798348,53.4650913]]]}},
{"type":"Feature","properties":{"highway":"footway","name":null,"category":"Footpath (pedestrian only)"},"geometry":{"type":"MultiLineString","coordinates":[[[-2.9793128,53.4648147],[-2.9800113,53.4643354],[-2.9807185,53.4638502],[-2.9814251,53.4633654]]]}},
{"type":"Feature","properties":{"highway":"footway","name":null,"category":"Footpath (pedestrian only)"},"geometry":{"type":"MultiLineString","coordinates":[[[-2.9809183,53.4647987],[-2.9805395,53.4646052],[-2.9800113,53.4643354],[-2.9794925,53.4640704],[-2.9789839,53.4638106],[-2.9784592,53.4635426],[-2.9779757,53.4632957],[-2.9785717,53.4628556],[-2.978738,53.4628282]]]}},
{"type":"Feature","properties":{"highway":"footway","name":null,"category":"Footpath (pedestrian only)"},"geometry":{"type":"MultiLineString","coordinates":[[[-2.9779757,53.4632957],[-2.9773015,53.463823],[-2.9772592,53.4639335],[-2.977295,53.4640518],[-2.9774057,53.4641332],[-2.9775283,53.4641779]]]}},
{"type":"Feature","properties":{"highway":"footway","name":null,"category":"Footpath (pedestrian only)"},"geometry":{"type":"MultiLineString","coordinates":[[[-2.9781399,53.4643962],[-2.9789839,53.4638106],[-2.9797038,53.4633113],[-2.9803915,53.4628341],[-2.9808832,53.4624931]]]}},
{"type":"Feature","properties":{"highway":"footway","name":null,"category":"Footpath (pedestrian only)"},"geometry":{"type":"MultiLineString","coordinates":[[[-2.9798815,53.4625719],[-2.980441,53.4621808],[-2.9808832,53.4624931],[-2.9813334,53.462811],[-2.9809105,53.4631009],[-2.9804266,53.4634326]]]}},
{"type":"Feature","properties":{"highway":"footway","name":null,"category":"Footpath (pedestrian only)"},"geometry":{"type":"MultiLineString","coordinates":[[[-2.979984,53.463736],[-2.9794925,53.4640704],[-2.9787132,53.4646007]]]}},
{"type":"Feature","properties":{"highway":"footway","name":null,"category":"Footpath (pedestrian only)"},"geometry":{"type":"MultiLineString","coordinates":[[[-2.9813213,53.4661503],[-2.9811654,53.4661535],[-2.9799004,53.4661281]]]}},
{"type":"Feature","properties":{"highway":"path","name":null,"category":"Shared path"},"geometry":{"type":"MultiLineString","coordinates":[[[-2.984673,53.4657072],[-2.9849773,53.4655992],[-2.9849601,53.4653255],[-2.9848312,53.4652155],[-2.9843279,53.4649672],[-2.9840587,53.4648344],[-2.9837525,53.4646834],[-2.9835291,53.4646731],[-2.983297,53.4647959],[-2.9829503,53.4647343]]]}},
{"type":"Feature","properties":{"highway":"path","name":null,"category":"Shared path"},"geometry":{"type":"MultiLineString","coordinates":[[[-2.984217,53.4650501],[-2.9843279,53.4649672]]]}},
{"type":"Feature","properties":{"highway":"path","name":null,"category":"Shared path"},"geometry":{"type":"MultiLineString","coordinates":[[[-2.9839497,53.4649188],[-2.9840587,53.4648344]]]}},
{"type":"Feature","properties":{"highway":"path","name":null,"category":"Shared path"},"geometry":{"type":"MultiLineString","coordinates":[[[-2.9874054,53.4640141],[-2.987616,53.4638708],[-2.9878062,53.4637364],[-2.9881036,53.4635337]]]}},
{"type":"Feature","properties":{"highway":"path","name":null,"category":"Shared path"},"geometry":{"type":"MultiLineString","coordinates":[[[-2.9878409,53.4637938],[-2.9878317,53.4638243],[-2.9878056,53.463851],[-2.9877657,53.4638709],[-2.9877168,53.4638814],[-2.9876648,53.4638814],[-2.987616,53.4638708],[-2.9875792,53.463853],[-2.9875536,53.4638292],[-2.9875417,53.4638019],[-2.9875448,53.4637737],[-2.9875625,53.4637475],[-2.9875931,53.463726],[-2.9876334,53.4637111],[-2.9876795,53.4637045],[-2.9877268,53.4637069],[-2.9877704,53.4637179],[-2.9878062,53.4637364],[-2.987832,53.4637633],[-2.9878409,53.4637938]]]}},
{"type":"Feature","properties":{"highway":"path","name":null,"category":"Shared path"},"geometry":{"type":"MultiLineString","coordinates":[[[-2.9879562,53.4639602],[-2.9877657,53.4638709]]]}},
{"type":"Feature","properties":{"highway":"footway","name":null,"category":"Footpath (pedestrian only)"},"geometry":{"type":"MultiLineString","coordinates":[[[-2.9903297,53.4641697],[-2.9901431,53.4640991]]]}},
{"type":"Feature","properties":{"highway":"footway","name":null,"category":"Footpath (pedestrian only)"},"geometry":{"type":"MultiLineString","coordinates":[[[-2.9889645,53.4630894],[-2.9891993,53.4629948]]]}},
{"type":"Feature","properties":{"highway":"footway","name":null,"category":"Footpath (pedestrian only)"},"geometry":{"type":"MultiLineString","coordinates":[[[-2.9894812,53.463532],[-2.989713,53.46344]]]}},
{"type":"Feature","properties":{"highway":"footway","name":"Province Road","category":"Footpath (pedestrian only)"},"geometry":{"type":"MultiLineString","coordinates":[[[-2.9875759,53.4615801],[-2.9874479,53.461652]]]}},
{"type":"Feature","properties":{"highway":"footway","name":null,"category":"Footpath (pedestrian only)"},"geometry":{"type":"MultiLineString","coordinates":[[[-2.9909642,53.4621096],[-2.9914389,53.4625487],[-2.9915757,53.4627723],[-2.9912646,53.4628856],[-2.9912128,53.4628869]]]}},
{"type":"Feature","properties":{"highway":"footway","name":null,"category":"Footpath (pedestrian only)"},"geometry":{"type":"MultiLineString","coordinates":[[[-2.9912768,53.4635612],[-2.9913182,53.4634844],[-2.9915891,53.463296],[-2.9916642,53.4632769],[-2.9917501,53.463304],[-2.9918091,53.4633535],[-2.9918869,53.4633679],[-2.9919968,53.4633695],[-2.99208,53.4634014],[-2.9925118,53.4637751],[-2.9925294,53.4638486]]]}},
{"type":"Feature","properties":{"highway":"footway","name":null,"category":"Footpath (pedestrian only)"},"geometry":{"type":"MultiLineString","coordinates":[[[-2.9940276,53.4646524],[-2.9931103,53.4640919],[-2.9930513,53.4640791],[-2.9928877,53.4639562],[-2.9927643,53.4639067],[-2.9925298,53.4639088]]]}},
{"type":"Feature","properties":{"highway":"footway","name":null,"category":"Footpath (pedestrian only)"},"geometry":{"type":"MultiLineString","coordinates":[[[-2.9915591,53.4613681],[-2.991423,53.461246],[-2.9913309,53.4611634]]]}},
{"type":"Feature","properties":{"highway":"footway","name":null,"category":"Footpath (pedestrian only)"},"geometry":{"type":"MultiLineString","coordinates":[[[-2.9916848,53.4611316],[-2.991423,53.461246],[-2.9911659,53.4613231],[-2.9912505,53.4615107],[-2.9913229,53.4615985],[-2.9915107,53.461672],[-2.9916823,53.4617327],[-2.9917467,53.4618061],[-2.9917333,53.4619115],[-2.9916609,53.4619978],[-2.9918004,53.4620281],[-2.9919184,53.4621064],[-2.9920203,53.4621383],[-2.9921172,53.4621285],[-2.9922726,53.462065]]]}},
{"type":"Feature","properties":{"highway":"footway","name":null,"category":"Footpath (pedestrian only)"},"geometry":{"type":"MultiLineString","coordinates":[[[-2.9919184,53.4621064],[-2.9917816,53.4621686],[-2.9916984,53.4622421],[-2.9916662,53.4623044],[-2.9916229,53.4623199]]]}},
{"type":"Feature","properties":{"highway":"footway","name":null,"category":"Footpath (pedestrian only)"},"geometry":{"type":"MultiLineString","coordinates":[[[-2.9916609,53.4619978],[-2.9915187,53.461985],[-2.9913873,53.4619562],[-2.9913149,53.4619562],[-2.9912645,53.46197]]]}},
{"type":"Feature","properties":{"highway":"footway","name":null,"category":"Footpath (pedestrian only)"},"geometry":{"type":"MultiLineString","coordinates":[[[-2.9911659,53.4613231],[-2.9910788,53.4612041],[-2.9909286,53.4611067],[-2.990816,53.4610604],[-2.9907302,53.4609917],[-2.9906685,53.4609007],[-2.9906148,53.4608624],[-2.9904002,53.4608161],[-2.990242,53.4608225],[-2.9900516,53.4608688],[-2.9893642,53.4609123]]]}},
{"type":"Feature","properties":{"highway":"footway","name":null,"category":"Footpath (pedestrian only)"},"geometry":{"type":"MultiLineString","coordinates":[[[-2.9908774,53.4606668],[-2.9907141,53.4607203],[-2.9906551,53.4607905],[-2.9906148,53.4608624]]]}},
{"type":"Feature","properties":{"highway":"footway","name":null,"category":"Footpath (pedestrian only)"},"geometry":{"type":"MultiLineString","coordinates":[[[-2.9900435,53.4606787],[-2.9900623,53.4607682],[-2.9900516,53.4608688],[-2.990006,53.460971],[-2.9900167,53.46107],[-2.990183,53.461145],[-2.9904324,53.4612041],[-2.9906819,53.4612888],[-2.9908428,53.4613862],[-2.9909903,53.4614979],[-2.9910574,53.4616017],[-2.9910896,53.4617215],[-2.9911808,53.4618205],[-2.9913283,53.4618812],[-2.9913873,53.4619562]]]}},
{"type":"Feature","properties":{"highway":"footway","name":null,"category":"Footpath (pedestrian only)"},"geometry":{"type":"MultiLineString","coordinates":[[[-2.990816,53.4610604],[-2.9906202,53.4610971],[-2.9904324,53.4612041]]]}},
{"type":"Feature","properties":{"highway":"footway","name":null,"category":"Footpath (pedestrian only)"},"geometry":{"type":"MultiLineString","coordinates":[[[-2.9906154,53.4603798],[-2.9900564,53.4605498],[-2.9900181,53.4605135]]]}},
{"type":"Feature","properties":{"highway":"footway","name":null,"category":"Footpath (pedestrian only)"},"geometry":{"type":"MultiLineString","coordinates":[[[-2.9766027,53.4623789],[-2.9765162,53.4623875],[-2.9763579,53.4624033],[-2.97626,53.462413]]]}},
{"type":"Feature","properties":{"highway":"footway","name":null,"category":"Footpath (pedestrian only)"},"geometry":{"type":"MultiLineString","coordinates":[[[-2.9755608,53.4704152],[-2.975528,53.4703774],[-2.9754625,53.4703976],[-2.9754284,53.4703584],[-2.9753928,53.4703176]]]}},
{"type":"Feature","properties":{"highway":"footway","name":null,"category":"Footpath (pedestrian only)"},"geometry":{"type":"MultiLineString","coordinates":[[[-2.9764872,53.4703277],[-2.976215,53.4703855],[-2.9761767,53.4703947]]]}},
{"type":"Feature","properties":{"highway":"footway","name":null,"category":"Footpath (pedestrian only)"},"geometry":{"type":"MultiLineString","coordinates":[[[-2.974824,53.468703],[-2.9747695,53.4686915],[-2.9747085,53.4686786]]]}},
{"type":"Feature","properties":{"highway":"footway","name":null,"category":"Footpath (pedestrian only)"},"geometry":{"type":"MultiLineString","coordinates":[[[-2.9747135,53.4686678],[-2.9747085,53.4686786],[-2.9746978,53.4687019],[-2.9746231,53.4687105],[-2.974553,53.4687185],[-2.9745489,53.4687557],[-2.9744553,53.4687645],[-2.9743534,53.4687741],[-2.9742508,53.4687166],[-2.9741421,53.4686556],[-2.9741562,53.4686109],[-2.9741695,53.4685688],[-2.9742273,53.4685622],[-2.9742439,53.468524],[-2.9742611,53.4684843],[-2.9743028,53.4684737],[-2.9743183,53.4684697],[-2.9743959,53.4684761],[-2.97454,53.4684902],[-2.9746716,53.4684986],[-2.9746816,53.4685238],[-2.9746886,53.4685554],[-2.9747053,53.4686306],[-2.9747135,53.4686678]]]}},
{"type":"Feature","properties":{"highway":"footway","name":null,"category":"Footpath (pedestrian only)"},"geometry":{"type":"MultiLineString","coordinates":[[[-2.9747598,53.4684529],[-2.9747107,53.4684783],[-2.9746716,53.4684986]]]}},
{"type":"Feature","properties":{"highway":"footway","name":null,"category":"Footpath (pedestrian only)"},"geometry":{"type":"MultiLineString","coordinates":[[[-2.9741454,53.4683321],[-2.9742114,53.4683916],[-2.9743028,53.4684737]]]}},
{"type":"Feature","properties":{"highway":"footway","name":null,"category":"Footpath (pedestrian only)"},"geometry":{"type":"MultiLineString","coordinates":[[[-2.9741253,53.4687826],[-2.9741714,53.4687584],[-2.9742508,53.4687166]]]}},
{"type":"Feature","properties":{"highway":"footway","name":null,"category":"Footpath (pedestrian only)"},"geometry":{"type":"MultiLineString","coordinates":[[[-2.97489,53.4686439],[-2.9748554,53.4686594],[-2.974834,53.468677]]]}},
{"type":"Feature","properties":{"highway":"footway","name":null,"category":"Footpath (pedestrian only)"},"geometry":{"type":"MultiLineString","coordinates":[[[-2.974834,53.468677],[-2.974824,53.468703],[-2.9747957,53.4687589],[-2.9747779,53.4688091],[-2.9747738,53.468846],[-2.9747774,53.4688778],[-2.9747906,53.4689077],[-2.9748119,53.4689386],[-2.9748409,53.4689719],[-2.9752945,53.4694538]]]}},
{"type":"Feature","properties":{"highway":"footway","name":null,"category":"Footpath (pedestrian only)"},"geometry":{"type":"MultiLineString","coordinates":[[[-2.9755302,53.4697084],[-2.9755442,53.4697236],[-2.9757389,53.4699353],[-2.9757595,53.4699535],[-2.9757863,53.4699768],[-2.9759824,53.4701265],[-2.976215,53.4703855]]]}},
{"type":"Feature","properties":{"highway":"footway","name":null,"category":"Footpath (pedestrian only)"},"geometry":{"type":"MultiLineString","coordinates":[[[-2.9752945,53.4694538],[-2.9755302,53.4697084]]]}},
{"type":"Feature","properties":{"highway":"footway","name":null,"category":"Footpath (pedestrian only)"},"geometry":{"type":"MultiLineString","coordinates":[[[-2.9747933,53.4694471],[-2.9746181,53.4692577],[-2.9743812,53.4690048],[-2.9742692,53.4688982],[-2.9741726,53.4688168],[-2.9741253,53.4687826]]]}},
{"type":"Feature","properties":{"highway":"footway","name":null,"category":"Footpath (pedestrian only)"},"geometry":{"type":"MultiLineString","coordinates":[[[-2.9753928,53.4703176],[-2.9752286,53.4700067],[-2.9751197,53.4698006],[-2.9750358,53.4697091],[-2.9750327,53.4697057]]]}},
{"type":"Feature","properties":{"highway":"footway","name":null,"category":"Footpath (pedestrian only)"},"geometry":{"type":"MultiLineString","coordinates":[[[-2.9750327,53.4697057],[-2.9747933,53.4694471]]]}},
{"type":"Feature","properties":{"highway":"footway","name":null,"category":"Footpath (pedestrian only)"},"geometry":{"type":"MultiLineString","coordinates":[[[-2.9755442,53.4697236],[-2.9755721,53.469718],[-2.9755825,53.4697291]]]}},
{"type":"Feature","properties":{"highway":"path","name":null,"category":"Shared path"},"geometry":{"type":"MultiLineString","coordinates":[[[-2.9757856,53.4699468],[-2.9757726,53.4699214],[-2.9756446,53.4697813],[-2.975643,53.4697635],[-2.97558,53.4696924],[-2.9749433,53.4696855],[-2.9746241,53.4697941]]]}},
{"type":"Feature","properties":{"highway":"footway","name":null,"category":"Footpath (pedestrian only)"},"geometry":{"type":"MultiLineString","coordinates":[[[-2.9756215,53.4697707],[-2.9756258,53.4697753],[-2.9756446,53.4697813]]]}},
{"type":"Feature","properties":{"highway":"footway","name":null,"category":"Footpath (pedestrian only)"},"geometry":{"type":"MultiLineString","coordinates":[[[-2.9755983,53.4697459],[-2.9756055,53.4697536]]]}},
{"type":"Feature","properties":{"highway":"footway","name":null,"category":"Footpath (pedestrian only)"},"geometry":{"type":"MultiLineString","coordinates":[[[-2.9750615,53.4697741],[-2.9750681,53.4697814],[-2.9751938,53.469998]]]}},
{"type":"Feature","properties":{"highway":"path","name":null,"category":"Shared path"},"geometry":{"type":"MultiLineString","coordinates":[[[-2.9752286,53.4700067],[-2.9751938,53.469998],[-2.9751315,53.4699733],[-2.9750993,53.4699501],[-2.9749605,53.469836],[-2.9749363,53.469822],[-2.9749149,53.4698132],[-2.9748881,53.4698068],[-2.9748592,53.4698033],[-2.974825,53.4698017],[-2.9746241,53.4697941],[-2.9733666,53.4697716],[-2.9732746,53.4698032]]]}},
{"type":"Feature","properties":{"highway":"footway","name":null,"category":"Footpath (pedestrian only)"},"geometry":{"type":"MultiLineString","coordinates":[[[-2.9750358,53.4697091],[-2.9750104,53.4697176],[-2.9750216,53.46973]]]}},
{"type":"Feature","properties":{"highway":"footway","name":null,"category":"Footpath (pedestrian only)"},"geometry":{"type":"MultiLineString","coordinates":[[[-2.9750378,53.4697479],[-2.9750441,53.4697549]]]}},
{"type":"Feature","properties":{"highway":"footway","name":null,"category":"Footpath (pedestrian only)"},"geometry":{"type":"MultiLineString","coordinates":[[[-2.9853367,53.4677421],[-2.9852538,53.4677147],[-2.9852088,53.4676997],[-2.9851617,53.4676947],[-2.985102,53.4676883]]]}},
{"type":"Feature","properties":{"highway":"footway","name":null,"category":"Footpath (pedestrian only)"},"geometry":{"type":"MultiLineString","coordinates":[[[-2.9856798,53.4675636],[-2.9856619,53.467611],[-2.9856457,53.4676539],[-2.9856365,53.4676783]]]}},
{"type":"Feature","properties":{"highway":"footway","name":null,"category":"Footpath (pedestrian only)"},"geometry":{"type":"MultiLineString","coordinates":[[[-2.9856266,53.4675279],[-2.9856201,53.4675262],[-2.9855296,53.4675024],[-2.985423,53.4674745],[-2.9853584,53.4674576]]]}},
{"type":"Feature","properties":{"highway":"footway","name":null,"category":"Footpath (pedestrian only)"},"geometry":{"type":"MultiLineString","coordinates":[[[-2.9851148,53.4674904],[-2.9850876,53.4675156],[-2.9850483,53.4675521],[-2.9850213,53.4675772]]]}},
{"type":"Feature","properties":{"highway":"path","name":null,"category":"Shared path"},"geometry":{"type":"MultiLineString","coordinates":[[[-2.9841942,53.4664256],[-2.9842626,53.4664645],[-2.9847497,53.4667638],[-2.984922,53.4668971],[-2.9851943,53.4670843],[-2.9853686,53.4671893],[-2.9853405,53.4672105],[-2.9855667,53.467319],[-2.9856322,53.4673505]]]}},
{"type":"Feature","properties":{"highway":"footway","name":null,"category":"Footpath (pedestrian only)"},"geometry":{"type":"MultiLineString","coordinates":[[[-2.9858603,53.4677094],[-2.9856365,53.4676783],[-2.9855742,53.4676707],[-2.9855352,53.4676683],[-2.9854972,53.4676707],[-2.985464,53.4676767],[-2.9854295,53.4676865],[-2.985399,53.4676981],[-2.9853733,53.4677112],[-2.9853525,53.4677254],[-2.9853367,53.4677421],[-2.9851201,53.4679871],[-2.9850274,53.468071]]]}},
{"type":"Feature","properties":{"highway":"footway","name":null,"category":"Footpath (pedestrian only)"},"geometry":{"type":"MultiLineString","coordinates":[[[-2.9848987,53.4679817],[-2.9850344,53.4678286],[-2.9850542,53.4678023],[-2.9850867,53.4677552],[-2.9850978,53.4677321],[-2.9851025,53.4677091],[-2.985102,53.4676883],[-2.9851004,53.4676686],[-2.9850961,53.467653],[-2.9850887,53.4676341],[-2.9850766,53.4676153],[-2.9850662,53.4676045],[-2.9850563,53.467597],[-2.9850414,53.4675876],[-2.9850213,53.4675772],[-2.9850022,53.4675684],[-2.9843649,53.4673162],[-2.984331,53.4673058],[-2.9843013,53.4672992],[-2.9842784,53.4672963],[-2.9842454,53.4672969],[-2.9842137,53.4673002],[-2.984188,53.467306]]]}},
{"type":"Feature","properties":{"highway":"footway","name":null,"category":"Footpath (pedestrian only)"},"geometry":{"type":"MultiLineString","coordinates":[[[-2.9842784,53.4672963],[-2.9841926,53.4672569],[-2.9840973,53.4672132]]]}},
{"type":"Feature","properties":{"highway":"footway","name":null,"category":"Footpath (pedestrian only)"},"geometry":{"type":"MultiLineString","coordinates":[[[-2.9840752,53.4672702],[-2.9840836,53.4672628],[-2.9840916,53.4672533],[-2.9840964,53.4672433],[-2.9840991,53.4672338],[-2.9840998,53.4672256],[-2.9840992,53.467218],[-2.9840973,53.4672132],[-2.984093,53.4672031],[-2.9840872,53.4671946],[-2.9840804,53.4671877],[-2.9840694,53.4671809],[-2.9840454,53.4671694],[-2.9838741,53.4670872],[-2.9835919,53.4669433],[-2.9835066,53.4668992],[-2.9834202,53.4668593],[-2.9833303,53.4668231],[-2.9832311,53.466787],[-2.9828721,53.4666831],[-2.9820675,53.4664479],[-2.9820379,53.4664366],[-2.9818427,53.4663617],[-2.9817648,53.4663833],[-2.981694,53.466403],[-2.981764,53.4665113],[-2.9818028,53.4665713],[-2.9818321,53.4666302],[-2.9819317,53.4668909],[-2.9819775,53.4670186],[-2.9819897,53.4670827],[-2.9819968,53.4671438],[-2.9819943,53.4671996]]]}},
{"type":"Feature","properties":{"highway":"footway","name":null,"category":"Footpath (pedestrian only)"},"geometry":{"type":"MultiLineString","coordinates":[[[-2.9840454,53.4671694],[-2.9840871,53.46714],[-2.9841433,53.4671004]]]}},
{"type":"Feature","properties":{"highway":"footway","name":null,"category":"Footpath (pedestrian only)"},"geometry":{"type":"MultiLineString","coordinates":[[[-2.9841819,53.4671192],[-2.9842602,53.4671379],[-2.984334,53.4671556]]]}},
{"type":"Feature","properties":{"highway":"footway","name":null,"category":"Footpath (pedestrian only)"},"geometry":{"type":"MultiLineString","coordinates":[[[-2.9838837,53.4669572],[-2.9839455,53.4669877],[-2.98399,53.4670096]]]}},
{"type":"Feature","properties":{"highway":"footway","name":null,"category":"Footpath (pedestrian only)"},"geometry":{"type":"MultiLineString","coordinates":[[[-2.98399,53.4670096],[-2.9840034,53.4670325],[-2.9841433,53.4671004],[-2.9841819,53.4671192]]]}},
{"type":"Feature","properties":{"highway":"footway","name":null,"category":"Footpath (pedestrian only)"},"geometry":{"type":"MultiLineString","coordinates":[[[-2.984334,53.4671556],[-2.9843503,53.467142],[-2.9847351,53.467304],[-2.984798,53.4673669],[-2.9850851,53.4674836],[-2.9850932,53.4674862],[-2.9851034,53.4674886],[-2.9851148,53.4674904],[-2.9851321,53.4674921],[-2.9851561,53.4674935],[-2.9851893,53.4674945],[-2.9852411,53.4674923],[-2.9852646,53.4674893],[-2.9852871,53.4674853],[-2.9853098,53.4674794],[-2.9853274,53.4674729],[-2.9853457,53.467464],[-2.9853584,53.4674576],[-2.9854784,53.4673864],[-2.9855667,53.467319],[-2.9857399,53.4671902],[-2.9857685,53.4671757]]]}},
{"type":"Feature","properties":{"highway":"footway","name":null,"category":"Footpath (pedestrian only)"},"geometry":{"type":"MultiLineString","coordinates":[[[-2.9857685,53.4671757],[-2.9858122,53.4671426],[-2.9858633,53.4671038]]]}},
{"type":"Feature","properties":{"highway":"footway","name":null,"category":"Footpath (pedestrian only)"},"geometry":{"type":"MultiLineString","coordinates":[[[-2.9815908,53.4664278],[-2.9816404,53.4664158],[-2.981694,53.466403]]]}},
{"type":"Feature","properties":{"highway":"footway","name":null,"category":"Footpath (pedestrian only)"},"geometry":{"type":"MultiLineString","coordinates":[[[-2.9818427,53.4663617],[-2.9818807,53.4663206],[-2.9819224,53.4662755]]]}},
{"type":"Feature","properties":{"highway":"footway","name":null,"category":"Footpath (pedestrian only)"},"geometry":{"type":"MultiLineString","coordinates":[[[-2.9815553,53.4662724],[-2.9814419,53.4662133],[-2.9813213,53.4661503]]]}},
{"type":"Feature","properties":{"highway":"footway","name":null,"category":"Footpath (pedestrian only)"},"geometry":{"type":"MultiLineString","coordinates":[[[-2.9817648,53.4663833],[-2.9816384,53.4663051],[-2.9815553,53.4662724]]]}},
{"type":"Feature","properties":{"highway":"footway","name":null,"category":"Footpath (pedestrian only)"},"geometry":{"type":"MultiLineString","coordinates":[[[-2.9820379,53.4664366],[-2.9819109,53.46648],[-2.981764,53.4665113]]]}},
{"type":"Feature","properties":{"highway":"footway","name":null,"category":"Footpath (pedestrian only)"},"geometry":{"type":"MultiLineString","coordinates":[[[-2.981475,53.466006],[-2.9815565,53.4660595],[-2.9816431,53.4661165]]]}},
{"type":"Feature","properties":{"highway":"footway","name":null,"category":"Footpath (pedestrian only)"},"geometry":{"type":"MultiLineString","coordinates":[[[-2.9816431,53.4661165],[-2.9816793,53.4661596],[-2.9817844,53.4662187],[-2.9819224,53.4662755],[-2.9820985,53.4663389],[-2.9825657,53.4664873],[-2.9832925,53.4666883],[-2.9833261,53.4666935],[-2.9833596,53.4666955],[-2.9833958,53.4666947],[-2.9834119,53.4666931],[-2.9834394,53.4666883],[-2.9834696,53.4666808]]]}},
{"type":"Feature","properties":{"highway":"footway","name":null,"category":"Footpath (pedestrian only)"},"geometry":{"type":"MultiLineString","coordinates":[[[-2.9834119,53.4666931],[-2.9835272,53.4667389],[-2.9836714,53.4667961]]]}},
{"type":"Feature","properties":{"highway":"footway","name":null,"category":"Footpath (pedestrian only)"},"geometry":{"type":"MultiLineString","coordinates":[[[-2.9836949,53.4667223],[-2.9836841,53.4667374],[-2.9836774,53.466755],[-2.9836741,53.466775],[-2.983676,53.4667972],[-2.9836832,53.4668172],[-2.9836966,53.4668359],[-2.9837188,53.4668526],[-2.9837462,53.466869],[-2.9838699,53.4669324],[-2.9838837,53.4669572]]]}},
{"type":"Feature","properties":{"highway":"footway","name":null,"category":"Footpath (pedestrian only)"},"geometry":{"type":"MultiLineString","coordinates":[[[-2.9857071,53.467399],[-2.9856672,53.4674321],[-2.985634,53.4674595]]]}},
{"type":"Feature","properties":{"highway":"footway","name":null,"category":"Footpath (pedestrian only)"},"geometry":{"type":"MultiLineString","coordinates":[[[-2.985634,53.4674595],[-2.9856243,53.467474],[-2.9856187,53.46749],[-2.9856172,53.467507],[-2.9856177,53.467517],[-2.9856201,53.4675262],[-2.9856284,53.4675381],[-2.9856401,53.4675478],[-2.9856533,53.4675548],[-2.9856665,53.4675599],[-2.9856798,53.4675636],[-2.9856946,53.4675671],[-2.9857391,53.4675747],[-2.9859922,53.4676098],[-2.9860324,53.4676282],[-2.9866208,53.4677078],[-2.9866394,53.4677089],[-2.9866544,53.4677081],[-2.9866801,53.4677034],[-2.986704,53.4676966],[-2.9867235,53.4676886],[-2.9867369,53.4676806],[-2.9867496,53.4676698],[-2.9867583,53.4676587],[-2.9868147,53.4675533],[-2.9868247,53.4675377],[-2.9868723,53.4674615],[-2.9868758,53.4674506],[-2.9868727,53.4674414],[-2.9868648,53.467433],[-2.9868506,53.4674256],[-2.9868108,53.4674108],[-2.9869086,53.4673047],[-2.9871019,53.4673605],[-2.9870103,53.4674472],[-2.9869842,53.4674769],[-2.9869625,53.4675067],[-2.9869285,53.4675587],[-2.986887,53.4676348],[-2.9868771,53.4676603],[-2.9868741,53.4676735],[-2.9868753,53.4676881],[-2.98688,53.4677006],[-2.9868905,53.4677145],[-2.9869015,53.4677243],[-2.9869136,53.4677332],[-2.9869282,53.4677409],[-2.9869426,53.4677459],[-2.9869585,53.4677499],[-2.9869766,53.467753],[-2.987164,53.4677756],[-2.9878903,53.467862],[-2.988209,53.4679043],[-2.9882437,53.4679078],[-2.9882792,53.46791],[-2.9883133,53.4679094],[-2.9883447,53.4679073],[-2.9883708,53.4679047],[-2.9884044,53.4678976],[-2.9884283,53.4678886]]]}},
{"type":"Feature","properties":{"highway":"footway","name":null,"category":"Footpath (pedestrian only)"},"geometry":{"type":"MultiLineString","coordinates":[[[-2.9866544,53.4677081],[-2.9867848,53.4677259],[-2.9869426,53.4677459]]]}},
{"type":"Feature","properties":{"highway":"footway","name":null,"category":"Footpath (pedestrian only)"},"geometry":{"type":"MultiLineString","coordinates":[[[-2.987164,53.4677756],[-2.9871507,53.4678148],[-2.9871365,53.4678563]]]}},
{"type":"Feature","properties":{"highway":"footway","name":null,"category":"Footpath (pedestrian only)"},"geometry":{"type":"MultiLineString","coordinates":[[[-2.9883708,53.4679047],[-2.9885104,53.4679425],[-2.9886221,53.4679726]]]}},
{"type":"Feature","properties":{"highway":"path","name":null,"category":"Shared path"},"geometry":{"type":"MultiLineString","coordinates":[[[-2.9747882,53.4611907],[-2.9747799,53.4611446],[-2.9747788,53.4611389]]]}},
{"type":"Feature","properties":{"highway":"path","name":null,"category":"Shared path"},"geometry":{"type":"MultiLineString","coordinates":[[[-2.9747952,53.4612269],[-2.9749061,53.4612264],[-2.9749246,53.4612259],[-2.9749365,53.4612255],[-2.975198,53.4612099],[-2.9751687,53.4610031],[-2.9748719,53.4610197],[-2.9746781,53.4610306],[-2.9746981,53.4611443],[-2.9747788,53.4611389],[-2.9748899,53.4611315]]]}},
{"type":"Feature","properties":{"highway":"footway","name":null,"category":"Footpath (pedestrian only)"},"geometry":{"type":"MultiLineString","coordinates":[[[-2.9748899,53.4611315],[-2.9749011,53.461197],[-2.9749061,53.4612264]]]}},
{"type":"Feature","properties":{"highway":"path","name":null,"category":"Shared path"},"geometry":{"type":"MultiLineString","coordinates":[[[-2.9751687,53.4610031],[-2.9749365,53.4612255]]]}},
{"type":"Feature","properties":{"highway":"path","name":null,"category":"Shared path"},"geometry":{"type":"MultiLineString","coordinates":[[[-2.9748899,53.4611315],[-2.9748719,53.4610197]]]}},
{"type":"Feature","properties":{"highway":"footway","name":null,"category":"Footpath (pedestrian only)"},"geometry":{"type":"MultiLineString","coordinates":[[[-2.9909477,53.4724414],[-2.9907435,53.4722528]]]}},
{"type":"Feature","properties":{"highway":"footway","name":null,"category":"Footpath (pedestrian only)"},"geometry":{"type":"MultiLineString","coordinates":[[[-2.9811016,53.4709226],[-2.9811068,53.4708144]]]}},
{"type":"Feature","properties":{"highway":"footway","name":null,"category":"Footpath (pedestrian only)"},"geometry":{"type":"MultiLineString","coordinates":[[[-2.9813588,53.4709282],[-2.9813659,53.4708201]]]}},
{"type":"Feature","properties":{"highway":"footway","name":null,"category":"Footpath (pedestrian only)"},"geometry":{"type":"MultiLineString","coordinates":[[[-2.978628,53.4707569],[-2.9786173,53.4709411],[-2.9786116,53.4709515],[-2.9785985,53.4709555],[-2.978582,53.4709579],[-2.9784694,53.4709547],[-2.9784543,53.4709463],[-2.9784503,53.4709379],[-2.97846,53.4707529]]]}},
{"type":"Feature","properties":{"highway":"footway","name":null,"category":"Footpath (pedestrian only)"},"geometry":{"type":"MultiLineString","coordinates":[[[-2.9823659,53.4712241],[-2.9827291,53.4714846],[-2.9826801,53.4715057],[-2.9823111,53.4712546]]]}},
{"type":"Feature","properties":{"highway":"footway","name":null,"category":"Footpath (pedestrian only)"},"geometry":{"type":"MultiLineString","coordinates":[[[-2.9801643,53.4712263],[-2.9796385,53.4714015],[-2.979609,53.4713628],[-2.9801186,53.4711976]]]}},
{"type":"Feature","properties":{"highway":"footway","name":null,"category":"Footpath (pedestrian only)"},"geometry":{"type":"MultiLineString","coordinates":[[[-2.9951626,53.4712527],[-2.9949309,53.471308]]]}},
{"type":"Feature","properties":{"highway":"footway","name":null,"category":"Footpath (pedestrian only)"},"geometry":{"type":"MultiLineString","coordinates":[[[-2.9948626,53.4709832],[-2.9948681,53.47101]]]}},
{"type":"Feature","properties":{"highway":"footway","name":null,"category":"Footpath (pedestrian only)"},"geometry":{"type":"MultiLineString","coordinates":[[[-2.9905122,53.4723183],[-2.9901246,53.472468],[-2.9897511,53.4726205],[-2.9894846,53.4727238],[-2.9894768,53.4726959],[-2.9894152,53.4727123]]]}},
{"type":"Feature","properties":{"highway":"footway","name":null,"category":"Footpath (pedestrian only)"},"geometry":{"type":"MultiLineString","coordinates":[[[-2.9907351,53.4721994],[-2.9906865,53.4721563],[-2.9906446,53.4721186],[-2.9905896,53.4721381],[-2.9904049,53.4719895],[-2.9902359,53.4718817],[-2.9900982,53.4717598],[-2.9900569,53.4717165],[-2.9899717,53.4716805],[-2.9899382,53.4716582],[-2.9899026,53.4716151],[-2.9898752,53.471536],[-2.9898557,53.4715037],[-2.9897538,53.4714255],[-2.9897196,53.4713852],[-2.9896787,53.4713509],[-2.989568,53.4712734],[-2.9894574,53.4711768]]]}},
{"type":"Feature","properties":{"highway":"footway","name":null,"category":"Footpath (pedestrian only)"},"geometry":{"type":"MultiLineString","coordinates":[[[-2.9914822,53.4718345],[-2.9915338,53.4718813],[-2.9907351,53.4721994],[-2.9905229,53.47228]]]}},
{"type":"Feature","properties":{"highway":"footway","name":null,"category":"Footpath (pedestrian only)"},"geometry":{"type":"MultiLineString","coordinates":[[[-2.9942134,53.471234],[-2.9938374,53.4713421],[-2.993236,53.4714826],[-2.9926278,53.4716215],[-2.9922134,53.471726],[-2.991866,53.471825],[-2.9917936,53.4718406],[-2.9914818,53.4719412],[-2.9912565,53.4720577],[-2.9907985,53.4722257],[-2.9907321,53.4722337],[-2.9905473,53.4723039]]]}},
{"type":"Feature","properties":{"highway":"footway","name":null,"category":"Footpath (pedestrian only)"},"geometry":{"type":"MultiLineString","coordinates":[[[-2.9931481,53.4713317],[-2.9932044,53.4714303],[-2.993236,53.4714826]]]}},
{"type":"Feature","properties":{"highway":"footway","name":null,"category":"Footpath (pedestrian only)"},"geometry":{"type":"MultiLineString","coordinates":[[[-2.9934534,53.4701803],[-2.9934103,53.4702345],[-2.9932447,53.4703857],[-2.9931213,53.4704795]]]}},
{"type":"Feature","properties":{"highway":"footway","name":null,"category":"Footpath (pedestrian only)"},"geometry":{"type":"MultiLineString","coordinates":[[[-2.9733789,53.468378],[-2.9732837,53.4683157],[-2.9731689,53.4682405],[-2.9731248,53.4682116]]]}},
{"type":"Feature","properties":{"highway":"footway","name":null,"category":"Footpath (pedestrian only)"},"geometry":{"type":"MultiLineString","coordinates":[[[-2.9719824,53.467914],[-2.9720832,53.4678584],[-2.9721817,53.4678041]]]}},
{"type":"Feature","properties":{"highway":"footway","name":null,"category":"Footpath (pedestrian only)"},"geometry":{"type":"MultiLineString","coordinates":[[[-2.9714623,53.4679368],[-2.9715572,53.4678861],[-2.9715034,53.4678503],[-2.9715583,53.467821],[-2.9715542,53.4678183],[-2.9716071,53.4677901],[-2.9717149,53.4677325]]]}},
{"type":"Feature","properties":{"highway":"footway","name":null,"category":"Footpath (pedestrian only)"},"geometry":{"type":"MultiLineString","coordinates":[[[-2.9718352,53.4675749],[-2.971669,53.4676607],[-2.9716529,53.4676771],[-2.9716483,53.4676882]]]}},
{"type":"Feature","properties":{"highway":"footway","name":null,"category":"Footpath (pedestrian only)"},"geometry":{"type":"MultiLineString","coordinates":[[[-2.9722268,53.4678339],[-2.9721817,53.4678041],[-2.9719362,53.4676417],[-2.9718352,53.4675749],[-2.9717805,53.4675387]]]}},
{"type":"Feature","properties":{"highway":"footway","name":null,"category":"Footpath (pedestrian only)"},"geometry":{"type":"MultiLineString","coordinates":[[[-2.9909102,53.4692939],[-2.9908315,53.4693957]]]}},
{"type":"Feature","properties":{"highway":"footway","name":null,"category":"Footpath (pedestrian only)"},"geometry":{"type":"MultiLineString","coordinates":[[[-2.9948594,53.4697369],[-2.9950158,53.4698601],[-2.9950769,53.4699855],[-2.9951607,53.4700704],[-2.9952468,53.4701041],[-2.9953215,53.4701055],[-2.9954144,53.4700825],[-2.9955027,53.4700354],[-2.9956182,53.4699504],[-2.9956884,53.4698776],[-2.9957111,53.4698223]]]}},
{"type":"Feature","properties":{"highway":"footway","name":null,"category":"Footpath (pedestrian only)"},"geometry":{"type":"MultiLineString","coordinates":[[[-2.9919837,53.4697392],[-2.9920907,53.4696118]]]}},
{"type":"Feature","properties":{"highway":"footway","name":null,"category":"Footpath (pedestrian only)"},"geometry":{"type":"MultiLineString","coordinates":[[[-2.992692,53.4697949],[-2.9925919,53.469922]]]}},
{"type":"Feature","properties":{"highway":"footway","name":null,"category":"Footpath (pedestrian only)"},"geometry":{"type":"MultiLineString","coordinates":[[[-2.9933697,53.4700192],[-2.9932789,53.4701257]]]}},
{"type":"Feature","properties":{"highway":"path","name":null,"category":"Shared path"},"geometry":{"type":"MultiLineString","coordinates":[[[-2.9846189,53.4620371],[-2.9845798,53.4619862],[-2.9844604,53.4618649]]]}},
{"type":"Feature","properties":{"highway":"pedestrian","name":null,"category":"Pedestrian area/street"},"geometry":{"type":"MultiLineString","coordinates":[[[-2.9858558,53.4653533],[-2.9855941,53.4651292]]]}}
]
}
