{
"type": "FeatureCollection",
"name": "WESLA_203_cycling",
"crs": { "type": "name", "properties": { "name": "urn:ogc:def:crs:OGC:1.3:CRS84" } },
"features": [
{"type":"Feature","properties":{"highway":"path","name":null,"category":"Shared path"},"geometry":{"type":"MultiLineString","coordinates":[[[-2.835495,53.6845605],[-2.8363798,53.684244],[-2.8364629,53.6841815],[-2.8379487,53.6840949],[-2.8392401,53.6840772],[-2.839412,53.6840707],[-2.8435823,53.683911],[-2.8438418,53.6843804],[-2.8440283,53.6851064],[-2.838973,53.6853381],[-2.8390043,53.6848574],[-2.8391298,53.6846398],[-2.8392401,53.6840772]]]}},
{"type":"Feature","properties":{"highway":"track","name":null,"category":"Track"},"geometry":{"type":"MultiLineString","coordinates":[[[-2.8379158,53.6871966],[-2.8385657,53.6871614],[-2.8389841,53.687128],[-2.8399792,53.6870899],[-2.8402555,53.6871121],[-2.8406766,53.6871153],[-2.8422457,53.6870708],[-2.8437021,53.6870216],[-2.8447026,53.686993],[-2.8449869,53.6869993]]]}},
{"type":"Feature","properties":{"highway":"track","name":null,"category":"Track"},"geometry":{"type":"MultiLineString","coordinates":[[[-2.8477529,53.6786157],[-2.8476262,53.6784497],[-2.8476021,53.6783465],[-2.8476128,53.6778285]]]}}
]
}
