{
"type": "FeatureCollection",
"name": "BURY__35_walking",
"crs": { "type": "name", "properties": { "name": "urn:ogc:def:crs:OGC:1.3:CRS84" } },
"features": [
{"type":"Feature","properties":{"highway":"track","name":"Clough","category":"Track"},"geometry":{"type":"MultiLineString","coordinates":[[[-2.2985586,53.5260306],[-2.2985337,53.5260409],[-2.296632,53.5267507],[-2.2955152,53.5269583],[-2.2952835,53.527032],[-2.2949423,53.5271573],[-2.2946955,53.5271499],[-2.2939083,53.5273094],[-2.2937608,53.5273556],[-2.2932146,53.5274625],[-2.2928783,53.5274816],[-2.2919851,53.5273919],[-2.2913355,53.5274334],[-2.2896875,53.5278569],[-2.2875418,53.5279079]]]}},
{"type":"Feature","properties":{"highway":"path","name":null,"category":"Shared path"},"geometry":{"type":"MultiLineString","coordinates":[[[-2.2624292,53.5250212],[-2.2624903,53.5250723],[-2.2625588,53.5251204],[-2.2626284,53.5251627],[-2.2626589,53.5251886],[-2.2626813,53.5252172],[-2.262748,53.5252387],[-2.2628209,53.5252619],[-2.2633462,53.5253114],[-2.2636764,53.5253537],[-2.2639144,53.5253933],[-2.2643053,53.5254872],[-2.2645103,53.5255731],[-2.2645854,53.5256069]]]}},
{"type":"Feature","properties":{"highway":"track","name":"Shrewsbury Road","category":"Track"},"geometry":{"type":"MultiLineString","coordinates":[[[-2.2863769,53.5263336],[-2.286167,53.5262672],[-2.2860582,53.5262382],[-2.2859002,53.5262075],[-2.2856714,53.526152],[-2.2851336,53.5259905],[-2.2850007,53.5259685],[-2.2848262,53.5259129],[-2.2845295,53.5258194],[-2.2844308,53.5257914],[-2.2841052,53.5256789],[-2.2833113,53.525462],[-2.2825989,53.5253498],[-2.2820453,53.5253727],[-2.2813372,53.5254237],[-2.2809081,53.525411],[-2.2804789,53.5253727],[-2.2803411,53.525266]]]}},
{"type":"Feature","properties":{"highway":"footway","name":null,"category":"Footpath (pedestrian only)"},"geometry":{"type":"MultiLineString","coordinates":[[[-2.2691399,53.5232451],[-2.2708026,53.5233145]]]}},
{"type":"Feature","properties":{"highway":"footway","name":"Arthur Street","category":"Footpath (pedestrian only)"},"geometry":{"type":"MultiLineString","coordinates":[[[-2.2892514,53.5331188],[-2.2892422,53.5330906],[-2.2890403,53.5325477]]]}},
{"type":"Feature","properties":{"highway":"footway","name":null,"category":"Footpath (pedestrian only)"},"geometry":{"type":"MultiLineString","coordinates":[[[-2.2685719,53.535143],[-2.2685927,53.5351886],[-2.2683451,53.5352991],[-2.2682673,53.5353339],[-2.2679531,53.5355266],[-2.2672967,53.5356635],[-2.2643412,53.5362798]]]}},
{"type":"Feature","properties":{"highway":"footway","name":null,"category":"Footpath (pedestrian only)"},"geometry":{"type":"MultiLineString","coordinates":[[[-2.2823398,53.5287242],[-2.2823686,53.5287081],[-2.2823826,53.5286798],[-2.2823706,53.5286541],[-2.2823352,53.5286345],[-2.2822943,53.5286292],[-2.2822509,53.5286371],[-2.2822251,53.5286523],[-2.2822121,53.5286728],[-2.2822187,53.528701],[-2.2822562,53.528725],[-2.2823015,53.528731],[-2.2823398,53.5287242]]]}},
{"type":"Feature","properties":{"highway":"footway","name":null,"category":"Footpath (pedestrian only)"},"geometry":{"type":"MultiLineString","coordinates":[[[-2.2822509,53.5286371],[-2.2821439,53.5285192]]]}},
{"type":"Feature","properties":{"highway":"footway","name":null,"category":"Footpath (pedestrian only)"},"geometry":{"type":"MultiLineString","coordinates":[[[-2.2819974,53.5287796],[-2.2822187,53.528701]]]}},
{"type":"Feature","properties":{"highway":"footway","name":null,"category":"Footpath (pedestrian only)"},"geometry":{"type":"MultiLineString","coordinates":[[[-2.2821362,53.5289317],[-2.2824435,53.5288305],[-2.282734,53.5287346],[-2.2825945,53.5285844],[-2.2824439,53.5284236],[-2.2821439,53.5285192],[-2.2818462,53.5286141],[-2.2819974,53.5287796],[-2.2821362,53.5289317]]]}},
{"type":"Feature","properties":{"highway":"footway","name":null,"category":"Footpath (pedestrian only)"},"geometry":{"type":"MultiLineString","coordinates":[[[-2.2824435,53.5288305],[-2.2823398,53.5287242]]]}},
{"type":"Feature","properties":{"highway":"footway","name":null,"category":"Footpath (pedestrian only)"},"geometry":{"type":"MultiLineString","coordinates":[[[-2.2820637,53.5292155],[-2.2822193,53.5291756],[-2.282355,53.5291571],[-2.2823266,53.5290577]]]}},
{"type":"Feature","properties":{"highway":"footway","name":null,"category":"Footpath (pedestrian only)"},"geometry":{"type":"MultiLineString","coordinates":[[[-2.2819974,53.5287796],[-2.281876,53.5288169]]]}},
{"type":"Feature","properties":{"highway":"footway","name":null,"category":"Footpath (pedestrian only)"},"geometry":{"type":"MultiLineString","coordinates":[[[-2.2840073,53.5290232],[-2.2840218,53.5289955],[-2.284026,53.5289547],[-2.2840352,53.528911],[-2.2840593,53.5288775],[-2.2840754,53.5288424],[-2.2840716,53.528816],[-2.2839594,53.5287494]]]}},
{"type":"Feature","properties":{"highway":"track","name":null,"category":"Track"},"geometry":{"type":"MultiLineString","coordinates":[[[-2.294201,53.5276801],[-2.2940781,53.5275274],[-2.2946613,53.5272743]]]}},
{"type":"Feature","properties":{"highway":"footway","name":null,"category":"Footpath (pedestrian only)"},"geometry":{"type":"MultiLineString","coordinates":[[[-2.2859951,53.5292407],[-2.2857035,53.5291358],[-2.2853816,53.5290911],[-2.2851456,53.529072],[-2.2849273,53.5291029],[-2.2847164,53.5291167],[-2.2845555,53.529072],[-2.2843517,53.5290848],[-2.2842337,53.5290848],[-2.284113,53.5290656],[-2.2840073,53.5290232],[-2.2837938,53.5290003],[-2.2835808,53.5290041],[-2.2834199,53.5290057],[-2.2832815,53.5290194],[-2.2830991,53.5290401],[-2.2830041,53.5290455],[-2.2828405,53.5290408],[-2.2826029,53.5290322],[-2.2823266,53.5290577],[-2.2822461,53.5290433],[-2.2821592,53.5290105],[-2.2821335,53.5289594],[-2.2821362,53.5289317]]]}},
{"type":"Feature","properties":{"highway":"footway","name":null,"category":"Footpath (pedestrian only)"},"geometry":{"type":"MultiLineString","coordinates":[[[-2.2817788,53.5288455],[-2.2816747,53.5288774],[-2.2815262,53.5289211]]]}},
{"type":"Feature","properties":{"highway":"track","name":null,"category":"Track"},"geometry":{"type":"MultiLineString","coordinates":[[[-2.2845555,53.529072],[-2.2861863,53.5281409],[-2.2866653,53.5281399],[-2.2871374,53.5281081]]]}},
{"type":"Feature","properties":{"highway":"footway","name":null,"category":"Footpath (pedestrian only)"},"geometry":{"type":"MultiLineString","coordinates":[[[-2.2817788,53.5288455],[-2.281722,53.5287841],[-2.2817059,53.5287458],[-2.2817177,53.5287149],[-2.2817392,53.5286878],[-2.281773,53.5286629],[-2.2818209,53.5286291],[-2.2818462,53.5286141]]]}},
{"type":"Feature","properties":{"highway":"footway","name":null,"category":"Footpath (pedestrian only)"},"geometry":{"type":"MultiLineString","coordinates":[[[-2.283606,53.5286447],[-2.2830186,53.5285267],[-2.2828872,53.528514],[-2.2827397,53.5285251],[-2.2825945,53.5285844]]]}},
{"type":"Feature","properties":{"highway":"footway","name":null,"category":"Footpath (pedestrian only)"},"geometry":{"type":"MultiLineString","coordinates":[[[-2.2817788,53.5288455],[-2.2818143,53.5288839],[-2.2818615,53.5289228],[-2.2819017,53.5289371],[-2.28195,53.5289515],[-2.2819913,53.5289508],[-2.282045,53.5289524],[-2.2821362,53.5289317]]]}},
{"type":"Feature","properties":{"highway":"track","name":null,"category":"Track"},"geometry":{"type":"MultiLineString","coordinates":[[[-2.2893021,53.5286271],[-2.2892362,53.5286088],[-2.289126,53.5285746],[-2.2885976,53.5283505],[-2.2880126,53.5281849],[-2.2870166,53.5282387],[-2.2866833,53.528344]]]}},
{"type":"Feature","properties":{"highway":"footway","name":null,"category":"Footpath (pedestrian only)"},"geometry":{"type":"MultiLineString","coordinates":[[[-2.2860972,53.5297152],[-2.286083,53.5296237],[-2.2859988,53.5294868],[-2.2860035,53.5292938],[-2.2859881,53.5292576],[-2.2859951,53.5292407],[-2.2860307,53.5291549],[-2.2860869,53.5291338],[-2.2862346,53.5290784],[-2.286653,53.529005],[-2.286932,53.5289604],[-2.2873128,53.5288903],[-2.2889436,53.5286001],[-2.289126,53.5285746],[-2.2895766,53.5284375],[-2.2898402,53.5283472],[-2.2901524,53.5282994],[-2.2904073,53.5282235],[-2.2906251,53.5281444],[-2.290867,53.5280908],[-2.2910977,53.5280213],[-2.2913927,53.5279668],[-2.2919012,53.5278373],[-2.292611,53.5277346],[-2.2930761,53.5276775],[-2.2934489,53.5277251],[-2.2937504,53.5276893],[-2.2939118,53.5275956],[-2.2940781,53.5275274]]]}},
{"type":"Feature","properties":{"highway":"track","name":null,"category":"Track"},"geometry":{"type":"MultiLineString","coordinates":[[[-2.2927363,53.5297608],[-2.292714,53.529719]]]}},
{"type":"Feature","properties":{"highway":"track","name":null,"category":"Track"},"geometry":{"type":"MultiLineString","coordinates":[[[-2.2860869,53.5291338],[-2.2860959,53.52891],[-2.2863204,53.52854],[-2.2866833,53.528344],[-2.2871374,53.5281081]]]}},
{"type":"Feature","properties":{"highway":"path","name":null,"category":"Shared path"},"geometry":{"type":"MultiLineString","coordinates":[[[-2.2920673,53.5298618],[-2.2919823,53.5289547],[-2.2920454,53.5283422],[-2.2919012,53.5278373]]]}},
{"type":"Feature","properties":{"highway":"path","name":null,"category":"Shared path"},"geometry":{"type":"MultiLineString","coordinates":[[[-2.2916123,53.5292633],[-2.2915369,53.5291475],[-2.291497,53.5290879],[-2.2912745,53.528681],[-2.2908998,53.5285209],[-2.2904912,53.5283984],[-2.2898402,53.5283472]]]}},
{"type":"Feature","properties":{"highway":"footway","name":null,"category":"Footpath (pedestrian only)"},"geometry":{"type":"MultiLineString","coordinates":[[[-2.2803022,53.527667],[-2.2801749,53.5277014],[-2.2800938,53.5277359],[-2.2800184,53.5277992],[-2.2799813,53.5278677],[-2.2799502,53.5279514],[-2.279935,53.5280345],[-2.2799491,53.5281208],[-2.2799915,53.5282228]]]}},
{"type":"Feature","properties":{"highway":"footway","name":null,"category":"Footpath (pedestrian only)"},"geometry":{"type":"MultiLineString","coordinates":[[[-2.2807854,53.5281579],[-2.2803657,53.5282118],[-2.2802483,53.5282019],[-2.280189,53.5281965],[-2.2799915,53.5282228],[-2.2788756,53.5283838],[-2.2781003,53.5284852]]]}},
{"type":"Feature","properties":{"highway":"path","name":null,"category":"Shared path"},"geometry":{"type":"MultiLineString","coordinates":[[[-2.2975587,53.5243794],[-2.2973281,53.5244162],[-2.2971511,53.5244911],[-2.2968253,53.5245917],[-2.2962285,53.5246905],[-2.2957028,53.5247543],[-2.2951449,53.5248819],[-2.2944116,53.525034],[-2.2937786,53.5252126],[-2.2933532,53.5253156],[-2.2931962,53.5253578],[-2.29314,53.5254333],[-2.2928752,53.5257607],[-2.2927547,53.5258962]]]}},
{"type":"Feature","properties":{"highway":"footway","name":null,"category":"Footpath (pedestrian only)"},"geometry":{"type":"MultiLineString","coordinates":[[[-2.2774383,53.5286315],[-2.2781062,53.52854]]]}},
{"type":"Feature","properties":{"highway":"track","name":null,"category":"Track"},"geometry":{"type":"MultiLineString","coordinates":[[[-2.2916902,53.5327516],[-2.2915967,53.5326996],[-2.2915239,53.5326591],[-2.291363,53.5326113],[-2.2912879,53.5325571],[-2.2912396,53.5325157]]]}},
{"type":"Feature","properties":{"highway":"footway","name":null,"category":"Footpath (pedestrian only)"},"geometry":{"type":"MultiLineString","coordinates":[[[-2.2742843,53.530151],[-2.2748137,53.5300956]]]}},
{"type":"Feature","properties":{"highway":"path","name":null,"category":"Shared path"},"geometry":{"type":"MultiLineString","coordinates":[[[-2.296498,53.5231372],[-2.2961214,53.5233001],[-2.2958242,53.5234586],[-2.2951663,53.5235249],[-2.2946065,53.5237695],[-2.2938233,53.5241139],[-2.2932654,53.5243946],[-2.292965,53.5246561],[-2.2928363,53.5249239],[-2.2928255,53.5251472],[-2.2929543,53.5253831],[-2.29314,53.5254333],[-2.2935444,53.5255426],[-2.2945382,53.525684],[-2.2952089,53.525788],[-2.2955233,53.5257863],[-2.2958021,53.5257534],[-2.2961434,53.5256824],[-2.2971207,53.5255859],[-2.2975548,53.5255078],[-2.2975891,53.5254661],[-2.2976106,53.5254023],[-2.2974389,53.5252301],[-2.2973714,53.5251114],[-2.2971511,53.5244911]]]}},
{"type":"Feature","properties":{"highway":"path","name":null,"category":"Shared path"},"geometry":{"type":"MultiLineString","coordinates":[[[-2.294494,53.5266159],[-2.2945249,53.5266678],[-2.2946099,53.5267456],[-2.2948566,53.5268508],[-2.2950645,53.5269521],[-2.2952835,53.527032]]]}},
{"type":"Feature","properties":{"highway":"track","name":null,"category":"Track"},"geometry":{"type":"MultiLineString","coordinates":[[[-2.2919851,53.5273919],[-2.2919638,53.5273229],[-2.291958,53.5272083],[-2.2919258,53.5270935],[-2.2918633,53.5268631],[-2.2918449,53.526795]]]}},
{"type":"Feature","properties":{"highway":"footway","name":null,"category":"Footpath (pedestrian only)"},"geometry":{"type":"MultiLineString","coordinates":[[[-2.2852187,53.532774],[-2.285558,53.5326195]]]}},
{"type":"Feature","properties":{"highway":"footway","name":null,"category":"Footpath (pedestrian only)"},"geometry":{"type":"MultiLineString","coordinates":[[[-2.2895442,53.5356003],[-2.2894396,53.5356402],[-2.2893484,53.5356609],[-2.2892134,53.5356926],[-2.2890696,53.5357326],[-2.2889934,53.5357819],[-2.2889183,53.5358744],[-2.2888513,53.5359015],[-2.2885987,53.5359395],[-2.2886093,53.5359617],[-2.2886359,53.5360169],[-2.2886539,53.5360546],[-2.2886673,53.5361025],[-2.2886565,53.5361312],[-2.2885761,53.536171],[-2.2884463,53.5362075],[-2.288347,53.5362394],[-2.2882853,53.5362761],[-2.2882478,53.5363]]]}},
{"type":"Feature","properties":{"highway":"footway","name":null,"category":"Footpath (pedestrian only)"},"geometry":{"type":"MultiLineString","coordinates":[[[-2.2903155,53.5360698],[-2.2902093,53.5359469],[-2.2900915,53.5358633],[-2.2899011,53.5355724],[-2.2897267,53.5356051],[-2.289594,53.5354138],[-2.2894357,53.5354496],[-2.2892118,53.5351125],[-2.2891748,53.5351202],[-2.287601,53.5354855]]]}},
{"type":"Feature","properties":{"highway":"path","name":null,"category":"Shared path"},"geometry":{"type":"MultiLineString","coordinates":[[[-2.2841163,53.5329887],[-2.2837058,53.5330736]]]}},
{"type":"Feature","properties":{"highway":"footway","name":null,"category":"Footpath (pedestrian only)"},"geometry":{"type":"MultiLineString","coordinates":[[[-2.2823706,53.5286541],[-2.2825945,53.5285844]]]}},
{"type":"Feature","properties":{"highway":"footway","name":"Arthur Street","category":"Footpath (pedestrian only)"},"geometry":{"type":"MultiLineString","coordinates":[[[-2.2890278,53.5324768],[-2.2890513,53.5324144]]]}},
{"type":"Feature","properties":{"highway":"footway","name":null,"category":"Footpath (pedestrian only)"},"geometry":{"type":"MultiLineString","coordinates":[[[-2.2837586,53.5335394],[-2.2840518,53.5340202]]]}},
{"type":"Feature","properties":{"highway":"path","name":null,"category":"Shared path"},"geometry":{"type":"MultiLineString","coordinates":[[[-2.2919823,53.5289547],[-2.2918016,53.5289964],[-2.2915369,53.5291475],[-2.2913559,53.5293317]]]}},
{"type":"Feature","properties":{"highway":"footway","name":null,"category":"Footpath (pedestrian only)"},"geometry":{"type":"MultiLineString","coordinates":[[[-2.2824242,53.5333353],[-2.2823032,53.5333947],[-2.2822414,53.5334251]]]}},
{"type":"Feature","properties":{"highway":"footway","name":null,"category":"Footpath (pedestrian only)"},"geometry":{"type":"MultiLineString","coordinates":[[[-2.2822414,53.5334251],[-2.2822162,53.5334074],[-2.2821988,53.5334156]]]}},
{"type":"Feature","properties":{"highway":"footway","name":null,"category":"Footpath (pedestrian only)"},"geometry":{"type":"MultiLineString","coordinates":[[[-2.282006,53.5335097],[-2.2818464,53.5335845]]]}},
{"type":"Feature","properties":{"highway":"footway","name":null,"category":"Footpath (pedestrian only)"},"geometry":{"type":"MultiLineString","coordinates":[[[-2.2816076,53.5331977],[-2.2815494,53.5332293],[-2.2814371,53.5331762],[-2.2813957,53.5332035],[-2.2818464,53.5335845],[-2.2820448,53.5337646],[-2.282527,53.5339627]]]}},
{"type":"Feature","properties":{"highway":"footway","name":null,"category":"Footpath (pedestrian only)"},"geometry":{"type":"MultiLineString","coordinates":[[[-2.2662406,53.5304766],[-2.2663467,53.5304751],[-2.2665071,53.5304165],[-2.2666155,53.5304255],[-2.2666995,53.5304204]]]}},
{"type":"Feature","properties":{"highway":"footway","name":null,"category":"Footpath (pedestrian only)"},"geometry":{"type":"MultiLineString","coordinates":[[[-2.2846935,53.5312347],[-2.2846922,53.5313032],[-2.2845495,53.5313619],[-2.2843937,53.5313816],[-2.2843305,53.5313878]]]}},
{"type":"Feature","properties":{"highway":"footway","name":null,"category":"Footpath (pedestrian only)"},"geometry":{"type":"MultiLineString","coordinates":[[[-2.2854757,53.5324336],[-2.2851418,53.5321676],[-2.2849674,53.5320354],[-2.2850199,53.5320096],[-2.2852504,53.5318967],[-2.2852474,53.5318396],[-2.2852786,53.5317891],[-2.2853989,53.531732],[-2.2854741,53.5317217],[-2.2855575,53.5317253],[-2.2856817,53.5316658],[-2.2857842,53.5316224],[-2.2858056,53.5315745],[-2.2860751,53.5314403]]]}},
{"type":"Feature","properties":{"highway":"footway","name":null,"category":"Footpath (pedestrian only)"},"geometry":{"type":"MultiLineString","coordinates":[[[-2.2859663,53.5326315],[-2.2857996,53.5325162],[-2.2857196,53.5324653],[-2.285628,53.5324017],[-2.2855936,53.5323766]]]}},
{"type":"Feature","properties":{"highway":"footway","name":null,"category":"Footpath (pedestrian only)"},"geometry":{"type":"MultiLineString","coordinates":[[[-2.2855105,53.5320776],[-2.2852504,53.5318967]]]}},
{"type":"Feature","properties":{"highway":"footway","name":null,"category":"Footpath (pedestrian only)"},"geometry":{"type":"MultiLineString","coordinates":[[[-2.2860766,53.5318536],[-2.2857842,53.5316224]]]}},
{"type":"Feature","properties":{"highway":"footway","name":null,"category":"Footpath (pedestrian only)"},"geometry":{"type":"MultiLineString","coordinates":[[[-2.2858419,53.5322553],[-2.2856243,53.5320938],[-2.2855642,53.532056]]]}},
{"type":"Feature","properties":{"highway":"footway","name":null,"category":"Footpath (pedestrian only)"},"geometry":{"type":"MultiLineString","coordinates":[[[-2.2858249,53.5319612],[-2.2855575,53.5317253]]]}},
{"type":"Feature","properties":{"highway":"footway","name":null,"category":"Footpath (pedestrian only)"},"geometry":{"type":"MultiLineString","coordinates":[[[-2.2868962,53.5320582],[-2.2866254,53.5318886]]]}},
{"type":"Feature","properties":{"highway":"footway","name":null,"category":"Footpath (pedestrian only)"},"geometry":{"type":"MultiLineString","coordinates":[[[-2.2856817,53.5316658],[-2.2856144,53.531631],[-2.2855123,53.5315602],[-2.2854585,53.5315052],[-2.2852134,53.5316016],[-2.2850053,53.5316945],[-2.2848302,53.5317774],[-2.2846095,53.5316587]]]}},
{"type":"Feature","properties":{"highway":"footway","name":null,"category":"Footpath (pedestrian only)"},"geometry":{"type":"MultiLineString","coordinates":[[[-2.2863803,53.5317128],[-2.2862138,53.5317929],[-2.2860766,53.5318536],[-2.2858249,53.5319612],[-2.2855642,53.532056],[-2.2855105,53.5320776],[-2.2852063,53.5321848],[-2.2851418,53.5321676]]]}},
{"type":"Feature","properties":{"highway":"footway","name":null,"category":"Footpath (pedestrian only)"},"geometry":{"type":"MultiLineString","coordinates":[[[-2.2914711,53.5321742],[-2.291446,53.5320931],[-2.2915348,53.5319728],[-2.2915788,53.5319648],[-2.2916166,53.5319401],[-2.2915992,53.5317623],[-2.2915573,53.5317575],[-2.291496,53.5316627],[-2.2914879,53.531579],[-2.2914597,53.5314825]]]}},
{"type":"Feature","properties":{"highway":"footway","name":null,"category":"Footpath (pedestrian only)"},"geometry":{"type":"MultiLineString","coordinates":[[[-2.2668078,53.5304935],[-2.2668371,53.5304917]]]}},
{"type":"Feature","properties":{"highway":"footway","name":null,"category":"Footpath (pedestrian only)"},"geometry":{"type":"MultiLineString","coordinates":[[[-2.2668905,53.5303348],[-2.266874,53.5303747]]]}},
{"type":"Feature","properties":{"highway":"footway","name":null,"category":"Footpath (pedestrian only)"},"geometry":{"type":"MultiLineString","coordinates":[[[-2.2819153,53.5334253],[-2.2819395,53.533414]]]}},
{"type":"Feature","properties":{"highway":"footway","name":null,"category":"Footpath (pedestrian only)"},"geometry":{"type":"MultiLineString","coordinates":[[[-2.2821034,53.5333311],[-2.2820792,53.5333437]]]}},
{"type":"Feature","properties":{"highway":"footway","name":"Thorndyke Walk","category":"Footpath (pedestrian only)"},"geometry":{"type":"MultiLineString","coordinates":[[[-2.2778105,53.5255682],[-2.2775712,53.5256196],[-2.2774677,53.525646],[-2.2773828,53.5256634],[-2.2772884,53.5256665],[-2.2768754,53.525647],[-2.2763347,53.5256946],[-2.2754535,53.5257761],[-2.2752239,53.5257386]]]}},
{"type":"Feature","properties":{"highway":"path","name":null,"category":"Shared path"},"geometry":{"type":"MultiLineString","coordinates":[[[-2.2764698,53.5272322],[-2.2765328,53.5271515]]]}},
{"type":"Feature","properties":{"highway":"track","name":null,"category":"Track"},"geometry":{"type":"MultiLineString","coordinates":[[[-2.2851336,53.5259905],[-2.2851254,53.5259565],[-2.2850829,53.5259137],[-2.2848065,53.5257542]]]}},
{"type":"Feature","properties":{"highway":"path","name":"James Street","category":"Shared path"},"geometry":{"type":"MultiLineString","coordinates":[[[-2.2863165,53.5331039],[-2.2863553,53.5331394],[-2.2863976,53.533178],[-2.2864854,53.5332419]]]}},
{"type":"Feature","properties":{"highway":"footway","name":null,"category":"Footpath (pedestrian only)"},"geometry":{"type":"MultiLineString","coordinates":[[[-2.2710999,53.5330191],[-2.2710796,53.5330861],[-2.2710455,53.5331585],[-2.2709983,53.5332103],[-2.2709106,53.5332364],[-2.2708252,53.5332481],[-2.2707253,53.5332582],[-2.2706643,53.5332785],[-2.2705965,53.5333157]]]}},
{"type":"Feature","properties":{"highway":"path","name":null,"category":"Shared path"},"geometry":{"type":"MultiLineString","coordinates":[[[-2.2933371,53.5338333],[-2.2932508,53.5337757],[-2.2931789,53.5336839],[-2.293177,53.533597],[-2.2933,53.5334186],[-2.2933385,53.5333418],[-2.2933595,53.5332468],[-2.2934121,53.5331405],[-2.2934845,53.533064],[-2.2935438,53.5330362],[-2.2936465,53.5329882],[-2.2938493,53.5328982],[-2.2939378,53.5328105],[-2.2939512,53.5326894],[-2.294029,53.5326144],[-2.2942436,53.5325634],[-2.2942972,53.5325188],[-2.2942677,53.5323673]]]}},
{"type":"Feature","properties":{"highway":"path","name":null,"category":"Shared path"},"geometry":{"type":"MultiLineString","coordinates":[[[-2.287601,53.5354855],[-2.2875076,53.5355261]]]}},
{"type":"Feature","properties":{"highway":"footway","name":null,"category":"Footpath (pedestrian only)"},"geometry":{"type":"MultiLineString","coordinates":[[[-2.2882478,53.5363],[-2.2881923,53.5363508],[-2.2881496,53.5363838],[-2.2880591,53.5363693],[-2.2879736,53.5363908],[-2.2878463,53.5364214],[-2.2878118,53.536371],[-2.2876975,53.5363997],[-2.2874919,53.5364475]]]}},
{"type":"Feature","properties":{"highway":"footway","name":null,"category":"Footpath (pedestrian only)"},"geometry":{"type":"MultiLineString","coordinates":[[[-2.2881496,53.5363838],[-2.2881886,53.5364527],[-2.2882193,53.5364971],[-2.2882753,53.5364818],[-2.2883143,53.5365357],[-2.2883588,53.5366099]]]}},
{"type":"Feature","properties":{"highway":"footway","name":null,"category":"Footpath (pedestrian only)"},"geometry":{"type":"MultiLineString","coordinates":[[[-2.2667404,53.5303514],[-2.2667694,53.530358],[-2.2667792,53.530344],[-2.2668116,53.5303513]]]}},
{"type":"Feature","properties":{"highway":"footway","name":null,"category":"Footpath (pedestrian only)"},"geometry":{"type":"MultiLineString","coordinates":[[[-2.2668116,53.5303513],[-2.2668556,53.5303843]]]}},
{"type":"Feature","properties":{"highway":"footway","name":null,"category":"Footpath (pedestrian only)"},"geometry":{"type":"MultiLineString","coordinates":[[[-2.2666995,53.5304204],[-2.2667404,53.5303514]]]}},
{"type":"Feature","properties":{"highway":"footway","name":null,"category":"Footpath (pedestrian only)"},"geometry":{"type":"MultiLineString","coordinates":[[[-2.2667578,53.530448],[-2.2668281,53.5304747]]]}},
{"type":"Feature","properties":{"highway":"footway","name":null,"category":"Footpath (pedestrian only)"},"geometry":{"type":"MultiLineString","coordinates":[[[-2.2666995,53.5304204],[-2.2667295,53.5304255],[-2.2667221,53.5304417],[-2.2667578,53.530448]]]}},
{"type":"Feature","properties":{"highway":"footway","name":null,"category":"Footpath (pedestrian only)"},"geometry":{"type":"MultiLineString","coordinates":[[[-2.2662452,53.5303727],[-2.2662489,53.5303534],[-2.2662651,53.5303349],[-2.2663204,53.5303288],[-2.2666219,53.5302673],[-2.2666908,53.5302531]]]}},
{"type":"Feature","properties":{"highway":"footway","name":null,"category":"Footpath (pedestrian only)"},"geometry":{"type":"MultiLineString","coordinates":[[[-2.2821988,53.5334156],[-2.2820377,53.5334952]]]}},
{"type":"Feature","properties":{"highway":"footway","name":null,"category":"Footpath (pedestrian only)"},"geometry":{"type":"MultiLineString","coordinates":[[[-2.2823032,53.5333947],[-2.2823941,53.5334591],[-2.2823334,53.5334947],[-2.2827187,53.5337835],[-2.2826913,53.5337958],[-2.2822072,53.5334508],[-2.2820952,53.5333749]]]}},
{"type":"Feature","properties":{"highway":"footway","name":null,"category":"Footpath (pedestrian only)"},"geometry":{"type":"MultiLineString","coordinates":[[[-2.2820377,53.5334952],[-2.282024,53.5335009],[-2.282006,53.5335097]]]}},
{"type":"Feature","properties":{"highway":"footway","name":null,"category":"Footpath (pedestrian only)"},"geometry":{"type":"MultiLineString","coordinates":[[[-2.2828238,53.5338362],[-2.2823764,53.5334958],[-2.2824173,53.5334755],[-2.2823941,53.5334591]]]}},
{"type":"Feature","properties":{"highway":"path","name":null,"category":"Shared path"},"geometry":{"type":"MultiLineString","coordinates":[[[-2.2942784,53.5322701],[-2.2942833,53.5322205]]]}},
{"type":"Feature","properties":{"highway":"path","name":null,"category":"Shared path"},"geometry":{"type":"MultiLineString","coordinates":[[[-2.2850773,53.532197],[-2.2851113,53.5321815],[-2.2851418,53.5321676]]]}},
{"type":"Feature","properties":{"highway":"footway","name":null,"category":"Footpath (pedestrian only)"},"geometry":{"type":"MultiLineString","coordinates":[[[-2.2730213,53.5356752],[-2.2725693,53.5355804],[-2.2724781,53.5355566]]]}},
{"type":"Feature","properties":{"highway":"footway","name":null,"category":"Footpath (pedestrian only)"},"geometry":{"type":"MultiLineString","coordinates":[[[-2.2946149,53.5261283],[-2.2944742,53.5261343],[-2.2942919,53.5261414],[-2.2941712,53.5261478],[-2.2941028,53.5261406],[-2.2940558,53.5261223],[-2.2939699,53.5261255]]]}},
{"type":"Feature","properties":{"highway":"footway","name":null,"category":"Footpath (pedestrian only)"},"geometry":{"type":"MultiLineString","coordinates":[[[-2.2905878,53.5225477],[-2.2905824,53.5228169],[-2.2907674,53.5228216],[-2.2907634,53.5230281],[-2.2907727,53.5230885]]]}},
{"type":"Feature","properties":{"highway":"track","name":null,"category":"Track"},"geometry":{"type":"MultiLineString","coordinates":[[[-2.2948605,53.5271946],[-2.2949423,53.5271573]]]}},
{"type":"Feature","properties":{"highway":"track","name":null,"category":"Track"},"geometry":{"type":"MultiLineString","coordinates":[[[-2.2946613,53.5272743],[-2.2948605,53.5271946]]]}},
{"type":"Feature","properties":{"highway":"footway","name":null,"category":"Footpath (pedestrian only)"},"geometry":{"type":"MultiLineString","coordinates":[[[-2.2756897,53.5225732],[-2.2760614,53.5229843]]]}},
{"type":"Feature","properties":{"highway":"footway","name":null,"category":"Footpath (pedestrian only)"},"geometry":{"type":"MultiLineString","coordinates":[[[-2.2756274,53.5224521],[-2.2755823,53.5224665]]]}},
{"type":"Feature","properties":{"highway":"footway","name":null,"category":"Footpath (pedestrian only)"},"geometry":{"type":"MultiLineString","coordinates":[[[-2.275751,53.5224083],[-2.2757068,53.5224242]]]}},
{"type":"Feature","properties":{"highway":"footway","name":null,"category":"Footpath (pedestrian only)"},"geometry":{"type":"MultiLineString","coordinates":[[[-2.2757068,53.5224242],[-2.2757121,53.5224375],[-2.2757059,53.5224507],[-2.2756897,53.5224605],[-2.2756674,53.5224644],[-2.2756447,53.5224613],[-2.2756274,53.5224521],[-2.2756197,53.5224381],[-2.2756253,53.5224239],[-2.2756424,53.5224133],[-2.2756662,53.5224095],[-2.27569,53.5224135],[-2.2757068,53.5224242]]]}},
{"type":"Feature","properties":{"highway":"footway","name":null,"category":"Footpath (pedestrian only)"},"geometry":{"type":"MultiLineString","coordinates":[[[-2.2756448,53.5222974],[-2.275751,53.5224083],[-2.2758503,53.5225161],[-2.2756897,53.5225732]]]}},
{"type":"Feature","properties":{"highway":"footway","name":null,"category":"Footpath (pedestrian only)"},"geometry":{"type":"MultiLineString","coordinates":[[[-2.2748265,53.5218662],[-2.2749411,53.5218896],[-2.2751623,53.5219725],[-2.275283,53.5220004],[-2.2754024,53.5220172],[-2.2756223,53.5221487],[-2.2757095,53.5222093],[-2.2757095,53.5222532],[-2.2756448,53.5222974],[-2.2754735,53.5223583],[-2.2755823,53.5224665],[-2.2756897,53.5225732]]]}},
{"type":"Feature","properties":{"highway":"footway","name":null,"category":"Footpath (pedestrian only)"},"geometry":{"type":"MultiLineString","coordinates":[[[-2.2868572,53.530407],[-2.2868025,53.5304199]]]}},
{"type":"Feature","properties":{"highway":"footway","name":null,"category":"Footpath (pedestrian only)"},"geometry":{"type":"MultiLineString","coordinates":[[[-2.2867525,53.5305533],[-2.286785,53.530526],[-2.2867166,53.5304482],[-2.2866797,53.5303881],[-2.2866844,53.5303522],[-2.2867106,53.5303195],[-2.2867441,53.5303008],[-2.2865617,53.5301816]]]}},
{"type":"Feature","properties":{"highway":"footway","name":null,"category":"Footpath (pedestrian only)"},"geometry":{"type":"MultiLineString","coordinates":[[[-2.2842171,53.5316899],[-2.2844069,53.5315983],[-2.2844552,53.5315754],[-2.284478,53.531564],[-2.2845031,53.5315626],[-2.2845286,53.5315676],[-2.284541,53.5315832],[-2.284542,53.5315953],[-2.2845333,53.5316069],[-2.2844733,53.5316406],[-2.2842693,53.5317433]]]}},
{"type":"Feature","properties":{"highway":"footway","name":null,"category":"Footpath (pedestrian only)"},"geometry":{"type":"MultiLineString","coordinates":[[[-2.2848302,53.5317774],[-2.284821,53.5318141],[-2.2848558,53.5318867],[-2.2850199,53.5320096]]]}},
{"type":"Feature","properties":{"highway":"footway","name":null,"category":"Footpath (pedestrian only)"},"geometry":{"type":"MultiLineString","coordinates":[[[-2.2843937,53.5313816],[-2.2843744,53.5313366],[-2.2844763,53.5313119],[-2.2845434,53.5313159]]]}},
{"type":"Feature","properties":{"highway":"footway","name":null,"category":"Footpath (pedestrian only)"},"geometry":{"type":"MultiLineString","coordinates":[[[-2.2852134,53.5316016],[-2.2853989,53.531732]]]}},
{"type":"Feature","properties":{"highway":"footway","name":null,"category":"Footpath (pedestrian only)"},"geometry":{"type":"MultiLineString","coordinates":[[[-2.2853914,53.5314741],[-2.2854585,53.5315052]]]}},
{"type":"Feature","properties":{"highway":"footway","name":null,"category":"Footpath (pedestrian only)"},"geometry":{"type":"MultiLineString","coordinates":[[[-2.2874362,53.5300565],[-2.2873838,53.5300915],[-2.2870432,53.5302294],[-2.2869802,53.5302342]]]}},
{"type":"Feature","properties":{"highway":"footway","name":null,"category":"Footpath (pedestrian only)"},"geometry":{"type":"MultiLineString","coordinates":[[[-2.2861304,53.5299992],[-2.2862439,53.5299911],[-2.2863458,53.530062],[-2.286327,53.5301162]]]}},
{"type":"Feature","properties":{"highway":"footway","name":null,"category":"Footpath (pedestrian only)"},"geometry":{"type":"MultiLineString","coordinates":[[[-2.2867116,53.5325541],[-2.2868192,53.5326148],[-2.2867745,53.5326359]]]}},
{"type":"Feature","properties":{"highway":"footway","name":null,"category":"Footpath (pedestrian only)"},"geometry":{"type":"MultiLineString","coordinates":[[[-2.2869435,53.5323874],[-2.2869037,53.5324279],[-2.2868501,53.5324821],[-2.2867116,53.5325541],[-2.28661,53.5325849]]]}},
{"type":"Feature","properties":{"highway":"footway","name":null,"category":"Footpath (pedestrian only)"},"geometry":{"type":"MultiLineString","coordinates":[[[-2.2863498,53.5327105],[-2.2864209,53.5327571],[-2.2865523,53.5328663],[-2.28661,53.5329094],[-2.2866449,53.5329588],[-2.2866865,53.5330026]]]}},
{"type":"Feature","properties":{"highway":"footway","name":null,"category":"Footpath (pedestrian only)"},"geometry":{"type":"MultiLineString","coordinates":[[[-2.2868662,53.5329046],[-2.2868849,53.5329357],[-2.2870767,53.5330656],[-2.2871159,53.5331042]]]}},
{"type":"Feature","properties":{"highway":"footway","name":null,"category":"Footpath (pedestrian only)"},"geometry":{"type":"MultiLineString","coordinates":[[[-2.2863553,53.5331394],[-2.286543,53.533068],[-2.2866865,53.5330026],[-2.2868662,53.5329046],[-2.2869198,53.5328655],[-2.2868983,53.5328241],[-2.2868608,53.5327986],[-2.2869213,53.5327678]]]}},
{"type":"Feature","properties":{"highway":"footway","name":null,"category":"Footpath (pedestrian only)"},"geometry":{"type":"MultiLineString","coordinates":[[[-2.2862586,53.5322517],[-2.2864337,53.5323886],[-2.286493,53.5324817],[-2.28661,53.5325849],[-2.2865908,53.5325976],[-2.2866596,53.5326236],[-2.2867186,53.5326587],[-2.2867745,53.5326359]]]}},
{"type":"Feature","properties":{"highway":"footway","name":null,"category":"Footpath (pedestrian only)"},"geometry":{"type":"MultiLineString","coordinates":[[[-2.2860301,53.5325966],[-2.2858456,53.5324646],[-2.2859059,53.5324199],[-2.2862586,53.5322517],[-2.2861165,53.5321338]]]}},
{"type":"Feature","properties":{"highway":"footway","name":null,"category":"Footpath (pedestrian only)"},"geometry":{"type":"MultiLineString","coordinates":[[[-2.291446,53.5320931],[-2.2913495,53.5320485],[-2.29121,53.5320461],[-2.2911483,53.5320126],[-2.2910129,53.5320174],[-2.2909699,53.5318508],[-2.2909136,53.5318436],[-2.2908908,53.5317352],[-2.2908385,53.5317344],[-2.2908334,53.5316866]]]}},
{"type":"Feature","properties":{"highway":"footway","name":null,"category":"Footpath (pedestrian only)"},"geometry":{"type":"MultiLineString","coordinates":[[[-2.2903131,53.5317015],[-2.289951,53.531787]]]}},
{"type":"Feature","properties":{"highway":"footway","name":null,"category":"Footpath (pedestrian only)"},"geometry":{"type":"MultiLineString","coordinates":[[[-2.28423,53.5317031],[-2.2840887,53.5317496],[-2.2840539,53.5317783],[-2.2840606,53.5318062],[-2.2841893,53.5319074],[-2.2842376,53.5319162],[-2.2844006,53.5318775]]]}},
{"type":"Feature","properties":{"highway":"footway","name":null,"category":"Footpath (pedestrian only)"},"geometry":{"type":"MultiLineString","coordinates":[[[-2.2845286,53.5315676],[-2.2850667,53.5312517]]]}},
{"type":"Feature","properties":{"highway":"footway","name":null,"category":"Footpath (pedestrian only)"},"geometry":{"type":"MultiLineString","coordinates":[[[-2.2829801,53.5315187],[-2.2831265,53.5314659],[-2.2837887,53.5312612]]]}},
{"type":"Feature","properties":{"highway":"footway","name":null,"category":"Footpath (pedestrian only)"},"geometry":{"type":"MultiLineString","coordinates":[[[-2.278543,53.5269429],[-2.2789091,53.5269727],[-2.2791007,53.5269239]]]}},
{"type":"Feature","properties":{"highway":"footway","name":null,"category":"Footpath (pedestrian only)"},"geometry":{"type":"MultiLineString","coordinates":[[[-2.2791405,53.5269527],[-2.2791615,53.5269558],[-2.2791831,53.5269548],[-2.279203,53.5269497],[-2.2792192,53.5269411],[-2.27923,53.52693],[-2.2792343,53.5269174],[-2.2792316,53.5269046],[-2.2792216,53.5268924],[-2.2792053,53.5268829],[-2.2791846,53.5268771],[-2.2791619,53.5268758],[-2.2791398,53.5268791],[-2.2791207,53.5268866],[-2.2791069,53.5268974],[-2.2791,53.5269103],[-2.2791007,53.5269239],[-2.2791084,53.5269359],[-2.2791221,53.5269459],[-2.2791405,53.5269527]]]}},
{"type":"Feature","properties":{"highway":"footway","name":null,"category":"Footpath (pedestrian only)"},"geometry":{"type":"MultiLineString","coordinates":[[[-2.2792343,53.5269174],[-2.2796193,53.5269534]]]}},
{"type":"Feature","properties":{"highway":"footway","name":null,"category":"Footpath (pedestrian only)"},"geometry":{"type":"MultiLineString","coordinates":[[[-2.2791846,53.5268771],[-2.2792209,53.5268032],[-2.2792241,53.526758],[-2.2791987,53.5267354],[-2.2790783,53.5266751],[-2.2790355,53.526612]]]}},
{"type":"Feature","properties":{"highway":"footway","name":null,"category":"Footpath (pedestrian only)"},"geometry":{"type":"MultiLineString","coordinates":[[[-2.2789721,53.5266779],[-2.2790355,53.526612],[-2.2791554,53.526474]]]}},
{"type":"Feature","properties":{"highway":"footway","name":null,"category":"Footpath (pedestrian only)"},"geometry":{"type":"MultiLineString","coordinates":[[[-2.2896139,53.5242289],[-2.2895102,53.5240312],[-2.2893994,53.5238201],[-2.2893309,53.5236896],[-2.2894428,53.5236723]]]}},
{"type":"Feature","properties":{"highway":"footway","name":null,"category":"Footpath (pedestrian only)"},"geometry":{"type":"MultiLineString","coordinates":[[[-2.2895102,53.5240312],[-2.2897335,53.5239901],[-2.2896274,53.5237734],[-2.2895541,53.5236237]]]}},
{"type":"Feature","properties":{"highway":"footway","name":null,"category":"Footpath (pedestrian only)"},"geometry":{"type":"MultiLineString","coordinates":[[[-2.2896274,53.5237734],[-2.2894982,53.5237997],[-2.2893994,53.5238201]]]}},
{"type":"Feature","properties":{"highway":"footway","name":null,"category":"Footpath (pedestrian only)"},"geometry":{"type":"MultiLineString","coordinates":[[[-2.2821693,53.5215603],[-2.2823823,53.5211968],[-2.282836,53.521046]]]}},
{"type":"Feature","properties":{"highway":"footway","name":null,"category":"Footpath (pedestrian only)"},"geometry":{"type":"MultiLineString","coordinates":[[[-2.2802712,53.521428],[-2.2800885,53.5214972],[-2.2800227,53.5215189],[-2.2799666,53.5215247],[-2.2799216,53.5215232],[-2.279868,53.5215189],[-2.2798107,53.5214792]]]}},
{"type":"Feature","properties":{"highway":"footway","name":null,"category":"Footpath (pedestrian only)"},"geometry":{"type":"MultiLineString","coordinates":[[[-2.2766763,53.5213085],[-2.2766218,53.5213178],[-2.2763057,53.5213565],[-2.2760946,53.5213191],[-2.2759744,53.5213174],[-2.2757241,53.5213483]]]}},
{"type":"Feature","properties":{"highway":"footway","name":null,"category":"Footpath (pedestrian only)"},"geometry":{"type":"MultiLineString","coordinates":[[[-2.2771515,53.5189045],[-2.2778055,53.5196515],[-2.2782721,53.5200271],[-2.2790267,53.5205852]]]}},
{"type":"Feature","properties":{"highway":"path","name":null,"category":"Shared path"},"geometry":{"type":"MultiLineString","coordinates":[[[-2.2839205,53.53266],[-2.2839736,53.532668]]]}},
{"type":"Feature","properties":{"highway":"footway","name":null,"category":"Footpath (pedestrian only)"},"geometry":{"type":"MultiLineString","coordinates":[[[-2.264626,53.5247646],[-2.2646262,53.5247271],[-2.2646264,53.5246858]]]}},
{"type":"Feature","properties":{"highway":"footway","name":null,"category":"Footpath (pedestrian only)"},"geometry":{"type":"MultiLineString","coordinates":[[[-2.2640247,53.5245296],[-2.2640805,53.5245164],[-2.2641243,53.5245059]]]}},
{"type":"Feature","properties":{"highway":"footway","name":null,"category":"Footpath (pedestrian only)"},"geometry":{"type":"MultiLineString","coordinates":[[[-2.2643956,53.5248296],[-2.2643402,53.5248401],[-2.2642838,53.5248509]]]}},
{"type":"Feature","properties":{"highway":"footway","name":null,"category":"Footpath (pedestrian only)"},"geometry":{"type":"MultiLineString","coordinates":[[[-2.2642002,53.5248415],[-2.2641791,53.5248549],[-2.2641558,53.5248696]]]}},
{"type":"Feature","properties":{"highway":"footway","name":null,"category":"Footpath (pedestrian only)"},"geometry":{"type":"MultiLineString","coordinates":[[[-2.2622876,53.524992],[-2.2625424,53.5249019],[-2.2629294,53.524799],[-2.2631006,53.5247518],[-2.2633506,53.5247077],[-2.2639275,53.5246181],[-2.2639508,53.5246107],[-2.2639682,53.5246],[-2.2639816,53.5245844],[-2.2639904,53.5245693],[-2.2639971,53.5245525],[-2.2640001,53.5245355],[-2.2639925,53.5245142],[-2.263761,53.5242137],[-2.2637334,53.5241956],[-2.2636881,53.5241751],[-2.2635361,53.5241357],[-2.2634337,53.5241199],[-2.2633806,53.5241056],[-2.2633561,53.5240842],[-2.263348,53.524038],[-2.2633565,53.5239153],[-2.263363,53.5239011],[-2.2633904,53.5238487],[-2.2633924,53.5238248],[-2.2633389,53.5234055],[-2.2633334,53.5233479]]]}},
{"type":"Feature","properties":{"highway":"footway","name":null,"category":"Footpath (pedestrian only)"},"geometry":{"type":"MultiLineString","coordinates":[[[-2.2639215,53.5240335],[-2.2639447,53.5240793],[-2.2641264,53.5242888],[-2.2642761,53.5244698],[-2.2642968,53.5244895],[-2.2643214,53.5245111],[-2.2643538,53.5245321],[-2.2643969,53.5245527],[-2.26445,53.5245733],[-2.2644893,53.5245843],[-2.2645171,53.5245903],[-2.2645456,53.5245939],[-2.2645933,53.5245985],[-2.2646488,53.5246013],[-2.2647128,53.524603],[-2.2649688,53.524611],[-2.2661769,53.5246457],[-2.2663124,53.5246496]]]}},
{"type":"Feature","properties":{"highway":"footway","name":null,"category":"Footpath (pedestrian only)"},"geometry":{"type":"MultiLineString","coordinates":[[[-2.2641264,53.5242888],[-2.2649688,53.524611]]]}},
{"type":"Feature","properties":{"highway":"footway","name":null,"category":"Footpath (pedestrian only)"},"geometry":{"type":"MultiLineString","coordinates":[[[-2.2765429,53.5234597],[-2.2764519,53.5234252],[-2.2763337,53.5233803],[-2.2762292,53.5234162],[-2.2760819,53.5234669],[-2.2760178,53.523489]]]}},
{"type":"Feature","properties":{"highway":"footway","name":null,"category":"Footpath (pedestrian only)"},"geometry":{"type":"MultiLineString","coordinates":[[[-2.2763212,53.5232999],[-2.2763267,53.5233352],[-2.2763337,53.5233803]]]}},
{"type":"Feature","properties":{"highway":"footway","name":null,"category":"Footpath (pedestrian only)"},"geometry":{"type":"MultiLineString","coordinates":[[[-2.2766309,53.5237002],[-2.2765642,53.523725],[-2.2765081,53.5237459],[-2.2764476,53.5236883],[-2.2763665,53.5237185],[-2.2762795,53.5237509],[-2.2761556,53.5237087],[-2.2760571,53.5236752]]]}},
{"type":"Feature","properties":{"highway":"footway","name":null,"category":"Footpath (pedestrian only)"},"geometry":{"type":"MultiLineString","coordinates":[[[-2.2762795,53.5237509],[-2.2762738,53.5237995],[-2.2762696,53.5238353]]]}},
{"type":"Feature","properties":{"highway":"footway","name":null,"category":"Footpath (pedestrian only)"},"geometry":{"type":"MultiLineString","coordinates":[[[-2.276623,53.5233791],[-2.2765429,53.5234597],[-2.2765137,53.5234935],[-2.2765003,53.523513],[-2.2764949,53.5235262],[-2.2764925,53.5235366],[-2.2764935,53.5235497],[-2.2764982,53.5235628],[-2.2765076,53.5235772],[-2.2766309,53.5237002],[-2.2767075,53.5237833]]]}},
{"type":"Feature","properties":{"highway":"footway","name":null,"category":"Footpath (pedestrian only)"},"geometry":{"type":"MultiLineString","coordinates":[[[-2.2767075,53.5237833],[-2.2767492,53.52383],[-2.2767926,53.5238785]]]}},
{"type":"Feature","properties":{"highway":"footway","name":null,"category":"Footpath (pedestrian only)"},"geometry":{"type":"MultiLineString","coordinates":[[[-2.2769668,53.5243828],[-2.2769239,53.5243443],[-2.2768822,53.5243068]]]}},
{"type":"Feature","properties":{"highway":"footway","name":null,"category":"Footpath (pedestrian only)"},"geometry":{"type":"MultiLineString","coordinates":[[[-2.2757891,53.5239545],[-2.2760571,53.5236752],[-2.2760869,53.5236456],[-2.276098,53.5236306],[-2.276105,53.5236188],[-2.2761099,53.5236072],[-2.2761112,53.5235983],[-2.2761095,53.523587],[-2.2761055,53.5235777],[-2.276098,53.5235678],[-2.2760178,53.523489],[-2.2757379,53.5232082]]]}},
{"type":"Feature","properties":{"highway":"track","name":null,"category":"Track"},"geometry":{"type":"MultiLineString","coordinates":[[[-2.2871374,53.5281081],[-2.2875418,53.5279079]]]}},
{"type":"Feature","properties":{"highway":"track","name":"Clough","category":"Track"},"geometry":{"type":"MultiLineString","coordinates":[[[-2.2875418,53.5279079],[-2.287401,53.5272701],[-2.2873853,53.5271992]]]}},
{"type":"Feature","properties":{"highway":"path","name":null,"category":"Shared path"},"geometry":{"type":"MultiLineString","coordinates":[[[-2.2920833,53.5298651],[-2.2920673,53.5298618],[-2.2919101,53.5298277],[-2.2918028,53.5298022],[-2.2916875,53.5297543]]]}},
{"type":"Feature","properties":{"highway":"path","name":null,"category":"Shared path"},"geometry":{"type":"MultiLineString","coordinates":[[[-2.2760834,53.526722],[-2.2761078,53.5267518],[-2.276316,53.5269364],[-2.2764497,53.5270592],[-2.2765091,53.5271445],[-2.2765328,53.5271515]]]}},
{"type":"Feature","properties":{"highway":"path","name":null,"category":"Shared path"},"geometry":{"type":"MultiLineString","coordinates":[[[-2.2728765,53.5261519],[-2.2728529,53.5262021],[-2.2727564,53.5264069],[-2.2723251,53.5263305],[-2.2722307,53.5265234],[-2.2722225,53.5265336]]]}},
{"type":"Feature","properties":{"highway":"path","name":null,"category":"Shared path"},"geometry":{"type":"MultiLineString","coordinates":[[[-2.2717512,53.5276619],[-2.2712336,53.5275695],[-2.2712528,53.527523]]]}},
{"type":"Feature","properties":{"highway":"path","name":null,"category":"Shared path"},"geometry":{"type":"MultiLineString","coordinates":[[[-2.2720613,53.5277223],[-2.2719383,53.5276939],[-2.2718589,53.5276818]]]}},
{"type":"Feature","properties":{"highway":"path","name":null,"category":"Shared path"},"geometry":{"type":"MultiLineString","coordinates":[[[-2.2718589,53.5276818],[-2.2717512,53.5276619]]]}},
{"type":"Feature","properties":{"highway":"footway","name":null,"category":"Footpath (pedestrian only)"},"geometry":{"type":"MultiLineString","coordinates":[[[-2.2717007,53.5265703],[-2.2714642,53.5270856]]]}},
{"type":"Feature","properties":{"highway":"footway","name":null,"category":"Footpath (pedestrian only)"},"geometry":{"type":"MultiLineString","coordinates":[[[-2.275913,53.52396],[-2.2761493,53.5240752]]]}},
{"type":"Feature","properties":{"highway":"track","name":null,"category":"Track"},"geometry":{"type":"MultiLineString","coordinates":[[[-2.2765972,53.5369317],[-2.2766837,53.5369047],[-2.2768876,53.5369092],[-2.2769734,53.5369111],[-2.2775715,53.5369924],[-2.2780892,53.5370625]]]}},
{"type":"Feature","properties":{"highway":"track","name":null,"category":"Track"},"geometry":{"type":"MultiLineString","coordinates":[[[-2.2768876,53.5369092],[-2.2769734,53.5368792],[-2.2770083,53.5368457],[-2.2770351,53.5367182],[-2.2770673,53.5366767],[-2.2771182,53.5366496],[-2.2781214,53.5363962],[-2.2782609,53.5363898],[-2.2783038,53.5363515],[-2.2783145,53.5362957],[-2.2782877,53.53624],[-2.278057,53.5359259],[-2.2780087,53.5358924],[-2.2779739,53.5358797],[-2.2779444,53.5358797],[-2.2773194,53.5360519],[-2.276968,53.5361284],[-2.2768205,53.5361969],[-2.2766381,53.5363276],[-2.2765603,53.5363978],[-2.2765282,53.5364823],[-2.2765255,53.5366401],[-2.2765416,53.536868],[-2.2765972,53.5369317]]]}},
{"type":"Feature","properties":{"highway":"track","name":null,"category":"Track"},"geometry":{"type":"MultiLineString","coordinates":[[[-2.2779444,53.5358797],[-2.2787383,53.5356741],[-2.2787946,53.5356741],[-2.2788644,53.5356996],[-2.2791514,53.5361539],[-2.279154,53.5361889],[-2.2791245,53.5362071],[-2.2790816,53.5362336],[-2.2784298,53.5363946],[-2.2782609,53.5363898]]]}},
{"type":"Feature","properties":{"highway":"footway","name":null,"category":"Footpath (pedestrian only)"},"geometry":{"type":"MultiLineString","coordinates":[[[-2.2794228,53.5361974],[-2.27946,53.5361932],[-2.2798285,53.5360733]]]}},
{"type":"Feature","properties":{"highway":"footway","name":null,"category":"Footpath (pedestrian only)"},"geometry":{"type":"MultiLineString","coordinates":[[[-2.2778517,53.5341248],[-2.2778674,53.5342878],[-2.2778848,53.5342978],[-2.2778855,53.5343163],[-2.2778968,53.5344584],[-2.2778596,53.534495],[-2.2778143,53.5345375]]]}},
{"type":"Feature","properties":{"highway":"footway","name":null,"category":"Footpath (pedestrian only)"},"geometry":{"type":"MultiLineString","coordinates":[[[-2.2791245,53.5362071],[-2.2794037,53.5361996],[-2.2794228,53.5361974]]]}},
{"type":"Feature","properties":{"highway":"path","name":null,"category":"Shared path"},"geometry":{"type":"MultiLineString","coordinates":[[[-2.2837058,53.5330736],[-2.2835091,53.5331132]]]}},
{"type":"Feature","properties":{"highway":"footway","name":null,"category":"Footpath (pedestrian only)"},"geometry":{"type":"MultiLineString","coordinates":[[[-2.2743903,53.5305089],[-2.273558,53.5305898],[-2.2733657,53.5305225],[-2.2730753,53.5301126]]]}},
{"type":"Feature","properties":{"highway":"footway","name":null,"category":"Footpath (pedestrian only)"},"geometry":{"type":"MultiLineString","coordinates":[[[-2.2802673,53.5282469],[-2.2802483,53.5282019]]]}},
{"type":"Feature","properties":{"highway":"path","name":null,"category":"Shared path"},"geometry":{"type":"MultiLineString","coordinates":[[[-2.2856151,53.5244481],[-2.2859608,53.524406],[-2.2860315,53.524321],[-2.2861497,53.5242647]]]}},
{"type":"Feature","properties":{"highway":"footway","name":null,"category":"Footpath (pedestrian only)"},"geometry":{"type":"MultiLineString","coordinates":[[[-2.2896342,53.5343001],[-2.2897214,53.5344377],[-2.2898063,53.5345717],[-2.289892,53.5347067]]]}},
{"type":"Feature","properties":{"highway":"footway","name":null,"category":"Footpath (pedestrian only)"},"geometry":{"type":"MultiLineString","coordinates":[[[-2.2890161,53.5347472],[-2.2891014,53.534885]]]}},
{"type":"Feature","properties":{"highway":"footway","name":null,"category":"Footpath (pedestrian only)"},"geometry":{"type":"MultiLineString","coordinates":[[[-2.2830057,53.5346351],[-2.2830568,53.5345689],[-2.2830533,53.5344089],[-2.2830614,53.5343282],[-2.28306,53.5342899]]]}},
{"type":"Feature","properties":{"highway":"footway","name":null,"category":"Footpath (pedestrian only)"},"geometry":{"type":"MultiLineString","coordinates":[[[-2.2823465,53.5340005],[-2.2821244,53.5341423],[-2.2820186,53.5341623],[-2.2819892,53.5342117]]]}},
{"type":"Feature","properties":{"highway":"footway","name":null,"category":"Footpath (pedestrian only)"},"geometry":{"type":"MultiLineString","coordinates":[[[-2.2829137,53.533804],[-2.283098,53.5338224]]]}},
{"type":"Feature","properties":{"highway":"path","name":null,"category":"Shared path"},"geometry":{"type":"MultiLineString","coordinates":[[[-2.2863989,53.5224178],[-2.2867737,53.5222497]]]}},
{"type":"Feature","properties":{"highway":"path","name":null,"category":"Shared path"},"geometry":{"type":"MultiLineString","coordinates":[[[-2.2885463,53.5370303],[-2.2885895,53.5370182],[-2.2885813,53.5369618]]]}},
{"type":"Feature","properties":{"highway":"footway","name":null,"category":"Footpath (pedestrian only)"},"geometry":{"type":"MultiLineString","coordinates":[[[-2.266036,53.5303857],[-2.2661288,53.5303812],[-2.2662185,53.5303746]]]}},
{"type":"Feature","properties":{"highway":"footway","name":null,"category":"Footpath (pedestrian only)"},"geometry":{"type":"MultiLineString","coordinates":[[[-2.2660615,53.5302099],[-2.2660261,53.5302123],[-2.2659992,53.5303005],[-2.2660013,53.5303885],[-2.266036,53.5303857]]]}},
{"type":"Feature","properties":{"highway":"footway","name":null,"category":"Footpath (pedestrian only)"},"geometry":{"type":"MultiLineString","coordinates":[[[-2.2662307,53.5302044],[-2.266145,53.5302065],[-2.2660615,53.5302099]]]}},
{"type":"Feature","properties":{"highway":"footway","name":null,"category":"Footpath (pedestrian only)"},"geometry":{"type":"MultiLineString","coordinates":[[[-2.2663176,53.530311],[-2.2663127,53.5302858],[-2.2663058,53.53025]]]}},
{"type":"Feature","properties":{"highway":"footway","name":null,"category":"Footpath (pedestrian only)"},"geometry":{"type":"MultiLineString","coordinates":[[[-2.2663357,53.5293177],[-2.266322,53.529368],[-2.2662941,53.529884],[-2.266257,53.5302053],[-2.266257,53.5302229],[-2.2663035,53.5302353],[-2.2663058,53.53025]]]}},
{"type":"Feature","properties":{"highway":"footway","name":null,"category":"Footpath (pedestrian only)"},"geometry":{"type":"MultiLineString","coordinates":[[[-2.2662185,53.5303746],[-2.2662452,53.5303727],[-2.2662406,53.5304766]]]}},
{"type":"Feature","properties":{"highway":"footway","name":null,"category":"Footpath (pedestrian only)"},"geometry":{"type":"MultiLineString","coordinates":[[[-2.2667404,53.5303514],[-2.2666908,53.5302531]]]}},
{"type":"Feature","properties":{"highway":"footway","name":null,"category":"Footpath (pedestrian only)"},"geometry":{"type":"MultiLineString","coordinates":[[[-2.2663204,53.5303288],[-2.2663176,53.530311]]]}},
{"type":"Feature","properties":{"highway":"path","name":null,"category":"Shared path"},"geometry":{"type":"MultiLineString","coordinates":[[[-2.2935438,53.5330362],[-2.2933167,53.5328246],[-2.2932308,53.5327682],[-2.2931197,53.5327207],[-2.2929849,53.5326995],[-2.2928531,53.5326731],[-2.292662,53.5326564],[-2.2922798,53.5326723],[-2.2921362,53.5326696],[-2.2920132,53.5326538],[-2.2919125,53.5326511],[-2.2915967,53.5326996]]]}},
{"type":"Feature","properties":{"highway":"footway","name":null,"category":"Footpath (pedestrian only)"},"geometry":{"type":"MultiLineString","coordinates":[[[-2.2888691,53.5363018],[-2.2889306,53.5364024]]]}},
{"type":"Feature","properties":{"highway":"footway","name":null,"category":"Footpath (pedestrian only)"},"geometry":{"type":"MultiLineString","coordinates":[[[-2.2891224,53.5361154],[-2.2892528,53.5360829]]]}},
{"type":"Feature","properties":{"highway":"footway","name":null,"category":"Footpath (pedestrian only)"},"geometry":{"type":"MultiLineString","coordinates":[[[-2.2869493,53.5294506],[-2.2866362,53.5295398],[-2.2862971,53.5296363],[-2.2862839,53.5296409],[-2.2862205,53.5296633],[-2.2861674,53.529682],[-2.2860972,53.5297152]]]}},
{"type":"Feature","properties":{"highway":"footway","name":null,"category":"Footpath (pedestrian only)"},"geometry":{"type":"MultiLineString","coordinates":[[[-2.2866362,53.5295398],[-2.2868953,53.5295271],[-2.2869493,53.5294506]]]}},
{"type":"Feature","properties":{"highway":"footway","name":null,"category":"Footpath (pedestrian only)"},"geometry":{"type":"MultiLineString","coordinates":[[[-2.2862205,53.5296633],[-2.2861949,53.5296076],[-2.2861777,53.529379],[-2.2862248,53.5292745]]]}},
{"type":"Feature","properties":{"highway":"footway","name":null,"category":"Footpath (pedestrian only)"},"geometry":{"type":"MultiLineString","coordinates":[[[-2.2862839,53.5296409],[-2.2862845,53.529523]]]}},
{"type":"Feature","properties":{"highway":"footway","name":null,"category":"Footpath (pedestrian only)"},"geometry":{"type":"MultiLineString","coordinates":[[[-2.2865689,53.5292885],[-2.2863846,53.5292835],[-2.2862248,53.5292745],[-2.2859951,53.5292407]]]}},
{"type":"Feature","properties":{"highway":"footway","name":"Thorndyke Walk","category":"Footpath (pedestrian only)"},"geometry":{"type":"MultiLineString","coordinates":[[[-2.2782072,53.5254904],[-2.2778105,53.5255682]]]}},
{"type":"Feature","properties":{"highway":"path","name":null,"category":"Shared path"},"geometry":{"type":"MultiLineString","coordinates":[[[-2.2768753,53.525127],[-2.2768896,53.525189],[-2.2769183,53.5253349]]]}},
{"type":"Feature","properties":{"highway":"path","name":null,"category":"Shared path"},"geometry":{"type":"MultiLineString","coordinates":[[[-2.2728149,53.5228616],[-2.2727316,53.5228002],[-2.2726378,53.5227712]]]}},
{"type":"Feature","properties":{"highway":"footway","name":null,"category":"Footpath (pedestrian only)"},"geometry":{"type":"MultiLineString","coordinates":[[[-2.263949,53.524675],[-2.2639415,53.5246552],[-2.2639322,53.5246305]]]}},
{"type":"Feature","properties":{"highway":"footway","name":null,"category":"Footpath (pedestrian only)"},"geometry":{"type":"MultiLineString","coordinates":[[[-2.2641354,53.5247875],[-2.2641273,53.5247606],[-2.2641187,53.5247319]]]}},
{"type":"Feature","properties":{"highway":"footway","name":null,"category":"Footpath (pedestrian only)"},"geometry":{"type":"MultiLineString","coordinates":[[[-2.2646936,53.5248274],[-2.2646682,53.5248134],[-2.2646459,53.5248012]]]}},
{"type":"Feature","properties":{"highway":"footway","name":null,"category":"Footpath (pedestrian only)"},"geometry":{"type":"MultiLineString","coordinates":[[[-2.2647083,53.524662],[-2.2647099,53.5246408],[-2.2647118,53.5246158]]]}},
{"type":"Feature","properties":{"highway":"footway","name":null,"category":"Footpath (pedestrian only)"},"geometry":{"type":"MultiLineString","coordinates":[[[-2.2641461,53.5245007],[-2.2642028,53.5244872],[-2.2642627,53.524473]]]}},
{"type":"Feature","properties":{"highway":"footway","name":null,"category":"Footpath (pedestrian only)"},"geometry":{"type":"MultiLineString","coordinates":[[[-2.2639679,53.5247251],[-2.263962,53.5247093],[-2.2639556,53.5246925]]]}},
{"type":"Feature","properties":{"highway":"footway","name":null,"category":"Footpath (pedestrian only)"},"geometry":{"type":"MultiLineString","coordinates":[[[-2.2645365,53.5248027],[-2.2644785,53.5248138],[-2.2644269,53.5248236]]]}},
{"type":"Feature","properties":{"highway":"footway","name":null,"category":"Footpath (pedestrian only)"},"geometry":{"type":"MultiLineString","coordinates":[[[-2.2644269,53.5248236],[-2.2643956,53.5248296]]]}},
{"type":"Feature","properties":{"highway":"footway","name":null,"category":"Footpath (pedestrian only)"},"geometry":{"type":"MultiLineString","coordinates":[[[-2.263949,53.524675],[-2.2639556,53.5246925]]]}},
{"type":"Feature","properties":{"highway":"footway","name":null,"category":"Footpath (pedestrian only)"},"geometry":{"type":"MultiLineString","coordinates":[[[-2.2641461,53.5245007],[-2.2641243,53.5245059]]]}},
{"type":"Feature","properties":{"highway":"footway","name":null,"category":"Footpath (pedestrian only)"},"geometry":{"type":"MultiLineString","coordinates":[[[-2.2647083,53.524662],[-2.2647073,53.5246745],[-2.2646264,53.5246718],[-2.2646264,53.5246858]]]}},
{"type":"Feature","properties":{"highway":"footway","name":null,"category":"Footpath (pedestrian only)"},"geometry":{"type":"MultiLineString","coordinates":[[[-2.2639679,53.5247251],[-2.2639724,53.5247369],[-2.2641149,53.5247194],[-2.2641187,53.5247319]]]}},
{"type":"Feature","properties":{"highway":"footway","name":null,"category":"Footpath (pedestrian only)"},"geometry":{"type":"MultiLineString","coordinates":[[[-2.264626,53.5247646],[-2.2646276,53.5247911],[-2.2645809,53.5247943],[-2.2645365,53.5248027]]]}},
{"type":"Feature","properties":{"highway":"footway","name":null,"category":"Footpath (pedestrian only)"},"geometry":{"type":"MultiLineString","coordinates":[[[-2.2646276,53.5247911],[-2.2646459,53.5248012]]]}},
{"type":"Feature","properties":{"highway":"footway","name":null,"category":"Footpath (pedestrian only)"},"geometry":{"type":"MultiLineString","coordinates":[[[-2.2642838,53.5248509],[-2.2642626,53.5248549],[-2.2642134,53.5248333],[-2.2641395,53.5248008],[-2.2641354,53.5247875]]]}},
{"type":"Feature","properties":{"highway":"footway","name":null,"category":"Footpath (pedestrian only)"},"geometry":{"type":"MultiLineString","coordinates":[[[-2.2642002,53.5248415],[-2.2642134,53.5248333]]]}},
{"type":"Feature","properties":{"highway":"footway","name":null,"category":"Footpath (pedestrian only)"},"geometry":{"type":"MultiLineString","coordinates":[[[-2.2642761,53.5244698],[-2.2642627,53.524473]]]}},
{"type":"Feature","properties":{"highway":"footway","name":null,"category":"Footpath (pedestrian only)"},"geometry":{"type":"MultiLineString","coordinates":[[[-2.2647128,53.524603],[-2.2647118,53.5246158]]]}},
{"type":"Feature","properties":{"highway":"footway","name":null,"category":"Footpath (pedestrian only)"},"geometry":{"type":"MultiLineString","coordinates":[[[-2.2639322,53.5246305],[-2.2639275,53.5246181]]]}},
{"type":"Feature","properties":{"highway":"footway","name":null,"category":"Footpath (pedestrian only)"},"geometry":{"type":"MultiLineString","coordinates":[[[-2.2660261,53.5302123],[-2.2660688,53.529942],[-2.2661151,53.5296363],[-2.2661245,53.5293661],[-2.2660529,53.5286083],[-2.2660081,53.5281283],[-2.2659761,53.5276968],[-2.2659497,53.5274651],[-2.2659262,53.5272896],[-2.265887,53.527102],[-2.2658298,53.5269284],[-2.2657714,53.5267947],[-2.2656897,53.5266455],[-2.2655415,53.5264583],[-2.2652792,53.5262254],[-2.2649683,53.5259612],[-2.264666,53.5257088],[-2.2646096,53.5256456],[-2.2645854,53.5256069],[-2.2643997,53.525254],[-2.2642506,53.5249621],[-2.2642037,53.5249146],[-2.2641391,53.524881],[-2.2640231,53.5248427],[-2.2639216,53.5248196],[-2.2638232,53.5248128],[-2.2637202,53.5248225],[-2.2633064,53.5248828],[-2.2630453,53.5249275],[-2.2629523,53.5249496],[-2.2626935,53.5250096],[-2.2624903,53.5250723]]]}},
{"type":"Feature","properties":{"highway":"footway","name":null,"category":"Footpath (pedestrian only)"},"geometry":{"type":"MultiLineString","coordinates":[[[-2.2641558,53.5248696],[-2.2641391,53.524881]]]}},
{"type":"Feature","properties":{"highway":"footway","name":null,"category":"Footpath (pedestrian only)"},"geometry":{"type":"MultiLineString","coordinates":[[[-2.2662159,53.5283805],[-2.2662185,53.5284379],[-2.2663071,53.5291775],[-2.2663303,53.5292419]]]}},
{"type":"Feature","properties":{"highway":"footway","name":null,"category":"Footpath (pedestrian only)"},"geometry":{"type":"MultiLineString","coordinates":[[[-2.2669542,53.5247811],[-2.2661692,53.5247536],[-2.2660054,53.5247479],[-2.2659484,53.5247469],[-2.2653066,53.5247818],[-2.2649006,53.5247832],[-2.2648196,53.5247906],[-2.2647557,53.5248091],[-2.2647053,53.5248338],[-2.2646816,53.5248512],[-2.2646482,53.5248811],[-2.2646314,53.524911],[-2.2646292,53.5249433],[-2.2647124,53.5251788],[-2.2648177,53.5254342],[-2.2648721,53.5255442],[-2.2649365,53.5256444],[-2.2653193,53.5259998],[-2.2654298,53.5261189],[-2.2657235,53.5264218],[-2.2658061,53.5265227],[-2.2659015,53.5266498]]]}},
{"type":"Feature","properties":{"highway":"footway","name":null,"category":"Footpath (pedestrian only)"},"geometry":{"type":"MultiLineString","coordinates":[[[-2.2659015,53.5266498],[-2.2659281,53.5266922],[-2.2659569,53.5267383]]]}},
{"type":"Feature","properties":{"highway":"footway","name":null,"category":"Footpath (pedestrian only)"},"geometry":{"type":"MultiLineString","coordinates":[[[-2.2659569,53.5267383],[-2.2660665,53.5269495],[-2.2661479,53.5271629],[-2.2661832,53.5273],[-2.2661848,53.5275435],[-2.2661714,53.527856],[-2.2661709,53.5279637],[-2.2661808,53.5280747],[-2.2662032,53.52829]]]}},
{"type":"Feature","properties":{"highway":"footway","name":null,"category":"Footpath (pedestrian only)"},"geometry":{"type":"MultiLineString","coordinates":[[[-2.2662032,53.52829],[-2.2662098,53.5283375],[-2.2662159,53.5283805]]]}},
{"type":"Feature","properties":{"highway":"footway","name":null,"category":"Footpath (pedestrian only)"},"geometry":{"type":"MultiLineString","coordinates":[[[-2.2663303,53.5292419],[-2.2663329,53.5292786],[-2.2663357,53.5293177]]]}},
{"type":"Feature","properties":{"highway":"footway","name":null,"category":"Footpath (pedestrian only)"},"geometry":{"type":"MultiLineString","coordinates":[[[-2.266257,53.5302053],[-2.2662307,53.5302044]]]}},
{"type":"Feature","properties":{"highway":"footway","name":null,"category":"Footpath (pedestrian only)"},"geometry":{"type":"MultiLineString","coordinates":[[[-2.2640001,53.5245355],[-2.2640247,53.5245296]]]}},
{"type":"Feature","properties":{"highway":"footway","name":null,"category":"Footpath (pedestrian only)"},"geometry":{"type":"MultiLineString","coordinates":[[[-2.2646936,53.5248274],[-2.2647053,53.5248338]]]}},
{"type":"Feature","properties":{"highway":"footway","name":null,"category":"Footpath (pedestrian only)"},"geometry":{"type":"MultiLineString","coordinates":[[[-2.2663124,53.5246496],[-2.2663761,53.5246519]]]}},
{"type":"Feature","properties":{"highway":"footway","name":null,"category":"Footpath (pedestrian only)"},"geometry":{"type":"MultiLineString","coordinates":[[[-2.2661759,53.5246592],[-2.2661731,53.5246987],[-2.2661699,53.5247438]]]}},
{"type":"Feature","properties":{"highway":"footway","name":null,"category":"Footpath (pedestrian only)"},"geometry":{"type":"MultiLineString","coordinates":[[[-2.2661769,53.5246457],[-2.2661759,53.5246592]]]}},
{"type":"Feature","properties":{"highway":"footway","name":null,"category":"Footpath (pedestrian only)"},"geometry":{"type":"MultiLineString","coordinates":[[[-2.2661699,53.5247438],[-2.2661692,53.5247536]]]}},
{"type":"Feature","properties":{"highway":"footway","name":null,"category":"Footpath (pedestrian only)"},"geometry":{"type":"MultiLineString","coordinates":[[[-2.2881086,53.537498],[-2.2880929,53.5374572],[-2.2881517,53.5374455],[-2.2881767,53.5374242],[-2.2881829,53.5373988],[-2.2881704,53.5373656]]]}},
{"type":"Feature","properties":{"highway":"footway","name":null,"category":"Footpath (pedestrian only)"},"geometry":{"type":"MultiLineString","coordinates":[[[-2.2876045,53.5365964],[-2.2875395,53.5365035],[-2.2875066,53.5364693]]]}},
{"type":"Feature","properties":{"highway":"footway","name":null,"category":"Footpath (pedestrian only)"},"geometry":{"type":"MultiLineString","coordinates":[[[-2.2876545,53.5366704],[-2.2876309,53.5366371],[-2.2876045,53.5365964]]]}},
{"type":"Feature","properties":{"highway":"footway","name":null,"category":"Footpath (pedestrian only)"},"geometry":{"type":"MultiLineString","coordinates":[[[-2.2870999,53.5352884],[-2.287,53.5353145]]]}},
{"type":"Feature","properties":{"highway":"path","name":null,"category":"Shared path"},"geometry":{"type":"MultiLineString","coordinates":[[[-2.2728765,53.5261519],[-2.2730429,53.5258667]]]}},
{"type":"Feature","properties":{"highway":"pedestrian","name":null,"category":"Pedestrian area/street"},"geometry":{"type":"MultiLineString","coordinates":[[[-2.2777072,53.5309971],[-2.2776355,53.5309754],[-2.2773083,53.5312337]]]}},
{"type":"Feature","properties":{"highway":"pedestrian","name":null,"category":"Pedestrian area/street"},"geometry":{"type":"MultiLineString","coordinates":[[[-2.2838183,53.53248],[-2.2839205,53.53266]]]}},
{"type":"Feature","properties":{"highway":"pedestrian","name":"Thorndyke Walk","category":"Pedestrian area/street"},"geometry":{"type":"MultiLineString","coordinates":[[[-2.2752239,53.5257386],[-2.274701,53.525699]]]}},
{"type":"Feature","properties":{"highway":"pedestrian","name":"Thorndyke Walk","category":"Pedestrian area/street"},"geometry":{"type":"MultiLineString","coordinates":[[[-2.2746286,53.5256918],[-2.2745497,53.5256801]]]}},
{"type":"Feature","properties":{"highway":"pedestrian","name":"Warwick Street","category":"Pedestrian area/street"},"geometry":{"type":"MultiLineString","coordinates":[[[-2.2853988,53.5324725],[-2.2850737,53.5326203]]]}},
{"type":"Feature","properties":{"highway":"pedestrian","name":"Poppythorn Lane","category":"Pedestrian area/street"},"geometry":{"type":"MultiLineString","coordinates":[[[-2.2845697,53.5329291],[-2.2846084,53.5329849],[-2.2846241,53.5329961],[-2.2847123,53.5330208],[-2.2847649,53.5330533],[-2.2848453,53.5331085],[-2.28489,53.5331221],[-2.2849411,53.5331247],[-2.2849833,53.5331207],[-2.2850228,53.5331107],[-2.2851054,53.5330791],[-2.2853991,53.5329667]]]}},
{"type":"Feature","properties":{"highway":"pedestrian","name":null,"category":"Pedestrian area/street"},"geometry":{"type":"MultiLineString","coordinates":[[[-2.2849323,53.5324636],[-2.2848099,53.5324994],[-2.2839736,53.532668],[-2.2839778,53.532675],[-2.284246,53.5331213],[-2.2847123,53.5330208]]]}}
]
}
