{
"type": "FeatureCollection",
"name": "BURY__10_walking",
"crs": { "type": "name", "properties": { "name": "urn:ogc:def:crs:OGC:1.3:CRS84" } },
"features": [
{"type":"Feature","properties":{"highway":"footway","name":null,"category":"Footpath (pedestrian only)"},"geometry":{"type":"MultiLineString","coordinates":[[[-2.3126672,53.6501039],[-2.3124323,53.6501023],[-2.3122208,53.6501321],[-2.3120468,53.650408],[-2.3118153,53.6508795],[-2.3121086,53.6509446],[-2.3124216,53.6512096],[-2.3126004,53.6514632],[-2.3127154,53.6517433],[-2.3128623,53.6520726],[-2.3128367,53.6523603],[-2.3127792,53.6525572],[-2.3127026,53.6529735],[-2.3127473,53.6535413],[-2.3127541,53.6536363],[-2.3127665,53.6538101],[-2.3128176,53.6540182],[-2.3128942,53.6540864],[-2.3129389,53.6541621],[-2.3129847,53.6542515],[-2.3130121,53.6543816],[-2.3129562,53.6546283],[-2.3128951,53.6549652],[-2.3128551,53.6552159],[-2.3128311,53.6555087],[-2.3127896,53.6557172],[-2.3127525,53.6559217],[-2.3127046,53.656287],[-2.3126444,53.6566156],[-2.3125757,53.6569749],[-2.3125229,53.6572742],[-2.312579,53.6575506]]]}},
{"type":"Feature","properties":{"highway":"bridleway","name":"Bury Old Road","category":"Bridleway"},"geometry":{"type":"MultiLineString","coordinates":[[[-2.2962425,53.6440761],[-2.295331,53.6440752],[-2.2944116,53.6440289],[-2.2935696,53.6439936],[-2.2927648,53.6439712],[-2.2921713,53.6439424],[-2.2916639,53.6439123],[-2.2909704,53.6438746],[-2.2909267,53.6438994],[-2.2909107,53.6439717],[-2.2911499,53.6443969],[-2.2913781,53.644898],[-2.2917376,53.6457633],[-2.2926068,53.6480949],[-2.2926885,53.6490466],[-2.2927022,53.649341],[-2.2927256,53.6496359],[-2.2927477,53.6496682],[-2.2927802,53.649701],[-2.29287,53.6497729],[-2.2948103,53.6512213],[-2.2947497,53.6513665],[-2.2948094,53.6518389],[-2.2949149,53.6519484],[-2.2951723,53.6520266],[-2.2953221,53.6520646],[-2.2953889,53.6521465],[-2.295414,53.6522328],[-2.2954034,53.6523007],[-2.2954401,53.6523675],[-2.295501,53.6524322],[-2.2956658,53.6525247],[-2.2957694,53.6526138],[-2.2958098,53.6526888],[-2.2958172,53.6527619],[-2.2958086,53.6528005],[-2.2957906,53.6528392],[-2.2957526,53.6529061],[-2.2957141,53.6529829],[-2.2956736,53.6530461],[-2.2956216,53.653117],[-2.2955696,53.6532344]]]}},
{"type":"Feature","properties":{"highway":"footway","name":null,"category":"Footpath (pedestrian only)"},"geometry":{"type":"MultiLineString","coordinates":[[[-2.3146953,53.6476555],[-2.3144727,53.647638]]]}},
{"type":"Feature","properties":{"highway":"footway","name":null,"category":"Footpath (pedestrian only)"},"geometry":{"type":"MultiLineString","coordinates":[[[-2.314487,53.6475682],[-2.3145576,53.6475747]]]}},
{"type":"Feature","properties":{"highway":"footway","name":null,"category":"Footpath (pedestrian only)"},"geometry":{"type":"MultiLineString","coordinates":[[[-2.3147036,53.6475841],[-2.3146599,53.6475792]]]}},
{"type":"Feature","properties":{"highway":"footway","name":null,"category":"Footpath (pedestrian only)"},"geometry":{"type":"MultiLineString","coordinates":[[[-2.3168385,53.6482962],[-2.3169452,53.6481095]]]}},
{"type":"Feature","properties":{"highway":"path","name":null,"category":"Shared path"},"geometry":{"type":"MultiLineString","coordinates":[[[-2.3056813,53.6501726],[-2.3069563,53.6501616]]]}},
{"type":"Feature","properties":{"highway":"footway","name":null,"category":"Footpath (pedestrian only)"},"geometry":{"type":"MultiLineString","coordinates":[[[-2.2685834,53.6417789],[-2.2692978,53.6416961],[-2.2700893,53.6416804],[-2.2706631,53.641669],[-2.2710462,53.6416455],[-2.2716113,53.6415563],[-2.2735302,53.6411924],[-2.2739254,53.6411852],[-2.2752274,53.6411616],[-2.2777052,53.6410333],[-2.2786481,53.6409788],[-2.2791656,53.6410879],[-2.2802761,53.6414796],[-2.2818631,53.6420704],[-2.2826025,53.6423392],[-2.283018,53.6424158],[-2.2835686,53.6424521],[-2.2858224,53.6426007],[-2.2863241,53.6427432],[-2.2876128,53.6428865],[-2.2888119,53.6430199],[-2.2911362,53.6429345],[-2.2936392,53.6434694],[-2.2962425,53.6440761]]]}},
{"type":"Feature","properties":{"highway":"footway","name":null,"category":"Footpath (pedestrian only)"},"geometry":{"type":"MultiLineString","coordinates":[[[-2.3003322,53.644734],[-2.3000196,53.6447496],[-2.2994958,53.6446619],[-2.299046,53.6445888],[-2.2985777,53.6445815],[-2.2979923,53.644461],[-2.2970864,53.6443624],[-2.2966613,53.6443149],[-2.2965528,53.6442824],[-2.2963968,53.6441958],[-2.2962425,53.6440761]]]}},
{"type":"Feature","properties":{"highway":"path","name":null,"category":"Shared path"},"geometry":{"type":"MultiLineString","coordinates":[[[-2.3056813,53.6501726],[-2.3054281,53.6502],[-2.3053681,53.6504429],[-2.3046609,53.6506688]]]}},
{"type":"Feature","properties":{"highway":"track","name":null,"category":"Track"},"geometry":{"type":"MultiLineString","coordinates":[[[-2.3046609,53.6506688],[-2.3044546,53.6507428],[-2.3044291,53.6507519],[-2.3042909,53.6508291],[-2.304236,53.6508628],[-2.3041229,53.6508689]]]}},
{"type":"Feature","properties":{"highway":"path","name":null,"category":"Shared path"},"geometry":{"type":"MultiLineString","coordinates":[[[-2.3054281,53.6502],[-2.305442,53.6499535],[-2.3055593,53.6498206],[-2.3056879,53.649024],[-2.3057325,53.648748],[-2.3057814,53.6484506],[-2.3057071,53.6477216],[-2.3056664,53.6476974]]]}},
{"type":"Feature","properties":{"highway":"footway","name":null,"category":"Footpath (pedestrian only)"},"geometry":{"type":"MultiLineString","coordinates":[[[-2.3035589,53.6556132],[-2.3036356,53.6556166],[-2.305392,53.6556951]]]}},
{"type":"Feature","properties":{"highway":"track","name":"Whitelow Road","category":"Track"},"geometry":{"type":"MultiLineString","coordinates":[[[-2.2958865,53.6415502],[-2.2968663,53.6416879],[-2.2969114,53.6416942],[-2.2970139,53.6417317],[-2.2971049,53.641788],[-2.2972331,53.6419119],[-2.2973177,53.6420281],[-2.297383,53.6421823],[-2.2975461,53.642768],[-2.2976318,53.6429437],[-2.2977471,53.6430983],[-2.2977596,53.6431144],[-2.2978311,53.6432112],[-2.2979124,53.6433243],[-2.29846,53.6437212],[-2.2997709,53.6443706],[-2.3003322,53.644734],[-2.3008289,53.6447424],[-2.3013632,53.6447382],[-2.3022487,53.6446337],[-2.3024731,53.6446072]]]}},
{"type":"Feature","properties":{"highway":"footway","name":null,"category":"Footpath (pedestrian only)"},"geometry":{"type":"MultiLineString","coordinates":[[[-2.2972331,53.6419119],[-2.2981494,53.6420337],[-2.2998981,53.6421866],[-2.3005316,53.6421979],[-2.3010475,53.6421484],[-2.3014799,53.6420765],[-2.3018465,53.6420059],[-2.3020945,53.6419698],[-2.3022466,53.6419923],[-2.3023222,53.6420035]]]}},
{"type":"Feature","properties":{"highway":"track","name":null,"category":"Track"},"geometry":{"type":"MultiLineString","coordinates":[[[-2.3040017,53.6526387],[-2.3037697,53.6526413],[-2.3031152,53.6528798],[-2.3027147,53.6529329],[-2.3025196,53.652981],[-2.3022167,53.6530871],[-2.3021009,53.6531027],[-2.3020155,53.653075],[-2.3019423,53.6530256],[-2.3018793,53.6528967],[-2.3018793,53.6527762],[-2.3019992,53.6526365],[-2.302109,53.6525184]]]}},
{"type":"Feature","properties":{"highway":"footway","name":null,"category":"Footpath (pedestrian only)"},"geometry":{"type":"MultiLineString","coordinates":[[[-2.298134,53.655492],[-2.2981377,53.6554584],[-2.2980624,53.6552813],[-2.2979506,53.6551524],[-2.297727,53.6550415],[-2.2975258,53.6549922],[-2.2970827,53.6549416],[-2.2965724,53.6549078],[-2.2963356,53.6549524]]]}},
{"type":"Feature","properties":{"highway":"track","name":null,"category":"Track"},"geometry":{"type":"MultiLineString","coordinates":[[[-2.3019115,53.6563889],[-2.3005639,53.6566636],[-2.3001176,53.6566788],[-2.2995735,53.656673],[-2.2977143,53.6567907],[-2.2975147,53.6567457],[-2.2966827,53.6568778],[-2.2962144,53.6569827],[-2.2958221,53.6570309],[-2.2953771,53.6571115],[-2.2949865,53.6572019],[-2.294367,53.6574062],[-2.294221,53.657396]]]}},
{"type":"Feature","properties":{"highway":"track","name":null,"category":"Track"},"geometry":{"type":"MultiLineString","coordinates":[[[-2.2970169,53.6545982],[-2.2967812,53.6545014]]]}},
{"type":"Feature","properties":{"highway":"track","name":"Bury Old Road","category":"Track"},"geometry":{"type":"MultiLineString","coordinates":[[[-2.2953537,53.6403545],[-2.2954337,53.6406715],[-2.2955538,53.640935],[-2.2957035,53.6411476],[-2.2958409,53.6413191],[-2.2958697,53.6414406],[-2.2958865,53.6415502],[-2.2958528,53.6417398],[-2.2958604,53.6419101],[-2.2958604,53.6426479],[-2.2959291,53.6428819],[-2.2962466,53.6433399],[-2.2962425,53.6440761]]]}},
{"type":"Feature","properties":{"highway":"footway","name":null,"category":"Footpath (pedestrian only)"},"geometry":{"type":"MultiLineString","coordinates":[[[-2.3141381,53.6440778],[-2.313532,53.6440794],[-2.3130076,53.6440821],[-2.3126044,53.6440916],[-2.3120665,53.6441183],[-2.3118298,53.6440777],[-2.3112464,53.6439978],[-2.3110404,53.643944],[-2.3108444,53.6438928],[-2.3103935,53.643759],[-2.3100515,53.6436022],[-2.309557,53.6432989],[-2.3093105,53.6431203]]]}},
{"type":"Feature","properties":{"highway":"path","name":null,"category":"Shared path"},"geometry":{"type":"MultiLineString","coordinates":[[[-2.30705,53.6502552],[-2.3069885,53.6502474],[-2.3069563,53.6501616],[-2.3069773,53.6500944],[-2.3070318,53.6500879]]]}},
{"type":"Feature","properties":{"highway":"path","name":null,"category":"Shared path"},"geometry":{"type":"MultiLineString","coordinates":[[[-2.3109965,53.647832],[-2.3109473,53.6479296],[-2.3107995,53.6480493],[-2.3105098,53.6482392],[-2.3103619,53.6483223],[-2.3101601,53.6484282],[-2.3099707,53.6484949],[-2.3098952,53.6485168],[-2.3098348,53.6485252]]]}},
{"type":"Feature","properties":{"highway":"footway","name":null,"category":"Footpath (pedestrian only)"},"geometry":{"type":"MultiLineString","coordinates":[[[-2.3126044,53.6440916],[-2.312091,53.6442828],[-2.3117884,53.6443761],[-2.3116433,53.6444852],[-2.3114079,53.6447066],[-2.3113194,53.6448188],[-2.3111566,53.6451073],[-2.311077,53.6452751],[-2.3109195,53.645401]]]}},
{"type":"Feature","properties":{"highway":"path","name":null,"category":"Shared path"},"geometry":{"type":"MultiLineString","coordinates":[[[-2.3161932,53.6483161],[-2.3161931,53.6483065],[-2.3161877,53.6482974],[-2.3161774,53.64829],[-2.3161635,53.6482851],[-2.3161489,53.6482832],[-2.316134,53.6482841],[-2.3161204,53.6482878],[-2.3161093,53.6482937],[-2.3161019,53.6483015],[-2.316099,53.6483102],[-2.3161008,53.648319],[-2.3161071,53.648327],[-2.3161173,53.6483335],[-2.3161316,53.648338],[-2.3161476,53.6483394],[-2.3161635,53.6483375],[-2.3161774,53.6483326],[-2.3161877,53.6483251],[-2.3161932,53.6483161]]]}},
{"type":"Feature","properties":{"highway":"path","name":null,"category":"Shared path"},"geometry":{"type":"MultiLineString","coordinates":[[[-2.3161635,53.6482851],[-2.3161811,53.6482581],[-2.3162092,53.6482148]]]}},
{"type":"Feature","properties":{"highway":"path","name":null,"category":"Shared path"},"geometry":{"type":"MultiLineString","coordinates":[[[-2.3161811,53.6482581],[-2.3164194,53.648307],[-2.3163968,53.6483489],[-2.3161932,53.6483161]]]}},
{"type":"Feature","properties":{"highway":"path","name":null,"category":"Shared path"},"geometry":{"type":"MultiLineString","coordinates":[[[-2.3161316,53.648338],[-2.3161291,53.6483651],[-2.3166211,53.6483829],[-2.3166772,53.6483897]]]}},
{"type":"Feature","properties":{"highway":"path","name":null,"category":"Shared path"},"geometry":{"type":"MultiLineString","coordinates":[[[-2.3162092,53.6482148],[-2.3162407,53.648165]]]}},
{"type":"Feature","properties":{"highway":"path","name":null,"category":"Shared path"},"geometry":{"type":"MultiLineString","coordinates":[[[-2.3161019,53.6483015],[-2.3158492,53.6482807],[-2.3158953,53.6481982],[-2.31595,53.6481004]]]}},
{"type":"Feature","properties":{"highway":"path","name":null,"category":"Shared path"},"geometry":{"type":"MultiLineString","coordinates":[[[-2.3161811,53.6482581],[-2.3158953,53.6481982]]]}},
{"type":"Feature","properties":{"highway":"path","name":null,"category":"Shared path"},"geometry":{"type":"MultiLineString","coordinates":[[[-2.3161291,53.6483651],[-2.3158106,53.6483522]]]}},
{"type":"Feature","properties":{"highway":"path","name":null,"category":"Shared path"},"geometry":{"type":"MultiLineString","coordinates":[[[-2.3158492,53.6482807],[-2.3158106,53.6483522]]]}},
{"type":"Feature","properties":{"highway":"path","name":null,"category":"Shared path"},"geometry":{"type":"MultiLineString","coordinates":[[[-2.3159462,53.6486077],[-2.3159406,53.6486372]]]}},
{"type":"Feature","properties":{"highway":"path","name":null,"category":"Shared path"},"geometry":{"type":"MultiLineString","coordinates":[[[-2.3158106,53.6483522],[-2.3157991,53.6485737],[-2.3158619,53.6485969],[-2.3159036,53.6486002]]]}},
{"type":"Feature","properties":{"highway":"footway","name":null,"category":"Footpath (pedestrian only)"},"geometry":{"type":"MultiLineString","coordinates":[[[-2.3127541,53.6536363],[-2.3123911,53.6535121],[-2.3118654,53.6533563],[-2.3112163,53.6531624],[-2.3108944,53.652978],[-2.3107013,53.6528826],[-2.3105994,53.6528572],[-2.3104867,53.652854],[-2.3101059,53.6528762],[-2.3096714,53.6528381],[-2.3089951,53.6527404]]]}},
{"type":"Feature","properties":{"highway":"footway","name":null,"category":"Footpath (pedestrian only)"},"geometry":{"type":"MultiLineString","coordinates":[[[-2.3022494,53.6490341],[-2.301982,53.6490978],[-2.3017172,53.6494552],[-2.3014865,53.6504855],[-2.301532,53.6523501],[-2.3015199,53.6525594],[-2.3014198,53.6527451],[-2.3013716,53.6528368],[-2.3011831,53.6529893],[-2.3009723,53.6530602],[-2.3005808,53.6531218],[-2.2992264,53.6532762],[-2.2989651,53.6532532],[-2.298843,53.6532308],[-2.2981766,53.653032]]]}},
{"type":"Feature","properties":{"highway":"footway","name":"Rainford Lane","category":"Footpath (pedestrian only)"},"geometry":{"type":"MultiLineString","coordinates":[[[-2.3035812,53.6474517],[-2.3033165,53.6474627],[-2.3032375,53.6474986],[-2.3022494,53.6490341]]]}},
{"type":"Feature","properties":{"highway":"path","name":null,"category":"Shared path"},"geometry":{"type":"MultiLineString","coordinates":[[[-2.3017045,53.6542425],[-2.3018565,53.6542445],[-2.3019843,53.6542384],[-2.3020709,53.6542585],[-2.3022499,53.6543256]]]}},
{"type":"Feature","properties":{"highway":"path","name":"Edith Street","category":"Shared path"},"geometry":{"type":"MultiLineString","coordinates":[[[-2.3031983,53.6550041],[-2.3031988,53.6548211],[-2.3025943,53.654816]]]}},
{"type":"Feature","properties":{"highway":"footway","name":null,"category":"Footpath (pedestrian only)"},"geometry":{"type":"MultiLineString","coordinates":[[[-2.3057661,53.6453947],[-2.3056613,53.646126],[-2.3050234,53.6464047],[-2.3048852,53.6464448],[-2.3043816,53.6465447],[-2.304373,53.6465468],[-2.3037714,53.6466383]]]}},
{"type":"Feature","properties":{"highway":"path","name":null,"category":"Shared path"},"geometry":{"type":"MultiLineString","coordinates":[[[-2.3069646,53.6476922],[-2.3069283,53.6477293],[-2.3068502,53.648674],[-2.3068518,53.6487022]]]}},
{"type":"Feature","properties":{"highway":"track","name":null,"category":"Track"},"geometry":{"type":"MultiLineString","coordinates":[[[-2.3022487,53.6446337],[-2.3022285,53.6446163],[-2.3021808,53.6445971]]]}},
{"type":"Feature","properties":{"highway":"track","name":null,"category":"Track"},"geometry":{"type":"MultiLineString","coordinates":[[[-2.2977596,53.6431144],[-2.2977112,53.6431331],[-2.2976625,53.6431528]]]}},
{"type":"Feature","properties":{"highway":"track","name":null,"category":"Track"},"geometry":{"type":"MultiLineString","coordinates":[[[-2.3099567,53.6495839],[-2.310367,53.6493422],[-2.310252,53.6486203],[-2.3098348,53.6485252]]]}},
{"type":"Feature","properties":{"highway":"footway","name":null,"category":"Footpath (pedestrian only)"},"geometry":{"type":"MultiLineString","coordinates":[[[-2.3100745,53.6502337],[-2.310063,53.6501846],[-2.3100111,53.6499631],[-2.309981,53.6497295],[-2.3101795,53.6497659]]]}},
{"type":"Feature","properties":{"highway":"footway","name":null,"category":"Footpath (pedestrian only)"},"geometry":{"type":"MultiLineString","coordinates":[[[-2.310063,53.6501846],[-2.3102147,53.6500138],[-2.309981,53.6497295]]]}},
{"type":"Feature","properties":{"highway":"footway","name":null,"category":"Footpath (pedestrian only)"},"geometry":{"type":"MultiLineString","coordinates":[[[-2.3093608,53.65121],[-2.3102934,53.6511498],[-2.3102885,53.6510833]]]}},
{"type":"Feature","properties":{"highway":"track","name":null,"category":"Track"},"geometry":{"type":"MultiLineString","coordinates":[[[-2.3044546,53.6507428],[-2.3044089,53.6502154]]]}},
{"type":"Feature","properties":{"highway":"footway","name":null,"category":"Footpath (pedestrian only)"},"geometry":{"type":"MultiLineString","coordinates":[[[-2.303818,53.6486607],[-2.3044256,53.6486306],[-2.3046232,53.6484837]]]}},
{"type":"Feature","properties":{"highway":"footway","name":null,"category":"Footpath (pedestrian only)"},"geometry":{"type":"MultiLineString","coordinates":[[[-2.3039554,53.6494769],[-2.3045348,53.649448],[-2.3047412,53.649354],[-2.3055027,53.6490306],[-2.3056879,53.649024]]]}},
{"type":"Feature","properties":{"highway":"footway","name":null,"category":"Footpath (pedestrian only)"},"geometry":{"type":"MultiLineString","coordinates":[[[-2.3110404,53.643944],[-2.3110023,53.6436042],[-2.3113902,53.6435652]]]}},
{"type":"Feature","properties":{"highway":"track","name":null,"category":"Track"},"geometry":{"type":"MultiLineString","coordinates":[[[-2.304867,53.6524805],[-2.3048447,53.652521],[-2.3048277,53.6526961]]]}}
]
}
