{
"type": "FeatureCollection",
"name": "c3056660730f_visibility",
"crs": { "type": "name", "properties": { "name": "urn:ogc:def:crs:OGC:1.3:CRS84" } },
"features": [
{ "type": "Feature", "properties": { "visible_points": 6, "total_points": 39, "visibility_pct": 15.384615384615385 }, "geometry": { "type": "Point", "coordinates": [ -2.941753308077681, 53.744504653814204 ] } },
{ "type": "Feature", "properties": { "visible_points": 2, "total_points": 45, "visibility_pct": 4.4444444444444446 }, "geometry": { "type": "Point", "coordinates": [ -2.941543239601903, 53.744506304921195 ] } },
{ "type": "Feature", "properties": { "visible_points": 1, "total_points": 50, "visibility_pct": 2.0 }, "geometry": { "type": "Point", "coordinates": [ -2.941333171104915, 53.744507955660453 ] } },
{ "type": "Feature", "properties": { "visible_points": 7, "total_points": 46, "visibility_pct": 15.217391304347828 }, "geometry": { "type": "Point", "coordinates": [ -2.941650683877198, 53.744613320403381 ] } },
{ "type": "Feature", "properties": { "visible_points": 0, "total_points": 53, "visibility_pct": 0.0 }, "geometry": { "type": "Point", "coordinates": [ -2.941440614842283, 53.744614971347275 ] } },
{ "type": "Feature", "properties": { "visible_points": 0, "total_points": 59, "visibility_pct": 0.0 }, "geometry": { "type": "Point", "coordinates": [ -2.941230545786164, 53.744616621923392 ] } },
{ "type": "Feature", "properties": { "visible_points": 0, "total_points": 65, "visibility_pct": 0.0 }, "geometry": { "type": "Point", "coordinates": [ -2.941020476708841, 53.744618272131788 ] } },
{ "type": "Feature", "properties": { "visible_points": 6, "total_points": 54, "visibility_pct": 11.111111111111111 }, "geometry": { "type": "Point", "coordinates": [ -2.941548059138781, 53.744721986919053 ] } },
{ "type": "Feature", "properties": { "visible_points": 0, "total_points": 61, "visibility_pct": 0.0 }, "geometry": { "type": "Point", "coordinates": [ -2.941337989544727, 53.744723637699792 ] } },
{ "type": "Feature", "properties": { "visible_points": 0, "total_points": 68, "visibility_pct": 0.0 }, "geometry": { "type": "Point", "coordinates": [ -2.941127919929469, 53.744725288112804 ] } },
{ "type": "Feature", "properties": { "visible_points": 7, "total_points": 75, "visibility_pct": 9.3333333333333339 }, "geometry": { "type": "Point", "coordinates": [ -2.940917850293014, 53.744726938158074 ] } },
{ "type": "Feature", "properties": { "visible_points": 0, "total_points": 78, "visibility_pct": 0.0 }, "geometry": { "type": "Point", "coordinates": [ -2.940707780635363, 53.744728587835617 ] } },
{ "type": "Feature", "properties": { "visible_points": 0, "total_points": 70, "visibility_pct": 0.0 }, "geometry": { "type": "Point", "coordinates": [ -2.941235363709228, 53.744832303978789 ] } },
{ "type": "Feature", "properties": { "visible_points": 7, "total_points": 78, "visibility_pct": 8.9743589743589745 }, "geometry": { "type": "Point", "coordinates": [ -2.94102529353483, 53.74483395422866 ] } },
{ "type": "Feature", "properties": { "visible_points": 21, "total_points": 82, "visibility_pct": 25.609756097560975 }, "geometry": { "type": "Point", "coordinates": [ -2.940815223339238, 53.744835604110804 ] } },
{ "type": "Feature", "properties": { "visible_points": 23, "total_points": 85, "visibility_pct": 27.058823529411764 }, "geometry": { "type": "Point", "coordinates": [ -2.940605153122449, 53.744837253625214 ] } },
{ "type": "Feature", "properties": { "visible_points": 24, "total_points": 85, "visibility_pct": 28.235294117647058 }, "geometry": { "type": "Point", "coordinates": [ -2.940395082884481, 53.744838902771868 ] } },
{ "type": "Feature", "properties": { "visible_points": 0, "total_points": 79, "visibility_pct": 0.0 }, "geometry": { "type": "Point", "coordinates": [ -2.940185012625329, 53.744840551550801 ] } },
{ "type": "Feature", "properties": { "visible_points": 0, "total_points": 78, "visibility_pct": 0.0 }, "geometry": { "type": "Point", "coordinates": [ -2.941132737335785, 53.744940970184224 ] } },
{ "type": "Feature", "properties": { "visible_points": 22, "total_points": 84, "visibility_pct": 26.190476190476193 }, "geometry": { "type": "Point", "coordinates": [ -2.940922666602242, 53.74494262027099 ] } },
{ "type": "Feature", "properties": { "visible_points": 26, "total_points": 89, "visibility_pct": 29.213483146067414 }, "geometry": { "type": "Point", "coordinates": [ -2.940712595847507, 53.744944269990008 ] } },
{ "type": "Feature", "properties": { "visible_points": 29, "total_points": 92, "visibility_pct": 31.521739130434785 }, "geometry": { "type": "Point", "coordinates": [ -2.940502525071585, 53.744945919341276 ] } },
{ "type": "Feature", "properties": { "visible_points": 28, "total_points": 92, "visibility_pct": 30.434782608695656 }, "geometry": { "type": "Point", "coordinates": [ -2.940292454274477, 53.744947568324818 ] } },
{ "type": "Feature", "properties": { "visible_points": 26, "total_points": 86, "visibility_pct": 30.232558139534881 }, "geometry": { "type": "Point", "coordinates": [ -2.940082383456192, 53.744949216940611 ] } },
{ "type": "Feature", "properties": { "visible_points": 21, "total_points": 80, "visibility_pct": 26.25 }, "geometry": { "type": "Point", "coordinates": [ -2.93987231261673, 53.744950865188656 ] } },
{ "type": "Feature", "properties": { "visible_points": 0, "total_points": 83, "visibility_pct": 0.0 }, "geometry": { "type": "Point", "coordinates": [ -2.941030110424384, 53.745049636316132 ] } },
{ "type": "Feature", "properties": { "visible_points": 25, "total_points": 90, "visibility_pct": 27.777777777777779 }, "geometry": { "type": "Point", "coordinates": [ -2.9408200391317, 53.745051286239757 ] } },
{ "type": "Feature", "properties": { "visible_points": 26, "total_points": 95, "visibility_pct": 27.368421052631582 }, "geometry": { "type": "Point", "coordinates": [ -2.940609967817821, 53.745052935795648 ] } },
{ "type": "Feature", "properties": { "visible_points": 28, "total_points": 98, "visibility_pct": 28.571428571428569 }, "geometry": { "type": "Point", "coordinates": [ -2.940399896482762, 53.745054584983805 ] } },
{ "type": "Feature", "properties": { "visible_points": 28, "total_points": 98, "visibility_pct": 28.571428571428569 }, "geometry": { "type": "Point", "coordinates": [ -2.940189825126513, 53.745056233804199 ] } },
{ "type": "Feature", "properties": { "visible_points": 28, "total_points": 93, "visibility_pct": 30.107526881720432 }, "geometry": { "type": "Point", "coordinates": [ -2.939979753749091, 53.745057882256852 ] } },
{ "type": "Feature", "properties": { "visible_points": 28, "total_points": 85, "visibility_pct": 32.941176470588232 }, "geometry": { "type": "Point", "coordinates": [ -2.939769682350493, 53.74505953034177 ] } },
{ "type": "Feature", "properties": { "visible_points": 1, "total_points": 75, "visibility_pct": 1.3333333333333335 }, "geometry": { "type": "Point", "coordinates": [ -2.939559610930733, 53.745061178058933 ] } },
{ "type": "Feature", "properties": { "visible_points": 0, "total_points": 86, "visibility_pct": 0.0 }, "geometry": { "type": "Point", "coordinates": [ -2.940927482975029, 53.745158302374506 ] } },
{ "type": "Feature", "properties": { "visible_points": 27, "total_points": 94, "visibility_pct": 28.723404255319153 }, "geometry": { "type": "Point", "coordinates": [ -2.940717411123195, 53.745159952135005 ] } },
{ "type": "Feature", "properties": { "visible_points": 26, "total_points": 100, "visibility_pct": 26.0 }, "geometry": { "type": "Point", "coordinates": [ -2.940507339250175, 53.745161601527762 ] } },
{ "type": "Feature", "properties": { "visible_points": 30, "total_points": 104, "visibility_pct": 28.846153846153843 }, "geometry": { "type": "Point", "coordinates": [ -2.940297267355968, 53.745163250552771 ] } },
{ "type": "Feature", "properties": { "visible_points": 29, "total_points": 104, "visibility_pct": 27.884615384615387 }, "geometry": { "type": "Point", "coordinates": [ -2.940087195440584, 53.745164899210039 ] } },
{ "type": "Feature", "properties": { "visible_points": 32, "total_points": 98, "visibility_pct": 32.653061224489797 }, "geometry": { "type": "Point", "coordinates": [ -2.939877123504022, 53.745166547499565 ] } },
{ "type": "Feature", "properties": { "visible_points": 25, "total_points": 87, "visibility_pct": 28.735632183908045 }, "geometry": { "type": "Point", "coordinates": [ -2.939667051546285, 53.74516819542135 ] } },
{ "type": "Feature", "properties": { "visible_points": 19, "total_points": 75, "visibility_pct": 25.333333333333336 }, "geometry": { "type": "Point", "coordinates": [ -2.939456979567391, 53.745169842975365 ] } },
{ "type": "Feature", "properties": { "visible_points": 0, "total_points": 64, "visibility_pct": 0.0 }, "geometry": { "type": "Point", "coordinates": [ -2.93924690756733, 53.745171490161667 ] } },
{ "type": "Feature", "properties": { "visible_points": 1, "total_points": 53, "visibility_pct": 1.8867924528301887 }, "geometry": { "type": "Point", "coordinates": [ -2.939036835546117, 53.74517313698022 ] } },
{ "type": "Feature", "properties": { "visible_points": 0, "total_points": 88, "visibility_pct": 0.0 }, "geometry": { "type": "Point", "coordinates": [ -2.940824854987715, 53.745266968359338 ] } },
{ "type": "Feature", "properties": { "visible_points": 27, "total_points": 97, "visibility_pct": 27.835051546391753 }, "geometry": { "type": "Point", "coordinates": [ -2.940614782576731, 53.745268617956697 ] } },
{ "type": "Feature", "properties": { "visible_points": 24, "total_points": 104, "visibility_pct": 23.076923076923077 }, "geometry": { "type": "Point", "coordinates": [ -2.940404710144562, 53.745270267186335 ] } },
{ "type": "Feature", "properties": { "visible_points": 29, "total_points": 109, "visibility_pct": 26.605504587155966 }, "geometry": { "type": "Point", "coordinates": [ -2.940194637691208, 53.745271916048196 ] } },
{ "type": "Feature", "properties": { "visible_points": 28, "total_points": 110, "visibility_pct": 25.454545454545453 }, "geometry": { "type": "Point", "coordinates": [ -2.93998456521668, 53.745273564542323 ] } },
{ "type": "Feature", "properties": { "visible_points": 0, "total_points": 98, "visibility_pct": 0.0 }, "geometry": { "type": "Point", "coordinates": [ -2.939774492720976, 53.745275212668716 ] } },
{ "type": "Feature", "properties": { "visible_points": 1, "total_points": 86, "visibility_pct": 1.1627906976744187 }, "geometry": { "type": "Point", "coordinates": [ -2.939564420204102, 53.745276860427353 ] } },
{ "type": "Feature", "properties": { "visible_points": 11, "total_points": 74, "visibility_pct": 14.864864864864865 }, "geometry": { "type": "Point", "coordinates": [ -2.939354347666074, 53.745278507818256 ] } },
{ "type": "Feature", "properties": { "visible_points": 0, "total_points": 62, "visibility_pct": 0.0 }, "geometry": { "type": "Point", "coordinates": [ -2.939144275106881, 53.745280154841389 ] } },
{ "type": "Feature", "properties": { "visible_points": 1, "total_points": 88, "visibility_pct": 1.1363636363636365 }, "geometry": { "type": "Point", "coordinates": [ -2.940722226462434, 53.745375634270616 ] } },
{ "type": "Feature", "properties": { "visible_points": 20, "total_points": 98, "visibility_pct": 20.408163265306122 }, "geometry": { "type": "Point", "coordinates": [ -2.940512153492294, 53.745377283704855 ] } },
{ "type": "Feature", "properties": { "visible_points": 25, "total_points": 107, "visibility_pct": 23.364485981308412 }, "geometry": { "type": "Point", "coordinates": [ -2.940302080500978, 53.745378932771331 ] } },
{ "type": "Feature", "properties": { "visible_points": 28, "total_points": 113, "visibility_pct": 24.778761061946902 }, "geometry": { "type": "Point", "coordinates": [ -2.940092007488472, 53.74538058147008 ] } },
{ "type": "Feature", "properties": { "visible_points": 20, "total_points": 109, "visibility_pct": 18.348623853211009 }, "geometry": { "type": "Point", "coordinates": [ -2.939881934454801, 53.745382229801073 ] } },
{ "type": "Feature", "properties": { "visible_points": 0, "total_points": 96, "visibility_pct": 0.0 }, "geometry": { "type": "Point", "coordinates": [ -2.939671861399952, 53.745383877764304 ] } },
{ "type": "Feature", "properties": { "visible_points": 2, "total_points": 83, "visibility_pct": 2.4096385542168677 }, "geometry": { "type": "Point", "coordinates": [ -2.939461788323938, 53.745385525359815 ] } },
{ "type": "Feature", "properties": { "visible_points": 0, "total_points": 70, "visibility_pct": 0.0 }, "geometry": { "type": "Point", "coordinates": [ -2.939251715226769, 53.745387172587563 ] } },
{ "type": "Feature", "properties": { "visible_points": 0, "total_points": 88, "visibility_pct": 0.0 }, "geometry": { "type": "Point", "coordinates": [ -2.940619597399182, 53.745484300108373 ] } },
{ "type": "Feature", "properties": { "visible_points": 0, "total_points": 98, "visibility_pct": 0.0 }, "geometry": { "type": "Point", "coordinates": [ -2.940409523869888, 53.745485949379457 ] } },
{ "type": "Feature", "properties": { "visible_points": 25, "total_points": 107, "visibility_pct": 23.364485981308412 }, "geometry": { "type": "Point", "coordinates": [ -2.940199450319415, 53.745487598282807 ] } },
{ "type": "Feature", "properties": { "visible_points": 25, "total_points": 110, "visibility_pct": 22.727272727272727 }, "geometry": { "type": "Point", "coordinates": [ -2.939989376747763, 53.745489246818408 ] } },
{ "type": "Feature", "properties": { "visible_points": 6, "total_points": 104, "visibility_pct": 5.7692307692307692 }, "geometry": { "type": "Point", "coordinates": [ -2.93977930315494, 53.745490894986261 ] } },
{ "type": "Feature", "properties": { "visible_points": 2, "total_points": 91, "visibility_pct": 2.197802197802198 }, "geometry": { "type": "Point", "coordinates": [ -2.939569229540946, 53.745492542786366 ] } },
{ "type": "Feature", "properties": { "visible_points": 0, "total_points": 78, "visibility_pct": 0.0 }, "geometry": { "type": "Point", "coordinates": [ -2.939359155905788, 53.745494190218729 ] } },
{ "type": "Feature", "properties": { "visible_points": 0, "total_points": 86, "visibility_pct": 0.0 }, "geometry": { "type": "Point", "coordinates": [ -2.94051696779795, 53.745592965872561 ] } },
{ "type": "Feature", "properties": { "visible_points": 0, "total_points": 95, "visibility_pct": 0.0 }, "geometry": { "type": "Point", "coordinates": [ -2.940306893709502, 53.745594614980519 ] } },
{ "type": "Feature", "properties": { "visible_points": 20, "total_points": 98, "visibility_pct": 20.408163265306122 }, "geometry": { "type": "Point", "coordinates": [ -2.940096819599873, 53.745596263720728 ] } },
{ "type": "Feature", "properties": { "visible_points": 20, "total_points": 98, "visibility_pct": 20.408163265306122 }, "geometry": { "type": "Point", "coordinates": [ -2.939886745469066, 53.745597912093196 ] } },
{ "type": "Feature", "properties": { "visible_points": 5, "total_points": 94, "visibility_pct": 5.3191489361702127 }, "geometry": { "type": "Point", "coordinates": [ -2.939676671317094, 53.745599560097901 ] } },
{ "type": "Feature", "properties": { "visible_points": 0, "total_points": 82, "visibility_pct": 0.0 }, "geometry": { "type": "Point", "coordinates": [ -2.939466597143952, 53.745601207734879 ] } },
{ "type": "Feature", "properties": { "visible_points": 1, "total_points": 82, "visibility_pct": 1.2195121951219512 }, "geometry": { "type": "Point", "coordinates": [ -2.940414337658742, 53.745701631563222 ] } },
{ "type": "Feature", "properties": { "visible_points": 0, "total_points": 86, "visibility_pct": 0.0 }, "geometry": { "type": "Point", "coordinates": [ -2.940204263011133, 53.745703280508039 ] } },
{ "type": "Feature", "properties": { "visible_points": 19, "total_points": 87, "visibility_pct": 21.839080459770116 }, "geometry": { "type": "Point", "coordinates": [ -2.939994188342348, 53.745704929085115 ] } },
{ "type": "Feature", "properties": { "visible_points": 15, "total_points": 86, "visibility_pct": 17.441860465116278 }, "geometry": { "type": "Point", "coordinates": [ -2.939784113652385, 53.745706577294435 ] } },
{ "type": "Feature", "properties": { "visible_points": 0, "total_points": 81, "visibility_pct": 0.0 }, "geometry": { "type": "Point", "coordinates": [ -2.939574038941255, 53.745708225135992 ] } },
{ "type": "Feature", "properties": { "visible_points": 0, "total_points": 74, "visibility_pct": 0.0 }, "geometry": { "type": "Point", "coordinates": [ -2.940311706981547, 53.745810297180306 ] } },
{ "type": "Feature", "properties": { "visible_points": 0, "total_points": 76, "visibility_pct": 0.0 }, "geometry": { "type": "Point", "coordinates": [ -2.940101631774774, 53.745811945961997 ] } },
{ "type": "Feature", "properties": { "visible_points": 0, "total_points": 76, "visibility_pct": 0.0 }, "geometry": { "type": "Point", "coordinates": [ -2.93989155654683, 53.745813594375932 ] } },
{ "type": "Feature", "properties": { "visible_points": 0, "total_points": 74, "visibility_pct": 0.0 }, "geometry": { "type": "Point", "coordinates": [ -2.939681481297713, 53.745815242422118 ] } },
{ "type": "Feature", "properties": { "visible_points": 0, "total_points": 65, "visibility_pct": 0.0 }, "geometry": { "type": "Point", "coordinates": [ -2.940209075766363, 53.745918962723877 ] } },
{ "type": "Feature", "properties": { "visible_points": 0, "total_points": 66, "visibility_pct": 0.0 }, "geometry": { "type": "Point", "coordinates": [ -2.939999000000427, 53.745920611342413 ] } },
{ "type": "Feature", "properties": { "visible_points": 0, "total_points": 65, "visibility_pct": 0.0 }, "geometry": { "type": "Point", "coordinates": [ -2.93978892421332, 53.745922259593215 ] } },
{ "type": "Feature", "properties": { "visible_points": 0, "total_points": 62, "visibility_pct": 0.0 }, "geometry": { "type": "Point", "coordinates": [ -2.939578848405036, 53.745923907476246 ] } },
{ "type": "Feature", "properties": { "visible_points": 2, "total_points": 56, "visibility_pct": 3.5714285714285712 }, "geometry": { "type": "Point", "coordinates": [ -2.940106444013183, 53.746027628193872 ] } },
{ "type": "Feature", "properties": { "visible_points": 0, "total_points": 56, "visibility_pct": 0.0 }, "geometry": { "type": "Point", "coordinates": [ -2.939896367688082, 53.746029276649274 ] } },
{ "type": "Feature", "properties": { "visible_points": 0, "total_points": 54, "visibility_pct": 0.0 }, "geometry": { "type": "Point", "coordinates": [ -2.939686291341805, 53.746030924736935 ] } }
]
}
