{
"type": "FeatureCollection",
"name": "2f2e9ec7b6fc_visibility",
"crs": { "type": "name", "properties": { "name": "urn:ogc:def:crs:OGC:1.3:CRS84" } },
"features": [
{ "type": "Feature", "properties": { "visible_points": 5, "total_points": 64, "visibility_pct": 7.8125 }, "geometry": { "type": "Point", "coordinates": [ -2.963291234859655, 53.468189885605781 ] } },
{ "type": "Feature", "properties": { "visible_points": 4, "total_points": 63, "visibility_pct": 6.3492063492063489 }, "geometry": { "type": "Point", "coordinates": [ -2.963082533748454, 53.46819156774302 ] } },
{ "type": "Feature", "properties": { "visible_points": 4, "total_points": 58, "visibility_pct": 6.8965517241379306 }, "geometry": { "type": "Point", "coordinates": [ -2.962873832616181, 53.468193249515778 ] } },
{ "type": "Feature", "properties": { "visible_points": 3, "total_points": 61, "visibility_pct": 4.918032786885246 }, "geometry": { "type": "Point", "coordinates": [ -2.963815430352628, 53.468293524806761 ] } },
{ "type": "Feature", "properties": { "visible_points": 3, "total_points": 68, "visibility_pct": 4.4117647058823533 }, "geometry": { "type": "Point", "coordinates": [ -2.963606728763563, 53.468295207861381 ] } },
{ "type": "Feature", "properties": { "visible_points": 8, "total_points": 72, "visibility_pct": 11.111111111111111 }, "geometry": { "type": "Point", "coordinates": [ -2.963398027153411, 53.468296890551528 ] } },
{ "type": "Feature", "properties": { "visible_points": 8, "total_points": 73, "visibility_pct": 10.95890410958904 }, "geometry": { "type": "Point", "coordinates": [ -2.963189325522178, 53.468298572877167 ] } },
{ "type": "Feature", "properties": { "visible_points": 11, "total_points": 70, "visibility_pct": 15.714285714285714 }, "geometry": { "type": "Point", "coordinates": [ -2.962980623869867, 53.468300254838297 ] } },
{ "type": "Feature", "properties": { "visible_points": 0, "total_points": 58, "visibility_pct": 0.0 }, "geometry": { "type": "Point", "coordinates": [ -2.963922224227554, 53.468400529276465 ] } },
{ "type": "Feature", "properties": { "visible_points": 6, "total_points": 68, "visibility_pct": 8.8235294117647065 }, "geometry": { "type": "Point", "coordinates": [ -2.963713522118459, 53.468402212519493 ] } },
{ "type": "Feature", "properties": { "visible_points": 10, "total_points": 74, "visibility_pct": 13.513513513513514 }, "geometry": { "type": "Point", "coordinates": [ -2.963504819988277, 53.468403895398019 ] } },
{ "type": "Feature", "properties": { "visible_points": 12, "total_points": 77, "visibility_pct": 15.584415584415584 }, "geometry": { "type": "Point", "coordinates": [ -2.963296117837007, 53.46840557791203 ] } },
{ "type": "Feature", "properties": { "visible_points": 12, "total_points": 75, "visibility_pct": 16.0 }, "geometry": { "type": "Point", "coordinates": [ -2.963087415664658, 53.468407260061532 ] } },
{ "type": "Feature", "properties": { "visible_points": 9, "total_points": 69, "visibility_pct": 13.043478260869565 }, "geometry": { "type": "Point", "coordinates": [ -2.962878713471235, 53.468408941846548 ] } },
{ "type": "Feature", "properties": { "visible_points": 1, "total_points": 63, "visibility_pct": 1.5873015873015872 }, "geometry": { "type": "Point", "coordinates": [ -2.96382031601447, 53.468509217078314 ] } },
{ "type": "Feature", "properties": { "visible_points": 6, "total_points": 73, "visibility_pct": 8.2191780821917799 }, "geometry": { "type": "Point", "coordinates": [ -2.963611613364253, 53.468510900145219 ] } },
{ "type": "Feature", "properties": { "visible_points": 13, "total_points": 77, "visibility_pct": 16.883116883116884 }, "geometry": { "type": "Point", "coordinates": [ -2.963402910692949, 53.468512582847623 ] } },
{ "type": "Feature", "properties": { "visible_points": 14, "total_points": 77, "visibility_pct": 18.181818181818183 }, "geometry": { "type": "Point", "coordinates": [ -2.963194208000559, 53.468514265185505 ] } },
{ "type": "Feature", "properties": { "visible_points": 13, "total_points": 74, "visibility_pct": 17.567567567567568 }, "geometry": { "type": "Point", "coordinates": [ -2.96298550528709, 53.468515947158885 ] } },
{ "type": "Feature", "properties": { "visible_points": 6, "total_points": 65, "visibility_pct": 9.2307692307692317 }, "geometry": { "type": "Point", "coordinates": [ -2.962776802552551, 53.468517628767763 ] } },
{ "type": "Feature", "properties": { "visible_points": 12, "total_points": 66, "visibility_pct": 18.181818181818183 }, "geometry": { "type": "Point", "coordinates": [ -2.963718407281346, 53.468617904793156 ] } },
{ "type": "Feature", "properties": { "visible_points": 13, "total_points": 76, "visibility_pct": 17.105263157894736 }, "geometry": { "type": "Point", "coordinates": [ -2.963509704090001, 53.468619587683925 ] } },
{ "type": "Feature", "properties": { "visible_points": 13, "total_points": 77, "visibility_pct": 16.883116883116884 }, "geometry": { "type": "Point", "coordinates": [ -2.963301000877572, 53.4686212702102 ] } },
{ "type": "Feature", "properties": { "visible_points": 15, "total_points": 76, "visibility_pct": 19.736842105263158 }, "geometry": { "type": "Point", "coordinates": [ -2.963092297644061, 53.468622952371973 ] } },
{ "type": "Feature", "properties": { "visible_points": 9, "total_points": 69, "visibility_pct": 13.043478260869565 }, "geometry": { "type": "Point", "coordinates": [ -2.962883594389469, 53.468624634169252 ] } },
{ "type": "Feature", "properties": { "visible_points": 2, "total_points": 59, "visibility_pct": 3.3898305084745761 }, "geometry": { "type": "Point", "coordinates": [ -2.962674891113812, 53.468626315601981 ] } },
{ "type": "Feature", "properties": { "visible_points": 0, "total_points": 58, "visibility_pct": 0.0 }, "geometry": { "type": "Point", "coordinates": [ -2.963825201739562, 53.468724909341795 ] } },
{ "type": "Feature", "properties": { "visible_points": 7, "total_points": 67, "visibility_pct": 10.44776119402985 }, "geometry": { "type": "Point", "coordinates": [ -2.963616498028177, 53.468726592420964 ] } },
{ "type": "Feature", "properties": { "visible_points": 10, "total_points": 73, "visibility_pct": 13.698630136986301 }, "geometry": { "type": "Point", "coordinates": [ -2.963407794295701, 53.468728275135632 ] } },
{ "type": "Feature", "properties": { "visible_points": 11, "total_points": 72, "visibility_pct": 15.277777777777779 }, "geometry": { "type": "Point", "coordinates": [ -2.963199090542143, 53.468729957485785 ] } },
{ "type": "Feature", "properties": { "visible_points": 0, "total_points": 68, "visibility_pct": 0.0 }, "geometry": { "type": "Point", "coordinates": [ -2.962990386767509, 53.468731639471429 ] } },
{ "type": "Feature", "properties": { "visible_points": 2, "total_points": 59, "visibility_pct": 3.3898305084745761 }, "geometry": { "type": "Point", "coordinates": [ -2.962781682971794, 53.468733321092557 ] } },
{ "type": "Feature", "properties": { "visible_points": 0, "total_points": 50, "visibility_pct": 0.0 }, "geometry": { "type": "Point", "coordinates": [ -2.962572979155013, 53.468735002349177 ] } },
{ "type": "Feature", "properties": { "visible_points": 6, "total_points": 56, "visibility_pct": 10.714285714285714 }, "geometry": { "type": "Point", "coordinates": [ -2.963723292507474, 53.468833597058733 ] } },
{ "type": "Feature", "properties": { "visible_points": 8, "total_points": 62, "visibility_pct": 12.903225806451612 }, "geometry": { "type": "Point", "coordinates": [ -2.963514588254952, 53.468835279961787 ] } },
{ "type": "Feature", "properties": { "visible_points": 7, "total_points": 65, "visibility_pct": 10.76923076923077 }, "geometry": { "type": "Point", "coordinates": [ -2.963305883981349, 53.468836962500319 ] } },
{ "type": "Feature", "properties": { "visible_points": 6, "total_points": 63, "visibility_pct": 9.5238095238095237 }, "geometry": { "type": "Point", "coordinates": [ -2.963097179686659, 53.468838644674335 ] } },
{ "type": "Feature", "properties": { "visible_points": 2, "total_points": 57, "visibility_pct": 3.5087719298245612 }, "geometry": { "type": "Point", "coordinates": [ -2.962888475370893, 53.468840326483857 ] } }
]
}
