{
"type": "FeatureCollection",
"name": "0fe25fc8ad65_foliage",
"crs": { "type": "name", "properties": { "name": "urn:ogc:def:crs:OGC:1.3:CRS84" } },
"features": [
{ "type": "Feature", "properties": { "max_height": 4.67425537109375, "mean_height": 0.28754919767379761, "std_height": 0.8025738000869751, "count_pixels": 40, "percent_cover": 0.21052631578947367, "percent_above_0.1m": 35.0, "low_level_<0.5": 17.5, "mid_level_0.5-2": 7.5, "tall_2+": 5.0 }, "geometry": { "type": "Point", "coordinates": [ -2.184701217143627, 53.536811826730201 ] } },
{ "type": "Feature", "properties": { "max_height": 10.067756652832031, "mean_height": 1.4073764085769653, "std_height": 2.8969323635101318, "count_pixels": 41, "percent_cover": 0.21578947368421053, "percent_above_0.1m": 29.268292682926827, "low_level_<0.5": 4.8780487804878048, "mid_level_0.5-2": 2.4390243902439024, "tall_2+": 21.951219512195124 }, "geometry": { "type": "Point", "coordinates": [ -2.184492150970614, 53.536812149918006 ] } },
{ "type": "Feature", "properties": { "max_height": 9.2192611694335938, "mean_height": 1.1443626880645752, "std_height": 2.4203553199768066, "count_pixels": 42, "percent_cover": 0.22105263157894736, "percent_above_0.1m": 23.809523809523807, "low_level_<0.5": 0.0, "mid_level_0.5-2": 4.7619047619047619, "tall_2+": 19.047619047619047 }, "geometry": { "type": "Point", "coordinates": [ -2.184283084809013, 53.536812472747243 ] } },
{ "type": "Feature", "properties": { "max_height": 1.0677566528320312, "mean_height": 0.13123703002929688, "std_height": 0.26101037859916687, "count_pixels": 42, "percent_cover": 0.22105263157894736, "percent_above_0.1m": 28.571428571428569, "low_level_<0.5": 14.285714285714285, "mid_level_0.5-2": 9.5238095238095237, "tall_2+": 0.0 }, "geometry": { "type": "Point", "coordinates": [ -2.184074018643165, 53.536812795210878 ] } },
{ "type": "Feature", "properties": { "max_height": 1.3532562255859375, "mean_height": 0.17001627385616302, "std_height": 0.31555527448654175, "count_pixels": 43, "percent_cover": 0.22631578947368419, "percent_above_0.1m": 37.209302325581397, "low_level_<0.5": 20.930232558139537, "mid_level_0.5-2": 11.627906976744185, "tall_2+": 0.0 }, "geometry": { "type": "Point", "coordinates": [ -2.184597155409459, 53.536919848389545 ] } },
{ "type": "Feature", "properties": { "max_height": 11.973251342773438, "mean_height": 4.4582257270812988, "std_height": 4.0439672470092773, "count_pixels": 42, "percent_cover": 0.22105263157894736, "percent_above_0.1m": 69.047619047619051, "low_level_<0.5": 0.0, "mid_level_0.5-2": 9.5238095238095237, "tall_2+": 59.523809523809526 }, "geometry": { "type": "Point", "coordinates": [ -2.184388088682207, 53.536920171392325 ] } },
{ "type": "Feature", "properties": { "max_height": 3.511749267578125, "mean_height": 0.11599313467741013, "std_height": 0.54495584964752197, "count_pixels": 42, "percent_cover": 0.22105263157894736, "percent_above_0.1m": 9.5238095238095237, "low_level_<0.5": 2.3809523809523809, "mid_level_0.5-2": 4.7619047619047619, "tall_2+": 2.3809523809523809 }, "geometry": { "type": "Point", "coordinates": [ -2.184179021950709, 53.536920494029495 ] } },
{ "type": "Feature", "properties": { "max_height": 0.54575347900390625, "mean_height": 0.035964421927928925, "std_height": 0.10135907679796219, "count_pixels": 42, "percent_cover": 0.22105263157894736, "percent_above_0.1m": 14.285714285714285, "low_level_<0.5": 9.5238095238095237, "mid_level_0.5-2": 2.3809523809523809, "tall_2+": 0.0 }, "geometry": { "type": "Point", "coordinates": [ -2.183969955214965, 53.536920816301084 ] } },
{ "type": "Feature", "properties": { "max_height": 4.0785064697265625, "mean_height": 0.10260158777236938, "std_height": 0.62928754091262817, "count_pixels": 41, "percent_cover": 0.21578947368421053, "percent_above_0.1m": 4.8780487804878048, "low_level_<0.5": 2.4390243902439024, "mid_level_0.5-2": 0.0, "tall_2+": 2.4390243902439024 }, "geometry": { "type": "Point", "coordinates": [ -2.184493093125287, 53.537027869953356 ] } },
{ "type": "Feature", "properties": { "max_height": 3.1037521362304688, "mean_height": 0.073558077216148376, "std_height": 0.47327619791030884, "count_pixels": 42, "percent_cover": 0.22105263157894736, "percent_above_0.1m": 2.3809523809523809, "low_level_<0.5": 0.0, "mid_level_0.5-2": 0.0, "tall_2+": 2.3809523809523809 }, "geometry": { "type": "Point", "coordinates": [ -2.184284025828133, 53.537028192764076 ] } },
{ "type": "Feature", "properties": { "max_height": 2.6020050048828125, "mean_height": 0.25739306211471558, "std_height": 0.65791094303131104, "count_pixels": 42, "percent_cover": 0.22105263157894736, "percent_above_0.1m": 16.666666666666664, "low_level_<0.5": 2.3809523809523809, "mid_level_0.5-2": 9.5238095238095237, "tall_2+": 4.7619047619047619 }, "geometry": { "type": "Point", "coordinates": [ -2.184074958526738, 53.537028515209201 ] } },
{ "type": "Feature", "properties": { "max_height": 12.219261169433594, "mean_height": 2.2879581451416016, "std_height": 3.9054009914398193, "count_pixels": 43, "percent_cover": 0.22631578947368419, "percent_above_0.1m": 46.511627906976742, "low_level_<0.5": 9.3023255813953494, "mid_level_0.5-2": 6.9767441860465116, "tall_2+": 27.906976744186046 }, "geometry": { "type": "Point", "coordinates": [ -2.184598098138262, 53.53713556843033 ] } },
{ "type": "Feature", "properties": { "max_height": 13.568000793457031, "mean_height": 6.2569465637207031, "std_height": 5.1358785629272461, "count_pixels": 42, "percent_cover": 0.22105263157894736, "percent_above_0.1m": 76.19047619047619, "low_level_<0.5": 2.3809523809523809, "mid_level_0.5-2": 9.5238095238095237, "tall_2+": 64.285714285714292 }, "geometry": { "type": "Point", "coordinates": [ -2.184389030275454, 53.537135891414586 ] } },
{ "type": "Feature", "properties": { "max_height": 13.509757995605469, "mean_height": 3.4246354103088379, "std_height": 4.4753150939941406, "count_pixels": 42, "percent_cover": 0.22105263157894736, "percent_above_0.1m": 45.238095238095241, "low_level_<0.5": 2.3809523809523809, "mid_level_0.5-2": 2.3809523809523809, "tall_2+": 40.476190476190474 }, "geometry": { "type": "Point", "coordinates": [ -2.184179962408392, 53.537136214033268 ] } },
{ "type": "Feature", "properties": { "max_height": 12.534255981445312, "mean_height": 2.1760525703430176, "std_height": 3.1389205455780029, "count_pixels": 42, "percent_cover": 0.22105263157894736, "percent_above_0.1m": 66.666666666666657, "low_level_<0.5": 9.5238095238095237, "mid_level_0.5-2": 19.047619047619047, "tall_2+": 38.095238095238095 }, "geometry": { "type": "Point", "coordinates": [ -2.183970894537086, 53.537136536286326 ] } },
{ "type": "Feature", "properties": { "max_height": 13.205253601074219, "mean_height": 2.2879190444946289, "std_height": 4.0135221481323242, "count_pixels": 41, "percent_cover": 0.21578947368421053, "percent_above_0.1m": 43.902439024390247, "low_level_<0.5": 4.8780487804878048, "mid_level_0.5-2": 9.7560975609756095, "tall_2+": 26.829268292682929 }, "geometry": { "type": "Point", "coordinates": [ -2.184494035292663, 53.537243589981053 ] } },
{ "type": "Feature", "properties": { "max_height": 3.9320068359375, "mean_height": 0.252867192029953, "std_height": 0.82779163122177124, "count_pixels": 42, "percent_cover": 0.22105263157894736, "percent_above_0.1m": 11.904761904761903, "low_level_<0.5": 0.0, "mid_level_0.5-2": 7.1428571428571423, "tall_2+": 4.7619047619047619 }, "geometry": { "type": "Point", "coordinates": [ -2.18428496685994, 53.537243912773256 ] } },
{ "type": "Feature", "properties": { "max_height": 13.67950439453125, "mean_height": 3.2868092060089111, "std_height": 4.3531918525695801, "count_pixels": 42, "percent_cover": 0.22105263157894736, "percent_above_0.1m": 52.380952380952387, "low_level_<0.5": 2.3809523809523809, "mid_level_0.5-2": 9.5238095238095237, "tall_2+": 40.476190476190474 }, "geometry": { "type": "Point", "coordinates": [ -2.184075898422968, 53.537244235199886 ] } },
{ "type": "Feature", "properties": { "max_height": 6.5185012817382812, "mean_height": 1.4148948192596436, "std_height": 2.1855752468109131, "count_pixels": 43, "percent_cover": 0.22631578947368419, "percent_above_0.1m": 51.162790697674424, "low_level_<0.5": 6.9767441860465116, "mid_level_0.5-2": 11.627906976744185, "tall_2+": 27.906976744186046 }, "geometry": { "type": "Point", "coordinates": [ -2.184599040879768, 53.537351288463462 ] } },
{ "type": "Feature", "properties": { "max_height": 9.1300125122070312, "mean_height": 2.2202072143554688, "std_height": 2.9852743148803711, "count_pixels": 42, "percent_cover": 0.22105263157894736, "percent_above_0.1m": 45.238095238095241, "low_level_<0.5": 0.0, "mid_level_0.5-2": 9.5238095238095237, "tall_2+": 35.714285714285715 }, "geometry": { "type": "Point", "coordinates": [ -2.184389971881384, 53.537351611429223 ] } },
{ "type": "Feature", "properties": { "max_height": 0.02950286865234375, "mean_height": 0.0019761947914958, "std_height": 0.0088801626116037369, "count_pixels": 42, "percent_cover": 0.22105263157894736, "percent_above_0.1m": 0.0, "low_level_<0.5": 0.0, "mid_level_0.5-2": 0.0, "tall_2+": 0.0 }, "geometry": { "type": "Point", "coordinates": [ -2.184180902878749, 53.537351934029395 ] } },
{ "type": "Feature", "properties": { "max_height": 1.4245071411132812, "mean_height": 0.29333260655403137, "std_height": 0.45077532529830933, "count_pixels": 42, "percent_cover": 0.22105263157894736, "percent_above_0.1m": 38.095238095238095, "low_level_<0.5": 14.285714285714285, "mid_level_0.5-2": 23.809523809523807, "tall_2+": 0.0 }, "geometry": { "type": "Point", "coordinates": [ -2.183971833871869, 53.537352256263937 ] } },
{ "type": "Feature", "properties": { "max_height": 0.3379974365234375, "mean_height": 0.016156265512108803, "std_height": 0.067488431930541992, "count_pixels": 41, "percent_cover": 0.21578947368421053, "percent_above_0.1m": 9.7560975609756095, "low_level_<0.5": 4.8780487804878048, "mid_level_0.5-2": 0.0, "tall_2+": 0.0 }, "geometry": { "type": "Point", "coordinates": [ -2.184494977472729, 53.537459310001132 ] } },
{ "type": "Feature", "properties": { "max_height": 0.0237579345703125, "mean_height": -0.00079872494097799063, "std_height": 0.0084174945950508118, "count_pixels": 42, "percent_cover": 0.22105263157894736, "percent_above_0.1m": 0.0, "low_level_<0.5": 0.0, "mid_level_0.5-2": 0.0, "tall_2+": 0.0 }, "geometry": { "type": "Point", "coordinates": [ -2.184285907904427, 53.537459632774834 ] } },
{ "type": "Feature", "properties": { "max_height": 8.4735031127929688, "mean_height": 1.3657602071762085, "std_height": 2.569838285446167, "count_pixels": 42, "percent_cover": 0.22105263157894736, "percent_above_0.1m": 30.952380952380953, "low_level_<0.5": 0.0, "mid_level_0.5-2": 11.904761904761903, "tall_2+": 19.047619047619047 }, "geometry": { "type": "Point", "coordinates": [ -2.184076838331871, 53.537459955182946 ] } },
{ "type": "Feature", "properties": { "max_height": 4.4885025024414062, "mean_height": 1.2228264808654785, "std_height": 1.4401122331619263, "count_pixels": 42, "percent_cover": 0.22105263157894736, "percent_above_0.1m": 64.285714285714292, "low_level_<0.5": 4.7619047619047619, "mid_level_0.5-2": 28.571428571428569, "tall_2+": 23.809523809523807 }, "geometry": { "type": "Point", "coordinates": [ -2.183867768755078, 53.537460277225435 ] } },
{ "type": "Feature", "properties": { "max_height": 6.7542495727539062, "mean_height": 2.0829699039459229, "std_height": 2.584794282913208, "count_pixels": 43, "percent_cover": 0.22631578947368419, "percent_above_0.1m": 65.116279069767444, "low_level_<0.5": 16.279069767441861, "mid_level_0.5-2": 13.953488372093023, "tall_2+": 34.883720930232556 }, "geometry": { "type": "Point", "coordinates": [ -2.184599983633978, 53.537567008488985 ] } },
{ "type": "Feature", "properties": { "max_height": 0.014007568359375, "mean_height": -0.0022688366007059813, "std_height": 0.005445605143904686, "count_pixels": 42, "percent_cover": 0.22105263157894736, "percent_above_0.1m": 0.0, "low_level_<0.5": 0.0, "mid_level_0.5-2": 0.0, "tall_2+": 0.0 }, "geometry": { "type": "Point", "coordinates": [ -2.184390913500006, 53.537567331436236 ] } },
{ "type": "Feature", "properties": { "max_height": 0.03125, "mean_height": 0.0015758333029225469, "std_height": 0.010759884491562843, "count_pixels": 42, "percent_cover": 0.22105263157894736, "percent_above_0.1m": 0.0, "low_level_<0.5": 0.0, "mid_level_0.5-2": 0.0, "tall_2+": 0.0 }, "geometry": { "type": "Point", "coordinates": [ -2.18418184336178, 53.537567654017877 ] } },
{ "type": "Feature", "properties": { "max_height": 8.0647506713867188, "mean_height": 1.8028088808059692, "std_height": 2.4980473518371582, "count_pixels": 42, "percent_cover": 0.22105263157894736, "percent_above_0.1m": 50.0, "low_level_<0.5": 2.3809523809523809, "mid_level_0.5-2": 14.285714285714285, "tall_2+": 33.333333333333329 }, "geometry": { "type": "Point", "coordinates": [ -2.18397277321931, 53.53756797623393 ] } },
{ "type": "Feature", "properties": { "max_height": 6.6882553100585938, "mean_height": 1.6888569593429565, "std_height": 2.2993879318237305, "count_pixels": 42, "percent_cover": 0.22105263157894736, "percent_above_0.1m": 54.761904761904766, "low_level_<0.5": 4.7619047619047619, "mid_level_0.5-2": 16.666666666666664, "tall_2+": 30.952380952380953 }, "geometry": { "type": "Point", "coordinates": [ -2.185332202416993, 53.537673735841231 ] } },
{ "type": "Feature", "properties": { "max_height": 6.91650390625, "mean_height": 3.5238251686096191, "std_height": 2.7382259368896484, "count_pixels": 40, "percent_cover": 0.21052631578947367, "percent_above_0.1m": 77.5, "low_level_<0.5": 7.5, "mid_level_0.5-2": 10.0, "tall_2+": 60.0 }, "geometry": { "type": "Point", "coordinates": [ -2.185123131737747, 53.537674059867328 ] } },
{ "type": "Feature", "properties": { "max_height": 6.8392562866210938, "mean_height": 2.6696581840515137, "std_height": 2.7625892162322998, "count_pixels": 36, "percent_cover": 0.18947368421052629, "percent_above_0.1m": 61.111111111111114, "low_level_<0.5": 2.7777777777777777, "mid_level_0.5-2": 11.111111111111111, "tall_2+": 47.222222222222221 }, "geometry": { "type": "Point", "coordinates": [ -2.184914061054456, 53.537674383527865 ] } },
{ "type": "Feature", "properties": { "max_height": 6.8892593383789062, "mean_height": 1.9723176956176758, "std_height": 2.5568497180938721, "count_pixels": 40, "percent_cover": 0.21052631578947367, "percent_above_0.1m": 52.5, "low_level_<0.5": 5.0, "mid_level_0.5-2": 15.0, "tall_2+": 32.5 }, "geometry": { "type": "Point", "coordinates": [ -2.184704990364513, 53.537674706898628 ] } },
{ "type": "Feature", "properties": { "max_height": 4.76800537109375, "mean_height": 0.58269369602203369, "std_height": 1.2236529588699341, "count_pixels": 41, "percent_cover": 0.21578947368421053, "percent_above_0.1m": 26.829268292682929, "low_level_<0.5": 0.0, "mid_level_0.5-2": 9.7560975609756095, "tall_2+": 14.634146341463413 }, "geometry": { "type": "Point", "coordinates": [ -2.184495919665494, 53.537675030013588 ] } },
{ "type": "Feature", "properties": { "max_height": 12.771003723144531, "mean_height": 1.8051012754440308, "std_height": 3.3543784618377686, "count_pixels": 42, "percent_cover": 0.22105263157894736, "percent_above_0.1m": 30.952380952380953, "low_level_<0.5": 0.0, "mid_level_0.5-2": 4.7619047619047619, "tall_2+": 26.190476190476193 }, "geometry": { "type": "Point", "coordinates": [ -2.18428684896159, 53.53767535276878 ] } },
{ "type": "Feature", "properties": { "max_height": 0.011505126953125, "mean_height": -0.0021969024091959, "std_height": 0.0069718025624752045, "count_pixels": 42, "percent_cover": 0.22105263157894736, "percent_above_0.1m": 0.0, "low_level_<0.5": 0.0, "mid_level_0.5-2": 0.0, "tall_2+": 0.0 }, "geometry": { "type": "Point", "coordinates": [ -2.184077778253445, 53.537675675158368 ] } },
{ "type": "Feature", "properties": { "max_height": 5.194000244140625, "mean_height": 0.71918362379074097, "std_height": 1.3656990528106689, "count_pixels": 42, "percent_cover": 0.22105263157894736, "percent_above_0.1m": 38.095238095238095, "low_level_<0.5": 14.285714285714285, "mid_level_0.5-2": 7.1428571428571423, "tall_2+": 16.666666666666664 }, "geometry": { "type": "Point", "coordinates": [ -2.183868707541051, 53.537675997182347 ] } },
{ "type": "Feature", "properties": { "max_height": 6.9239959716796875, "mean_height": 3.9545106887817383, "std_height": 2.648038387298584, "count_pixels": 42, "percent_cover": 0.22105263157894736, "percent_above_0.1m": 88.095238095238088, "low_level_<0.5": 4.7619047619047619, "mid_level_0.5-2": 11.904761904761903, "tall_2+": 66.666666666666657 }, "geometry": { "type": "Point", "coordinates": [ -2.185437211295858, 53.537781433709277 ] } },
{ "type": "Feature", "properties": { "max_height": 1.6102523803710938, "mean_height": 0.079825446009635925, "std_height": 0.29697152972221375, "count_pixels": 42, "percent_cover": 0.22105263157894736, "percent_above_0.1m": 9.5238095238095237, "low_level_<0.5": 4.7619047619047619, "mid_level_0.5-2": 4.7619047619047619, "tall_2+": 0.0 }, "geometry": { "type": "Point", "coordinates": [ -2.185228140087567, 53.537781757917564 ] } },
{ "type": "Feature", "properties": { "max_height": 0.01800537109375, "mean_height": -0.0001373291015625, "std_height": 0.0056170374155044556, "count_pixels": 44, "percent_cover": 0.23157894736842108, "percent_above_0.1m": 0.0, "low_level_<0.5": 0.0, "mid_level_0.5-2": 0.0, "tall_2+": 0.0 }, "geometry": { "type": "Point", "coordinates": [ -2.185019068875222, 53.537782081760298 ] } },
{ "type": "Feature", "properties": { "max_height": 0.02425384521484375, "mean_height": 0.0018456198740750551, "std_height": 0.0069849682040512562, "count_pixels": 44, "percent_cover": 0.23157894736842108, "percent_above_0.1m": 0.0, "low_level_<0.5": 0.0, "mid_level_0.5-2": 0.0, "tall_2+": 0.0 }, "geometry": { "type": "Point", "coordinates": [ -2.184809997652053, 53.537782405252415 ] } },
{ "type": "Feature", "properties": { "max_height": 6.3325042724609375, "mean_height": 0.40449914336204529, "std_height": 1.4828078746795654, "count_pixels": 43, "percent_cover": 0.22631578947368419, "percent_above_0.1m": 9.3023255813953494, "low_level_<0.5": 2.3255813953488373, "mid_level_0.5-2": 0.0, "tall_2+": 6.9767441860465116 }, "geometry": { "type": "Point", "coordinates": [ -2.184600926400896, 53.537782728506883 ] } },
{ "type": "Feature", "properties": { "max_height": 12.794761657714844, "mean_height": 5.5296001434326172, "std_height": 4.3219456672668457, "count_pixels": 42, "percent_cover": 0.22105263157894736, "percent_above_0.1m": 85.714285714285708, "low_level_<0.5": 4.7619047619047619, "mid_level_0.5-2": 11.904761904761903, "tall_2+": 69.047619047619051 }, "geometry": { "type": "Point", "coordinates": [ -2.184391855131313, 53.537783051435611 ] } },
{ "type": "Feature", "properties": { "max_height": 12.745506286621094, "mean_height": 3.5254397392272949, "std_height": 4.3536524772644043, "count_pixels": 42, "percent_cover": 0.22105263157894736, "percent_above_0.1m": 69.047619047619051, "low_level_<0.5": 14.285714285714285, "mid_level_0.5-2": 9.5238095238095237, "tall_2+": 45.238095238095241 }, "geometry": { "type": "Point", "coordinates": [ -2.184182783857487, 53.537783373998764 ] } },
{ "type": "Feature", "properties": { "max_height": 5.9387588500976562, "mean_height": 0.66804087162017822, "std_height": 1.4175140857696533, "count_pixels": 42, "percent_cover": 0.22105263157894736, "percent_above_0.1m": 50.0, "low_level_<0.5": 23.809523809523807, "mid_level_0.5-2": 9.5238095238095237, "tall_2+": 11.904761904761903 }, "geometry": { "type": "Point", "coordinates": [ -2.183973712579415, 53.537783696196279 ] } },
{ "type": "Feature", "properties": { "max_height": 6.2140045166015625, "mean_height": 1.147381067276001, "std_height": 1.8880165815353394, "count_pixels": 40, "percent_cover": 0.21052631578947367, "percent_above_0.1m": 65.0, "low_level_<0.5": 25.0, "mid_level_0.5-2": 20.0, "tall_2+": 20.0 }, "geometry": { "type": "Point", "coordinates": [ -2.183764641297098, 53.537784018028205 ] } },
{ "type": "Feature", "properties": { "max_height": 6.7742538452148438, "mean_height": 1.3842191696166992, "std_height": 2.256680965423584, "count_pixels": 42, "percent_cover": 0.22105263157894736, "percent_above_0.1m": 50.0, "low_level_<0.5": 11.904761904761903, "mid_level_0.5-2": 11.904761904761903, "tall_2+": 23.809523809523807 }, "geometry": { "type": "Point", "coordinates": [ -2.18596036417033, 53.537888481606949 ] } },
{ "type": "Feature", "properties": { "max_height": 6.8872528076171875, "mean_height": 2.908623218536377, "std_height": 2.9292585849761963, "count_pixels": 42, "percent_cover": 0.22105263157894736, "percent_above_0.1m": 69.047619047619051, "low_level_<0.5": 14.285714285714285, "mid_level_0.5-2": 4.7619047619047619, "tall_2+": 50.0 }, "geometry": { "type": "Point", "coordinates": [ -2.185751292441104, 53.537888806728546 ] } },
{ "type": "Feature", "properties": { "max_height": 8.4445114135742188, "mean_height": 1.2856361865997314, "std_height": 2.3324728012084961, "count_pixels": 42, "percent_cover": 0.22105263157894736, "percent_above_0.1m": 45.238095238095241, "low_level_<0.5": 14.285714285714285, "mid_level_0.5-2": 7.1428571428571423, "tall_2+": 21.428571428571427 }, "geometry": { "type": "Point", "coordinates": [ -2.185542220707815, 53.537889131484583 ] } },
{ "type": "Feature", "properties": { "max_height": 16.682754516601562, "mean_height": 7.0585994720458984, "std_height": 4.6119956970214844, "count_pixels": 42, "percent_cover": 0.22105263157894736, "percent_above_0.1m": 90.476190476190482, "low_level_<0.5": 0.0, "mid_level_0.5-2": 11.904761904761903, "tall_2+": 78.571428571428569 }, "geometry": { "type": "Point", "coordinates": [ -2.185333148970471, 53.53788945587506 ] } },
{ "type": "Feature", "properties": { "max_height": 10.142501831054688, "mean_height": 1.8220802545547485, "std_height": 3.4626960754394531, "count_pixels": 40, "percent_cover": 0.21052631578947367, "percent_above_0.1m": 27.5, "low_level_<0.5": 2.5, "mid_level_0.5-2": 2.5, "tall_2+": 22.5 }, "geometry": { "type": "Point", "coordinates": [ -2.185124077229069, 53.537889779899992 ] } },
{ "type": "Feature", "properties": { "max_height": 0.0262603759765625, "mean_height": 0.0005537669057957828, "std_height": 0.0079499157145619392, "count_pixels": 36, "percent_cover": 0.18947368421052629, "percent_above_0.1m": 0.0, "low_level_<0.5": 0.0, "mid_level_0.5-2": 0.0, "tall_2+": 0.0 }, "geometry": { "type": "Point", "coordinates": [ -2.184915005483624, 53.537890103559363 ] } },
{ "type": "Feature", "properties": { "max_height": 0.0360107421875, "mean_height": 0.0016052245628088713, "std_height": 0.0092589259147644043, "count_pixels": 40, "percent_cover": 0.21052631578947367, "percent_above_0.1m": 0.0, "low_level_<0.5": 0.0, "mid_level_0.5-2": 0.0, "tall_2+": 0.0 }, "geometry": { "type": "Point", "coordinates": [ -2.184705933700784, 53.537890426921571 ] } },
{ "type": "Feature", "properties": { "max_height": 5.7344970703125, "mean_height": 0.6157909631729126, "std_height": 1.3684133291244507, "count_pixels": 41, "percent_cover": 0.21578947368421053, "percent_above_0.1m": 43.902439024390247, "low_level_<0.5": 19.512195121951219, "mid_level_0.5-2": 12.195121951219512, "tall_2+": 9.7560975609756095 }, "geometry": { "type": "Point", "coordinates": [ -2.184496861870953, 53.537890750018406 ] } },
{ "type": "Feature", "properties": { "max_height": 6.6160049438476562, "mean_height": 2.5476059913635254, "std_height": 2.7958111763000488, "count_pixels": 42, "percent_cover": 0.22105263157894736, "percent_above_0.1m": 69.047619047619051, "low_level_<0.5": 7.1428571428571423, "mid_level_0.5-2": 11.904761904761903, "tall_2+": 42.857142857142854 }, "geometry": { "type": "Point", "coordinates": [ -2.184287790031442, 53.537891072755109 ] } },
{ "type": "Feature", "properties": { "max_height": 11.799751281738281, "mean_height": 4.755185604095459, "std_height": 3.8390500545501709, "count_pixels": 36, "percent_cover": 0.18947368421052629, "percent_above_0.1m": 91.666666666666657, "low_level_<0.5": 13.888888888888889, "mid_level_0.5-2": 13.888888888888889, "tall_2+": 63.888888888888886 }, "geometry": { "type": "Point", "coordinates": [ -2.186274447427693, 53.53799585325573 ] } },
{ "type": "Feature", "properties": { "max_height": 5.8855056762695312, "mean_height": 0.47470530867576599, "std_height": 1.4773515462875366, "count_pixels": 40, "percent_cover": 0.21052631578947367, "percent_above_0.1m": 15.0, "low_level_<0.5": 5.0, "mid_level_0.5-2": 2.5, "tall_2+": 7.5 }, "geometry": { "type": "Point", "coordinates": [ -2.186065375173484, 53.537996178925091 ] } },
{ "type": "Feature", "properties": { "max_height": 0.20874786376953125, "mean_height": 0.011761074885725975, "std_height": 0.041943054646253586, "count_pixels": 42, "percent_cover": 0.22105263157894736, "percent_above_0.1m": 4.7619047619047619, "low_level_<0.5": 2.3809523809523809, "mid_level_0.5-2": 0.0, "tall_2+": 0.0 }, "geometry": { "type": "Point", "coordinates": [ -2.185856302915209, 53.537996504228893 ] } },
{ "type": "Feature", "properties": { "max_height": 0.2350006103515625, "mean_height": 0.0032492137979716063, "std_height": 0.036735750734806061, "count_pixels": 42, "percent_cover": 0.22105263157894736, "percent_above_0.1m": 2.3809523809523809, "low_level_<0.5": 2.3809523809523809, "mid_level_0.5-2": 0.0, "tall_2+": 0.0 }, "geometry": { "type": "Point", "coordinates": [ -2.185647230652865, 53.537996829167128 ] } },
{ "type": "Feature", "properties": { "max_height": 14.935508728027344, "mean_height": 5.280975341796875, "std_height": 5.8662266731262207, "count_pixels": 42, "percent_cover": 0.22105263157894736, "percent_above_0.1m": 54.761904761904766, "low_level_<0.5": 0.0, "mid_level_0.5-2": 2.3809523809523809, "tall_2+": 50.0 }, "geometry": { "type": "Point", "coordinates": [ -2.185438158386467, 53.537997153739823 ] } },
{ "type": "Feature", "properties": { "max_height": 15.447257995605469, "mean_height": 9.7756366729736328, "std_height": 3.358914852142334, "count_pixels": 42, "percent_cover": 0.22105263157894736, "percent_above_0.1m": 100.0, "low_level_<0.5": 0.0, "mid_level_0.5-2": 2.3809523809523809, "tall_2+": 97.61904761904762 }, "geometry": { "type": "Point", "coordinates": [ -2.185229086116011, 53.537997477946924 ] } },
{ "type": "Feature", "properties": { "max_height": 7.3582534790039062, "mean_height": 0.73595309257507324, "std_height": 1.6539560556411743, "count_pixels": 44, "percent_cover": 0.23157894736842108, "percent_above_0.1m": 27.27272727272727, "low_level_<0.5": 2.2727272727272729, "mid_level_0.5-2": 6.8181818181818175, "tall_2+": 15.909090909090908 }, "geometry": { "type": "Point", "coordinates": [ -2.185020013841505, 53.537997801788507 ] } },
{ "type": "Feature", "properties": { "max_height": 9.5965042114257812, "mean_height": 1.9834820032119751, "std_height": 3.0295393466949463, "count_pixels": 44, "percent_cover": 0.23157894736842108, "percent_above_0.1m": 38.636363636363633, "low_level_<0.5": 0.0, "mid_level_0.5-2": 6.8181818181818175, "tall_2+": 29.545454545454547 }, "geometry": { "type": "Point", "coordinates": [ -2.184810941544791, 53.537998125277909 ] } },
{ "type": "Feature", "properties": { "max_height": 6.6002578735351562, "mean_height": 2.619952917098999, "std_height": 2.4460444450378418, "count_pixels": 43, "percent_cover": 0.22631578947368419, "percent_above_0.1m": 69.767441860465112, "low_level_<0.5": 4.6511627906976747, "mid_level_0.5-2": 16.279069767441861, "tall_2+": 48.837209302325576 }, "geometry": { "type": "Point", "coordinates": [ -2.18460186918051, 53.537998448517143 ] } },
{ "type": "Feature", "properties": { "max_height": 8.860504150390625, "mean_height": 1.9970568418502808, "std_height": 2.3489272594451904, "count_pixels": 44, "percent_cover": 0.23157894736842108, "percent_above_0.1m": 59.090909090909093, "low_level_<0.5": 4.5454545454545459, "mid_level_0.5-2": 15.909090909090908, "tall_2+": 38.636363636363633 }, "geometry": { "type": "Point", "coordinates": [ -2.186170386709739, 53.538103876150487 ] } },
{ "type": "Feature", "properties": { "max_height": 0.0435028076171875, "mean_height": 0.0012138003949075937, "std_height": 0.010662399232387543, "count_pixels": 42, "percent_cover": 0.22105263157894736, "percent_above_0.1m": 0.0, "low_level_<0.5": 0.0, "mid_level_0.5-2": 0.0, "tall_2+": 0.0 }, "geometry": { "type": "Point", "coordinates": [ -2.185961313922413, 53.538104201636486 ] } },
{ "type": "Feature", "properties": { "max_height": 0.02325439453125, "mean_height": -0.002483186312019825, "std_height": 0.0087027139961719513, "count_pixels": 42, "percent_cover": 0.22105263157894736, "percent_above_0.1m": 0.0, "low_level_<0.5": 0.0, "mid_level_0.5-2": 0.0, "tall_2+": 0.0 }, "geometry": { "type": "Point", "coordinates": [ -2.185752241131016, 53.538104526756925 ] } },
{ "type": "Feature", "properties": { "max_height": 8.1610107421875, "mean_height": 0.50713640451431274, "std_height": 1.6928657293319702, "count_pixels": 42, "percent_cover": 0.22105263157894736, "percent_above_0.1m": 14.285714285714285, "low_level_<0.5": 2.3809523809523809, "mid_level_0.5-2": 2.3809523809523809, "tall_2+": 9.5238095238095237 }, "geometry": { "type": "Point", "coordinates": [ -2.185543168335558, 53.538104851511804 ] } },
{ "type": "Feature", "properties": { "max_height": 16.056007385253906, "mean_height": 5.3448324203491211, "std_height": 4.6092209815979004, "count_pixels": 42, "percent_cover": 0.22105263157894736, "percent_above_0.1m": 76.19047619047619, "low_level_<0.5": 0.0, "mid_level_0.5-2": 7.1428571428571423, "tall_2+": 69.047619047619051 }, "geometry": { "type": "Point", "coordinates": [ -2.185334095536043, 53.538105175901116 ] } },
{ "type": "Feature", "properties": { "max_height": 12.558753967285156, "mean_height": 2.6293041706085205, "std_height": 3.5937800407409668, "count_pixels": 40, "percent_cover": 0.21052631578947367, "percent_above_0.1m": 47.5, "low_level_<0.5": 0.0, "mid_level_0.5-2": 10.0, "tall_2+": 37.5 }, "geometry": { "type": "Point", "coordinates": [ -2.185125022732478, 53.538105499924875 ] } },
{ "type": "Feature", "properties": { "max_height": 13.675003051757812, "mean_height": 5.0000252723693848, "std_height": 4.3966116905212402, "count_pixels": 36, "percent_cover": 0.18947368421052629, "percent_above_0.1m": 75.0, "low_level_<0.5": 2.7777777777777777, "mid_level_0.5-2": 8.3333333333333321, "tall_2+": 63.888888888888886 }, "geometry": { "type": "Point", "coordinates": [ -2.184915949924861, 53.538105823583066 ] } },
{ "type": "Feature", "properties": { "max_height": 9.4767608642578125, "mean_height": 1.9734426736831665, "std_height": 3.0524206161499023, "count_pixels": 40, "percent_cover": 0.21052631578947367, "percent_above_0.1m": 47.5, "low_level_<0.5": 5.0, "mid_level_0.5-2": 12.5, "tall_2+": 27.5 }, "geometry": { "type": "Point", "coordinates": [ -2.184706877049475, 53.538106146936869 ] } },
{ "type": "Feature", "properties": { "max_height": 7.0242538452148438, "mean_height": 1.8742303848266602, "std_height": 1.9745147228240967, "count_pixels": 41, "percent_cover": 0.21578947368421053, "percent_above_0.1m": 68.292682926829272, "low_level_<0.5": 9.7560975609756095, "mid_level_0.5-2": 7.3170731707317067, "tall_2+": 48.780487804878049 }, "geometry": { "type": "Point", "coordinates": [ -2.18449780408911, 53.53810647001562 ] } },
{ "type": "Feature", "properties": { "max_height": 6.0730056762695312, "mean_height": 2.3386650085449219, "std_height": 2.0841531753540039, "count_pixels": 36, "percent_cover": 0.18947368421052629, "percent_above_0.1m": 80.555555555555557, "low_level_<0.5": 16.666666666666664, "mid_level_0.5-2": 19.444444444444446, "tall_2+": 44.444444444444443 }, "geometry": { "type": "Point", "coordinates": [ -2.186275398779102, 53.538211573283114 ] } },
{ "type": "Feature", "properties": { "max_height": 0.52050018310546875, "mean_height": 0.012634849175810814, "std_height": 0.082335516810417175, "count_pixels": 40, "percent_cover": 0.21052631578947367, "percent_above_0.1m": 2.5, "low_level_<0.5": 0.0, "mid_level_0.5-2": 2.5, "tall_2+": 0.0 }, "geometry": { "type": "Point", "coordinates": [ -2.186066325462719, 53.538211898951332 ] } },
{ "type": "Feature", "properties": { "max_height": 14.020256042480469, "mean_height": 1.7779163122177124, "std_height": 3.5812153816223145, "count_pixels": 42, "percent_cover": 0.22105263157894736, "percent_above_0.1m": 33.333333333333329, "low_level_<0.5": 4.7619047619047619, "mid_level_0.5-2": 9.5238095238095237, "tall_2+": 19.047619047619047 }, "geometry": { "type": "Point", "coordinates": [ -2.185857252142267, 53.538212224253954 ] } },
{ "type": "Feature", "properties": { "max_height": 7.8400039672851562, "mean_height": 0.9929577112197876, "std_height": 2.2410345077514648, "count_pixels": 42, "percent_cover": 0.22105263157894736, "percent_above_0.1m": 28.571428571428569, "low_level_<0.5": 7.1428571428571423, "mid_level_0.5-2": 4.7619047619047619, "tall_2+": 14.285714285714285 }, "geometry": { "type": "Point", "coordinates": [ -2.185648178817755, 53.538212549191037 ] } },
{ "type": "Feature", "properties": { "max_height": 14.675506591796875, "mean_height": 9.531580924987793, "std_height": 3.7085261344909668, "count_pixels": 42, "percent_cover": 0.22105263157894736, "percent_above_0.1m": 97.61904761904762, "low_level_<0.5": 2.3809523809523809, "mid_level_0.5-2": 0.0, "tall_2+": 95.238095238095227 }, "geometry": { "type": "Point", "coordinates": [ -2.185439105489175, 53.538212873762546 ] } },
{ "type": "Feature", "properties": { "max_height": 13.866256713867188, "mean_height": 0.65268927812576294, "std_height": 2.3359007835388184, "count_pixels": 42, "percent_cover": 0.22105263157894736, "percent_above_0.1m": 11.904761904761903, "low_level_<0.5": 0.0, "mid_level_0.5-2": 2.3809523809523809, "tall_2+": 9.5238095238095237 }, "geometry": { "type": "Point", "coordinates": [ -2.185230032156547, 53.53821319796851 ] } },
{ "type": "Feature", "properties": { "max_height": 14.838752746582031, "mean_height": 4.8621187210083008, "std_height": 5.199347972869873, "count_pixels": 44, "percent_cover": 0.23157894736842108, "percent_above_0.1m": 61.363636363636367, "low_level_<0.5": 2.2727272727272729, "mid_level_0.5-2": 4.5454545454545459, "tall_2+": 54.54545454545454 }, "geometry": { "type": "Point", "coordinates": [ -2.185020958819869, 53.538213521808892 ] } },
{ "type": "Feature", "properties": { "max_height": 13.553504943847656, "mean_height": 3.5880391597747803, "std_height": 4.4729828834533691, "count_pixels": 44, "percent_cover": 0.23157894736842108, "percent_above_0.1m": 56.81818181818182, "low_level_<0.5": 4.5454545454545459, "mid_level_0.5-2": 2.2727272727272729, "tall_2+": 47.727272727272727 }, "geometry": { "type": "Point", "coordinates": [ -2.18481188544988, 53.538213845295637 ] } },
{ "type": "Feature", "properties": { "max_height": 13.183753967285156, "mean_height": 2.4176790714263916, "std_height": 3.4448451995849609, "count_pixels": 43, "percent_cover": 0.22631578947368419, "percent_above_0.1m": 62.790697674418603, "low_level_<0.5": 9.3023255813953494, "mid_level_0.5-2": 23.255813953488371, "tall_2+": 30.232558139534881 }, "geometry": { "type": "Point", "coordinates": [ -2.184602811972832, 53.538214168519794 ] } },
{ "type": "Feature", "properties": { "max_height": 6.5205001831054688, "mean_height": 1.8628783226013184, "std_height": 2.3442940711975098, "count_pixels": 42, "percent_cover": 0.22105263157894736, "percent_above_0.1m": 66.666666666666657, "low_level_<0.5": 14.285714285714285, "mid_level_0.5-2": 16.666666666666664, "tall_2+": 35.714285714285715 }, "geometry": { "type": "Point", "coordinates": [ -2.184393738432002, 53.538214491411516 ] } },
{ "type": "Feature", "properties": { "max_height": 8.7527542114257812, "mean_height": 1.9565850496292114, "std_height": 2.3303427696228027, "count_pixels": 44, "percent_cover": 0.23157894736842108, "percent_above_0.1m": 63.636363636363633, "low_level_<0.5": 11.363636363636363, "mid_level_0.5-2": 11.363636363636363, "tall_2+": 38.636363636363633 }, "geometry": { "type": "Point", "coordinates": [ -2.186171337536138, 53.538319596173409 ] } },
{ "type": "Feature", "properties": { "max_height": 9.06475830078125, "mean_height": 2.0068325996398926, "std_height": 3.3693110942840576, "count_pixels": 42, "percent_cover": 0.22105263157894736, "percent_above_0.1m": 52.380952380952387, "low_level_<0.5": 11.904761904761903, "mid_level_0.5-2": 9.5238095238095237, "tall_2+": 23.809523809523807 }, "geometry": { "type": "Point", "coordinates": [ -2.185962263686627, 53.538319921658243 ] } },
{ "type": "Feature", "properties": { "max_height": 15.094261169433594, "mean_height": 5.0706853866577148, "std_height": 4.4009084701538086, "count_pixels": 42, "percent_cover": 0.22105263157894736, "percent_above_0.1m": 78.571428571428569, "low_level_<0.5": 9.5238095238095237, "mid_level_0.5-2": 4.7619047619047619, "tall_2+": 64.285714285714292 }, "geometry": { "type": "Point", "coordinates": [ -2.185753189833054, 53.538320246777516 ] } },
{ "type": "Feature", "properties": { "max_height": 9.1415023803710938, "mean_height": 4.1331114768981934, "std_height": 3.876976490020752, "count_pixels": 42, "percent_cover": 0.22105263157894736, "percent_above_0.1m": 78.571428571428569, "low_level_<0.5": 7.1428571428571423, "mid_level_0.5-2": 19.047619047619047, "tall_2+": 52.380952380952387 }, "geometry": { "type": "Point", "coordinates": [ -2.185544115975411, 53.53832057153123 ] } },
{ "type": "Feature", "properties": { "max_height": 9.0625076293945312, "mean_height": 1.6966359615325928, "std_height": 2.8966124057769775, "count_pixels": 42, "percent_cover": 0.22105263157894736, "percent_above_0.1m": 40.476190476190474, "low_level_<0.5": 9.5238095238095237, "mid_level_0.5-2": 2.3809523809523809, "tall_2+": 28.571428571428569 }, "geometry": { "type": "Point", "coordinates": [ -2.185335042113715, 53.538320895919384 ] } },
{ "type": "Feature", "properties": { "max_height": 0.10675811767578125, "mean_height": 0.0071355821564793587, "std_height": 0.021572701632976532, "count_pixels": 40, "percent_cover": 0.21052631578947367, "percent_above_0.1m": 2.5, "low_level_<0.5": 0.0, "mid_level_0.5-2": 0.0, "tall_2+": 0.0 }, "geometry": { "type": "Point", "coordinates": [ -2.185125968247968, 53.538321219941963 ] } },
{ "type": "Feature", "properties": { "max_height": 0.2675018310546875, "mean_height": 0.030386606231331825, "std_height": 0.066392295062541962, "count_pixels": 36, "percent_cover": 0.18947368421052629, "percent_above_0.1m": 11.111111111111111, "low_level_<0.5": 8.3333333333333321, "mid_level_0.5-2": 0.0, "tall_2+": 0.0 }, "geometry": { "type": "Point", "coordinates": [ -2.184916894378169, 53.538321543598983 ] } },
{ "type": "Feature", "properties": { "max_height": 6.5710067749023438, "mean_height": 3.3454489707946777, "std_height": 2.5892460346221924, "count_pixels": 40, "percent_cover": 0.21052631578947367, "percent_above_0.1m": 82.5, "low_level_<0.5": 2.5, "mid_level_0.5-2": 12.5, "tall_2+": 62.5 }, "geometry": { "type": "Point", "coordinates": [ -2.184707820410588, 53.538321866944493 ] } },
{ "type": "Feature", "properties": { "max_height": 0.8612518310546875, "mean_height": 0.051815684884786606, "std_height": 0.16227069497108459, "count_pixels": 41, "percent_cover": 0.21578947368421053, "percent_above_0.1m": 9.7560975609756095, "low_level_<0.5": 4.8780487804878048, "mid_level_0.5-2": 4.8780487804878048, "tall_2+": 0.0 }, "geometry": { "type": "Point", "coordinates": [ -2.184498746319963, 53.538322190005189 ] } },
{ "type": "Feature", "properties": { "max_height": 6.4745101928710938, "mean_height": 1.7456421852111816, "std_height": 2.4077138900756836, "count_pixels": 42, "percent_cover": 0.22105263157894736, "percent_above_0.1m": 64.285714285714292, "low_level_<0.5": 16.666666666666664, "mid_level_0.5-2": 16.666666666666664, "tall_2+": 28.571428571428569 }, "geometry": { "type": "Point", "coordinates": [ -2.184289672209185, 53.538322512704845 ] } },
{ "type": "Feature", "properties": { "max_height": 6.7217559814453125, "mean_height": 3.6303086280822754, "std_height": 2.6623966693878174, "count_pixels": 43, "percent_cover": 0.22631578947368419, "percent_above_0.1m": 81.395348837209298, "low_level_<0.5": 6.9767441860465116, "mid_level_0.5-2": 6.9767441860465116, "tall_2+": 67.441860465116278 }, "geometry": { "type": "Point", "coordinates": [ -2.184603754777858, 53.538429888514798 ] } },
{ "type": "Feature", "properties": { "max_height": 4.0162506103515625, "mean_height": 0.11067835241556168, "std_height": 0.61296719312667847, "count_pixels": 42, "percent_cover": 0.22105263157894736, "percent_above_0.1m": 9.5238095238095237, "low_level_<0.5": 4.7619047619047619, "mid_level_0.5-2": 0.0, "tall_2+": 2.3809523809523809 }, "geometry": { "type": "Point", "coordinates": [ -2.184394680101378, 53.538430211388018 ] } },
{ "type": "Feature", "properties": { "max_height": 5.9055099487304688, "mean_height": 0.76879644393920898, "std_height": 1.6169670820236206, "count_pixels": 42, "percent_cover": 0.22105263157894736, "percent_above_0.1m": 26.190476190476193, "low_level_<0.5": 0.0, "mid_level_0.5-2": 11.904761904761903, "tall_2+": 14.285714285714285 }, "geometry": { "type": "Point", "coordinates": [ -2.184185605420656, 53.538430533895621 ] } },
{ "type": "Feature", "properties": { "max_height": 6.4197540283203125, "mean_height": 0.88893306255340576, "std_height": 1.8631044626235962, "count_pixels": 42, "percent_cover": 0.22105263157894736, "percent_above_0.1m": 35.714285714285715, "low_level_<0.5": 11.904761904761903, "mid_level_0.5-2": 7.1428571428571423, "tall_2+": 16.666666666666664 }, "geometry": { "type": "Point", "coordinates": [ -2.183976530735681, 53.538430856037593 ] } },
{ "type": "Feature", "properties": { "max_height": 6.6397552490234375, "mean_height": 2.9826147556304932, "std_height": 2.7851128578186035, "count_pixels": 41, "percent_cover": 0.21578947368421053, "percent_above_0.1m": 68.292682926829272, "low_level_<0.5": 7.3170731707317067, "mid_level_0.5-2": 7.3170731707317067, "tall_2+": 53.658536585365859 }, "geometry": { "type": "Point", "coordinates": [ -2.184499688563516, 53.538537909987113 ] } },
{ "type": "Feature", "properties": { "max_height": 0.2310028076171875, "mean_height": 0.01052202470600605, "std_height": 0.045568257570266724, "count_pixels": 42, "percent_cover": 0.22105263157894736, "percent_above_0.1m": 4.7619047619047619, "low_level_<0.5": 4.7619047619047619, "mid_level_0.5-2": 0.0, "tall_2+": 0.0 }, "geometry": { "type": "Point", "coordinates": [ -2.184290613317081, 53.538538232668294 ] } },
{ "type": "Feature", "properties": { "max_height": 0.759002685546875, "mean_height": 0.04306502640247345, "std_height": 0.15000875294208527, "count_pixels": 42, "percent_cover": 0.22105263157894736, "percent_above_0.1m": 9.5238095238095237, "low_level_<0.5": 4.7619047619047619, "mid_level_0.5-2": 4.7619047619047619, "tall_2+": 0.0 }, "geometry": { "type": "Point", "coordinates": [ -2.1840815380664, 53.538538554983802 ] } },
{ "type": "Feature", "properties": { "max_height": 6.5487518310546875, "mean_height": 1.5594758987426758, "std_height": 2.4249997138977051, "count_pixels": 42, "percent_cover": 0.22105263157894736, "percent_above_0.1m": 45.238095238095241, "low_level_<0.5": 14.285714285714285, "mid_level_0.5-2": 2.3809523809523809, "tall_2+": 28.571428571428569 }, "geometry": { "type": "Point", "coordinates": [ -2.184395621783451, 53.538645931356896 ] } },
{ "type": "Feature", "properties": { "max_height": 15.144760131835938, "mean_height": 1.1496477127075195, "std_height": 3.2713291645050049, "count_pixels": 42, "percent_cover": 0.22105263157894736, "percent_above_0.1m": 26.190476190476193, "low_level_<0.5": 11.904761904761903, "mid_level_0.5-2": 0.0, "tall_2+": 14.285714285714285 }, "geometry": { "type": "Point", "coordinates": [ -2.18418654596706, 53.538646253845975 ] } },
{ "type": "Feature", "properties": { "max_height": 12.564506530761719, "mean_height": 0.82635587453842163, "std_height": 2.3144392967224121, "count_pixels": 42, "percent_cover": 0.22105263157894736, "percent_above_0.1m": 35.714285714285715, "low_level_<0.5": 11.904761904761903, "mid_level_0.5-2": 14.285714285714285, "tall_2+": 9.5238095238095237 }, "geometry": { "type": "Point", "coordinates": [ -2.183977470146425, 53.53864657596943 ] } },
{ "type": "Feature", "properties": { "max_height": 15.304000854492188, "mean_height": 1.6289395093917847, "std_height": 3.1386690139770508, "count_pixels": 42, "percent_cover": 0.22105263157894736, "percent_above_0.1m": 69.047619047619051, "low_level_<0.5": 16.666666666666664, "mid_level_0.5-2": 26.190476190476193, "tall_2+": 19.047619047619047 }, "geometry": { "type": "Point", "coordinates": [ -2.184291554437657, 53.538753952624084 ] } },
{ "type": "Feature", "properties": { "max_height": 23.543006896972656, "mean_height": 17.934019088745117, "std_height": 3.2559096813201904, "count_pixels": 42, "percent_cover": 0.22105263157894736, "percent_above_0.1m": 100.0, "low_level_<0.5": 0.0, "mid_level_0.5-2": 0.0, "tall_2+": 100.0 }, "geometry": { "type": "Point", "coordinates": [ -2.184082478051309, 53.538754274921104 ] } },
{ "type": "Feature", "properties": { "max_height": 20.333251953125, "mean_height": 2.3354811668395996, "std_height": 4.8879919052124023, "count_pixels": 42, "percent_cover": 0.22105263157894736, "percent_above_0.1m": 42.857142857142854, "low_level_<0.5": 14.285714285714285, "mid_level_0.5-2": 2.3809523809523809, "tall_2+": 21.428571428571427 }, "geometry": { "type": "Point", "coordinates": [ -2.183873401660716, 53.538754596852492 ] } },
{ "type": "Feature", "properties": { "max_height": 16.095504760742188, "mean_height": 3.3517379760742188, "std_height": 4.1373519897460938, "count_pixels": 44, "percent_cover": 0.23157894736842108, "percent_above_0.1m": 70.454545454545453, "low_level_<0.5": 6.8181818181818175, "mid_level_0.5-2": 13.636363636363635, "tall_2+": 50.0 }, "geometry": { "type": "Point", "coordinates": [ -2.18366432526589, 53.53875491841827 ] } },
{ "type": "Feature", "properties": { "max_height": 21.826255798339844, "mean_height": 10.087255477905273, "std_height": 7.3388195037841797, "count_pixels": 44, "percent_cover": 0.23157894736842108, "percent_above_0.1m": 93.181818181818173, "low_level_<0.5": 0.0, "mid_level_0.5-2": 15.909090909090908, "tall_2+": 77.272727272727266 }, "geometry": { "type": "Point", "coordinates": [ -2.183455248866824, 53.538755239618418 ] } },
{ "type": "Feature", "properties": { "max_height": 20.83551025390625, "mean_height": 5.207308292388916, "std_height": 5.1738343238830566, "count_pixels": 42, "percent_cover": 0.22105263157894736, "percent_above_0.1m": 88.095238095238088, "low_level_<0.5": 7.1428571428571423, "mid_level_0.5-2": 14.285714285714285, "tall_2+": 64.285714285714292 }, "geometry": { "type": "Point", "coordinates": [ -2.184187486526139, 53.53886197378872 ] } },
{ "type": "Feature", "properties": { "max_height": 24.715744018554688, "mean_height": 5.9632363319396973, "std_height": 7.2851390838623047, "count_pixels": 42, "percent_cover": 0.22105263157894736, "percent_above_0.1m": 59.523809523809526, "low_level_<0.5": 2.3809523809523809, "mid_level_0.5-2": 4.7619047619047619, "tall_2+": 52.380952380952387 }, "geometry": { "type": "Point", "coordinates": [ -2.183978409569828, 53.538862295893665 ] } },
{ "type": "Feature", "properties": { "max_height": 21.066505432128906, "mean_height": 8.9401493072509766, "std_height": 7.0962986946105957, "count_pixels": 40, "percent_cover": 0.21052631578947367, "percent_above_0.1m": 85.0, "low_level_<0.5": 5.0, "mid_level_0.5-2": 7.5, "tall_2+": 72.5 }, "geometry": { "type": "Point", "coordinates": [ -2.18376933260928, 53.538862617632979 ] } },
{ "type": "Feature", "properties": { "max_height": 23.253509521484375, "mean_height": 12.76830005645752, "std_height": 6.2335686683654785, "count_pixels": 40, "percent_cover": 0.21052631578947367, "percent_above_0.1m": 100.0, "low_level_<0.5": 0.0, "mid_level_0.5-2": 0.0, "tall_2+": 97.5 }, "geometry": { "type": "Point", "coordinates": [ -2.18356025564449, 53.538862939006677 ] } },
{ "type": "Feature", "properties": { "max_height": 19.455001831054688, "mean_height": 8.7125530242919922, "std_height": 6.6741371154785156, "count_pixels": 36, "percent_cover": 0.18947368421052629, "percent_above_0.1m": 88.888888888888886, "low_level_<0.5": 0.0, "mid_level_0.5-2": 5.5555555555555554, "tall_2+": 83.333333333333343 }, "geometry": { "type": "Point", "coordinates": [ -2.183351178675474, 53.538863260014757 ] } },
{ "type": "Feature", "properties": { "max_height": 6.4192581176757812, "mean_height": 3.521613597869873, "std_height": 2.5612494945526123, "count_pixels": 42, "percent_cover": 0.22105263157894736, "percent_above_0.1m": 80.952380952380949, "low_level_<0.5": 7.1428571428571423, "mid_level_0.5-2": 7.1428571428571423, "tall_2+": 66.666666666666657 }, "geometry": { "type": "Point", "coordinates": [ -2.184083418048887, 53.53896999485076 ] } },
{ "type": "Feature", "properties": { "max_height": 20.530754089355469, "mean_height": 6.8488507270812988, "std_height": 7.3275952339172363, "count_pixels": 42, "percent_cover": 0.22105263157894736, "percent_above_0.1m": 64.285714285714292, "low_level_<0.5": 4.7619047619047619, "mid_level_0.5-2": 2.3809523809523809, "tall_2+": 57.142857142857139 }, "geometry": { "type": "Point", "coordinates": [ -2.18387434052261, 53.538970316763631 ] } },
{ "type": "Feature", "properties": { "max_height": 20.523750305175781, "mean_height": 9.2810001373291016, "std_height": 6.6487865447998047, "count_pixels": 44, "percent_cover": 0.23157894736842108, "percent_above_0.1m": 88.63636363636364, "low_level_<0.5": 0.0, "mid_level_0.5-2": 9.0909090909090917, "tall_2+": 79.545454545454547 }, "geometry": { "type": "Point", "coordinates": [ -2.183665262992099, 53.538970638310893 ] } },
{ "type": "Feature", "properties": { "max_height": 10.516006469726562, "mean_height": 1.3121174573898315, "std_height": 2.8887312412261963, "count_pixels": 44, "percent_cover": 0.23157894736842108, "percent_above_0.1m": 29.545454545454547, "low_level_<0.5": 9.0909090909090917, "mid_level_0.5-2": 2.2727272727272729, "tall_2+": 18.181818181818183 }, "geometry": { "type": "Point", "coordinates": [ -2.183456185457354, 53.538970959492516 ] } },
{ "type": "Feature", "properties": { "max_height": 6.6097564697265625, "mean_height": 2.7939314842224121, "std_height": 2.8285315036773682, "count_pixels": 44, "percent_cover": 0.23157894736842108, "percent_above_0.1m": 65.909090909090907, "low_level_<0.5": 6.8181818181818175, "mid_level_0.5-2": 6.8181818181818175, "tall_2+": 47.727272727272727 }, "geometry": { "type": "Point", "coordinates": [ -2.183247107918376, 53.538971280308523 ] } },
{ "type": "Feature", "properties": { "max_height": 6.126251220703125, "mean_height": 1.0135293006896973, "std_height": 1.7008233070373535, "count_pixels": 42, "percent_cover": 0.22105263157894736, "percent_above_0.1m": 61.904761904761905, "low_level_<0.5": 23.809523809523807, "mid_level_0.5-2": 19.047619047619047, "tall_2+": 16.666666666666664 }, "geometry": { "type": "Point", "coordinates": [ -2.183979349005895, 53.53907801581024 ] } },
{ "type": "Feature", "properties": { "max_height": 6.5447540283203125, "mean_height": 1.6041425466537476, "std_height": 2.0272476673126221, "count_pixels": 40, "percent_cover": 0.21052631578947367, "percent_above_0.1m": 72.5, "low_level_<0.5": 22.5, "mid_level_0.5-2": 25.0, "tall_2+": 25.0 }, "geometry": { "type": "Point", "coordinates": [ -2.183770270909653, 53.539078337531052 ] } },
{ "type": "Feature", "properties": { "max_height": 6.5327606201171875, "mean_height": 3.1908984184265137, "std_height": 2.7081835269927979, "count_pixels": 40, "percent_cover": 0.21052631578947367, "percent_above_0.1m": 87.5, "low_level_<0.5": 12.5, "mid_level_0.5-2": 17.5, "tall_2+": 55.000000000000007 }, "geometry": { "type": "Point", "coordinates": [ -2.183561192809176, 53.539078658886226 ] } },
{ "type": "Feature", "properties": { "max_height": 12.654510498046875, "mean_height": 5.9471368789672852, "std_height": 4.3822417259216309, "count_pixels": 36, "percent_cover": 0.18947368421052629, "percent_above_0.1m": 83.333333333333343, "low_level_<0.5": 2.7777777777777777, "mid_level_0.5-2": 8.3333333333333321, "tall_2+": 72.222222222222214 }, "geometry": { "type": "Point", "coordinates": [ -2.183352114704466, 53.539078979875782 ] } },
{ "type": "Feature", "properties": { "max_height": 12.241508483886719, "mean_height": 3.1506361961364746, "std_height": 3.7143330574035645, "count_pixels": 40, "percent_cover": 0.21052631578947367, "percent_above_0.1m": 65.0, "low_level_<0.5": 7.5, "mid_level_0.5-2": 7.5, "tall_2+": 45.0 }, "geometry": { "type": "Point", "coordinates": [ -2.183143036595535, 53.539079300499708 ] } },
{ "type": "Feature", "properties": { "max_height": 10.224510192871094, "mean_height": 2.6155390739440918, "std_height": 2.846839427947998, "count_pixels": 44, "percent_cover": 0.23157894736842108, "percent_above_0.1m": 65.909090909090907, "low_level_<0.5": 6.8181818181818175, "mid_level_0.5-2": 4.5454545454545459, "tall_2+": 47.727272727272727 }, "geometry": { "type": "Point", "coordinates": [ -2.183457122060505, 53.539186679358991 ] } },
{ "type": "Feature", "properties": { "max_height": 12.935752868652344, "mean_height": 2.3627722263336182, "std_height": 4.1187863349914551, "count_pixels": 44, "percent_cover": 0.23157894736842108, "percent_above_0.1m": 40.909090909090914, "low_level_<0.5": 4.5454545454545459, "mid_level_0.5-2": 9.0909090909090917, "tall_2+": 25.0 }, "geometry": { "type": "Point", "coordinates": [ -2.183248043385827, 53.539187000156474 ] } }
]
}
