{
"type": "FeatureCollection",
"name": "169c6f3f7fef_foliage",
"crs": { "type": "name", "properties": { "name": "urn:ogc:def:crs:OGC:1.3:CRS84" } },
"features": [
{ "type": "Feature", "properties": { "max_height": 1.376251220703125, "mean_height": 0.1695883572101593, "std_height": 0.32826521992683411, "count_pixels": 42, "percent_cover": 1.1314655172413792, "percent_above_0.1m": 28.571428571428569, "low_level_<0.5": 11.904761904761903, "mid_level_0.5-2": 14.285714285714285, "tall_2+": 0.0 }, "geometry": { "type": "Point", "coordinates": [ -2.17486151975328, 53.547017115761754 ] } },
{ "type": "Feature", "properties": { "max_height": 0.74800872802734375, "mean_height": 0.15510576963424683, "std_height": 0.21631687879562378, "count_pixels": 42, "percent_cover": 1.1314655172413792, "percent_above_0.1m": 35.714285714285715, "low_level_<0.5": 19.047619047619047, "mid_level_0.5-2": 14.285714285714285, "tall_2+": 0.0 }, "geometry": { "type": "Point", "coordinates": [ -2.174652400547742, 53.547017421207691 ] } },
{ "type": "Feature", "properties": { "max_height": 6.7232589721679688, "mean_height": 0.6524512767791748, "std_height": 1.4357109069824219, "count_pixels": 42, "percent_cover": 1.1314655172413792, "percent_above_0.1m": 38.095238095238095, "low_level_<0.5": 16.666666666666664, "mid_level_0.5-2": 4.7619047619047619, "tall_2+": 14.285714285714285 }, "geometry": { "type": "Point", "coordinates": [ -2.174443281338279, 53.547017726287955 ] } },
{ "type": "Feature", "properties": { "max_height": 1.7550048828125, "mean_height": 0.044974371790885925, "std_height": 0.26730945706367493, "count_pixels": 42, "percent_cover": 1.1314655172413792, "percent_above_0.1m": 2.3809523809523809, "low_level_<0.5": 0.0, "mid_level_0.5-2": 2.3809523809523809, "tall_2+": 0.0 }, "geometry": { "type": "Point", "coordinates": [ -2.174234162124893, 53.547018031002523 ] } },
{ "type": "Feature", "properties": { "max_height": 1.4825057983398438, "mean_height": 0.064254201948642731, "std_height": 0.27891212701797485, "count_pixels": 41, "percent_cover": 1.1045258620689655, "percent_above_0.1m": 4.8780487804878048, "low_level_<0.5": 0.0, "mid_level_0.5-2": 4.8780487804878048, "tall_2+": 0.0 }, "geometry": { "type": "Point", "coordinates": [ -2.174025042907594, 53.547018335351417 ] } },
{ "type": "Feature", "properties": { "max_height": 1.9935073852539062, "mean_height": 0.11225491762161255, "std_height": 0.41458088159561157, "count_pixels": 42, "percent_cover": 1.1314655172413792, "percent_above_0.1m": 9.5238095238095237, "low_level_<0.5": 0.0, "mid_level_0.5-2": 7.1428571428571423, "tall_2+": 0.0 }, "geometry": { "type": "Point", "coordinates": [ -2.173815923686383, 53.547018639334638 ] } },
{ "type": "Feature", "properties": { "max_height": 2.2562484741210938, "mean_height": 0.080926984548568726, "std_height": 0.36462774872779846, "count_pixels": 42, "percent_cover": 1.1314655172413792, "percent_above_0.1m": 4.7619047619047619, "low_level_<0.5": 0.0, "mid_level_0.5-2": 2.3809523809523809, "tall_2+": 2.3809523809523809 }, "geometry": { "type": "Point", "coordinates": [ -2.174966524606949, 53.547124821761258 ] } },
{ "type": "Feature", "properties": { "max_height": 6.3390121459960938, "mean_height": 0.63073229789733887, "std_height": 1.4480172395706177, "count_pixels": 41, "percent_cover": 1.1045258620689655, "percent_above_0.1m": 21.951219512195124, "low_level_<0.5": 0.0, "mid_level_0.5-2": 12.195121951219512, "tall_2+": 9.7560975609756095 }, "geometry": { "type": "Point", "coordinates": [ -2.174757404852341, 53.547125127389464 ] } },
{ "type": "Feature", "properties": { "max_height": 0.0205078125, "mean_height": 0.0024277823977172375, "std_height": 0.0067397751845419407, "count_pixels": 42, "percent_cover": 1.1314655172413792, "percent_above_0.1m": 0.0, "low_level_<0.5": 0.0, "mid_level_0.5-2": 0.0, "tall_2+": 0.0 }, "geometry": { "type": "Point", "coordinates": [ -2.174548285093798, 53.547125432652003 ] } },
{ "type": "Feature", "properties": { "max_height": 2.5279998779296875, "mean_height": 0.093445733189582825, "std_height": 0.40459313988685608, "count_pixels": 42, "percent_cover": 1.1314655172413792, "percent_above_0.1m": 7.1428571428571423, "low_level_<0.5": 0.0, "mid_level_0.5-2": 4.7619047619047619, "tall_2+": 2.3809523809523809 }, "geometry": { "type": "Point", "coordinates": [ -2.17433916533134, 53.547125737548832 ] } },
{ "type": "Feature", "properties": { "max_height": 6.5552520751953125, "mean_height": 0.72494542598724365, "std_height": 1.6044808626174927, "count_pixels": 42, "percent_cover": 1.1314655172413792, "percent_above_0.1m": 26.190476190476193, "low_level_<0.5": 2.3809523809523809, "mid_level_0.5-2": 11.904761904761903, "tall_2+": 11.904761904761903 }, "geometry": { "type": "Point", "coordinates": [ -2.174130045564959, 53.547126042080016 ] } },
{ "type": "Feature", "properties": { "max_height": 0.32324981689453125, "mean_height": 0.01283881813287735, "std_height": 0.049875810742378235, "count_pixels": 42, "percent_cover": 1.1314655172413792, "percent_above_0.1m": 2.3809523809523809, "low_level_<0.5": 2.3809523809523809, "mid_level_0.5-2": 0.0, "tall_2+": 0.0 }, "geometry": { "type": "Point", "coordinates": [ -2.17392092579467, 53.547126346245498 ] } },
{ "type": "Feature", "properties": { "max_height": 2.0235061645507812, "mean_height": 0.096380323171615601, "std_height": 0.32882264256477356, "count_pixels": 42, "percent_cover": 1.1314655172413792, "percent_above_0.1m": 11.904761904761903, "low_level_<0.5": 7.1428571428571423, "mid_level_0.5-2": 2.3809523809523809, "tall_2+": 2.3809523809523809 }, "geometry": { "type": "Point", "coordinates": [ -2.174862409709925, 53.547232833478418 ] } },
{ "type": "Feature", "properties": { "max_height": 0.2480010986328125, "mean_height": 0.01372491754591465, "std_height": 0.037800729274749756, "count_pixels": 42, "percent_cover": 1.1314655172413792, "percent_above_0.1m": 2.3809523809523809, "low_level_<0.5": 2.3809523809523809, "mid_level_0.5-2": 0.0, "tall_2+": 0.0 }, "geometry": { "type": "Point", "coordinates": [ -2.174653289402311, 53.547233138923218 ] } },
{ "type": "Feature", "properties": { "max_height": 0.051513671875, "mean_height": 0.0059218634851276875, "std_height": 0.01062882412225008, "count_pixels": 42, "percent_cover": 1.1314655172413792, "percent_above_0.1m": 0.0, "low_level_<0.5": 0.0, "mid_level_0.5-2": 0.0, "tall_2+": 0.0 }, "geometry": { "type": "Point", "coordinates": [ -2.174444169090768, 53.547233444002352 ] } },
{ "type": "Feature", "properties": { "max_height": 7.857513427734375, "mean_height": 1.5816061496734619, "std_height": 2.2879266738891602, "count_pixels": 42, "percent_cover": 1.1314655172413792, "percent_above_0.1m": 52.380952380952387, "low_level_<0.5": 9.5238095238095237, "mid_level_0.5-2": 14.285714285714285, "tall_2+": 28.571428571428569 }, "geometry": { "type": "Point", "coordinates": [ -2.174235048775314, 53.54723374871579 ] } },
{ "type": "Feature", "properties": { "max_height": 1.1617584228515625, "mean_height": 0.10451731085777283, "std_height": 0.2659602165222168, "count_pixels": 41, "percent_cover": 1.1045258620689655, "percent_above_0.1m": 17.073170731707318, "low_level_<0.5": 7.3170731707317067, "mid_level_0.5-2": 7.3170731707317067, "tall_2+": 0.0 }, "geometry": { "type": "Point", "coordinates": [ -2.174025928455934, 53.547234053063548 ] } },
{ "type": "Feature", "properties": { "max_height": 5.3795013427734375, "mean_height": 1.0332368612289429, "std_height": 1.6417257785797119, "count_pixels": 42, "percent_cover": 1.1314655172413792, "percent_above_0.1m": 42.857142857142854, "low_level_<0.5": 7.1428571428571423, "mid_level_0.5-2": 9.5238095238095237, "tall_2+": 23.809523809523807 }, "geometry": { "type": "Point", "coordinates": [ -2.173816808132653, 53.547234357045646 ] } },
{ "type": "Feature", "properties": { "max_height": 5.2582550048828125, "mean_height": 1.2914570569992065, "std_height": 1.4519126415252686, "count_pixels": 41, "percent_cover": 1.1045258620689655, "percent_above_0.1m": 60.975609756097562, "low_level_<0.5": 4.8780487804878048, "mid_level_0.5-2": 24.390243902439025, "tall_2+": 31.707317073170731 }, "geometry": { "type": "Point", "coordinates": [ -2.174758294263811, 53.547340845101651 ] } },
{ "type": "Feature", "properties": { "max_height": 4.0502548217773438, "mean_height": 0.26469531655311584, "std_height": 0.82800310850143433, "count_pixels": 42, "percent_cover": 1.1314655172413792, "percent_above_0.1m": 14.285714285714285, "low_level_<0.5": 2.3809523809523809, "mid_level_0.5-2": 2.3809523809523809, "tall_2+": 7.1428571428571423 }, "geometry": { "type": "Point", "coordinates": [ -2.174549173403191, 53.54734115036306 ] } },
{ "type": "Feature", "properties": { "max_height": 0.943756103515625, "mean_height": 0.03085763193666935, "std_height": 0.14470924437046051, "count_pixels": 42, "percent_cover": 1.1314655172413792, "percent_above_0.1m": 4.7619047619047619, "low_level_<0.5": 2.3809523809523809, "mid_level_0.5-2": 2.3809523809523809, "tall_2+": 0.0 }, "geometry": { "type": "Point", "coordinates": [ -2.174340052538651, 53.547341455258788 ] } },
{ "type": "Feature", "properties": { "max_height": 0.3725128173828125, "mean_height": 0.014386131428182125, "std_height": 0.063257001340389252, "count_pixels": 42, "percent_cover": 1.1314655172413792, "percent_above_0.1m": 4.7619047619047619, "low_level_<0.5": 4.7619047619047619, "mid_level_0.5-2": 0.0, "tall_2+": 0.0 }, "geometry": { "type": "Point", "coordinates": [ -2.17413093167019, 53.547341759788807 ] } },
{ "type": "Feature", "properties": { "max_height": 3.6697540283203125, "mean_height": 0.24542109668254852, "std_height": 0.62748122215270996, "count_pixels": 42, "percent_cover": 1.1314655172413792, "percent_above_0.1m": 26.190476190476193, "low_level_<0.5": 7.1428571428571423, "mid_level_0.5-2": 16.666666666666664, "tall_2+": 2.3809523809523809 }, "geometry": { "type": "Point", "coordinates": [ -2.173921810797819, 53.54734206395316 ] } },
{ "type": "Feature", "properties": { "max_height": 12.218757629394531, "mean_height": 4.6871299743652344, "std_height": 3.90299391746521, "count_pixels": 42, "percent_cover": 1.1314655172413792, "percent_above_0.1m": 83.333333333333343, "low_level_<0.5": 4.7619047619047619, "mid_level_0.5-2": 19.047619047619047, "tall_2+": 59.523809523809526 }, "geometry": { "type": "Point", "coordinates": [ -2.174654178268606, 53.547448856630965 ] } },
{ "type": "Feature", "properties": { "max_height": 6.6752548217773438, "mean_height": 0.68605858087539673, "std_height": 1.5614428520202637, "count_pixels": 42, "percent_cover": 1.1314655172413792, "percent_above_0.1m": 26.190476190476193, "low_level_<0.5": 4.7619047619047619, "mid_level_0.5-2": 7.1428571428571423, "tall_2+": 14.285714285714285 }, "geometry": { "type": "Point", "coordinates": [ -2.174445056854981, 53.547449161708961 ] } },
{ "type": "Feature", "properties": { "max_height": 7.701507568359375, "mean_height": 0.28439220786094666, "std_height": 1.2125470638275146, "count_pixels": 42, "percent_cover": 1.1314655172413792, "percent_above_0.1m": 9.5238095238095237, "low_level_<0.5": 0.0, "mid_level_0.5-2": 7.1428571428571423, "tall_2+": 2.3809523809523809 }, "geometry": { "type": "Point", "coordinates": [ -2.174235935437432, 53.54744946642127 ] } },
{ "type": "Feature", "properties": { "max_height": 11.900260925292969, "mean_height": 4.2724623680114746, "std_height": 3.4914851188659668, "count_pixels": 41, "percent_cover": 1.1045258620689655, "percent_above_0.1m": 82.926829268292678, "low_level_<0.5": 0.0, "mid_level_0.5-2": 19.512195121951219, "tall_2+": 60.975609756097562 }, "geometry": { "type": "Point", "coordinates": [ -2.174026814015971, 53.547449770767912 ] } },
{ "type": "Feature", "properties": { "max_height": 7.0807571411132812, "mean_height": 1.8817670345306396, "std_height": 2.3685543537139893, "count_pixels": 42, "percent_cover": 1.1314655172413792, "percent_above_0.1m": 47.619047619047613, "low_level_<0.5": 2.3809523809523809, "mid_level_0.5-2": 9.5238095238095237, "tall_2+": 35.714285714285715 }, "geometry": { "type": "Point", "coordinates": [ -2.174550061724312, 53.547556868066351 ] } },
{ "type": "Feature", "properties": { "max_height": 6.5912551879882812, "mean_height": 1.8096535205841064, "std_height": 2.1025621891021729, "count_pixels": 42, "percent_cover": 1.1314655172413792, "percent_above_0.1m": 61.904761904761905, "low_level_<0.5": 4.7619047619047619, "mid_level_0.5-2": 21.428571428571427, "tall_2+": 35.714285714285715 }, "geometry": { "type": "Point", "coordinates": [ -2.174340939757672, 53.547557172960943 ] } },
{ "type": "Feature", "properties": { "max_height": 7.2125015258789062, "mean_height": 1.099272608757019, "std_height": 1.982390284538269, "count_pixels": 42, "percent_cover": 1.1314655172413792, "percent_above_0.1m": 35.714285714285715, "low_level_<0.5": 4.7619047619047619, "mid_level_0.5-2": 9.5238095238095237, "tall_2+": 19.047619047619047 }, "geometry": { "type": "Point", "coordinates": [ -2.174131817787117, 53.547557477489846 ] } },
{ "type": "Feature", "properties": { "max_height": 5.5232620239257812, "mean_height": 0.4730457067489624, "std_height": 1.185847282409668, "count_pixels": 42, "percent_cover": 1.1314655172413792, "percent_above_0.1m": 26.190476190476193, "low_level_<0.5": 11.904761904761903, "mid_level_0.5-2": 7.1428571428571423, "tall_2+": 7.1428571428571423 }, "geometry": { "type": "Point", "coordinates": [ -2.174445944630907, 53.547664879407805 ] } },
{ "type": "Feature", "properties": { "max_height": 2.8987579345703125, "mean_height": 0.1428629606962204, "std_height": 0.49284842610359192, "count_pixels": 42, "percent_cover": 1.1314655172413792, "percent_above_0.1m": 11.904761904761903, "low_level_<0.5": 4.7619047619047619, "mid_level_0.5-2": 4.7619047619047619, "tall_2+": 2.3809523809523809 }, "geometry": { "type": "Point", "coordinates": [ -2.174236822111264, 53.547665184118976 ] } },
{ "type": "Feature", "properties": { "max_height": 3.555755615234375, "mean_height": 0.26733547449111938, "std_height": 0.70141524076461792, "count_pixels": 41, "percent_cover": 1.1045258620689655, "percent_above_0.1m": 17.073170731707318, "low_level_<0.5": 0.0, "mid_level_0.5-2": 12.195121951219512, "tall_2+": 2.4390243902439024 }, "geometry": { "type": "Point", "coordinates": [ -2.174027699587694, 53.54766548846446 ] } },
{ "type": "Feature", "properties": { "max_height": 1.0380020141601562, "mean_height": 0.0518195740878582, "std_height": 0.16263659298419952, "count_pixels": 42, "percent_cover": 1.1314655172413792, "percent_above_0.1m": 11.904761904761903, "low_level_<0.5": 7.1428571428571423, "mid_level_0.5-2": 2.3809523809523809, "tall_2+": 0.0 }, "geometry": { "type": "Point", "coordinates": [ -2.174341826988405, 53.547772890655317 ] } },
{ "type": "Feature", "properties": { "max_height": 11.682754516601562, "mean_height": 2.7070231437683105, "std_height": 3.7006113529205322, "count_pixels": 42, "percent_cover": 1.1314655172413792, "percent_above_0.1m": 45.238095238095241, "low_level_<0.5": 0.0, "mid_level_0.5-2": 7.1428571428571423, "tall_2+": 38.095238095238095 }, "geometry": { "type": "Point", "coordinates": [ -2.174132703915739, 53.547773195183083 ] } }
]
}
