{
"type": "FeatureCollection",
"name": "9d0f01bc00fd_foliage",
"crs": { "type": "name", "properties": { "name": "urn:ogc:def:crs:OGC:1.3:CRS84" } },
"features": [
{ "type": "Feature", "properties": { "max_height": 4.0987548828125, "mean_height": 1.264941930770874, "std_height": 1.2222741842269897, "count_pixels": 42, "percent_cover": 1.0276486420357229, "percent_above_0.1m": 76.19047619047619, "low_level_<0.5": 11.904761904761903, "mid_level_0.5-2": 42.857142857142854, "tall_2+": 21.428571428571427 }, "geometry": { "type": "Point", "coordinates": [ -2.215735369789341, 53.626088042938839 ] } },
{ "type": "Feature", "properties": { "max_height": 3.675994873046875, "mean_height": 0.35782769322395325, "std_height": 0.64676809310913086, "count_pixels": 42, "percent_cover": 1.0276486420357229, "percent_above_0.1m": 52.380952380952387, "low_level_<0.5": 21.428571428571427, "mid_level_0.5-2": 19.047619047619047, "tall_2+": 2.3809523809523809 }, "geometry": { "type": "Point", "coordinates": [ -2.215525863940498, 53.626088420939709 ] } },
{ "type": "Feature", "properties": { "max_height": 0.5882568359375, "mean_height": 0.01710946299135685, "std_height": 0.091494806110858917, "count_pixels": 42, "percent_cover": 1.0276486420357229, "percent_above_0.1m": 4.7619047619047619, "low_level_<0.5": 0.0, "mid_level_0.5-2": 2.3809523809523809, "tall_2+": 0.0 }, "geometry": { "type": "Point", "coordinates": [ -2.215316358086787, 53.626088798573832 ] } },
{ "type": "Feature", "properties": { "max_height": 16.751998901367188, "mean_height": 4.5395913124084473, "std_height": 5.4532694816589355, "count_pixels": 42, "percent_cover": 1.0276486420357229, "percent_above_0.1m": 59.523809523809526, "low_level_<0.5": 0.0, "mid_level_0.5-2": 7.1428571428571423, "tall_2+": 52.380952380952387 }, "geometry": { "type": "Point", "coordinates": [ -2.215106852228207, 53.626089175841209 ] } },
{ "type": "Feature", "properties": { "max_height": 7.65325927734375, "mean_height": 1.3270940780639648, "std_height": 1.9924770593643188, "count_pixels": 41, "percent_cover": 1.0031808172253487, "percent_above_0.1m": 63.414634146341463, "low_level_<0.5": 12.195121951219512, "mid_level_0.5-2": 24.390243902439025, "tall_2+": 24.390243902439025 }, "geometry": { "type": "Point", "coordinates": [ -2.214478334623325, 53.626090305442801 ] } },
{ "type": "Feature", "properties": { "max_height": 4.76300048828125, "mean_height": 1.3383709192276001, "std_height": 1.1744705438613892, "count_pixels": 42, "percent_cover": 1.0276486420357229, "percent_above_0.1m": 83.333333333333343, "low_level_<0.5": 14.285714285714285, "mid_level_0.5-2": 38.095238095238095, "tall_2+": 26.190476190476193 }, "geometry": { "type": "Point", "coordinates": [ -2.215631171283924, 53.626196090520097 ] } },
{ "type": "Feature", "properties": { "max_height": 6.7842559814453125, "mean_height": 0.55638360977172852, "std_height": 1.2736494541168213, "count_pixels": 38, "percent_cover": 0.92977734279422564, "percent_above_0.1m": 52.631578947368418, "low_level_<0.5": 28.947368421052634, "mid_level_0.5-2": 5.2631578947368416, "tall_2+": 10.526315789473683 }, "geometry": { "type": "Point", "coordinates": [ -2.215421664880838, 53.6261964683343 ] } },
{ "type": "Feature", "properties": { "max_height": 7.13275146484375, "mean_height": 1.2662284374237061, "std_height": 2.0597348213195801, "count_pixels": 42, "percent_cover": 1.0276486420357229, "percent_above_0.1m": 40.476190476190474, "low_level_<0.5": 4.7619047619047619, "mid_level_0.5-2": 7.1428571428571423, "tall_2+": 28.571428571428569 }, "geometry": { "type": "Point", "coordinates": [ -2.215212158472882, 53.62619684578172 ] } },
{ "type": "Feature", "properties": { "max_height": 3.0430145263671875, "mean_height": 0.25691670179367065, "std_height": 0.74452501535415649, "count_pixels": 41, "percent_cover": 1.0031808172253487, "percent_above_0.1m": 12.195121951219512, "low_level_<0.5": 0.0, "mid_level_0.5-2": 4.8780487804878048, "tall_2+": 7.3170731707317067 }, "geometry": { "type": "Point", "coordinates": [ -2.215002652060066, 53.626197222862409 ] } },
{ "type": "Feature", "properties": { "max_height": 11.527740478515625, "mean_height": 2.457007884979248, "std_height": 3.333183765411377, "count_pixels": 42, "percent_cover": 1.0276486420357229, "percent_above_0.1m": 57.142857142857139, "low_level_<0.5": 2.3809523809523809, "mid_level_0.5-2": 16.666666666666664, "tall_2+": 38.095238095238095 }, "geometry": { "type": "Point", "coordinates": [ -2.214793145642389, 53.626197599576329 ] } },
{ "type": "Feature", "properties": { "max_height": 12.050262451171875, "mean_height": 5.2264714241027832, "std_height": 3.3674607276916504, "count_pixels": 42, "percent_cover": 1.0276486420357229, "percent_above_0.1m": 97.61904761904762, "low_level_<0.5": 0.0, "mid_level_0.5-2": 19.047619047619047, "tall_2+": 78.571428571428569 }, "geometry": { "type": "Point", "coordinates": [ -2.214583639219854, 53.626197975923496 ] } },
{ "type": "Feature", "properties": { "max_height": 11.5880126953125, "mean_height": 3.6428303718566895, "std_height": 3.2193901538848877, "count_pixels": 42, "percent_cover": 1.0276486420357229, "percent_above_0.1m": 88.095238095238088, "low_level_<0.5": 2.3809523809523809, "mid_level_0.5-2": 26.190476190476193, "tall_2+": 54.761904761904766 }, "geometry": { "type": "Point", "coordinates": [ -2.214374132792476, 53.626198351903909 ] } },
{ "type": "Feature", "properties": { "max_height": 7.5122528076171875, "mean_height": 1.918054461479187, "std_height": 2.3371315002441406, "count_pixels": 42, "percent_cover": 1.0276486420357229, "percent_above_0.1m": 80.952380952380949, "low_level_<0.5": 21.428571428571427, "mid_level_0.5-2": 19.047619047619047, "tall_2+": 38.095238095238095 }, "geometry": { "type": "Point", "coordinates": [ -2.215526972229112, 53.626304138004443 ] } },
{ "type": "Feature", "properties": { "max_height": 7.1210174560546875, "mean_height": 2.2399368286132812, "std_height": 2.0156927108764648, "count_pixels": 42, "percent_cover": 1.0276486420357229, "percent_above_0.1m": 92.857142857142861, "low_level_<0.5": 19.047619047619047, "mid_level_0.5-2": 26.190476190476193, "tall_2+": 47.619047619047613 }, "geometry": { "type": "Point", "coordinates": [ -2.215317465271779, 53.626304515631929 ] } },
{ "type": "Feature", "properties": { "max_height": 6.2237548828125, "mean_height": 0.26528096199035645, "std_height": 1.0411477088928223, "count_pixels": 42, "percent_cover": 1.0276486420357229, "percent_above_0.1m": 14.285714285714285, "low_level_<0.5": 2.3809523809523809, "mid_level_0.5-2": 2.3809523809523809, "tall_2+": 4.7619047619047619 }, "geometry": { "type": "Point", "coordinates": [ -2.215107958309579, 53.626304892892676 ] } },
{ "type": "Feature", "properties": { "max_height": 5.350006103515625, "mean_height": 0.84075707197189331, "std_height": 1.4319002628326416, "count_pixels": 42, "percent_cover": 1.0276486420357229, "percent_above_0.1m": 35.714285714285715, "low_level_<0.5": 2.3809523809523809, "mid_level_0.5-2": 14.285714285714285, "tall_2+": 19.047619047619047 }, "geometry": { "type": "Point", "coordinates": [ -2.214898451342519, 53.626305269786663 ] } },
{ "type": "Feature", "properties": { "max_height": 4.072021484375, "mean_height": 0.98009711503982544, "std_height": 1.2122931480407715, "count_pixels": 42, "percent_cover": 1.0276486420357229, "percent_above_0.1m": 54.761904761904766, "low_level_<0.5": 9.5238095238095237, "mid_level_0.5-2": 19.047619047619047, "tall_2+": 26.190476190476193 }, "geometry": { "type": "Point", "coordinates": [ -2.214688944370602, 53.626305646313895 ] } },
{ "type": "Feature", "properties": { "max_height": 8.40802001953125, "mean_height": 2.974360466003418, "std_height": 2.1233456134796143, "count_pixels": 41, "percent_cover": 1.0031808172253487, "percent_above_0.1m": 100.0, "low_level_<0.5": 4.8780487804878048, "mid_level_0.5-2": 36.585365853658537, "tall_2+": 56.09756097560976 }, "geometry": { "type": "Point", "coordinates": [ -2.21447943739383, 53.62630602247436 ] } },
{ "type": "Feature", "properties": { "max_height": 10.240753173828125, "mean_height": 1.1333538293838501, "std_height": 2.1685280799865723, "count_pixels": 42, "percent_cover": 1.0276486420357229, "percent_above_0.1m": 64.285714285714292, "low_level_<0.5": 23.809523809523807, "mid_level_0.5-2": 16.666666666666664, "tall_2+": 16.666666666666664 }, "geometry": { "type": "Point", "coordinates": [ -2.214269930412215, 53.626306398268071 ] } },
{ "type": "Feature", "properties": { "max_height": 8.43975830078125, "mean_height": 3.4695212841033936, "std_height": 2.5517594814300537, "count_pixels": 38, "percent_cover": 0.92977734279422564, "percent_above_0.1m": 97.368421052631575, "low_level_<0.5": 7.8947368421052628, "mid_level_0.5-2": 18.421052631578945, "tall_2+": 68.421052631578945 }, "geometry": { "type": "Point", "coordinates": [ -2.215422772624901, 53.626412185391864 ] } },
{ "type": "Feature", "properties": { "max_height": 4.287750244140625, "mean_height": 0.71750640869140625, "std_height": 1.2299495935440063, "count_pixels": 42, "percent_cover": 1.0276486420357229, "percent_above_0.1m": 30.952380952380953, "low_level_<0.5": 0.0, "mid_level_0.5-2": 9.5238095238095237, "tall_2+": 19.047619047619047 }, "geometry": { "type": "Point", "coordinates": [ -2.215213265113319, 53.626412562832648 ] } },
{ "type": "Feature", "properties": { "max_height": 5.00750732421875, "mean_height": 0.37384292483329773, "std_height": 1.0107438564300537, "count_pixels": 41, "percent_cover": 1.0031808172253487, "percent_above_0.1m": 17.073170731707318, "low_level_<0.5": 0.0, "mid_level_0.5-2": 7.3170731707317067, "tall_2+": 9.7560975609756095 }, "geometry": { "type": "Point", "coordinates": [ -2.215003757596874, 53.626412939906707 ] } },
{ "type": "Feature", "properties": { "max_height": 11.876510620117188, "mean_height": 2.4689426422119141, "std_height": 2.9396302700042725, "count_pixels": 42, "percent_cover": 1.0276486420357229, "percent_above_0.1m": 76.19047619047619, "low_level_<0.5": 9.5238095238095237, "mid_level_0.5-2": 28.571428571428569, "tall_2+": 38.095238095238095 }, "geometry": { "type": "Point", "coordinates": [ -2.214794250075566, 53.626413316613977 ] } },
{ "type": "Feature", "properties": { "max_height": 14.51251220703125, "mean_height": 2.2438075542449951, "std_height": 3.2411847114562988, "count_pixels": 42, "percent_cover": 1.0276486420357229, "percent_above_0.1m": 71.428571428571431, "low_level_<0.5": 7.1428571428571423, "mid_level_0.5-2": 35.714285714285715, "tall_2+": 28.571428571428569 }, "geometry": { "type": "Point", "coordinates": [ -2.214584742549406, 53.6264136929545 ] } },
{ "type": "Feature", "properties": { "max_height": 14.322006225585938, "mean_height": 2.3431639671325684, "std_height": 4.149716854095459, "count_pixels": 42, "percent_cover": 1.0276486420357229, "percent_above_0.1m": 47.619047619047613, "low_level_<0.5": 7.1428571428571423, "mid_level_0.5-2": 11.904761904761903, "tall_2+": 23.809523809523807 }, "geometry": { "type": "Point", "coordinates": [ -2.2143752350184, 53.626414068928291 ] } },
{ "type": "Feature", "properties": { "max_height": 3.311248779296875, "mean_height": 0.666900634765625, "std_height": 0.92274439334869385, "count_pixels": 42, "percent_cover": 1.0276486420357229, "percent_above_0.1m": 50.0, "low_level_<0.5": 7.1428571428571423, "mid_level_0.5-2": 26.190476190476193, "tall_2+": 11.904761904761903 }, "geometry": { "type": "Point", "coordinates": [ -2.215318572471285, 53.626520232682324 ] } },
{ "type": "Feature", "properties": { "max_height": 0.0042572021484375, "mean_height": 0.00013260614650789648, "std_height": 0.00090512912720441818, "count_pixels": 42, "percent_cover": 1.0276486420357229, "percent_above_0.1m": 0.0, "low_level_<0.5": 0.0, "mid_level_0.5-2": 0.0, "tall_2+": 0.0 }, "geometry": { "type": "Point", "coordinates": [ -2.215109064405453, 53.626520609936421 ] } },
{ "type": "Feature", "properties": { "max_height": 8.3872528076171875, "mean_height": 2.233292818069458, "std_height": 2.6678469181060791, "count_pixels": 42, "percent_cover": 1.0276486420357229, "percent_above_0.1m": 54.761904761904766, "low_level_<0.5": 2.3809523809523809, "mid_level_0.5-2": 11.904761904761903, "tall_2+": 40.476190476190474 }, "geometry": { "type": "Point", "coordinates": [ -2.214899556334753, 53.626520986823778 ] } },
{ "type": "Feature", "properties": { "max_height": 10.925247192382812, "mean_height": 1.5613653659820557, "std_height": 2.7752575874328613, "count_pixels": 42, "percent_cover": 1.0276486420357229, "percent_above_0.1m": 40.476190476190474, "low_level_<0.5": 4.7619047619047619, "mid_level_0.5-2": 9.5238095238095237, "tall_2+": 23.809523809523807 }, "geometry": { "type": "Point", "coordinates": [ -2.214690048259204, 53.626521363344359 ] } },
{ "type": "Feature", "properties": { "max_height": 2.050018310546875, "mean_height": 0.28839755058288574, "std_height": 0.51863545179367065, "count_pixels": 38, "percent_cover": 0.92977734279422564, "percent_above_0.1m": 31.578947368421051, "low_level_<0.5": 10.526315789473683, "mid_level_0.5-2": 18.421052631578945, "tall_2+": 2.6315789473684208 }, "geometry": { "type": "Point", "coordinates": [ -2.215423880383487, 53.626627902441705 ] } },
{ "type": "Feature", "properties": { "max_height": 1.5520172119140625, "mean_height": 0.17094312608242035, "std_height": 0.4392717182636261, "count_pixels": 42, "percent_cover": 1.0276486420357229, "percent_above_0.1m": 14.285714285714285, "low_level_<0.5": 0.0, "mid_level_0.5-2": 14.285714285714285, "tall_2+": 0.0 }, "geometry": { "type": "Point", "coordinates": [ -2.215214371768261, 53.62662827987586 ] } },
{ "type": "Feature", "properties": { "max_height": 2.6982574462890625, "mean_height": 0.77762359380722046, "std_height": 0.81512439250946045, "count_pixels": 41, "percent_cover": 1.0031808172253487, "percent_above_0.1m": 56.09756097560976, "low_level_<0.5": 0.0, "mid_level_0.5-2": 46.341463414634148, "tall_2+": 7.3170731707317067 }, "geometry": { "type": "Point", "coordinates": [ -2.215004863148173, 53.626628656943254 ] } },
{ "type": "Feature", "properties": { "max_height": 3.657012939453125, "mean_height": 0.8798944354057312, "std_height": 0.90016192197799683, "count_pixels": 42, "percent_cover": 1.0276486420357229, "percent_above_0.1m": 73.80952380952381, "low_level_<0.5": 14.285714285714285, "mid_level_0.5-2": 45.238095238095241, "tall_2+": 7.1428571428571423 }, "geometry": { "type": "Point", "coordinates": [ -2.214795354523224, 53.626629033643908 ] } },
{ "type": "Feature", "properties": { "max_height": 3.6802520751953125, "mean_height": 0.3768237829208374, "std_height": 0.89449554681777954, "count_pixels": 42, "percent_cover": 1.0276486420357229, "percent_above_0.1m": 21.428571428571427, "low_level_<0.5": 2.3809523809523809, "mid_level_0.5-2": 11.904761904761903, "tall_2+": 7.1428571428571423 }, "geometry": { "type": "Point", "coordinates": [ -2.215319679685305, 53.62673594972501 ] } },
{ "type": "Feature", "properties": { "max_height": 4.936492919921875, "mean_height": 1.6093354225158691, "std_height": 1.288161039352417, "count_pixels": 42, "percent_cover": 1.0276486420357229, "percent_above_0.1m": 76.19047619047619, "low_level_<0.5": 4.7619047619047619, "mid_level_0.5-2": 28.571428571428569, "tall_2+": 42.857142857142854 }, "geometry": { "type": "Point", "coordinates": [ -2.215110170515823, 53.626736326972463 ] } }
]
}
