{
"type": "FeatureCollection",
"name": "b174f2172a8e_foliage",
"crs": { "type": "name", "properties": { "name": "urn:ogc:def:crs:OGC:1.3:CRS84" } },
"features": [
{ "type": "Feature", "properties": { "max_height": 2.3574981689453125, "mean_height": 0.34625244140625, "std_height": 0.64809125661849976, "count_pixels": 43, "percent_cover": 0.73731138545953356, "percent_above_0.1m": 37.209302325581397, "low_level_<0.5": 11.627906976744185, "mid_level_0.5-2": 16.279069767441861, "tall_2+": 4.6511627906976747 }, "geometry": { "type": "Point", "coordinates": [ -2.122305792020576, 53.640506901692326 ] } },
{ "type": "Feature", "properties": { "max_height": 8.0917510986328125, "mean_height": 0.91006869077682495, "std_height": 2.073176383972168, "count_pixels": 42, "percent_cover": 0.72016460905349799, "percent_above_0.1m": 28.571428571428569, "low_level_<0.5": 7.1428571428571423, "mid_level_0.5-2": 4.7619047619047619, "tall_2+": 14.285714285714285 }, "geometry": { "type": "Point", "coordinates": [ -2.122096213424237, 53.640507115902835 ] } },
{ "type": "Feature", "properties": { "max_height": 1.31549072265625, "mean_height": 0.11842271685600281, "std_height": 0.28903105854988098, "count_pixels": 41, "percent_cover": 0.70301783264746232, "percent_above_0.1m": 17.073170731707318, "low_level_<0.5": 7.3170731707317067, "mid_level_0.5-2": 9.7560975609756095, "tall_2+": 0.0 }, "geometry": { "type": "Point", "coordinates": [ -2.12241089742254, 53.640614650784443 ] } },
{ "type": "Feature", "properties": { "max_height": 1.1837615966796875, "mean_height": 0.16393633186817169, "std_height": 0.34522366523742676, "count_pixels": 41, "percent_cover": 0.70301783264746232, "percent_above_0.1m": 21.951219512195124, "low_level_<0.5": 7.3170731707317067, "mid_level_0.5-2": 14.634146341463413, "tall_2+": 0.0 }, "geometry": { "type": "Point", "coordinates": [ -2.122201318297444, 53.640614865178925 ] } },
{ "type": "Feature", "properties": { "max_height": 0.045013427734375, "mean_height": 0.0053510162979364395, "std_height": 0.010262859053909779, "count_pixels": 38, "percent_cover": 0.65157750342935528, "percent_above_0.1m": 0.0, "low_level_<0.5": 0.0, "mid_level_0.5-2": 0.0, "tall_2+": 0.0 }, "geometry": { "type": "Point", "coordinates": [ -2.121991739169673, 53.640615079206512 ] } },
{ "type": "Feature", "properties": { "max_height": 7.000762939453125, "mean_height": 0.43891796469688416, "std_height": 1.4120775461196899, "count_pixels": 41, "percent_cover": 0.70301783264746232, "percent_above_0.1m": 14.634146341463413, "low_level_<0.5": 2.4390243902439024, "mid_level_0.5-2": 2.4390243902439024, "tall_2+": 7.3170731707317067 }, "geometry": { "type": "Point", "coordinates": [ -2.121782160039235, 53.640615292867196 ] } },
{ "type": "Feature", "properties": { "max_height": 0.5185089111328125, "mean_height": 0.045879628509283066, "std_height": 0.10405054688453674, "count_pixels": 43, "percent_cover": 0.73731138545953356, "percent_above_0.1m": 16.279069767441861, "low_level_<0.5": 11.627906976744185, "mid_level_0.5-2": 2.3255813953488373, "tall_2+": 0.0 }, "geometry": { "type": "Point", "coordinates": [ -2.12251600335592, 53.640722399782341 ] } },
{ "type": "Feature", "properties": { "max_height": 0.22900390625, "mean_height": 0.028910437598824501, "std_height": 0.054505724459886551, "count_pixels": 43, "percent_cover": 0.73731138545953356, "percent_above_0.1m": 9.3023255813953494, "low_level_<0.5": 4.6511627906976747, "mid_level_0.5-2": 0.0, "tall_2+": 0.0 }, "geometry": { "type": "Point", "coordinates": [ -2.122306423702063, 53.640722614360811 ] } },
{ "type": "Feature", "properties": { "max_height": 0.00225830078125, "mean_height": -0.00019945416715927422, "std_height": 0.0012838057009503245, "count_pixels": 42, "percent_cover": 0.72016460905349799, "percent_above_0.1m": 0.0, "low_level_<0.5": 0.0, "mid_level_0.5-2": 0.0, "tall_2+": 0.0 }, "geometry": { "type": "Point", "coordinates": [ -2.122096844045525, 53.640722828572372 ] } },
{ "type": "Feature", "properties": { "max_height": 0.003509521484375, "mean_height": 0.00020454043988138437, "std_height": 0.0014321991475299001, "count_pixels": 42, "percent_cover": 0.72016460905349799, "percent_above_0.1m": 0.0, "low_level_<0.5": 0.0, "mid_level_0.5-2": 0.0, "tall_2+": 0.0 }, "geometry": { "type": "Point", "coordinates": [ -2.121887264386322, 53.640723042417022 ] } },
{ "type": "Feature", "properties": { "max_height": 0.0357666015625, "mean_height": 0.0018069244688376784, "std_height": 0.0070256907492876053, "count_pixels": 43, "percent_cover": 0.73731138545953356, "percent_above_0.1m": 0.0, "low_level_<0.5": 0.0, "mid_level_0.5-2": 0.0, "tall_2+": 0.0 }, "geometry": { "type": "Point", "coordinates": [ -2.121677684724448, 53.640723255894763 ] } },
{ "type": "Feature", "properties": { "max_height": 2.1929931640625, "mean_height": 0.11117299646139145, "std_height": 0.42734700441360474, "count_pixels": 42, "percent_cover": 0.72016460905349799, "percent_above_0.1m": 9.5238095238095237, "low_level_<0.5": 2.3809523809523809, "mid_level_0.5-2": 2.3809523809523809, "tall_2+": 2.3809523809523809 }, "geometry": { "type": "Point", "coordinates": [ -2.12146810505992, 53.640723469005586 ] } },
{ "type": "Feature", "properties": { "max_height": 0.1095123291015625, "mean_height": 0.0072047538124024868, "std_height": 0.018767809495329857, "count_pixels": 41, "percent_cover": 0.70301783264746232, "percent_above_0.1m": 2.4390243902439024, "low_level_<0.5": 0.0, "mid_level_0.5-2": 0.0, "tall_2+": 0.0 }, "geometry": { "type": "Point", "coordinates": [ -2.122621109820725, 53.640830148686057 ] } },
{ "type": "Feature", "properties": { "max_height": 0.0740203857421875, "mean_height": 0.002678475808352232, "std_height": 0.013135599903762341, "count_pixels": 41, "percent_cover": 0.70301783264746232, "percent_above_0.1m": 0.0, "low_level_<0.5": 0.0, "mid_level_0.5-2": 0.0, "tall_2+": 0.0 }, "geometry": { "type": "Point", "coordinates": [ -2.122411529638098, 53.640830363448501 ] } },
{ "type": "Feature", "properties": { "max_height": 0.0032501220703125, "mean_height": 8.0387770140077919e-05, "std_height": 0.00077096594031900167, "count_pixels": 41, "percent_cover": 0.70301783264746232, "percent_above_0.1m": 0.0, "low_level_<0.5": 0.0, "mid_level_0.5-2": 0.0, "tall_2+": 0.0 }, "geometry": { "type": "Point", "coordinates": [ -2.122201949452799, 53.640830577844049 ] } },
{ "type": "Feature", "properties": { "max_height": 0.003021240234375, "mean_height": -0.00014817087503615767, "std_height": 0.0010207848390564322, "count_pixels": 38, "percent_cover": 0.65157750342935528, "percent_above_0.1m": 0.0, "low_level_<0.5": 0.0, "mid_level_0.5-2": 0.0, "tall_2+": 0.0 }, "geometry": { "type": "Point", "coordinates": [ -2.121992369264824, 53.640830791872659 ] } },
{ "type": "Feature", "properties": { "max_height": 0.00250244140625, "mean_height": 8.2992926763836294e-05, "std_height": 0.0009471310768276453, "count_pixels": 41, "percent_cover": 0.70301783264746232, "percent_above_0.1m": 0.0, "low_level_<0.5": 0.0, "mid_level_0.5-2": 0.0, "tall_2+": 0.0 }, "geometry": { "type": "Point", "coordinates": [ -2.121782789074183, 53.640831005534366 ] } },
{ "type": "Feature", "properties": { "max_height": 0.00225830078125, "mean_height": 0.00033867068123072386, "std_height": 0.0010664829751476645, "count_pixels": 41, "percent_cover": 0.70301783264746232, "percent_above_0.1m": 0.0, "low_level_<0.5": 0.0, "mid_level_0.5-2": 0.0, "tall_2+": 0.0 }, "geometry": { "type": "Point", "coordinates": [ -2.121573208880874, 53.640831218829184 ] } },
{ "type": "Feature", "properties": { "max_height": 0.9390106201171875, "mean_height": 0.098168149590492249, "std_height": 0.22237057983875275, "count_pixels": 42, "percent_cover": 0.72016460905349799, "percent_above_0.1m": 19.047619047619047, "low_level_<0.5": 9.5238095238095237, "mid_level_0.5-2": 9.5238095238095237, "tall_2+": 0.0 }, "geometry": { "type": "Point", "coordinates": [ -2.121363628684913, 53.640831431757057 ] } },
{ "type": "Feature", "properties": { "max_height": 0.937774658203125, "mean_height": 0.1432298868894577, "std_height": 0.27921748161315918, "count_pixels": 42, "percent_cover": 0.72016460905349799, "percent_above_0.1m": 23.809523809523807, "low_level_<0.5": 7.1428571428571423, "mid_level_0.5-2": 14.285714285714285, "tall_2+": 0.0 }, "geometry": { "type": "Point", "coordinates": [ -2.121154048486293, 53.640831644318041 ] } },
{ "type": "Feature", "properties": { "max_height": 8.7532501220703125, "mean_height": 0.46093639731407166, "std_height": 1.6087384223937988, "count_pixels": 42, "percent_cover": 0.72016460905349799, "percent_above_0.1m": 11.904761904761903, "low_level_<0.5": 0.0, "mid_level_0.5-2": 4.7619047619047619, "tall_2+": 7.1428571428571423 }, "geometry": { "type": "Point", "coordinates": [ -2.122726216816956, 53.640937897495547 ] } },
{ "type": "Feature", "properties": { "max_height": 0.2892608642578125, "mean_height": 0.03817642480134964, "std_height": 0.070335239171981812, "count_pixels": 43, "percent_cover": 0.73731138545953356, "percent_above_0.1m": 16.279069767441861, "low_level_<0.5": 9.3023255813953494, "mid_level_0.5-2": 0.0, "tall_2+": 0.0 }, "geometry": { "type": "Point", "coordinates": [ -2.122516636105563, 53.640938112441994 ] } },
{ "type": "Feature", "properties": { "max_height": 0.001251220703125, "mean_height": 6.5293424995616078e-05, "std_height": 0.00037638013600371778, "count_pixels": 43, "percent_cover": 0.73731138545953356, "percent_above_0.1m": 0.0, "low_level_<0.5": 0.0, "mid_level_0.5-2": 0.0, "tall_2+": 0.0 }, "geometry": { "type": "Point", "coordinates": [ -2.122307055391493, 53.640938327021502 ] } },
{ "type": "Feature", "properties": { "max_height": 0.001251220703125, "mean_height": 6.2488375988323241e-05, "std_height": 0.00043104146607220173, "count_pixels": 42, "percent_cover": 0.72016460905349799, "percent_above_0.1m": 0.0, "low_level_<0.5": 0.0, "mid_level_0.5-2": 0.0, "tall_2+": 0.0 }, "geometry": { "type": "Point", "coordinates": [ -2.122097474674745, 53.640938541234107 ] } },
{ "type": "Feature", "properties": { "max_height": 0.003997802734375, "mean_height": 0.00019037156016565859, "std_height": 0.00086274498607963324, "count_pixels": 42, "percent_cover": 0.72016460905349799, "percent_above_0.1m": 0.0, "low_level_<0.5": 0.0, "mid_level_0.5-2": 0.0, "tall_2+": 0.0 }, "geometry": { "type": "Point", "coordinates": [ -2.121887893955331, 53.640938755079802 ] } },
{ "type": "Feature", "properties": { "max_height": 0.0025177001953125, "mean_height": 0.0001185217552119866, "std_height": 0.0007635484216734767, "count_pixels": 43, "percent_cover": 0.73731138545953356, "percent_above_0.1m": 0.0, "low_level_<0.5": 0.0, "mid_level_0.5-2": 0.0, "tall_2+": 0.0 }, "geometry": { "type": "Point", "coordinates": [ -2.121678313233247, 53.640938968558572 ] } },
{ "type": "Feature", "properties": { "max_height": 0.0042572021484375, "mean_height": -1.562209399708081e-05, "std_height": 0.0014328043907880783, "count_pixels": 42, "percent_cover": 0.72016460905349799, "percent_above_0.1m": 0.0, "low_level_<0.5": 0.0, "mid_level_0.5-2": 0.0, "tall_2+": 0.0 }, "geometry": { "type": "Point", "coordinates": [ -2.121468732508502, 53.640939181670433 ] } },
{ "type": "Feature", "properties": { "max_height": 3.901763916015625, "mean_height": 0.8861992359161377, "std_height": 1.1463127136230469, "count_pixels": 42, "percent_cover": 0.72016460905349799, "percent_above_0.1m": 69.047619047619051, "low_level_<0.5": 28.571428571428569, "mid_level_0.5-2": 21.428571428571427, "tall_2+": 19.047619047619047 }, "geometry": { "type": "Point", "coordinates": [ -2.121259151781107, 53.640939394415369 ] } },
{ "type": "Feature", "properties": { "max_height": 1.0017547607421875, "mean_height": 0.040990691632032394, "std_height": 0.16006310284137726, "count_pixels": 41, "percent_cover": 0.70301783264746232, "percent_above_0.1m": 9.7560975609756095, "low_level_<0.5": 7.3170731707317067, "mid_level_0.5-2": 2.4390243902439024, "tall_2+": 0.0 }, "geometry": { "type": "Point", "coordinates": [ -2.121049571051051, 53.64093960679341 ] } },
{ "type": "Feature", "properties": { "max_height": 0.4282684326171875, "mean_height": 0.035661280155181885, "std_height": 0.083642765879631042, "count_pixels": 41, "percent_cover": 0.70301783264746232, "percent_above_0.1m": 4.8780487804878048, "low_level_<0.5": 4.8780487804878048, "mid_level_0.5-2": 0.0, "tall_2+": 0.0 }, "geometry": { "type": "Point", "coordinates": [ -2.122621743104456, 53.641045861341276 ] } },
{ "type": "Feature", "properties": { "max_height": 0.003021240234375, "mean_height": 5.6569169828435406e-05, "std_height": 0.00073230743873864412, "count_pixels": 41, "percent_cover": 0.70301783264746232, "percent_above_0.1m": 0.0, "low_level_<0.5": 0.0, "mid_level_0.5-2": 0.0, "tall_2+": 0.0 }, "geometry": { "type": "Point", "coordinates": [ -2.122412161861615, 53.641046076104779 ] } },
{ "type": "Feature", "properties": { "max_height": 0.001007080078125, "mean_height": -0.00019985291874036193, "std_height": 0.0013450165279209614, "count_pixels": 41, "percent_cover": 0.70301783264746232, "percent_above_0.1m": 0.0, "low_level_<0.5": 0.0, "mid_level_0.5-2": 0.0, "tall_2+": 0.0 }, "geometry": { "type": "Point", "coordinates": [ -2.122202580616097, 53.641046290501357 ] } },
{ "type": "Feature", "properties": { "max_height": 0.001007080078125, "mean_height": -0.00018953022663481534, "std_height": 0.00083359744166955352, "count_pixels": 38, "percent_cover": 0.65157750342935528, "percent_above_0.1m": 0.0, "low_level_<0.5": 0.0, "mid_level_0.5-2": 0.0, "tall_2+": 0.0 }, "geometry": { "type": "Point", "coordinates": [ -2.121992999367901, 53.641046504531012 ] } },
{ "type": "Feature", "properties": { "max_height": 0.000762939453125, "mean_height": -8.9691908215172589e-05, "std_height": 0.00057241367176175117, "count_pixels": 41, "percent_cover": 0.70301783264746232, "percent_above_0.1m": 0.0, "low_level_<0.5": 0.0, "mid_level_0.5-2": 0.0, "tall_2+": 0.0 }, "geometry": { "type": "Point", "coordinates": [ -2.121783418117039, 53.641046718193785 ] } },
{ "type": "Feature", "properties": { "max_height": 0.6745147705078125, "mean_height": 0.019410295411944389, "std_height": 0.10534581542015076, "count_pixels": 41, "percent_cover": 0.70301783264746232, "percent_above_0.1m": 4.8780487804878048, "low_level_<0.5": 0.0, "mid_level_0.5-2": 2.4390243902439024, "tall_2+": 0.0 }, "geometry": { "type": "Point", "coordinates": [ -2.121573836863517, 53.641046931489626 ] } },
{ "type": "Feature", "properties": { "max_height": 13.35101318359375, "mean_height": 5.1749300956726074, "std_height": 4.4680724143981934, "count_pixels": 42, "percent_cover": 0.72016460905349799, "percent_above_0.1m": 73.80952380952381, "low_level_<0.5": 2.3809523809523809, "mid_level_0.5-2": 9.5238095238095237, "tall_2+": 61.904761904761905 }, "geometry": { "type": "Point", "coordinates": [ -2.121364255607333, 53.641047144418529 ] } },
{ "type": "Feature", "properties": { "max_height": 9.164764404296875, "mean_height": 2.9434211254119873, "std_height": 2.3613460063934326, "count_pixels": 43, "percent_cover": 0.73731138545953356, "percent_above_0.1m": 86.04651162790698, "low_level_<0.5": 11.627906976744185, "mid_level_0.5-2": 11.627906976744185, "tall_2+": 60.465116279069761 }, "geometry": { "type": "Point", "coordinates": [ -2.122517268863166, 53.641153825093845 ] } },
{ "type": "Feature", "properties": { "max_height": 2.7655181884765625, "mean_height": 0.11114785820245743, "std_height": 0.47501811385154724, "count_pixels": 43, "percent_cover": 0.73731138545953356, "percent_above_0.1m": 9.3023255813953494, "low_level_<0.5": 4.6511627906976747, "mid_level_0.5-2": 2.3255813953488373, "tall_2+": 2.3255813953488373 }, "geometry": { "type": "Point", "coordinates": [ -2.122307687088871, 53.641154039674412 ] } },
{ "type": "Feature", "properties": { "max_height": 3.00201416015625, "mean_height": 0.1492898166179657, "std_height": 0.62247973680496216, "count_pixels": 42, "percent_cover": 0.72016460905349799, "percent_above_0.1m": 7.1428571428571423, "low_level_<0.5": 2.3809523809523809, "mid_level_0.5-2": 0.0, "tall_2+": 4.7619047619047619 }, "geometry": { "type": "Point", "coordinates": [ -2.122098105311899, 53.641154253888054 ] } },
{ "type": "Feature", "properties": { "max_height": 0.006011962890625, "mean_height": 7.9200384789146483e-05, "std_height": 0.0012548185186460614, "count_pixels": 42, "percent_cover": 0.72016460905349799, "percent_above_0.1m": 0.0, "low_level_<0.5": 0.0, "mid_level_0.5-2": 0.0, "tall_2+": 0.0 }, "geometry": { "type": "Point", "coordinates": [ -2.121888523532258, 53.641154467734786 ] } },
{ "type": "Feature", "properties": { "max_height": 0.00250244140625, "mean_height": -8.9423600002191961e-05, "std_height": 0.00083799421554431319, "count_pixels": 43, "percent_cover": 0.73731138545953356, "percent_above_0.1m": 0.0, "low_level_<0.5": 0.0, "mid_level_0.5-2": 0.0, "tall_2+": 0.0 }, "geometry": { "type": "Point", "coordinates": [ -2.12167894174995, 53.641154681214587 ] } },
{ "type": "Feature", "properties": { "max_height": 13.082260131835938, "mean_height": 6.1835503578186035, "std_height": 3.9252402782440186, "count_pixels": 42, "percent_cover": 0.72016460905349799, "percent_above_0.1m": 83.333333333333343, "low_level_<0.5": 2.3809523809523809, "mid_level_0.5-2": 0.0, "tall_2+": 78.571428571428569 }, "geometry": { "type": "Point", "coordinates": [ -2.121469359964982, 53.641154894327485 ] } },
{ "type": "Feature", "properties": { "max_height": 8.621002197265625, "mean_height": 0.78228944540023804, "std_height": 1.7450346946716309, "count_pixels": 41, "percent_cover": 0.70301783264746232, "percent_above_0.1m": 41.463414634146339, "low_level_<0.5": 14.634146341463413, "mid_level_0.5-2": 9.7560975609756095, "tall_2+": 14.634146341463413 }, "geometry": { "type": "Point", "coordinates": [ -2.122622376396155, 53.641261573988714 ] } },
{ "type": "Feature", "properties": { "max_height": 11.000259399414062, "mean_height": 4.2936863899230957, "std_height": 3.4686167240142822, "count_pixels": 41, "percent_cover": 0.70301783264746232, "percent_above_0.1m": 82.926829268292678, "low_level_<0.5": 2.4390243902439024, "mid_level_0.5-2": 12.195121951219512, "tall_2+": 68.292682926829272 }, "geometry": { "type": "Point", "coordinates": [ -2.122412794093083, 53.641261788753248 ] } },
{ "type": "Feature", "properties": { "max_height": 13.0777587890625, "mean_height": 3.6868762969970703, "std_height": 2.9940214157104492, "count_pixels": 41, "percent_cover": 0.70301783264746232, "percent_above_0.1m": 90.243902439024396, "low_level_<0.5": 0.0, "mid_level_0.5-2": 26.829268292682929, "tall_2+": 63.414634146341463 }, "geometry": { "type": "Point", "coordinates": [ -2.12220321178733, 53.641262003150885 ] } },
{ "type": "Feature", "properties": { "max_height": 13.716018676757812, "mean_height": 1.9589542150497437, "std_height": 3.7352643013000488, "count_pixels": 38, "percent_cover": 0.65157750342935528, "percent_above_0.1m": 42.105263157894733, "low_level_<0.5": 2.6315789473684208, "mid_level_0.5-2": 10.526315789473683, "tall_2+": 28.947368421052634 }, "geometry": { "type": "Point", "coordinates": [ -2.121993629478906, 53.641262217181598 ] } },
{ "type": "Feature", "properties": { "max_height": 10.603012084960938, "mean_height": 2.4985876083374023, "std_height": 3.3698070049285889, "count_pixels": 41, "percent_cover": 0.70301783264746232, "percent_above_0.1m": 48.780487804878049, "low_level_<0.5": 0.0, "mid_level_0.5-2": 7.3170731707317067, "tall_2+": 41.463414634146339 }, "geometry": { "type": "Point", "coordinates": [ -2.121784047167813, 53.641262430845373 ] } },
{ "type": "Feature", "properties": { "max_height": 3.399261474609375, "mean_height": 0.133936807513237, "std_height": 0.53728997707366943, "count_pixels": 41, "percent_cover": 0.70301783264746232, "percent_above_0.1m": 14.634146341463413, "low_level_<0.5": 7.3170731707317067, "mid_level_0.5-2": 4.8780487804878048, "tall_2+": 2.4390243902439024 }, "geometry": { "type": "Point", "coordinates": [ -2.121574464854056, 53.641262644142252 ] } },
{ "type": "Feature", "properties": { "max_height": 8.86151123046875, "mean_height": 4.8976616859436035, "std_height": 3.0262918472290039, "count_pixels": 42, "percent_cover": 0.72016460905349799, "percent_above_0.1m": 95.238095238095227, "low_level_<0.5": 0.0, "mid_level_0.5-2": 21.428571428571427, "tall_2+": 73.80952380952381 }, "geometry": { "type": "Point", "coordinates": [ -2.121364882537638, 53.641262857072206 ] } },
{ "type": "Feature", "properties": { "max_height": 0.005767822265625, "mean_height": -0.00032895110780373216, "std_height": 0.0025776512920856476, "count_pixels": 43, "percent_cover": 0.73731138545953356, "percent_above_0.1m": 0.0, "low_level_<0.5": 0.0, "mid_level_0.5-2": 0.0, "tall_2+": 0.0 }, "geometry": { "type": "Point", "coordinates": [ -2.122517901628734, 53.641369537737894 ] } },
{ "type": "Feature", "properties": { "max_height": 8.2800140380859375, "mean_height": 2.0592150688171387, "std_height": 2.186647891998291, "count_pixels": 43, "percent_cover": 0.73731138545953356, "percent_above_0.1m": 69.767441860465112, "low_level_<0.5": 6.9767441860465116, "mid_level_0.5-2": 16.279069767441861, "tall_2+": 46.511627906976742 }, "geometry": { "type": "Point", "coordinates": [ -2.122308318794196, 53.641369752319513 ] } },
{ "type": "Feature", "properties": { "max_height": 12.416000366210938, "mean_height": 1.491931676864624, "std_height": 2.5120117664337158, "count_pixels": 42, "percent_cover": 0.72016460905349799, "percent_above_0.1m": 38.095238095238095, "low_level_<0.5": 0.0, "mid_level_0.5-2": 9.5238095238095237, "tall_2+": 28.571428571428569 }, "geometry": { "type": "Point", "coordinates": [ -2.122098735956987, 53.641369966534199 ] } },
{ "type": "Feature", "properties": { "max_height": 14.050262451171875, "mean_height": 3.5386478900909424, "std_height": 3.3237650394439697, "count_pixels": 42, "percent_cover": 0.72016460905349799, "percent_above_0.1m": 78.571428571428569, "low_level_<0.5": 0.0, "mid_level_0.5-2": 16.666666666666664, "tall_2+": 61.904761904761905 }, "geometry": { "type": "Point", "coordinates": [ -2.121889153117105, 53.641370180381962 ] } },
{ "type": "Feature", "properties": { "max_height": 9.7920074462890625, "mean_height": 4.4089679718017578, "std_height": 2.4497296810150146, "count_pixels": 43, "percent_cover": 0.73731138545953356, "percent_above_0.1m": 97.674418604651152, "low_level_<0.5": 0.0, "mid_level_0.5-2": 13.953488372093023, "tall_2+": 83.720930232558146 }, "geometry": { "type": "Point", "coordinates": [ -2.121679570274559, 53.6413703938628 ] } },
{ "type": "Feature", "properties": { "max_height": 10.118743896484375, "mean_height": 1.3082094192504883, "std_height": 2.4339206218719482, "count_pixels": 42, "percent_cover": 0.72016460905349799, "percent_above_0.1m": 45.238095238095241, "low_level_<0.5": 9.5238095238095237, "mid_level_0.5-2": 7.1428571428571423, "tall_2+": 23.809523809523807 }, "geometry": { "type": "Point", "coordinates": [ -2.12146998742935, 53.641370606976736 ] } },
{ "type": "Feature", "properties": { "max_height": 2.644012451171875, "mean_height": 0.099284105002880096, "std_height": 0.42481246590614319, "count_pixels": 41, "percent_cover": 0.70301783264746232, "percent_above_0.1m": 9.7560975609756095, "low_level_<0.5": 4.8780487804878048, "mid_level_0.5-2": 2.4390243902439024, "tall_2+": 2.4390243902439024 }, "geometry": { "type": "Point", "coordinates": [ -2.122413426332506, 53.641477501393929 ] } },
{ "type": "Feature", "properties": { "max_height": 2.614501953125, "mean_height": 0.18472811579704285, "std_height": 0.58199620246887207, "count_pixels": 41, "percent_cover": 0.70301783264746232, "percent_above_0.1m": 12.195121951219512, "low_level_<0.5": 2.4390243902439024, "mid_level_0.5-2": 4.8780487804878048, "tall_2+": 4.8780487804878048 }, "geometry": { "type": "Point", "coordinates": [ -2.122203842966508, 53.641477715792604 ] } },
{ "type": "Feature", "properties": { "max_height": 13.06451416015625, "mean_height": 2.3062403202056885, "std_height": 3.3956215381622314, "count_pixels": 38, "percent_cover": 0.65157750342935528, "percent_above_0.1m": 50.0, "low_level_<0.5": 5.2631578947368416, "mid_level_0.5-2": 10.526315789473683, "tall_2+": 34.210526315789473 }, "geometry": { "type": "Point", "coordinates": [ -2.121994259597834, 53.641477929824362 ] } },
{ "type": "Feature", "properties": { "max_height": 14.178268432617188, "mean_height": 5.0016794204711914, "std_height": 4.5611014366149902, "count_pixels": 41, "percent_cover": 0.70301783264746232, "percent_above_0.1m": 70.731707317073173, "low_level_<0.5": 2.4390243902439024, "mid_level_0.5-2": 7.3170731707317067, "tall_2+": 60.975609756097562 }, "geometry": { "type": "Point", "coordinates": [ -2.121784676226495, 53.641478143489174 ] } },
{ "type": "Feature", "properties": { "max_height": 9.6450042724609375, "mean_height": 1.0321919918060303, "std_height": 2.3163778781890869, "count_pixels": 41, "percent_cover": 0.70301783264746232, "percent_above_0.1m": 31.707317073170731, "low_level_<0.5": 7.3170731707317067, "mid_level_0.5-2": 7.3170731707317067, "tall_2+": 17.073170731707318 }, "geometry": { "type": "Point", "coordinates": [ -2.121575092852499, 53.64147835678709 ] } },
{ "type": "Feature", "properties": { "max_height": 0.52001953125, "mean_height": 0.031910385936498642, "std_height": 0.098853215575218201, "count_pixels": 43, "percent_cover": 0.73731138545953356, "percent_above_0.1m": 6.9767441860465116, "low_level_<0.5": 4.6511627906976747, "mid_level_0.5-2": 2.3255813953488373, "tall_2+": 0.0 }, "geometry": { "type": "Point", "coordinates": [ -2.122518534402257, 53.641585250374163 ] } },
{ "type": "Feature", "properties": { "max_height": 0.0877685546875, "mean_height": 0.0029751090332865715, "std_height": 0.013802260160446167, "count_pixels": 43, "percent_cover": 0.73731138545953356, "percent_above_0.1m": 0.0, "low_level_<0.5": 0.0, "mid_level_0.5-2": 0.0, "tall_2+": 0.0 }, "geometry": { "type": "Point", "coordinates": [ -2.12230895050747, 53.641585464956819 ] } }
]
}
