{
"type": "FeatureCollection",
"name": "CHEEA_1006_NACH",
"crs": { "type": "name", "properties": { "name": "urn:ogc:def:crs:OGC:1.3:CRS84" } },
"features": [
{ "type": "Feature", "properties": { "id": 60211, "nach": 0.36550325095649899 }, "geometry": { "type": "LineString", "coordinates": [ [ -2.2379936, 53.0857446 ], [ -2.2376175, 53.0855606 ] ] } },
{ "type": "Feature", "properties": { "id": 60213, "nach": 0.36514925114203051 }, "geometry": { "type": "LineString", "coordinates": [ [ -2.2379936, 53.0857446 ], [ -2.2380687, 53.0856944 ], [ -2.2381571, 53.085634199999987 ], [ -2.2381758, 53.0855923 ], [ -2.2381508, 53.0855392 ], [ -2.2380543, 53.0854944 ] ] } },
{ "type": "Feature", "properties": { "id": 145389, "nach": 0.43476430926414839 }, "geometry": { "type": "LineString", "coordinates": [ [ -2.2380171, 53.0857577 ], [ -2.2379936, 53.0857446 ] ] } },
{ "type": "Feature", "properties": { "id": 61245, "nach": 0.46509528226037034 }, "geometry": { "type": "LineString", "coordinates": [ [ -2.2486444, 53.0840313 ], [ -2.251013, 53.0848428 ] ] } },
{ "type": "Feature", "properties": { "id": 60324, "nach": 0.49370128323949525 }, "geometry": { "type": "LineString", "coordinates": [ [ -2.2516131, 53.084104600000011 ], [ -2.251063, 53.0847962 ], [ -2.251013, 53.0848428 ] ] } },
{ "type": "Feature", "properties": { "id": 60348, "nach": 0.50805030824955755 }, "geometry": { "type": "LineString", "coordinates": [ [ -2.2492003, 53.0870634 ], [ -2.2508482, 53.0849825 ], [ -2.251013, 53.0848428 ] ] } },
{ "type": "Feature", "properties": { "id": 61214, "nach": 0.5429839120593084 }, "geometry": { "type": "LineString", "coordinates": [ [ -2.2516553, 53.0849363 ], [ -2.2513783, 53.08489680000001 ], [ -2.2512307, 53.08487550000001 ], [ -2.251013, 53.0848428 ] ] } },
{ "type": "Feature", "properties": { "id": 61244, "nach": 0.41989603780246015 }, "geometry": { "type": "LineString", "coordinates": [ [ -2.2486444, 53.0840313 ], [ -2.2463292, 53.0832292 ] ] } },
{ "type": "Feature", "properties": { "id": 61246, "nach": 0.45019849028927439 }, "geometry": { "type": "LineString", "coordinates": [ [ -2.2486444, 53.0840313 ], [ -2.2480614, 53.0848365 ] ] } },
{ "type": "Feature", "properties": { "id": 172215, "nach": 0.46666828445686453 }, "geometry": { "type": "LineString", "coordinates": [ [ -2.2508762, 53.083893100000012 ], [ -2.2510351, 53.0839501 ], [ -2.2512706, 53.084011 ], [ -2.2516131, 53.084104600000011 ] ] } },
{ "type": "Feature", "properties": { "id": 69162, "nach": 0.4771523431481704 }, "geometry": { "type": "LineString", "coordinates": [ [ -2.2438216, 53.086554500000013 ], [ -2.2438108, 53.0863792 ], [ -2.2438164, 53.0862059 ], [ -2.2438568, 53.08605 ], [ -2.2438927, 53.0858955 ], [ -2.2439609, 53.085704 ] ] } },
{ "type": "Feature", "properties": { "id": 145390, "nach": 0.48689916125781046 }, "geometry": { "type": "LineString", "coordinates": [ [ -2.2380171, 53.0857577 ], [ -2.2382093, 53.085861 ] ] } },
{ "type": "Feature", "properties": { "id": 145391, "nach": 0.43464757429061557 }, "geometry": { "type": "LineString", "coordinates": [ [ -2.2380171, 53.0857577 ], [ -2.2379709, 53.0858069 ], [ -2.2379348, 53.0858408 ] ] } },
{ "type": "Feature", "properties": { "id": 60217, "nach": 0.35718025732363534 }, "geometry": { "type": "LineString", "coordinates": [ [ -2.2383233, 53.085917 ], [ -2.238521, 53.0857875 ], [ -2.2386382, 53.0857331 ], [ -2.2386893, 53.0857126 ], [ -2.2387436, 53.08569820000001 ], [ -2.23879690000001, 53.0856969 ], [ -2.2388566, 53.085704900000017 ], [ -2.2389668, 53.085717699999989 ], [ -2.2395853, 53.0857526 ] ] } },
{ "type": "Feature", "properties": { "id": 114790, "nach": 0.0 }, "geometry": { "type": "LineString", "coordinates": [ [ -2.2382093, 53.085861 ], [ -2.2389405, 53.0853965 ], [ -2.2390812, 53.085273 ], [ -2.2391623, 53.0851634 ], [ -2.2390943, 53.0850567 ], [ -2.2396241, 53.0849499 ], [ -2.2401247, 53.0851932 ], [ -2.2413295, 53.086012 ], [ -2.2415122, 53.0861495 ] ] } },
{ "type": "Feature", "properties": { "id": 111151, "nach": 0.42890103368502486 }, "geometry": { "type": "LineString", "coordinates": [ [ -2.2502057, 53.0834857 ], [ -2.2502516, 53.0835672 ] ] } },
{ "type": "Feature", "properties": { "id": 172214, "nach": 0.44966233065836997 }, "geometry": { "type": "LineString", "coordinates": [ [ -2.2508762, 53.083893100000012 ], [ -2.2508312, 53.083877 ], [ -2.2506456, 53.083794700000013 ], [ -2.2503465, 53.0836421 ], [ -2.2502516, 53.0835672 ] ] } },
{ "type": "Feature", "properties": { "id": 172218, "nach": 0.33808624531971682 }, "geometry": { "type": "LineString", "coordinates": [ [ -2.2507956, 53.0833885 ], [ -2.2503294, 53.083526 ], [ -2.2502516, 53.0835672 ] ] } },
{ "type": "Feature", "properties": { "id": 111152, "nach": 0.4139448033826183 }, "geometry": { "type": "LineString", "coordinates": [ [ -2.2502057, 53.0834857 ], [ -2.2499053, 53.08332 ], [ -2.2497194, 53.0832439 ], [ -2.2496952, 53.0832392 ] ] } },
{ "type": "Feature", "properties": { "id": 172217, "nach": 0.33421826871271787 }, "geometry": { "type": "LineString", "coordinates": [ [ -2.2512505, 53.0831344 ], [ -2.2513005, 53.0830894 ], [ -2.2515044, 53.0831495 ], [ -2.2515313, 53.0832257 ], [ -2.2513486, 53.0835064 ], [ -2.2511794, 53.0835584 ], [ -2.2510692, 53.0836547 ], [ -2.2508762, 53.083893100000012 ] ] } },
{ "type": "Feature", "properties": { "id": 60344, "nach": 0.41974674209253277 }, "geometry": { "type": "LineString", "coordinates": [ [ -2.2476756, 53.0853692 ], [ -2.2487247, 53.0856192 ] ] } },
{ "type": "Feature", "properties": { "id": 60350, "nach": 0.35086868103671581 }, "geometry": { "type": "LineString", "coordinates": [ [ -2.2491367, 53.0851089 ], [ -2.2487247, 53.0856192 ] ] } },
{ "type": "Feature", "properties": { "id": 61238, "nach": 0.46012483727976211 }, "geometry": { "type": "LineString", "coordinates": [ [ -2.2470735, 53.0862008 ], [ -2.2476756, 53.0853692 ] ] } },
{ "type": "Feature", "properties": { "id": 61237, "nach": 0.43833946021429493 }, "geometry": { "type": "LineString", "coordinates": [ [ -2.2480614, 53.0848365 ], [ -2.2479552, 53.0849831 ], [ -2.2477149, 53.0853149 ], [ -2.2476756, 53.0853692 ] ] } },
{ "type": "Feature", "properties": { "id": 153788, "nach": 0.36305749934479997 }, "geometry": { "type": "LineString", "coordinates": [ [ -2.247138, 53.0852117 ], [ -2.2476009, 53.0853473 ], [ -2.2476756, 53.0853692 ] ] } },
{ "type": "Feature", "properties": { "id": 61236, "nach": 0.35000723380527798 }, "geometry": { "type": "LineString", "coordinates": [ [ -2.2480614, 53.0848365 ], [ -2.2491367, 53.0851089 ] ] } },
{ "type": "Feature", "properties": { "id": 60353, "nach": 0.34744371362232351 }, "geometry": { "type": "LineString", "coordinates": [ [ -2.2493793, 53.0848084 ], [ -2.2491367, 53.0851089 ] ] } },
{ "type": "Feature", "properties": { "id": 79554, "nach": 0.42719669410416156 }, "geometry": { "type": "LineString", "coordinates": [ [ -2.2449109, 53.0853261 ], [ -2.2470735, 53.0862008 ] ] } },
{ "type": "Feature", "properties": { "id": 114794, "nach": 0.38008079286545982 }, "geometry": { "type": "LineString", "coordinates": [ [ -2.2434016, 53.0868262 ], [ -2.2434998, 53.0864675 ], [ -2.2437232, 53.0854437 ] ] } },
{ "type": "Feature", "properties": { "id": 60358, "nach": 0.3875171283467525 }, "geometry": { "type": "LineString", "coordinates": [ [ -2.2432125, 53.0867416 ], [ -2.2433573, 53.086243 ] ] } },
{ "type": "Feature", "properties": { "id": 86081, "nach": 0.35133180525986257 }, "geometry": { "type": "LineString", "coordinates": [ [ -2.2434645, 53.083702100000011 ], [ -2.2434337, 53.083614 ], [ -2.2432246, 53.083209799999985 ] ] } },
{ "type": "Feature", "properties": { "id": 111154, "nach": 0.33797040074913653 }, "geometry": { "type": "LineString", "coordinates": [ [ -2.243884, 53.0836855 ], [ -2.2437561, 53.0836953 ], [ -2.2436554, 53.0837214 ], [ -2.2432246, 53.083209799999985 ] ] } },
{ "type": "Feature", "properties": { "id": 86083, "nach": 0.3757773663849161 }, "geometry": { "type": "LineString", "coordinates": [ [ -2.2434645, 53.083702100000011 ], [ -2.2432658, 53.083772700000011 ], [ -2.243196, 53.0838306 ], [ -2.2432965, 53.084142 ], [ -2.2433338, 53.0841773 ], [ -2.2434171, 53.084216 ] ] } },
{ "type": "Feature", "properties": { "id": 111153, "nach": 0.35080891080549137 }, "geometry": { "type": "LineString", "coordinates": [ [ -2.243884, 53.0836855 ], [ -2.2439581, 53.0836798 ], [ -2.244145, 53.0838723 ], [ -2.2443151, 53.0840375 ], [ -2.2444063, 53.0841169 ], [ -2.2445248, 53.0842309 ], [ -2.2446281, 53.0844134 ], [ -2.2446691, 53.0844572 ], [ -2.2446661, 53.084540300000015 ], [ -2.2444456, 53.0845745 ], [ -2.2444454, 53.0846461 ], [ -2.2445305, 53.0847402 ], [ -2.2444761, 53.084833600000017 ], [ -2.2444257, 53.084875099999984 ], [ -2.2443486, 53.0849663 ], [ -2.2442486, 53.085058600000025 ], [ -2.2441856, 53.0851372 ], [ -2.2441033, 53.0852442 ], [ -2.2441255, 53.0852901 ], [ -2.2441168, 53.0853276 ], [ -2.2441086, 53.0853628 ] ] } },
{ "type": "Feature", "properties": { "id": 61176, "nach": 0.48100191791590002 }, "geometry": { "type": "LineString", "coordinates": [ [ -2.2413272, 53.0862777 ], [ -2.2415122, 53.0861495 ] ] } },
{ "type": "Feature", "properties": { "id": 86085, "nach": 0.46594803405708951 }, "geometry": { "type": "LineString", "coordinates": [ [ -2.2420152, 53.085785700000017 ], [ -2.2415122, 53.0861495 ] ] } },
{ "type": "Feature", "properties": { "id": 151971, "nach": 0.49591209327368801 }, "geometry": { "type": "LineString", "coordinates": [ [ -2.2410264, 53.0864846 ], [ -2.2410918, 53.086440600000017 ], [ -2.2413272, 53.0862777 ] ] } },
{ "type": "Feature", "properties": { "id": 81643, "nach": 0.48924019475553215 }, "geometry": { "type": "LineString", "coordinates": [ [ -2.2425304, 53.0867315 ], [ -2.242411, 53.0867165 ], [ -2.242292, 53.0866905 ], [ -2.2418735, 53.0865616 ], [ -2.241659, 53.0864521 ], [ -2.2413272, 53.0862777 ] ] } },
{ "type": "Feature", "properties": { "id": 86086, "nach": 0.37476640950954998 }, "geometry": { "type": "LineString", "coordinates": [ [ -2.2420152, 53.085785700000017 ], [ -2.2426677, 53.0861602 ] ] } },
{ "type": "Feature", "properties": { "id": 161421, "nach": 0.42648728845241074 }, "geometry": { "type": "LineString", "coordinates": [ [ -2.2430438, 53.0848639 ], [ -2.2427425, 53.0852236 ], [ -2.242353, 53.0855413 ], [ -2.2420152, 53.085785700000017 ] ] } },
{ "type": "Feature", "properties": { "id": 151970, "nach": 0.50583373300428547 }, "geometry": { "type": "LineString", "coordinates": [ [ -2.2410264, 53.0864846 ], [ -2.24097450000001, 53.08651960000001 ] ] } },
{ "type": "Feature", "properties": { "id": 151972, "nach": 0.38246830683027888 }, "geometry": { "type": "LineString", "coordinates": [ [ -2.2410264, 53.0864846 ], [ -2.2411668, 53.086551 ], [ -2.2412698, 53.0865843 ], [ -2.2414414, 53.0866397 ], [ -2.2420044, 53.0867861 ] ] } },
{ "type": "Feature", "properties": { "id": 78546, "nach": 0.38941056408577507 }, "geometry": { "type": "LineString", "coordinates": [ [ -2.2465482, 53.082869300000013 ], [ -2.246422, 53.0830843 ], [ -2.2463292, 53.0832292 ] ] } },
{ "type": "Feature", "properties": { "id": 153791, "nach": 0.37652529436504761 }, "geometry": { "type": "LineString", "coordinates": [ [ -2.246041, 53.0837336 ], [ -2.2460558, 53.0836446 ], [ -2.2463292, 53.0832292 ] ] } },
{ "type": "Feature", "properties": { "id": 111144, "nach": 0.37631573372933791 }, "geometry": { "type": "LineString", "coordinates": [ [ -2.2465901, 53.0827539 ], [ -2.2465482, 53.082869300000013 ] ] } },
{ "type": "Feature", "properties": { "id": 153790, "nach": 0.30088434142892834 }, "geometry": { "type": "LineString", "coordinates": [ [ -2.246041, 53.0837336 ], [ -2.2459872, 53.0837925 ], [ -2.2446227, 53.0833539 ] ] } },
{ "type": "Feature", "properties": { "id": 153792, "nach": 0.31287435759380805 }, "geometry": { "type": "LineString", "coordinates": [ [ -2.2462956, 53.0838277 ], [ -2.246041, 53.0837336 ] ] } },
{ "type": "Feature", "properties": { "id": 79555, "nach": 0.37019695156073396 }, "geometry": { "type": "LineString", "coordinates": [ [ -2.2449109, 53.0853261 ], [ -2.2452815, 53.0850129 ] ] } },
{ "type": "Feature", "properties": { "id": 79556, "nach": 0.4420133036721276 }, "geometry": { "type": "LineString", "coordinates": [ [ -2.2449109, 53.0853261 ], [ -2.2447247, 53.085486700000018 ], [ -2.2446727, 53.0855071 ], [ -2.244596, 53.0854996 ], [ -2.2442983, 53.0853836 ], [ -2.2441086, 53.0853628 ] ] } },
{ "type": "Feature", "properties": { "id": 77964, "nach": 0.47083813328295993 }, "geometry": { "type": "LineString", "coordinates": [ [ -2.2441086, 53.0853628 ], [ -2.2440323, 53.0854668 ], [ -2.2439983, 53.0855168 ], [ -2.2439679, 53.085637800000015 ], [ -2.2439609, 53.085704 ] ] } },
{ "type": "Feature", "properties": { "id": 89264, "nach": 0.32173128644990973 }, "geometry": { "type": "LineString", "coordinates": [ [ -2.2440599, 53.086311300000013 ], [ -2.2440235, 53.0861373 ], [ -2.2441373, 53.086066599999988 ], [ -2.2440006, 53.085888300000015 ], [ -2.2440184, 53.0857577 ], [ -2.2439609, 53.085704 ] ] } },
{ "type": "Feature", "properties": { "id": 161423, "nach": 0.36758570952871655 }, "geometry": { "type": "LineString", "coordinates": [ [ -2.244251, 53.0846227 ], [ -2.2442094, 53.0847677 ], [ -2.2441705, 53.0848515 ], [ -2.2440994, 53.0849683 ], [ -2.2439452, 53.0852011 ], [ -2.2438735, 53.085333199999987 ], [ -2.2438882, 53.0853356 ], [ -2.2440897, 53.0853515 ], [ -2.2441086, 53.0853628 ] ] } },
{ "type": "Feature", "properties": { "id": 89275, "nach": 0.26494197353352261 }, "geometry": { "type": "LineString", "coordinates": [ [ -2.2443643, 53.086580500000011 ], [ -2.2443998, 53.0865125 ], [ -2.2441806, 53.0862742 ], [ -2.2440599, 53.086311300000013 ] ] } },
{ "type": "Feature", "properties": { "id": 111146, "nach": 0.35948433754823567 }, "geometry": { "type": "LineString", "coordinates": [ [ -2.2469019, 53.0828035 ], [ -2.2465901, 53.0827539 ] ] } },
{ "type": "Feature", "properties": { "id": 161422, "nach": 0.40113077575307154 }, "geometry": { "type": "LineString", "coordinates": [ [ -2.2430438, 53.0848639 ], [ -2.2430839, 53.08481290000001 ], [ -2.2432184, 53.084646 ], [ -2.2434148, 53.08422070000001 ], [ -2.2434171, 53.084216 ] ] } },
{ "type": "Feature", "properties": { "id": 127936, "nach": 0.33658483137467654 }, "geometry": { "type": "LineString", "coordinates": [ [ -2.2489003, 53.0831507 ], [ -2.248645, 53.0831442 ], [ -2.2481331, 53.0831747 ], [ -2.2478103, 53.0832079 ], [ -2.2476766, 53.08318850000002 ], [ -2.2472938, 53.0830528 ], [ -2.2471278, 53.082936499999988 ], [ -2.2470264, 53.0828367 ], [ -2.2469019, 53.0828035 ] ] } },
{ "type": "Feature", "properties": { "id": 127937, "nach": 0.37740423560852743 }, "geometry": { "type": "LineString", "coordinates": [ [ -2.2489003, 53.0831507 ], [ -2.2492951, 53.0831608 ], [ -2.2496952, 53.0832392 ] ] } },
{ "type": "Feature", "properties": { "id": 127938, "nach": 0.3179677627413105 }, "geometry": { "type": "LineString", "coordinates": [ [ -2.2489003, 53.0831507 ], [ -2.2489228, 53.083213 ], [ -2.2489658, 53.0832744 ], [ -2.2490164, 53.0833037 ] ] } },
{ "type": "Feature", "properties": { "id": 127939, "nach": 0.32804078493726768 }, "geometry": { "type": "LineString", "coordinates": [ [ -2.2493415, 53.0833905 ], [ -2.2494016, 53.083403400000016 ], [ -2.2494611, 53.0833954 ], [ -2.2496952, 53.0832392 ] ] } },
{ "type": "Feature", "properties": { "id": 112059, "nach": 0.38434377092146332 }, "geometry": { "type": "LineString", "coordinates": [ [ -2.2402012, 53.086273 ], [ -2.2403581, 53.086310800000014 ], [ -2.2404436, 53.0863235 ], [ -2.2405965, 53.0863597 ], [ -2.2407373, 53.0864093 ], [ -2.24097450000001, 53.08651960000001 ] ] } },
{ "type": "Feature", "properties": { "id": 141032, "nach": 0.0 }, "geometry": { "type": "LineString", "coordinates": [ [ -2.2446227, 53.0833539 ], [ -2.2444047, 53.0835741 ], [ -2.2443006, 53.0835845 ], [ -2.2441812, 53.0835337 ], [ -2.2441877, 53.0834841 ], [ -2.2443721, 53.0833147 ], [ -2.2444846, 53.0833095 ], [ -2.2446227, 53.0833539 ] ] } }
]
}
