{
"type": "FeatureCollection",
"name": "CHEEA_786_NACH_800m",
"crs": { "type": "name", "properties": { "name": "urn:ogc:def:crs:OGC:1.3:CRS84" } },
"features": [
{ "type": "Feature", "properties": { "id": 5371, "nach": 0.29861139081185878 }, "geometry": { "type": "LineString", "coordinates": [ [ -2.3115885, 53.3657683 ], [ -2.3105016, 53.3650613 ] ] } },
{ "type": "Feature", "properties": { "id": 5384, "nach": 0.3696876677364776 }, "geometry": { "type": "LineString", "coordinates": [ [ -2.313418, 53.3638027 ], [ -2.3138143, 53.3640349 ], [ -2.3142732, 53.3643679 ], [ -2.3148074, 53.3646869 ], [ -2.3149336, 53.3648065 ], [ -2.3149465, 53.3648309 ] ] } },
{ "type": "Feature", "properties": { "id": 5376, "nach": 0.34803378649394923 }, "geometry": { "type": "LineString", "coordinates": [ [ -2.3146341, 53.3653789 ], [ -2.3148997, 53.3650646 ], [ -2.3149463, 53.364976 ], [ -2.3149631, 53.3649007 ], [ -2.3149465, 53.3648309 ] ] } },
{ "type": "Feature", "properties": { "id": 5439, "nach": 0.330074390431081 }, "geometry": { "type": "LineString", "coordinates": [ [ -2.3171406, 53.364046 ], [ -2.3167884, 53.364108699999989 ], [ -2.3165047, 53.3641565 ], [ -2.3157993, 53.3642001 ], [ -2.3155907, 53.364246599999987 ], [ -2.31538860000001, 53.3643334 ], [ -2.3150461, 53.364791799999985 ], [ -2.3149465, 53.3648309 ] ] } },
{ "type": "Feature", "properties": { "id": 5381, "nach": 0.25559840954374713 }, "geometry": { "type": "LineString", "coordinates": [ [ -2.3128091, 53.3644966 ], [ -2.3146341, 53.3653789 ] ] } },
{ "type": "Feature", "properties": { "id": 5379, "nach": 0.30119302214371207 }, "geometry": { "type": "LineString", "coordinates": [ [ -2.3142873, 53.3658721 ], [ -2.3144503, 53.365606 ], [ -2.3146341, 53.3653789 ] ] } },
{ "type": "Feature", "properties": { "id": 5380, "nach": 0.244343281297695 }, "geometry": { "type": "LineString", "coordinates": [ [ -2.3125144, 53.3650409 ], [ -2.3142873, 53.3658721 ] ] } },
{ "type": "Feature", "properties": { "id": 161711, "nach": 0.34307703568518899 }, "geometry": { "type": "LineString", "coordinates": [ [ -2.3172619, 53.3642094 ], [ -2.3174933, 53.364521 ], [ -2.3176972, 53.3649211 ], [ -2.3177938, 53.3651516 ] ] } },
{ "type": "Feature", "properties": { "id": 5470, "nach": 0.34375827227379879 }, "geometry": { "type": "LineString", "coordinates": [ [ -2.3234674, 53.3655721 ], [ -2.32337, 53.365553 ], [ -2.3219939, 53.3652935 ], [ -2.3209975, 53.3653737 ], [ -2.3205229, 53.3653407 ], [ -2.3202685, 53.3652718 ], [ -2.3202066, 53.3652422 ], [ -2.3201747, 53.3652284 ], [ -2.3200642, 53.3651802 ], [ -2.3195027, 53.3649254 ], [ -2.3188542, 53.3645101 ], [ -2.3185379, 53.364293 ], [ -2.3180525, 53.364073300000015 ] ] } },
{ "type": "Feature", "properties": { "id": 5472, "nach": 0.42728989049655941 }, "geometry": { "type": "LineString", "coordinates": [ [ -2.323135, 53.366225400000012 ], [ -2.3234674, 53.3655721 ] ] } },
{ "type": "Feature", "properties": { "id": 87334, "nach": 0.43631676036192479 }, "geometry": { "type": "LineString", "coordinates": [ [ -2.3242876, 53.365763 ], [ -2.3234674, 53.3655721 ] ] } },
{ "type": "Feature", "properties": { "id": 101696, "nach": 0.4383709436088683 }, "geometry": { "type": "LineString", "coordinates": [ [ -2.3235644, 53.36539770000001 ], [ -2.3235274, 53.3654363 ], [ -2.3234843, 53.3654933 ], [ -2.3234674, 53.3655721 ] ] } },
{ "type": "Feature", "properties": { "id": 181525, "nach": 0.3170314353412968 }, "geometry": { "type": "LineString", "coordinates": [ [ -2.3179276, 53.365181 ], [ -2.3177938, 53.3651516 ] ] } },
{ "type": "Feature", "properties": { "id": 181526, "nach": 0.27021746074495745 }, "geometry": { "type": "LineString", "coordinates": [ [ -2.3179276, 53.365181 ], [ -2.318711, 53.3653533 ] ] } },
{ "type": "Feature", "properties": { "id": 5448, "nach": 0.27739721990098021 }, "geometry": { "type": "LineString", "coordinates": [ [ -2.3223803, 53.3682277 ], [ -2.3209426, 53.3684069 ], [ -2.3206387, 53.3679504 ] ] } },
{ "type": "Feature", "properties": { "id": 5453, "nach": 0.32832631458258194 }, "geometry": { "type": "LineString", "coordinates": [ [ -2.3222837, 53.367512 ], [ -2.3221231, 53.3675282 ], [ -2.3219744, 53.3675603 ], [ -2.3214168, 53.3677124 ], [ -2.3209543, 53.3678459 ], [ -2.3206387, 53.3679504 ] ] } },
{ "type": "Feature", "properties": { "id": 5456, "nach": 0.38081130601312208 }, "geometry": { "type": "LineString", "coordinates": [ [ -2.3231689, 53.36753010000001 ], [ -2.3229969, 53.3675273 ], [ -2.3226943, 53.367509900000016 ], [ -2.3224633, 53.3675095 ], [ -2.3222837, 53.367512 ] ] } },
{ "type": "Feature", "properties": { "id": 5846, "nach": 0.29378496266765763 }, "geometry": { "type": "LineString", "coordinates": [ [ -2.3210707, 53.366962 ], [ -2.3214247, 53.3668852 ], [ -2.3218324, 53.366898 ], [ -2.3221114, 53.3670645 ], [ -2.3223045, 53.3672885 ], [ -2.3222837, 53.367512 ] ] } },
{ "type": "Feature", "properties": { "id": 5452, "nach": 0.31406654409247031 }, "geometry": { "type": "LineString", "coordinates": [ [ -2.3232493, 53.3685605 ], [ -2.3236892, 53.3686181 ], [ -2.3239467, 53.3685751 ], [ -2.3244101, 53.3684978 ] ] } },
{ "type": "Feature", "properties": { "id": 5460, "nach": 0.4356107857177085 }, "geometry": { "type": "LineString", "coordinates": [ [ -2.324458, 53.368923499999987 ], [ -2.3244198, 53.3688121 ], [ -2.3243975, 53.3686761 ], [ -2.3243998, 53.3685912 ], [ -2.3244101, 53.3684978 ] ] } },
{ "type": "Feature", "properties": { "id": 38298, "nach": 0.43909579221585099 }, "geometry": { "type": "LineString", "coordinates": [ [ -2.324609, 53.367824 ], [ -2.3246312, 53.367876 ], [ -2.3246338, 53.3679564 ], [ -2.3245791, 53.3680777 ], [ -2.3244852, 53.3682615 ], [ -2.3244242, 53.3684084 ], [ -2.3244101, 53.3684978 ] ] } },
{ "type": "Feature", "properties": { "id": 5463, "nach": 0.37689610276117391 }, "geometry": { "type": "LineString", "coordinates": [ [ -2.3242934, 53.3691165 ], [ -2.324458, 53.368923499999987 ] ] } },
{ "type": "Feature", "properties": { "id": 5466, "nach": 0.40500953427487763 }, "geometry": { "type": "LineString", "coordinates": [ [ -2.3247616, 53.369099799999987 ], [ -2.3245771, 53.3690407 ], [ -2.324458, 53.368923499999987 ] ] } },
{ "type": "Feature", "properties": { "id": 38297, "nach": 0.42119792224915564 }, "geometry": { "type": "LineString", "coordinates": [ [ -2.324609, 53.367824 ], [ -2.3245158, 53.3677582 ], [ -2.324325, 53.3676695 ], [ -2.324035, 53.367578200000011 ], [ -2.3237718, 53.3675399 ], [ -2.3231689, 53.36753010000001 ] ] } },
{ "type": "Feature", "properties": { "id": 181522, "nach": 0.42486681675438076 }, "geometry": { "type": "LineString", "coordinates": [ [ -2.3249025, 53.3675748 ], [ -2.324609, 53.367824 ] ] } },
{ "type": "Feature", "properties": { "id": 146484, "nach": 0.40047914268864765 }, "geometry": { "type": "LineString", "coordinates": [ [ -2.3231101, 53.3664117 ], [ -2.3231712, 53.3666129 ], [ -2.3232753, 53.3669612 ], [ -2.3232866, 53.3670166 ], [ -2.3232685, 53.3671286 ], [ -2.3232278, 53.3672501 ], [ -2.3232051, 53.3673419 ], [ -2.3231689, 53.36753010000001 ] ] } },
{ "type": "Feature", "properties": { "id": 146485, "nach": 0.41628063684230948 }, "geometry": { "type": "LineString", "coordinates": [ [ -2.3231101, 53.3664117 ], [ -2.3230988, 53.366355 ], [ -2.3231169, 53.3662929 ], [ -2.323135, 53.366225400000012 ] ] } },
{ "type": "Feature", "properties": { "id": 152522, "nach": 0.37098166118740511 }, "geometry": { "type": "LineString", "coordinates": [ [ -2.3212778, 53.3664868 ], [ -2.3231101, 53.3664117 ] ] } },
{ "type": "Feature", "properties": { "id": 115488, "nach": 0.39787736626223408 }, "geometry": { "type": "LineString", "coordinates": [ [ -2.3241979, 53.3691843 ], [ -2.3242934, 53.3691165 ] ] } },
{ "type": "Feature", "properties": { "id": 5467, "nach": 0.36306133599550006 }, "geometry": { "type": "LineString", "coordinates": [ [ -2.3247616, 53.369099799999987 ], [ -2.3245251, 53.3690947 ], [ -2.3242934, 53.3691165 ] ] } },
{ "type": "Feature", "properties": { "id": 8880, "nach": 0.42989644532932442 }, "geometry": { "type": "LineString", "coordinates": [ [ -2.3252373, 53.3691022 ], [ -2.3247616, 53.369099799999987 ] ] } },
{ "type": "Feature", "properties": { "id": 129748, "nach": 0.35397586051188012 }, "geometry": { "type": "LineString", "coordinates": [ [ -2.3237679, 53.3696347 ], [ -2.3237758, 53.3696233 ], [ -2.3239951, 53.369366799999987 ], [ -2.3241979, 53.3691843 ] ] } },
{ "type": "Feature", "properties": { "id": 115491, "nach": 0.31036305704644718 }, "geometry": { "type": "LineString", "coordinates": [ [ -2.3228338, 53.3689483 ], [ -2.3233104, 53.36903980000001 ], [ -2.3236105, 53.3690555 ], [ -2.323965, 53.3691161 ], [ -2.3241979, 53.3691843 ] ] } },
{ "type": "Feature", "properties": { "id": 130872, "nach": 0.35285110908368283 }, "geometry": { "type": "LineString", "coordinates": [ [ -2.3253488, 53.3701275 ], [ -2.3252373, 53.3691022 ] ] } },
{ "type": "Feature", "properties": { "id": 129743, "nach": 0.43472712630527727 }, "geometry": { "type": "LineString", "coordinates": [ [ -2.3266247, 53.36913340000001 ], [ -2.3262416, 53.3690558 ], [ -2.3258569, 53.3690253 ], [ -2.3256303, 53.3690436 ], [ -2.3252373, 53.3691022 ] ] } },
{ "type": "Feature", "properties": { "id": 126280, "nach": 0.32558206008428664 }, "geometry": { "type": "LineString", "coordinates": [ [ -2.32211, 53.3661655 ], [ -2.3229585, 53.3661544 ], [ -2.323135, 53.366225400000012 ] ] } },
{ "type": "Feature", "properties": { "id": 87336, "nach": 0.34721321944017808 }, "geometry": { "type": "LineString", "coordinates": [ [ -2.3242876, 53.365763 ], [ -2.3247699, 53.3650198 ], [ -2.324794, 53.3649759 ], [ -2.3251158, 53.3643889 ], [ -2.3251722, 53.3642861 ], [ -2.3256161, 53.3634766 ], [ -2.3262962, 53.3636701 ], [ -2.3268498, 53.3636276 ], [ -2.3274113, 53.3635285 ], [ -2.3276723, 53.3635568 ], [ -2.3277909, 53.3635355 ], [ -2.3279254, 53.363571 ], [ -2.3281389, 53.3635521 ], [ -2.3283472, 53.3634879 ] ] } },
{ "type": "Feature", "properties": { "id": 101682, "nach": 0.43143770741015564 }, "geometry": { "type": "LineString", "coordinates": [ [ -2.3257319, 53.3662305 ], [ -2.3249348, 53.3659701 ], [ -2.3243507, 53.3657796 ], [ -2.3242876, 53.365763 ] ] } },
{ "type": "Feature", "properties": { "id": 101695, "nach": 0.42119648388162123 }, "geometry": { "type": "LineString", "coordinates": [ [ -2.3235644, 53.36539770000001 ], [ -2.3236353, 53.3653756 ] ] } },
{ "type": "Feature", "properties": { "id": 122172, "nach": 0.33130178314457709 }, "geometry": { "type": "LineString", "coordinates": [ [ -2.3230017, 53.365121 ], [ -2.3229917, 53.3651868 ], [ -2.3229892, 53.3652286 ], [ -2.3230468, 53.3652525 ], [ -2.3230977, 53.3652525 ], [ -2.3231427, 53.3652465 ], [ -2.323348, 53.3652525 ], [ -2.3234532, 53.365285299999989 ], [ -2.3235258, 53.3653436 ], [ -2.3235644, 53.36539770000001 ] ] } },
{ "type": "Feature", "properties": { "id": 126279, "nach": 0.0 }, "geometry": { "type": "LineString", "coordinates": [ [ -2.32211, 53.3661655 ], [ -2.3220593, 53.3661257 ], [ -2.3220112, 53.3661082 ], [ -2.3219445, 53.3661018 ], [ -2.3218751, 53.3660971 ], [ -2.3217764, 53.3661082 ], [ -2.3217017, 53.3661385 ], [ -2.3216884, 53.3661727 ], [ -2.321707, 53.3662165 ], [ -2.3217657, 53.3662579 ], [ -2.3218885, 53.3662897 ], [ -2.3220326, 53.36630250000001 ], [ -2.3220859, 53.3662961 ], [ -2.3221206, 53.3662754 ], [ -2.322126, 53.3662292 ], [ -2.32211, 53.3661655 ] ] } },
{ "type": "Feature", "properties": { "id": 8857, "nach": 0.39347828100588333 }, "geometry": { "type": "LineString", "coordinates": [ [ -2.3342668, 53.372717899999984 ], [ -2.3338568, 53.3726428 ], [ -2.3335784, 53.3725891 ], [ -2.3329363, 53.3724473 ] ] } },
{ "type": "Feature", "properties": { "id": 8853, "nach": 0.25891551568250926 }, "geometry": { "type": "LineString", "coordinates": [ [ -2.3329363, 53.3724473 ], [ -2.332927, 53.372651800000014 ], [ -2.3328849, 53.3728504 ], [ -2.3328334, 53.3731423 ], [ -2.3329278, 53.3732754 ], [ -2.3332282, 53.3734136 ] ] } },
{ "type": "Feature", "properties": { "id": 142196, "nach": 0.40390035508297117 }, "geometry": { "type": "LineString", "coordinates": [ [ -2.3316396, 53.3705838 ], [ -2.3316503, 53.3706303 ], [ -2.3318512, 53.3707834 ], [ -2.3321896, 53.3710376 ], [ -2.3324787, 53.3714564 ], [ -2.3325447, 53.37164640000001 ], [ -2.3326188, 53.3718313 ], [ -2.3327218, 53.3721642 ], [ -2.3328841, 53.3724201 ], [ -2.3329363, 53.3724473 ] ] } },
{ "type": "Feature", "properties": { "id": 142195, "nach": 0.44624582051736356 }, "geometry": { "type": "LineString", "coordinates": [ [ -2.3316396, 53.3705838 ], [ -2.3315112, 53.3705601 ] ] } },
{ "type": "Feature", "properties": { "id": 142198, "nach": 0.42535636444097108 }, "geometry": { "type": "LineString", "coordinates": [ [ -2.332292, 53.3704943 ], [ -2.3321674, 53.3705077 ], [ -2.3316396, 53.3705838 ] ] } },
{ "type": "Feature", "properties": { "id": 8861, "nach": 0.36207196509675654 }, "geometry": { "type": "LineString", "coordinates": [ [ -2.3309108, 53.3719901 ], [ -2.3306876, 53.371472899999986 ], [ -2.3315112, 53.3705601 ] ] } },
{ "type": "Feature", "properties": { "id": 8871, "nach": 0.4473967992349927 }, "geometry": { "type": "LineString", "coordinates": [ [ -2.3306345, 53.369871 ], [ -2.3310151, 53.3701697 ], [ -2.3314052, 53.37050880000001 ], [ -2.3315112, 53.3705601 ] ] } },
{ "type": "Feature", "properties": { "id": 8866, "nach": 0.25710049043096284 }, "geometry": { "type": "LineString", "coordinates": [ [ -2.3271428, 53.371749399999985 ], [ -2.328044, 53.371944 ], [ -2.3287307, 53.37201060000001 ], [ -2.3292628, 53.372020799999987 ], [ -2.3299752, 53.3719952 ], [ -2.3309108, 53.3719901 ] ] } },
{ "type": "Feature", "properties": { "id": 8864, "nach": 0.30882900811932473 }, "geometry": { "type": "LineString", "coordinates": [ [ -2.3315802, 53.3720618 ], [ -2.33125410000001, 53.371985 ], [ -2.3309108, 53.3719901 ] ] } },
{ "type": "Feature", "properties": { "id": 117328, "nach": 0.40008206995790735 }, "geometry": { "type": "LineString", "coordinates": [ [ -2.3304124, 53.369969 ], [ -2.3306345, 53.369871 ] ] } },
{ "type": "Feature", "properties": { "id": 8874, "nach": 0.46353455908412294 }, "geometry": { "type": "LineString", "coordinates": [ [ -2.3298641, 53.3694181 ], [ -2.3300422, 53.3694552 ], [ -2.3301863, 53.3695133 ], [ -2.3302654, 53.3695719 ], [ -2.3303394, 53.3696266 ], [ -2.3306345, 53.369871 ] ] } },
{ "type": "Feature", "properties": { "id": 8867, "nach": 0.30620648189851463 }, "geometry": { "type": "LineString", "coordinates": [ [ -2.3269626, 53.371575300000011 ], [ -2.3271428, 53.371749399999985 ] ] } },
{ "type": "Feature", "properties": { "id": 8884, "nach": 0.33514390938563055 }, "geometry": { "type": "LineString", "coordinates": [ [ -2.327838, 53.3702285 ], [ -2.3275805, 53.370571600000012 ], [ -2.3274346, 53.371012 ], [ -2.3272715, 53.371288500000013 ], [ -2.3269626, 53.371575300000011 ] ] } },
{ "type": "Feature", "properties": { "id": 8885, "nach": 0.39492008845494153 }, "geometry": { "type": "LineString", "coordinates": [ [ -2.327838, 53.3702285 ], [ -2.3281642, 53.3698905 ], [ -2.3285247, 53.3696601 ] ] } },
{ "type": "Feature", "properties": { "id": 77981, "nach": 0.32608630729485638 }, "geometry": { "type": "LineString", "coordinates": [ [ -2.3283724, 53.3703804 ], [ -2.327838, 53.3702285 ] ] } },
{ "type": "Feature", "properties": { "id": 117329, "nach": 0.31391590793229385 }, "geometry": { "type": "LineString", "coordinates": [ [ -2.3304124, 53.369969 ], [ -2.3300095, 53.3701466 ], [ -2.3297778, 53.3703104 ], [ -2.3295632, 53.3706126 ], [ -2.3293315, 53.3709762 ], [ -2.3292628, 53.371529200000012 ] ] } },
{ "type": "Feature", "properties": { "id": 117331, "nach": 0.33842652260198947 }, "geometry": { "type": "LineString", "coordinates": [ [ -2.3298694, 53.36960950000001 ], [ -2.3300656, 53.3696694 ], [ -2.330187, 53.3697488 ], [ -2.3302687, 53.369817 ], [ -2.3303178, 53.3698783 ], [ -2.3303443, 53.3699037 ], [ -2.3304124, 53.369969 ] ] } },
{ "type": "Feature", "properties": { "id": 8878, "nach": 0.43963027611839051 }, "geometry": { "type": "LineString", "coordinates": [ [ -2.3285247, 53.3696601 ], [ -2.3286685, 53.3697132 ], [ -2.3288206, 53.3697246 ], [ -2.3289797, 53.3697196 ], [ -2.3291476, 53.3696759 ], [ -2.3293638, 53.3695589 ], [ -2.3295758, 53.3694476 ], [ -2.3297132, 53.3694124 ], [ -2.3298641, 53.3694181 ] ] } },
{ "type": "Feature", "properties": { "id": 154422, "nach": 0.46014875596426796 }, "geometry": { "type": "LineString", "coordinates": [ [ -2.3295001, 53.3688477 ], [ -2.3296017, 53.36898 ], [ -2.3298641, 53.3694181 ] ] } },
{ "type": "Feature", "properties": { "id": 9042, "nach": 0.44372829422188897 }, "geometry": { "type": "LineString", "coordinates": [ [ -2.3319583, 53.368669400000016 ], [ -2.3314691, 53.368818 ], [ -2.3311, 53.3690638 ], [ -2.3306623, 53.3692942 ], [ -2.3302675, 53.3693659 ], [ -2.3298641, 53.3694181 ] ] } },
{ "type": "Feature", "properties": { "id": 60155, "nach": 0.41905658316493538 }, "geometry": { "type": "LineString", "coordinates": [ [ -2.3271285, 53.3692159 ], [ -2.3274875, 53.3692524 ], [ -2.3277991, 53.369332 ], [ -2.3281893, 53.3694906 ], [ -2.3285247, 53.3696601 ] ] } },
{ "type": "Feature", "properties": { "id": 154423, "nach": 0.46156216432526592 }, "geometry": { "type": "LineString", "coordinates": [ [ -2.3295001, 53.3688477 ], [ -2.3293185, 53.3686113 ], [ -2.3291468, 53.3682119 ], [ -2.3290782, 53.3680976 ] ] } },
{ "type": "Feature", "properties": { "id": 154425, "nach": 0.33243310159806871 }, "geometry": { "type": "LineString", "coordinates": [ [ -2.3308396, 53.3682472 ], [ -2.3307979, 53.3682937 ], [ -2.3307487, 53.3683213 ], [ -2.3305124, 53.3684231 ], [ -2.3304169, 53.3684706 ], [ -2.3303344, 53.3685967 ], [ -2.3302973, 53.3686338 ], [ -2.3301648, 53.3687024 ], [ -2.3300526, 53.3687494 ], [ -2.3299498, 53.36877040000001 ], [ -2.329871, 53.368777 ], [ -2.3297718, 53.3687787 ], [ -2.3295966, 53.3688224 ], [ -2.3295001, 53.3688477 ] ] } },
{ "type": "Feature", "properties": { "id": 129744, "nach": 0.44139041174428351 }, "geometry": { "type": "LineString", "coordinates": [ [ -2.3266247, 53.36913340000001 ], [ -2.3266965, 53.3691479 ], [ -2.3271285, 53.3692159 ] ] } },
{ "type": "Feature", "properties": { "id": 77988, "nach": 0.37869157813642235 }, "geometry": { "type": "LineString", "coordinates": [ [ -2.3290782, 53.3680976 ], [ -2.3284589, 53.36824 ], [ -2.328221, 53.3683345 ], [ -2.3280267, 53.3684572 ], [ -2.3279771, 53.3684928 ], [ -2.3278081, 53.3686262 ], [ -2.327657, 53.3687671 ], [ -2.3271285, 53.3692159 ] ] } },
{ "type": "Feature", "properties": { "id": 130876, "nach": 0.30601366661000184 }, "geometry": { "type": "LineString", "coordinates": [ [ -2.3253664, 53.370359 ], [ -2.3254896, 53.370357 ], [ -2.3255545, 53.3703496 ], [ -2.3256008, 53.3703312 ], [ -2.3256286, 53.3703017 ], [ -2.3256348, 53.370267600000012 ], [ -2.3256333, 53.3702261 ], [ -2.3256178, 53.3701791 ], [ -2.3255869, 53.3701505 ], [ -2.3255174, 53.3701358 ], [ -2.3253488, 53.3701275 ] ] } },
{ "type": "Feature", "properties": { "id": 129746, "nach": 0.32661057477398037 }, "geometry": { "type": "LineString", "coordinates": [ [ -2.3264926, 53.3698676 ], [ -2.3264926, 53.3697198 ], [ -2.3265182, 53.3696195 ], [ -2.3265581, 53.3694361 ], [ -2.3266247, 53.36913340000001 ] ] } },
{ "type": "Feature", "properties": { "id": 142199, "nach": 0.41211459081284041 }, "geometry": { "type": "LineString", "coordinates": [ [ -2.332292, 53.3704943 ], [ -2.3324803, 53.3704741 ], [ -2.3327806, 53.3704423 ], [ -2.3331449, 53.3704252 ], [ -2.3336137, 53.3704065 ] ] } },
{ "type": "Feature", "properties": { "id": 142201, "nach": 0.32673435481921259 }, "geometry": { "type": "LineString", "coordinates": [ [ -2.3318375, 53.3696101 ], [ -2.3318101, 53.369623 ], [ -2.3317967, 53.36964780000001 ], [ -2.3318075, 53.3696638 ], [ -2.3318437, 53.369691 ], [ -2.3319349, 53.3697511 ], [ -2.3320046, 53.3698127 ], [ -2.3320354, 53.3698423 ], [ -2.3320616, 53.3698772 ], [ -2.3321552, 53.3701052 ], [ -2.332292, 53.3704943 ] ] } },
{ "type": "Feature", "properties": { "id": 101665, "nach": 0.45593900965345752 }, "geometry": { "type": "LineString", "coordinates": [ [ -2.3284195, 53.36706490000001 ], [ -2.3282945, 53.3670117 ], [ -2.3282017, 53.3669798 ], [ -2.328185, 53.3669481 ] ] } },
{ "type": "Feature", "properties": { "id": 101689, "nach": 0.41028819844404824 }, "geometry": { "type": "LineString", "coordinates": [ [ -2.3271785, 53.365963 ], [ -2.3272003, 53.3659642 ], [ -2.3273048, 53.365983 ], [ -2.3274051, 53.366001799999985 ], [ -2.3275196, 53.3660332 ], [ -2.3277251, 53.3661056 ], [ -2.3278699, 53.3661642 ], [ -2.3279633, 53.3662282 ], [ -2.32808, 53.3663731 ], [ -2.3281501, 53.3664902 ], [ -2.3281921, 53.36660160000001 ], [ -2.3282014, 53.366702 ], [ -2.3281921, 53.3667661 ], [ -2.328185, 53.3669481 ] ] } },
{ "type": "Feature", "properties": { "id": 101686, "nach": 0.42524098242378155 }, "geometry": { "type": "LineString", "coordinates": [ [ -2.3257253, 53.36624230000001 ], [ -2.327736, 53.3668188 ], [ -2.328185, 53.3669481 ] ] } },
{ "type": "Feature", "properties": { "id": 171700, "nach": 0.44040625149185836 }, "geometry": { "type": "LineString", "coordinates": [ [ -2.3285683, 53.3671862 ], [ -2.3284195, 53.36706490000001 ] ] } },
{ "type": "Feature", "properties": { "id": 101668, "nach": 0.38290847150392843 }, "geometry": { "type": "LineString", "coordinates": [ [ -2.3300584, 53.3662925 ], [ -2.3285841, 53.3668426 ], [ -2.3284906, 53.3668984 ], [ -2.3284337, 53.366956599999988 ], [ -2.3284195, 53.36706490000001 ] ] } },
{ "type": "Feature", "properties": { "id": 101688, "nach": 0.37620061663541476 }, "geometry": { "type": "LineString", "coordinates": [ [ -2.3271785, 53.365963 ], [ -2.3270853, 53.3659579 ], [ -2.3269639, 53.3659663 ], [ -2.3268892, 53.3659914 ], [ -2.3268425, 53.366027600000017 ], [ -2.3268191, 53.36609450000001 ], [ -2.3268191, 53.366231 ], [ -2.3268098, 53.3662895 ], [ -2.3267677, 53.3663704 ], [ -2.3267306, 53.3664359 ] ] } },
{ "type": "Feature", "properties": { "id": 101684, "nach": 0.34949405332370825 }, "geometry": { "type": "LineString", "coordinates": [ [ -2.3257253, 53.36624230000001 ], [ -2.3249307, 53.367550799999989 ] ] } },
{ "type": "Feature", "properties": { "id": 101685, "nach": 0.43858158015374149 }, "geometry": { "type": "LineString", "coordinates": [ [ -2.3257253, 53.36624230000001 ], [ -2.3257319, 53.3662305 ] ] } },
{ "type": "Feature", "properties": { "id": 171701, "nach": 0.43479796230328599 }, "geometry": { "type": "LineString", "coordinates": [ [ -2.3285683, 53.3671862 ], [ -2.3286209, 53.3671635 ], [ -2.3297842, 53.3666157 ], [ -2.3299237, 53.36654450000001 ], [ -2.3300151, 53.366473 ], [ -2.3300484, 53.3664076 ], [ -2.3300584, 53.3662925 ] ] } },
{ "type": "Feature", "properties": { "id": 181523, "nach": 0.38511415281574235 }, "geometry": { "type": "LineString", "coordinates": [ [ -2.3249025, 53.3675748 ], [ -2.3249307, 53.367550799999989 ] ] } },
{ "type": "Feature", "properties": { "id": 181524, "nach": 0.41629494607607487 }, "geometry": { "type": "LineString", "coordinates": [ [ -2.3249025, 53.3675748 ], [ -2.3258282, 53.3676936 ], [ -2.3263617, 53.3677439 ], [ -2.3267408, 53.3677146 ], [ -2.3274264, 53.3676727 ], [ -2.3278616, 53.3675694 ], [ -2.3285903, 53.367204100000016 ] ] } },
{ "type": "Feature", "properties": { "id": 77987, "nach": 0.47132588108114987 }, "geometry": { "type": "LineString", "coordinates": [ [ -2.3290782, 53.3680976 ], [ -2.3289408, 53.3678687 ], [ -2.3288293, 53.367510200000012 ], [ -2.3288092, 53.3674668 ] ] } },
{ "type": "Feature", "properties": { "id": 77989, "nach": 0.33401054406560893 }, "geometry": { "type": "LineString", "coordinates": [ [ -2.3290782, 53.3680976 ], [ -2.3295391, 53.3679632 ], [ -2.3305289, 53.3675449 ] ] } },
{ "type": "Feature", "properties": { "id": 101693, "nach": 0.39587251311732474 }, "geometry": { "type": "LineString", "coordinates": [ [ -2.3236353, 53.3653756 ], [ -2.3234807, 53.3649962 ], [ -2.3234649, 53.3647461 ], [ -2.3233305, 53.36453370000001 ], [ -2.3233621, 53.3642222 ], [ -2.3235677, 53.3640807 ], [ -2.3237108, 53.3639639 ], [ -2.3236944, 53.3636973 ], [ -2.3236864, 53.3636701 ], [ -2.3236389, 53.3634577 ], [ -2.32378920000001, 53.3630896 ], [ -2.3237908, 53.3628505 ], [ -2.3235314, 53.362579100000012 ] ] } },
{ "type": "Feature", "properties": { "id": 101698, "nach": 0.33173677036539234 }, "geometry": { "type": "LineString", "coordinates": [ [ -2.3241344, 53.3651734 ], [ -2.3240728, 53.3652635 ], [ -2.3240358, 53.3653039 ], [ -2.3239557, 53.3653407 ], [ -2.3238602, 53.3653554 ], [ -2.3237215, 53.3653664 ], [ -2.3236353, 53.3653756 ] ] } },
{ "type": "Feature", "properties": { "id": 117054, "nach": 0.47295886624074629 }, "geometry": { "type": "LineString", "coordinates": [ [ -2.3286903, 53.3672514 ], [ -2.3287177, 53.3672695 ], [ -2.3288092, 53.3674668 ] ] } },
{ "type": "Feature", "properties": { "id": 139687, "nach": 0.39852839244939009 }, "geometry": { "type": "LineString", "coordinates": [ [ -2.3301054, 53.367054 ], [ -2.3300296, 53.3671495 ], [ -2.3298529, 53.3672888 ], [ -2.3293617, 53.3673415 ], [ -2.3290667, 53.3674311 ], [ -2.3288092, 53.3674668 ] ] } },
{ "type": "Feature", "properties": { "id": 181520, "nach": 0.47464998407239267 }, "geometry": { "type": "LineString", "coordinates": [ [ -2.3285903, 53.367204100000016 ], [ -2.3286183, 53.367226900000013 ], [ -2.3286903, 53.3672514 ] ] } },
{ "type": "Feature", "properties": { "id": 117057, "nach": 0.3342123275747636 }, "geometry": { "type": "LineString", "coordinates": [ [ -2.3281861, 53.3676199 ], [ -2.32816, 53.3675601 ], [ -2.3281534, 53.3675107 ], [ -2.3281774, 53.367470400000016 ], [ -2.3282406, 53.3674314 ], [ -2.3283517, 53.367388499999983 ], [ -2.3285195, 53.3673196 ], [ -2.3286903, 53.3672514 ] ] } },
{ "type": "Feature", "properties": { "id": 153681, "nach": 0.31602131174634834 }, "geometry": { "type": "LineString", "coordinates": [ [ -2.3261568, 53.3675791 ], [ -2.3260634, 53.367642 ], [ -2.3260086, 53.3676603 ], [ -2.3259115, 53.3676716 ], [ -2.3258082, 53.3676665 ], [ -2.3249307, 53.367550799999989 ] ] } },
{ "type": "Feature", "properties": { "id": 101687, "nach": 0.33015785472613196 }, "geometry": { "type": "LineString", "coordinates": [ [ -2.3247831, 53.365801899999987 ], [ -2.3248835, 53.3658562 ], [ -2.3250096, 53.3659161 ], [ -2.3250598, 53.36593 ], [ -2.325124, 53.365938399999983 ], [ -2.3252431, 53.365938400000012 ], [ -2.325361, 53.3659516 ], [ -2.3254789, 53.3659788 ], [ -2.3255536, 53.3660067 ], [ -2.3256213, 53.3660485 ], [ -2.3256914, 53.3661223 ], [ -2.3257243, 53.36617720000001 ], [ -2.3257319, 53.3662305 ] ] } },
{ "type": "Feature", "properties": { "id": 181519, "nach": 0.48210116757333432 }, "geometry": { "type": "LineString", "coordinates": [ [ -2.3285903, 53.367204100000016 ], [ -2.3285683, 53.3671862 ] ] } },
{ "type": "Feature", "properties": { "id": 101680, "nach": 0.30746356558569615 }, "geometry": { "type": "LineString", "coordinates": [ [ -2.3272628, 53.3666072 ], [ -2.3267306, 53.3664359 ] ] } },
{ "type": "Feature", "properties": { "id": 111469, "nach": 0.30833864225951224 }, "geometry": { "type": "LineString", "coordinates": [ [ -2.3263633, 53.3663109 ], [ -2.326414, 53.3663316 ], [ -2.3267306, 53.3664359 ] ] } },
{ "type": "Feature", "properties": { "id": 111468, "nach": 0.0 }, "geometry": { "type": "LineString", "coordinates": [ [ -2.3263633, 53.3663109 ], [ -2.3263603, 53.3661852 ], [ -2.3261096, 53.3661092 ], [ -2.3260076, 53.3661156 ], [ -2.3259728, 53.3661676 ], [ -2.3261042, 53.3662052 ], [ -2.3263633, 53.3663109 ] ] } },
{ "type": "Feature", "properties": { "id": 129749, "nach": 0.30766574245862449 }, "geometry": { "type": "LineString", "coordinates": [ [ -2.3230781, 53.3694748 ], [ -2.3237679, 53.3696347 ] ] } },
{ "type": "Feature", "properties": { "id": 152523, "nach": 0.30020725307612345 }, "geometry": { "type": "LineString", "coordinates": [ [ -2.3212778, 53.3664868 ], [ -2.3210955, 53.3664947 ], [ -2.3209323, 53.3665008 ], [ -2.3203774, 53.3665029 ] ] } },
{ "type": "Feature", "properties": { "id": 152525, "nach": 0.30312230650943989 }, "geometry": { "type": "LineString", "coordinates": [ [ -2.3209031, 53.3662434 ], [ -2.3209773, 53.366315299999989 ], [ -2.3211607, 53.3664174 ], [ -2.3212778, 53.3664868 ] ] } }
]
}
