{
"type": "FeatureCollection",
"name": "8119bbbdfa37_foliage",
"crs": { "type": "name", "properties": { "name": "urn:ogc:def:crs:OGC:1.3:CRS84" } },
"features": [
{ "type": "Feature", "properties": { "max_height": 13.581497192382812, "mean_height": 2.9774022102355957, "std_height": 3.7036149501800537, "count_pixels": 41, "percent_cover": 0.42311661506707948, "percent_above_0.1m": 73.170731707317074, "low_level_<0.5": 9.7560975609756095, "mid_level_0.5-2": 14.634146341463413, "tall_2+": 41.463414634146339 }, "geometry": null },
{ "type": "Feature", "properties": { "max_height": 17.448753356933594, "mean_height": 14.944791793823242, "std_height": 1.9760292768478394, "count_pixels": 36, "percent_cover": 0.37151702786377705, "percent_above_0.1m": 100.0, "low_level_<0.5": 0.0, "mid_level_0.5-2": 0.0, "tall_2+": 100.0 }, "geometry": null },
{ "type": "Feature", "properties": { "max_height": 16.055503845214844, "mean_height": 6.9043059349060059, "std_height": 5.6897387504577637, "count_pixels": 40, "percent_cover": 0.41279669762641896, "percent_above_0.1m": 72.5, "low_level_<0.5": 0.0, "mid_level_0.5-2": 2.5, "tall_2+": 65.0 }, "geometry": null },
{ "type": "Feature", "properties": { "max_height": 16.614242553710938, "mean_height": 6.6201114654541016, "std_height": 6.1632094383239746, "count_pixels": 43, "percent_cover": 0.44375644994840041, "percent_above_0.1m": 81.395348837209298, "low_level_<0.5": 4.6511627906976747, "mid_level_0.5-2": 13.953488372093023, "tall_2+": 60.465116279069761 }, "geometry": null },
{ "type": "Feature", "properties": { "max_height": 17.543243408203125, "mean_height": 13.856466293334961, "std_height": 2.2546169757843018, "count_pixels": 44, "percent_cover": 0.45407636738906088, "percent_above_0.1m": 100.0, "low_level_<0.5": 0.0, "mid_level_0.5-2": 0.0, "tall_2+": 100.0 }, "geometry": null },
{ "type": "Feature", "properties": { "max_height": 22.590248107910156, "mean_height": 17.425336837768555, "std_height": 3.6384656429290771, "count_pixels": 43, "percent_cover": 0.44375644994840041, "percent_above_0.1m": 100.0, "low_level_<0.5": 0.0, "mid_level_0.5-2": 0.0, "tall_2+": 100.0 }, "geometry": null },
{ "type": "Feature", "properties": { "max_height": 19.644996643066406, "mean_height": 10.387104988098145, "std_height": 5.9548044204711914, "count_pixels": 43, "percent_cover": 0.44375644994840041, "percent_above_0.1m": 97.674418604651152, "low_level_<0.5": 2.3255813953488373, "mid_level_0.5-2": 9.3023255813953494, "tall_2+": 86.04651162790698 }, "geometry": null },
{ "type": "Feature", "properties": { "max_height": 12.06500244140625, "mean_height": 1.8240628242492676, "std_height": 2.8000955581665039, "count_pixels": 36, "percent_cover": 0.37151702786377705, "percent_above_0.1m": 69.444444444444443, "low_level_<0.5": 11.111111111111111, "mid_level_0.5-2": 27.777777777777779, "tall_2+": 27.777777777777779 }, "geometry": null },
{ "type": "Feature", "properties": { "max_height": 18.665496826171875, "mean_height": 10.593262672424316, "std_height": 5.6607785224914551, "count_pixels": 40, "percent_cover": 0.41279669762641896, "percent_above_0.1m": 95.0, "low_level_<0.5": 0.0, "mid_level_0.5-2": 2.5, "tall_2+": 90.0 }, "geometry": null },
{ "type": "Feature", "properties": { "max_height": 21.088752746582031, "mean_height": 15.819300651550293, "std_height": 3.2448728084564209, "count_pixels": 41, "percent_cover": 0.42311661506707948, "percent_above_0.1m": 100.0, "low_level_<0.5": 0.0, "mid_level_0.5-2": 0.0, "tall_2+": 100.0 }, "geometry": null },
{ "type": "Feature", "properties": { "max_height": 21.709999084472656, "mean_height": 8.7556648254394531, "std_height": 7.8332610130310059, "count_pixels": 41, "percent_cover": 0.42311661506707948, "percent_above_0.1m": 82.926829268292678, "low_level_<0.5": 9.7560975609756095, "mid_level_0.5-2": 9.7560975609756095, "tall_2+": 63.414634146341463 }, "geometry": null },
{ "type": "Feature", "properties": { "max_height": 14.218254089355469, "mean_height": 5.5435476303100586, "std_height": 4.9401664733886719, "count_pixels": 42, "percent_cover": 0.43343653250773995, "percent_above_0.1m": 85.714285714285708, "low_level_<0.5": 4.7619047619047619, "mid_level_0.5-2": 14.285714285714285, "tall_2+": 66.666666666666657 }, "geometry": null },
{ "type": "Feature", "properties": { "max_height": 3.5634994506835938, "mean_height": 0.79598337411880493, "std_height": 1.1388553380966187, "count_pixels": 44, "percent_cover": 0.45407636738906088, "percent_above_0.1m": 45.454545454545453, "low_level_<0.5": 4.5454545454545459, "mid_level_0.5-2": 22.727272727272727, "tall_2+": 15.909090909090908 }, "geometry": null },
{ "type": "Feature", "properties": { "max_height": 18.061492919921875, "mean_height": 5.6152200698852539, "std_height": 6.3221383094787598, "count_pixels": 43, "percent_cover": 0.44375644994840041, "percent_above_0.1m": 60.465116279069761, "low_level_<0.5": 2.3255813953488373, "mid_level_0.5-2": 6.9767441860465116, "tall_2+": 51.162790697674424 }, "geometry": null },
{ "type": "Feature", "properties": { "max_height": 19.485000610351562, "mean_height": 11.929006576538086, "std_height": 5.5870547294616699, "count_pixels": 43, "percent_cover": 0.44375644994840041, "percent_above_0.1m": 93.023255813953483, "low_level_<0.5": 0.0, "mid_level_0.5-2": 2.3255813953488373, "tall_2+": 90.697674418604649 }, "geometry": null },
{ "type": "Feature", "properties": { "max_height": 8.9527511596679688, "mean_height": 1.0380055904388428, "std_height": 2.2045269012451172, "count_pixels": 42, "percent_cover": 0.43343653250773995, "percent_above_0.1m": 28.571428571428569, "low_level_<0.5": 4.7619047619047619, "mid_level_0.5-2": 7.1428571428571423, "tall_2+": 16.666666666666664 }, "geometry": null },
{ "type": "Feature", "properties": { "max_height": 14.767501831054688, "mean_height": 5.4808907508850098, "std_height": 4.2555751800537109, "count_pixels": 41, "percent_cover": 0.42311661506707948, "percent_above_0.1m": 73.170731707317074, "low_level_<0.5": 0.0, "mid_level_0.5-2": 4.8780487804878048, "tall_2+": 68.292682926829272 }, "geometry": null },
{ "type": "Feature", "properties": { "max_height": 9.3810043334960938, "mean_height": 2.608177661895752, "std_height": 2.8784987926483154, "count_pixels": 41, "percent_cover": 0.42311661506707948, "percent_above_0.1m": 60.975609756097562, "low_level_<0.5": 7.3170731707317067, "mid_level_0.5-2": 9.7560975609756095, "tall_2+": 43.902439024390247 }, "geometry": null },
{ "type": "Feature", "properties": { "max_height": 8.3050003051757812, "mean_height": 1.6675976514816284, "std_height": 2.4720714092254639, "count_pixels": 41, "percent_cover": 0.42311661506707948, "percent_above_0.1m": 36.585365853658537, "low_level_<0.5": 0.0, "mid_level_0.5-2": 2.4390243902439024, "tall_2+": 34.146341463414636 }, "geometry": null },
{ "type": "Feature", "properties": { "max_height": 5.7392425537109375, "mean_height": 0.64797186851501465, "std_height": 1.3294228315353394, "count_pixels": 36, "percent_cover": 0.37151702786377705, "percent_above_0.1m": 30.555555555555557, "low_level_<0.5": 2.7777777777777777, "mid_level_0.5-2": 16.666666666666664, "tall_2+": 11.111111111111111 }, "geometry": null },
{ "type": "Feature", "properties": { "max_height": 11.245498657226562, "mean_height": 2.282726526260376, "std_height": 2.9189419746398926, "count_pixels": 41, "percent_cover": 0.42311661506707948, "percent_above_0.1m": 56.09756097560976, "low_level_<0.5": 0.0, "mid_level_0.5-2": 12.195121951219512, "tall_2+": 43.902439024390247 }, "geometry": null },
{ "type": "Feature", "properties": { "max_height": 7.5967483520507812, "mean_height": 2.371833324432373, "std_height": 2.8337657451629639, "count_pixels": 36, "percent_cover": 0.37151702786377705, "percent_above_0.1m": 55.555555555555557, "low_level_<0.5": 5.5555555555555554, "mid_level_0.5-2": 11.111111111111111, "tall_2+": 38.888888888888893 }, "geometry": null },
{ "type": "Feature", "properties": { "max_height": 3.510498046875, "mean_height": 0.51713162660598755, "std_height": 0.97039699554443359, "count_pixels": 40, "percent_cover": 0.41279669762641896, "percent_above_0.1m": 27.5, "low_level_<0.5": 2.5, "mid_level_0.5-2": 12.5, "tall_2+": 12.5 }, "geometry": null },
{ "type": "Feature", "properties": { "max_height": 16.705001831054688, "mean_height": 9.9785423278808594, "std_height": 4.1352877616882324, "count_pixels": 41, "percent_cover": 0.42311661506707948, "percent_above_0.1m": 95.121951219512198, "low_level_<0.5": 0.0, "mid_level_0.5-2": 0.0, "tall_2+": 95.121951219512198 }, "geometry": null },
{ "type": "Feature", "properties": { "max_height": 15.604255676269531, "mean_height": 10.22512149810791, "std_height": 3.6941261291503906, "count_pixels": 41, "percent_cover": 0.42311661506707948, "percent_above_0.1m": 100.0, "low_level_<0.5": 0.0, "mid_level_0.5-2": 2.4390243902439024, "tall_2+": 97.560975609756099 }, "geometry": null },
{ "type": "Feature", "properties": { "max_height": 4.5032577514648438, "mean_height": 0.32835716009140015, "std_height": 0.98664355278015137, "count_pixels": 42, "percent_cover": 0.43343653250773995, "percent_above_0.1m": 16.666666666666664, "low_level_<0.5": 4.7619047619047619, "mid_level_0.5-2": 7.1428571428571423, "tall_2+": 4.7619047619047619 }, "geometry": null },
{ "type": "Feature", "properties": { "max_height": 7.6790008544921875, "mean_height": 1.2942973375320435, "std_height": 2.1625664234161377, "count_pixels": 43, "percent_cover": 0.44375644994840041, "percent_above_0.1m": 37.209302325581397, "low_level_<0.5": 0.0, "mid_level_0.5-2": 13.953488372093023, "tall_2+": 23.255813953488371 }, "geometry": null },
{ "type": "Feature", "properties": { "max_height": 7.3604965209960938, "mean_height": 0.79044252634048462, "std_height": 1.6582350730895996, "count_pixels": 43, "percent_cover": 0.44375644994840041, "percent_above_0.1m": 32.558139534883722, "low_level_<0.5": 4.6511627906976747, "mid_level_0.5-2": 16.279069767441861, "tall_2+": 11.627906976744185 }, "geometry": null },
{ "type": "Feature", "properties": { "max_height": 5.5904998779296875, "mean_height": 0.68036085367202759, "std_height": 1.4428287744522095, "count_pixels": 43, "percent_cover": 0.44375644994840041, "percent_above_0.1m": 25.581395348837212, "low_level_<0.5": 0.0, "mid_level_0.5-2": 6.9767441860465116, "tall_2+": 16.279069767441861 }, "geometry": null },
{ "type": "Feature", "properties": { "max_height": 8.7492523193359375, "mean_height": 1.4861631393432617, "std_height": 2.1022365093231201, "count_pixels": 43, "percent_cover": 0.44375644994840041, "percent_above_0.1m": 51.162790697674424, "low_level_<0.5": 6.9767441860465116, "mid_level_0.5-2": 18.604651162790699, "tall_2+": 25.581395348837212 }, "geometry": null },
{ "type": "Feature", "properties": { "max_height": 13.504501342773438, "mean_height": 5.5042495727539062, "std_height": 4.5742831230163574, "count_pixels": 43, "percent_cover": 0.44375644994840041, "percent_above_0.1m": 95.348837209302332, "low_level_<0.5": 11.627906976744185, "mid_level_0.5-2": 11.627906976744185, "tall_2+": 65.116279069767444 }, "geometry": null },
{ "type": "Feature", "properties": { "max_height": 6.6425018310546875, "mean_height": 2.8222904205322266, "std_height": 1.4643280506134033, "count_pixels": 44, "percent_cover": 0.45407636738906088, "percent_above_0.1m": 100.0, "low_level_<0.5": 9.0909090909090917, "mid_level_0.5-2": 18.181818181818183, "tall_2+": 72.727272727272734 }, "geometry": null },
{ "type": "Feature", "properties": { "max_height": 13.807502746582031, "mean_height": 2.9141454696655273, "std_height": 4.2327866554260254, "count_pixels": 43, "percent_cover": 0.44375644994840041, "percent_above_0.1m": 58.139534883720934, "low_level_<0.5": 4.6511627906976747, "mid_level_0.5-2": 18.604651162790699, "tall_2+": 34.883720930232556 }, "geometry": null },
{ "type": "Feature", "properties": { "max_height": 16.725997924804688, "mean_height": 8.7098264694213867, "std_height": 5.7195062637329102, "count_pixels": 43, "percent_cover": 0.44375644994840041, "percent_above_0.1m": 83.720930232558146, "low_level_<0.5": 2.3255813953488373, "mid_level_0.5-2": 2.3255813953488373, "tall_2+": 79.069767441860463 }, "geometry": null },
{ "type": "Feature", "properties": { "max_height": 6.2664947509765625, "mean_height": 2.1575412750244141, "std_height": 2.3472673892974854, "count_pixels": 42, "percent_cover": 0.43343653250773995, "percent_above_0.1m": 66.666666666666657, "low_level_<0.5": 9.5238095238095237, "mid_level_0.5-2": 9.5238095238095237, "tall_2+": 45.238095238095241 }, "geometry": null },
{ "type": "Feature", "properties": { "max_height": 1.1512527465820312, "mean_height": 0.06113433837890625, "std_height": 0.20219014585018158, "count_pixels": 41, "percent_cover": 0.42311661506707948, "percent_above_0.1m": 9.7560975609756095, "low_level_<0.5": 4.8780487804878048, "mid_level_0.5-2": 4.8780487804878048, "tall_2+": 0.0 }, "geometry": null },
{ "type": "Feature", "properties": { "max_height": 3.8754959106445312, "mean_height": 0.32781627774238586, "std_height": 0.79192036390304565, "count_pixels": 41, "percent_cover": 0.42311661506707948, "percent_above_0.1m": 24.390243902439025, "low_level_<0.5": 2.4390243902439024, "mid_level_0.5-2": 12.195121951219512, "tall_2+": 4.8780487804878048 }, "geometry": null },
{ "type": "Feature", "properties": { "max_height": 7.1242446899414062, "mean_height": 0.74412167072296143, "std_height": 1.7767084836959839, "count_pixels": 41, "percent_cover": 0.42311661506707948, "percent_above_0.1m": 36.585365853658537, "low_level_<0.5": 12.195121951219512, "mid_level_0.5-2": 9.7560975609756095, "tall_2+": 12.195121951219512 }, "geometry": null },
{ "type": "Feature", "properties": { "max_height": 8.4694976806640625, "mean_height": 4.5102987289428711, "std_height": 2.6988160610198975, "count_pixels": 36, "percent_cover": 0.37151702786377705, "percent_above_0.1m": 88.888888888888886, "low_level_<0.5": 2.7777777777777777, "mid_level_0.5-2": 5.5555555555555554, "tall_2+": 77.777777777777786 }, "geometry": null },
{ "type": "Feature", "properties": { "max_height": 10.150497436523438, "mean_height": 2.3264765739440918, "std_height": 2.9421839714050293, "count_pixels": 41, "percent_cover": 0.42311661506707948, "percent_above_0.1m": 63.414634146341463, "low_level_<0.5": 4.8780487804878048, "mid_level_0.5-2": 21.951219512195124, "tall_2+": 36.585365853658537 }, "geometry": null },
{ "type": "Feature", "properties": { "max_height": 3.6719970703125, "mean_height": 1.1627931594848633, "std_height": 1.2536070346832275, "count_pixels": 40, "percent_cover": 0.41279669762641896, "percent_above_0.1m": 62.5, "low_level_<0.5": 5.0, "mid_level_0.5-2": 27.5, "tall_2+": 30.0 }, "geometry": null },
{ "type": "Feature", "properties": { "max_height": 10.83074951171875, "mean_height": 3.0118911266326904, "std_height": 3.9307355880737305, "count_pixels": 41, "percent_cover": 0.42311661506707948, "percent_above_0.1m": 48.780487804878049, "low_level_<0.5": 0.0, "mid_level_0.5-2": 7.3170731707317067, "tall_2+": 41.463414634146339 }, "geometry": null },
{ "type": "Feature", "properties": { "max_height": 11.250244140625, "mean_height": 3.5599565505981445, "std_height": 4.2646150588989258, "count_pixels": 41, "percent_cover": 0.42311661506707948, "percent_above_0.1m": 60.975609756097562, "low_level_<0.5": 7.3170731707317067, "mid_level_0.5-2": 9.7560975609756095, "tall_2+": 41.463414634146339 }, "geometry": null },
{ "type": "Feature", "properties": { "max_height": 3.9380035400390625, "mean_height": 1.5777202844619751, "std_height": 1.5183889865875244, "count_pixels": 42, "percent_cover": 0.43343653250773995, "percent_above_0.1m": 66.666666666666657, "low_level_<0.5": 2.3809523809523809, "mid_level_0.5-2": 26.190476190476193, "tall_2+": 38.095238095238095 }, "geometry": null },
{ "type": "Feature", "properties": { "max_height": 5.6152572631835938, "mean_height": 0.49806976318359375, "std_height": 0.96352344751358032, "count_pixels": 43, "percent_cover": 0.44375644994840041, "percent_above_0.1m": 46.511627906976742, "low_level_<0.5": 9.3023255813953494, "mid_level_0.5-2": 27.906976744186046, "tall_2+": 2.3255813953488373 }, "geometry": null },
{ "type": "Feature", "properties": { "max_height": 5.639251708984375, "mean_height": 0.6028251051902771, "std_height": 1.2570581436157227, "count_pixels": 43, "percent_cover": 0.44375644994840041, "percent_above_0.1m": 23.255813953488371, "low_level_<0.5": 0.0, "mid_level_0.5-2": 9.3023255813953494, "tall_2+": 13.953488372093023 }, "geometry": null },
{ "type": "Feature", "properties": { "max_height": 5.477996826171875, "mean_height": 1.5049645900726318, "std_height": 1.6195203065872192, "count_pixels": 43, "percent_cover": 0.44375644994840041, "percent_above_0.1m": 67.441860465116278, "low_level_<0.5": 9.3023255813953494, "mid_level_0.5-2": 23.255813953488371, "tall_2+": 34.883720930232556 }, "geometry": null },
{ "type": "Feature", "properties": { "max_height": 11.263999938964844, "mean_height": 2.2320754528045654, "std_height": 3.4697611331939697, "count_pixels": 43, "percent_cover": 0.44375644994840041, "percent_above_0.1m": 62.790697674418603, "low_level_<0.5": 11.627906976744185, "mid_level_0.5-2": 13.953488372093023, "tall_2+": 30.232558139534881 }, "geometry": null },
{ "type": "Feature", "properties": { "max_height": 11.056503295898438, "mean_height": 2.8295128345489502, "std_height": 3.5414638519287109, "count_pixels": 43, "percent_cover": 0.44375644994840041, "percent_above_0.1m": 69.767441860465112, "low_level_<0.5": 11.627906976744185, "mid_level_0.5-2": 6.9767441860465116, "tall_2+": 44.186046511627907 }, "geometry": null },
{ "type": "Feature", "properties": { "max_height": 5.031494140625, "mean_height": 1.4280930757522583, "std_height": 1.5153734683990479, "count_pixels": 43, "percent_cover": 0.44375644994840041, "percent_above_0.1m": 65.116279069767444, "low_level_<0.5": 6.9767441860465116, "mid_level_0.5-2": 25.581395348837212, "tall_2+": 32.558139534883722 }, "geometry": null },
{ "type": "Feature", "properties": { "max_height": 10.052749633789062, "mean_height": 4.2163496017456055, "std_height": 3.5806186199188232, "count_pixels": 43, "percent_cover": 0.44375644994840041, "percent_above_0.1m": 83.720930232558146, "low_level_<0.5": 6.9767441860465116, "mid_level_0.5-2": 18.604651162790699, "tall_2+": 58.139534883720934 }, "geometry": null },
{ "type": "Feature", "properties": { "max_height": 4.0687408447265625, "mean_height": 1.516958475112915, "std_height": 1.3736344575881958, "count_pixels": 42, "percent_cover": 0.43343653250773995, "percent_above_0.1m": 88.095238095238088, "low_level_<0.5": 19.047619047619047, "mid_level_0.5-2": 21.428571428571427, "tall_2+": 40.476190476190474 }, "geometry": null },
{ "type": "Feature", "properties": { "max_height": 7.4032516479492188, "mean_height": 1.5042375326156616, "std_height": 2.181981086730957, "count_pixels": 41, "percent_cover": 0.42311661506707948, "percent_above_0.1m": 53.658536585365859, "low_level_<0.5": 12.195121951219512, "mid_level_0.5-2": 12.195121951219512, "tall_2+": 29.268292682926827 }, "geometry": null },
{ "type": "Feature", "properties": { "max_height": 7.4822540283203125, "mean_height": 5.4975733757019043, "std_height": 1.9966005086898804, "count_pixels": 41, "percent_cover": 0.42311661506707948, "percent_above_0.1m": 100.0, "low_level_<0.5": 0.0, "mid_level_0.5-2": 12.195121951219512, "tall_2+": 87.804878048780495 }, "geometry": null },
{ "type": "Feature", "properties": { "max_height": 7.678497314453125, "mean_height": 4.0657334327697754, "std_height": 2.6338601112365723, "count_pixels": 41, "percent_cover": 0.42311661506707948, "percent_above_0.1m": 92.682926829268297, "low_level_<0.5": 7.3170731707317067, "mid_level_0.5-2": 19.512195121951219, "tall_2+": 65.853658536585371 }, "geometry": null },
{ "type": "Feature", "properties": { "max_height": 2.5454940795898438, "mean_height": 0.63281184434890747, "std_height": 0.70689851045608521, "count_pixels": 36, "percent_cover": 0.37151702786377705, "percent_above_0.1m": 69.444444444444443, "low_level_<0.5": 22.222222222222221, "mid_level_0.5-2": 36.111111111111107, "tall_2+": 8.3333333333333321 }, "geometry": null },
{ "type": "Feature", "properties": { "max_height": 3.2269973754882812, "mean_height": 0.41058459877967834, "std_height": 0.91486465930938721, "count_pixels": 41, "percent_cover": 0.42311661506707948, "percent_above_0.1m": 21.951219512195124, "low_level_<0.5": 4.8780487804878048, "mid_level_0.5-2": 2.4390243902439024, "tall_2+": 14.634146341463413 }, "geometry": null },
{ "type": "Feature", "properties": { "max_height": 3.2600021362304688, "mean_height": 0.86400604248046875, "std_height": 0.70333164930343628, "count_pixels": 41, "percent_cover": 0.42311661506707948, "percent_above_0.1m": 95.121951219512198, "low_level_<0.5": 26.829268292682929, "mid_level_0.5-2": 56.09756097560976, "tall_2+": 7.3170731707317067 }, "geometry": null },
{ "type": "Feature", "properties": { "max_height": 7.2577438354492188, "mean_height": 2.0083432197570801, "std_height": 1.9714490175247192, "count_pixels": 40, "percent_cover": 0.41279669762641896, "percent_above_0.1m": 82.5, "low_level_<0.5": 15.0, "mid_level_0.5-2": 25.0, "tall_2+": 40.0 }, "geometry": null },
{ "type": "Feature", "properties": { "max_height": 6.4885025024414062, "mean_height": 1.8705852031707764, "std_height": 2.174532413482666, "count_pixels": 41, "percent_cover": 0.42311661506707948, "percent_above_0.1m": 58.536585365853654, "low_level_<0.5": 4.8780487804878048, "mid_level_0.5-2": 14.634146341463413, "tall_2+": 39.024390243902438 }, "geometry": null },
{ "type": "Feature", "properties": { "max_height": 4.342498779296875, "mean_height": 0.78975081443786621, "std_height": 1.2794960737228394, "count_pixels": 41, "percent_cover": 0.42311661506707948, "percent_above_0.1m": 41.463414634146339, "low_level_<0.5": 9.7560975609756095, "mid_level_0.5-2": 4.8780487804878048, "tall_2+": 24.390243902439025 }, "geometry": null },
{ "type": "Feature", "properties": { "max_height": 4.4970016479492188, "mean_height": 1.6232497692108154, "std_height": 1.4642688035964966, "count_pixels": 42, "percent_cover": 0.43343653250773995, "percent_above_0.1m": 80.952380952380949, "low_level_<0.5": 11.904761904761903, "mid_level_0.5-2": 23.809523809523807, "tall_2+": 40.476190476190474 }, "geometry": null },
{ "type": "Feature", "properties": { "max_height": 4.1772537231445312, "mean_height": 0.55772668123245239, "std_height": 1.1268264055252075, "count_pixels": 43, "percent_cover": 0.44375644994840041, "percent_above_0.1m": 32.558139534883722, "low_level_<0.5": 6.9767441860465116, "mid_level_0.5-2": 13.953488372093023, "tall_2+": 11.627906976744185 }, "geometry": null },
{ "type": "Feature", "properties": { "max_height": 3.8349990844726562, "mean_height": 0.89140743017196655, "std_height": 1.1329152584075928, "count_pixels": 43, "percent_cover": 0.44375644994840041, "percent_above_0.1m": 51.162790697674424, "low_level_<0.5": 9.3023255813953494, "mid_level_0.5-2": 25.581395348837212, "tall_2+": 16.279069767441861 }, "geometry": null },
{ "type": "Feature", "properties": { "max_height": 4.154998779296875, "mean_height": 0.5983085036277771, "std_height": 1.0630456209182739, "count_pixels": 43, "percent_cover": 0.44375644994840041, "percent_above_0.1m": 44.186046511627907, "low_level_<0.5": 18.604651162790699, "mid_level_0.5-2": 13.953488372093023, "tall_2+": 11.627906976744185 }, "geometry": null },
{ "type": "Feature", "properties": { "max_height": 1.251007080078125, "mean_height": 0.33887836337089539, "std_height": 0.37743431329727173, "count_pixels": 43, "percent_cover": 0.44375644994840041, "percent_above_0.1m": 53.488372093023251, "low_level_<0.5": 16.279069767441861, "mid_level_0.5-2": 32.558139534883722, "tall_2+": 0.0 }, "geometry": null },
{ "type": "Feature", "properties": { "max_height": 5.097503662109375, "mean_height": 0.8511233925819397, "std_height": 1.0990623235702515, "count_pixels": 43, "percent_cover": 0.44375644994840041, "percent_above_0.1m": 72.093023255813947, "low_level_<0.5": 20.930232558139537, "mid_level_0.5-2": 30.232558139534881, "tall_2+": 16.279069767441861 }, "geometry": null },
{ "type": "Feature", "properties": { "max_height": 7.4042510986328125, "mean_height": 1.1254056692123413, "std_height": 1.9632372856140137, "count_pixels": 42, "percent_cover": 0.43343653250773995, "percent_above_0.1m": 66.666666666666657, "low_level_<0.5": 23.809523809523807, "mid_level_0.5-2": 16.666666666666664, "tall_2+": 16.666666666666664 }, "geometry": null },
{ "type": "Feature", "properties": { "max_height": 12.2032470703125, "mean_height": 2.4876577854156494, "std_height": 3.2284078598022461, "count_pixels": 43, "percent_cover": 0.44375644994840041, "percent_above_0.1m": 72.093023255813947, "low_level_<0.5": 4.6511627906976747, "mid_level_0.5-2": 30.232558139534881, "tall_2+": 32.558139534883722 }, "geometry": null },
{ "type": "Feature", "properties": { "max_height": 7.44500732421875, "mean_height": 0.26930272579193115, "std_height": 1.2224128246307373, "count_pixels": 43, "percent_cover": 0.44375644994840041, "percent_above_0.1m": 9.3023255813953494, "low_level_<0.5": 4.6511627906976747, "mid_level_0.5-2": 0.0, "tall_2+": 4.6511627906976747 }, "geometry": null },
{ "type": "Feature", "properties": { "max_height": 2.6092453002929688, "mean_height": 0.10869580507278442, "std_height": 0.42778539657592773, "count_pixels": 42, "percent_cover": 0.43343653250773995, "percent_above_0.1m": 9.5238095238095237, "low_level_<0.5": 2.3809523809523809, "mid_level_0.5-2": 2.3809523809523809, "tall_2+": 2.3809523809523809 }, "geometry": null },
{ "type": "Feature", "properties": { "max_height": 7.042999267578125, "mean_height": 2.0104269981384277, "std_height": 2.0295968055725098, "count_pixels": 41, "percent_cover": 0.42311661506707948, "percent_above_0.1m": 75.609756097560975, "low_level_<0.5": 14.634146341463413, "mid_level_0.5-2": 12.195121951219512, "tall_2+": 46.341463414634148 }, "geometry": null },
{ "type": "Feature", "properties": { "max_height": 5.1697463989257812, "mean_height": 1.4577142000198364, "std_height": 1.4413094520568848, "count_pixels": 41, "percent_cover": 0.42311661506707948, "percent_above_0.1m": 70.731707317073173, "low_level_<0.5": 4.8780487804878048, "mid_level_0.5-2": 36.585365853658537, "tall_2+": 29.268292682926827 }, "geometry": null },
{ "type": "Feature", "properties": { "max_height": 2.7275009155273438, "mean_height": 0.3130003809928894, "std_height": 0.70038968324661255, "count_pixels": 41, "percent_cover": 0.42311661506707948, "percent_above_0.1m": 19.512195121951219, "low_level_<0.5": 0.0, "mid_level_0.5-2": 14.634146341463413, "tall_2+": 4.8780487804878048 }, "geometry": null },
{ "type": "Feature", "properties": { "max_height": 0.0227508544921875, "mean_height": 0.0075352988205850124, "std_height": 0.0073718884959816933, "count_pixels": 36, "percent_cover": 0.37151702786377705, "percent_above_0.1m": 0.0, "low_level_<0.5": 0.0, "mid_level_0.5-2": 0.0, "tall_2+": 0.0 }, "geometry": null },
{ "type": "Feature", "properties": { "max_height": 3.5049972534179688, "mean_height": 0.52479332685470581, "std_height": 1.0187413692474365, "count_pixels": 41, "percent_cover": 0.42311661506707948, "percent_above_0.1m": 34.146341463414636, "low_level_<0.5": 9.7560975609756095, "mid_level_0.5-2": 9.7560975609756095, "tall_2+": 12.195121951219512 }, "geometry": null },
{ "type": "Feature", "properties": { "max_height": 6.7884979248046875, "mean_height": 1.3679013252258301, "std_height": 1.8194955587387085, "count_pixels": 41, "percent_cover": 0.42311661506707948, "percent_above_0.1m": 68.292682926829272, "low_level_<0.5": 9.7560975609756095, "mid_level_0.5-2": 19.512195121951219, "tall_2+": 29.268292682926827 }, "geometry": null },
{ "type": "Feature", "properties": { "max_height": 1.8270034790039062, "mean_height": 0.22903569042682648, "std_height": 0.45320430397987366, "count_pixels": 42, "percent_cover": 0.43343653250773995, "percent_above_0.1m": 28.571428571428569, "low_level_<0.5": 14.285714285714285, "mid_level_0.5-2": 14.285714285714285, "tall_2+": 0.0 }, "geometry": null },
{ "type": "Feature", "properties": { "max_height": 10.974258422851562, "mean_height": 5.0420131683349609, "std_height": 3.7243502140045166, "count_pixels": 41, "percent_cover": 0.42311661506707948, "percent_above_0.1m": 87.804878048780495, "low_level_<0.5": 2.4390243902439024, "mid_level_0.5-2": 17.073170731707318, "tall_2+": 68.292682926829272 }, "geometry": null },
{ "type": "Feature", "properties": { "max_height": 5.303253173828125, "mean_height": 1.0980732440948486, "std_height": 1.80007004737854, "count_pixels": 41, "percent_cover": 0.42311661506707948, "percent_above_0.1m": 41.463414634146339, "low_level_<0.5": 9.7560975609756095, "mid_level_0.5-2": 9.7560975609756095, "tall_2+": 21.951219512195124 }, "geometry": null },
{ "type": "Feature", "properties": { "max_height": 8.2104949951171875, "mean_height": 2.1231493949890137, "std_height": 2.1335933208465576, "count_pixels": 42, "percent_cover": 0.43343653250773995, "percent_above_0.1m": 73.80952380952381, "low_level_<0.5": 4.7619047619047619, "mid_level_0.5-2": 30.952380952380953, "tall_2+": 38.095238095238095 }, "geometry": null },
{ "type": "Feature", "properties": { "max_height": 4.1487503051757812, "mean_height": 0.7662845253944397, "std_height": 1.0777311325073242, "count_pixels": 43, "percent_cover": 0.44375644994840041, "percent_above_0.1m": 58.139534883720934, "low_level_<0.5": 16.279069767441861, "mid_level_0.5-2": 25.581395348837212, "tall_2+": 13.953488372093023 }, "geometry": null },
{ "type": "Feature", "properties": { "max_height": 5.7492523193359375, "mean_height": 1.4839191436767578, "std_height": 2.0447878837585449, "count_pixels": 43, "percent_cover": 0.44375644994840041, "percent_above_0.1m": 41.860465116279073, "low_level_<0.5": 2.3255813953488373, "mid_level_0.5-2": 9.3023255813953494, "tall_2+": 30.232558139534881 }, "geometry": null },
{ "type": "Feature", "properties": { "max_height": 1.9879989624023438, "mean_height": 0.072610899806022644, "std_height": 0.31905469298362732, "count_pixels": 43, "percent_cover": 0.44375644994840041, "percent_above_0.1m": 4.6511627906976747, "low_level_<0.5": 0.0, "mid_level_0.5-2": 4.6511627906976747, "tall_2+": 0.0 }, "geometry": null },
{ "type": "Feature", "properties": { "max_height": 0.02850341796875, "mean_height": 0.010011362843215466, "std_height": 0.0086324717849493027, "count_pixels": 43, "percent_cover": 0.44375644994840041, "percent_above_0.1m": 0.0, "low_level_<0.5": 0.0, "mid_level_0.5-2": 0.0, "tall_2+": 0.0 }, "geometry": null },
{ "type": "Feature", "properties": { "max_height": 4.6790008544921875, "mean_height": 0.45332637429237366, "std_height": 1.2127692699432373, "count_pixels": 43, "percent_cover": 0.44375644994840041, "percent_above_0.1m": 20.930232558139537, "low_level_<0.5": 4.6511627906976747, "mid_level_0.5-2": 0.0, "tall_2+": 11.627906976744185 }, "geometry": null },
{ "type": "Feature", "properties": { "max_height": 6.9540023803710938, "mean_height": 2.5052621364593506, "std_height": 2.2369487285614014, "count_pixels": 42, "percent_cover": 0.43343653250773995, "percent_above_0.1m": 73.80952380952381, "low_level_<0.5": 4.7619047619047619, "mid_level_0.5-2": 16.666666666666664, "tall_2+": 52.380952380952387 }, "geometry": null },
{ "type": "Feature", "properties": { "max_height": 6.5784988403320312, "mean_height": 0.56139320135116577, "std_height": 1.4022865295410156, "count_pixels": 42, "percent_cover": 0.43343653250773995, "percent_above_0.1m": 33.333333333333329, "low_level_<0.5": 16.666666666666664, "mid_level_0.5-2": 7.1428571428571423, "tall_2+": 9.5238095238095237 }, "geometry": null },
{ "type": "Feature", "properties": { "max_height": 7.9844970703125, "mean_height": 4.4562969207763672, "std_height": 2.7503366470336914, "count_pixels": 43, "percent_cover": 0.44375644994840041, "percent_above_0.1m": 88.372093023255815, "low_level_<0.5": 9.3023255813953494, "mid_level_0.5-2": 6.9767441860465116, "tall_2+": 72.093023255813947 }, "geometry": null },
{ "type": "Feature", "properties": { "max_height": 5.15350341796875, "mean_height": 1.4601129293441772, "std_height": 1.7049474716186523, "count_pixels": 42, "percent_cover": 0.43343653250773995, "percent_above_0.1m": 64.285714285714292, "low_level_<0.5": 7.1428571428571423, "mid_level_0.5-2": 26.190476190476193, "tall_2+": 28.571428571428569 }, "geometry": null },
{ "type": "Feature", "properties": { "max_height": 5.3732528686523438, "mean_height": 1.9677193164825439, "std_height": 2.1105556488037109, "count_pixels": 41, "percent_cover": 0.42311661506707948, "percent_above_0.1m": 70.731707317073173, "low_level_<0.5": 12.195121951219512, "mid_level_0.5-2": 12.195121951219512, "tall_2+": 41.463414634146339 }, "geometry": null },
{ "type": "Feature", "properties": { "max_height": 5.4447555541992188, "mean_height": 2.553755521774292, "std_height": 2.009793758392334, "count_pixels": 41, "percent_cover": 0.42311661506707948, "percent_above_0.1m": 80.487804878048792, "low_level_<0.5": 7.3170731707317067, "mid_level_0.5-2": 7.3170731707317067, "tall_2+": 60.975609756097562 }, "geometry": null },
{ "type": "Feature", "properties": { "max_height": 4.6832504272460938, "mean_height": 1.9012012481689453, "std_height": 1.8468867540359497, "count_pixels": 41, "percent_cover": 0.42311661506707948, "percent_above_0.1m": 63.414634146341463, "low_level_<0.5": 2.4390243902439024, "mid_level_0.5-2": 17.073170731707318, "tall_2+": 43.902439024390247 }, "geometry": null },
{ "type": "Feature", "properties": { "max_height": 5.75274658203125, "mean_height": 1.5638056993484497, "std_height": 2.0653712749481201, "count_pixels": 36, "percent_cover": 0.37151702786377705, "percent_above_0.1m": 44.444444444444443, "low_level_<0.5": 0.0, "mid_level_0.5-2": 8.3333333333333321, "tall_2+": 36.111111111111107 }, "geometry": null },
{ "type": "Feature", "properties": { "max_height": 8.5055007934570312, "mean_height": 2.0168347358703613, "std_height": 3.0164117813110352, "count_pixels": 41, "percent_cover": 0.42311661506707948, "percent_above_0.1m": 41.463414634146339, "low_level_<0.5": 2.4390243902439024, "mid_level_0.5-2": 9.7560975609756095, "tall_2+": 29.268292682926827 }, "geometry": null },
{ "type": "Feature", "properties": { "max_height": 7.22650146484375, "mean_height": 1.6196510791778564, "std_height": 2.162651538848877, "count_pixels": 41, "percent_cover": 0.42311661506707948, "percent_above_0.1m": 53.658536585365859, "low_level_<0.5": 4.8780487804878048, "mid_level_0.5-2": 9.7560975609756095, "tall_2+": 36.585365853658537 }, "geometry": null },
{ "type": "Feature", "properties": { "max_height": 11.440994262695312, "mean_height": 2.8974471092224121, "std_height": 3.7131009101867676, "count_pixels": 42, "percent_cover": 0.43343653250773995, "percent_above_0.1m": 61.904761904761905, "low_level_<0.5": 4.7619047619047619, "mid_level_0.5-2": 9.5238095238095237, "tall_2+": 40.476190476190474 }, "geometry": null },
{ "type": "Feature", "properties": { "max_height": 12.433502197265625, "mean_height": 5.7565250396728516, "std_height": 4.0743923187255859, "count_pixels": 42, "percent_cover": 0.43343653250773995, "percent_above_0.1m": 83.333333333333343, "low_level_<0.5": 4.7619047619047619, "mid_level_0.5-2": 9.5238095238095237, "tall_2+": 69.047619047619051 }, "geometry": null },
{ "type": "Feature", "properties": { "max_height": 7.07275390625, "mean_height": 0.96386682987213135, "std_height": 2.0548942089080811, "count_pixels": 43, "percent_cover": 0.44375644994840041, "percent_above_0.1m": 34.883720930232556, "low_level_<0.5": 0.0, "mid_level_0.5-2": 9.3023255813953494, "tall_2+": 13.953488372093023 }, "geometry": null },
{ "type": "Feature", "properties": { "max_height": 8.9992523193359375, "mean_height": 2.5033724308013916, "std_height": 3.3937866687774658, "count_pixels": 43, "percent_cover": 0.44375644994840041, "percent_above_0.1m": 41.860465116279073, "low_level_<0.5": 0.0, "mid_level_0.5-2": 2.3255813953488373, "tall_2+": 37.209302325581397 }, "geometry": null },
{ "type": "Feature", "properties": { "max_height": 9.1579971313476562, "mean_height": 3.2280468940734863, "std_height": 3.4553594589233398, "count_pixels": 42, "percent_cover": 0.43343653250773995, "percent_above_0.1m": 59.523809523809526, "low_level_<0.5": 2.3809523809523809, "mid_level_0.5-2": 4.7619047619047619, "tall_2+": 47.619047619047613 }, "geometry": null },
{ "type": "Feature", "properties": { "max_height": 11.473747253417969, "mean_height": 4.7387442588806152, "std_height": 3.54374098777771, "count_pixels": 42, "percent_cover": 0.43343653250773995, "percent_above_0.1m": 97.61904761904762, "low_level_<0.5": 4.7619047619047619, "mid_level_0.5-2": 23.809523809523807, "tall_2+": 66.666666666666657 }, "geometry": null }
]
}
