{
"type": "FeatureCollection",
"name": "fec86805c603_foliage",
"crs": { "type": "name", "properties": { "name": "urn:ogc:def:crs:OGC:1.3:CRS84" } },
"features": [
{ "type": "Feature", "properties": { "max_height": 2.2280006408691406, "mean_height": 0.14845453202724457, "std_height": 0.47907239198684692, "count_pixels": 43, "percent_cover": 0.457203615098352, "percent_above_0.1m": 11.627906976744185, "low_level_<0.5": 4.6511627906976747, "mid_level_0.5-2": 4.6511627906976747, "tall_2+": 2.3255813953488373 }, "geometry": null },
{ "type": "Feature", "properties": { "max_height": 0.12199974060058594, "mean_height": 0.0077154976315796375, "std_height": 0.024485087022185326, "count_pixels": 42, "percent_cover": 0.44657097288676234, "percent_above_0.1m": 2.3809523809523809, "low_level_<0.5": 0.0, "mid_level_0.5-2": 0.0, "tall_2+": 0.0 }, "geometry": null },
{ "type": "Feature", "properties": { "max_height": 0.074249267578125, "mean_height": 0.0047273179516196251, "std_height": 0.014186430722475052, "count_pixels": 42, "percent_cover": 0.44657097288676234, "percent_above_0.1m": 0.0, "low_level_<0.5": 0.0, "mid_level_0.5-2": 0.0, "tall_2+": 0.0 }, "geometry": null },
{ "type": "Feature", "properties": { "max_height": 0.42600250244140625, "mean_height": 0.010470692999660969, "std_height": 0.065773725509643555, "count_pixels": 41, "percent_cover": 0.43593833067517279, "percent_above_0.1m": 2.4390243902439024, "low_level_<0.5": 2.4390243902439024, "mid_level_0.5-2": 0.0, "tall_2+": 0.0 }, "geometry": null },
{ "type": "Feature", "properties": { "max_height": 0.001750946044921875, "mean_height": -0.00054050626931712031, "std_height": 0.0012416907120496035, "count_pixels": 42, "percent_cover": 0.44657097288676234, "percent_above_0.1m": 0.0, "low_level_<0.5": 0.0, "mid_level_0.5-2": 0.0, "tall_2+": 0.0 }, "geometry": null },
{ "type": "Feature", "properties": { "max_height": 0.001251220703125, "mean_height": -0.00057034264318645, "std_height": 0.001044129952788353, "count_pixels": 42, "percent_cover": 0.44657097288676234, "percent_above_0.1m": 0.0, "low_level_<0.5": 0.0, "mid_level_0.5-2": 0.0, "tall_2+": 0.0 }, "geometry": null },
{ "type": "Feature", "properties": { "max_height": 0.0057525634765625, "mean_height": -0.0002430316963000223, "std_height": 0.0014491380425170064, "count_pixels": 43, "percent_cover": 0.457203615098352, "percent_above_0.1m": 0.0, "low_level_<0.5": 0.0, "mid_level_0.5-2": 0.0, "tall_2+": 0.0 }, "geometry": null },
{ "type": "Feature", "properties": { "max_height": 0.041500091552734375, "mean_height": 0.0039834752678871155, "std_height": 0.010466773062944412, "count_pixels": 43, "percent_cover": 0.457203615098352, "percent_above_0.1m": 0.0, "low_level_<0.5": 0.0, "mid_level_0.5-2": 0.0, "tall_2+": 0.0 }, "geometry": null },
{ "type": "Feature", "properties": { "max_height": 0.40925025939941406, "mean_height": 0.041547596454620361, "std_height": 0.084087081253528595, "count_pixels": 43, "percent_cover": 0.457203615098352, "percent_above_0.1m": 20.930232558139537, "low_level_<0.5": 13.953488372093023, "mid_level_0.5-2": 0.0, "tall_2+": 0.0 }, "geometry": null },
{ "type": "Feature", "properties": { "max_height": 0.0022525787353515625, "mean_height": -0.00042747316183522344, "std_height": 0.0011537816608324647, "count_pixels": 42, "percent_cover": 0.44657097288676234, "percent_above_0.1m": 0.0, "low_level_<0.5": 0.0, "mid_level_0.5-2": 0.0, "tall_2+": 0.0 }, "geometry": null },
{ "type": "Feature", "properties": { "max_height": 0.31350135803222656, "mean_height": 0.011768795549869537, "std_height": 0.0552784763276577, "count_pixels": 42, "percent_cover": 0.44657097288676234, "percent_above_0.1m": 4.7619047619047619, "low_level_<0.5": 4.7619047619047619, "mid_level_0.5-2": 0.0, "tall_2+": 0.0 }, "geometry": null },
{ "type": "Feature", "properties": { "max_height": 0.068250656127929688, "mean_height": 0.0022205258719623089, "std_height": 0.012022956274449825, "count_pixels": 41, "percent_cover": 0.43593833067517279, "percent_above_0.1m": 0.0, "low_level_<0.5": 0.0, "mid_level_0.5-2": 0.0, "tall_2+": 0.0 }, "geometry": null },
{ "type": "Feature", "properties": { "max_height": 0.0015010833740234375, "mean_height": -0.00055396847892552614, "std_height": 0.00099154573399573565, "count_pixels": 41, "percent_cover": 0.43593833067517279, "percent_above_0.1m": 0.0, "low_level_<0.5": 0.0, "mid_level_0.5-2": 0.0, "tall_2+": 0.0 }, "geometry": null },
{ "type": "Feature", "properties": { "max_height": 0.015750885009765625, "mean_height": 0.00010085105895996094, "std_height": 0.0029690156225115061, "count_pixels": 40, "percent_cover": 0.42530568846358324, "percent_above_0.1m": 0.0, "low_level_<0.5": 0.0, "mid_level_0.5-2": 0.0, "tall_2+": 0.0 }, "geometry": null },
{ "type": "Feature", "properties": { "max_height": 0.95625114440917969, "mean_height": 0.10011358559131622, "std_height": 0.19190014898777008, "count_pixels": 40, "percent_cover": 0.42530568846358324, "percent_above_0.1m": 22.5, "low_level_<0.5": 17.5, "mid_level_0.5-2": 2.5, "tall_2+": 0.0 }, "geometry": null },
{ "type": "Feature", "properties": { "max_height": 0.3312530517578125, "mean_height": 0.015101194381713867, "std_height": 0.058102365583181381, "count_pixels": 40, "percent_cover": 0.42530568846358324, "percent_above_0.1m": 5.0, "low_level_<0.5": 5.0, "mid_level_0.5-2": 0.0, "tall_2+": 0.0 }, "geometry": null },
{ "type": "Feature", "properties": { "max_height": 0.003002166748046875, "mean_height": -0.00066333863651379943, "std_height": 0.0015277703059837222, "count_pixels": 41, "percent_cover": 0.43593833067517279, "percent_above_0.1m": 0.0, "low_level_<0.5": 0.0, "mid_level_0.5-2": 0.0, "tall_2+": 0.0 }, "geometry": null },
{ "type": "Feature", "properties": { "max_height": 0.553253173828125, "mean_height": 0.031358309090137482, "std_height": 0.11639804393053055, "count_pixels": 42, "percent_cover": 0.44657097288676234, "percent_above_0.1m": 7.1428571428571423, "low_level_<0.5": 2.3809523809523809, "mid_level_0.5-2": 4.7619047619047619, "tall_2+": 0.0 }, "geometry": null },
{ "type": "Feature", "properties": { "max_height": 0.51075172424316406, "mean_height": 0.022287141531705856, "std_height": 0.089718833565711975, "count_pixels": 42, "percent_cover": 0.44657097288676234, "percent_above_0.1m": 7.1428571428571423, "low_level_<0.5": 4.7619047619047619, "mid_level_0.5-2": 2.3809523809523809, "tall_2+": 0.0 }, "geometry": null },
{ "type": "Feature", "properties": { "max_height": 0.002750396728515625, "mean_height": -0.00068495993036776781, "std_height": 0.0012907360214740038, "count_pixels": 43, "percent_cover": 0.457203615098352, "percent_above_0.1m": 0.0, "low_level_<0.5": 0.0, "mid_level_0.5-2": 0.0, "tall_2+": 0.0 }, "geometry": null },
{ "type": "Feature", "properties": { "max_height": 0.00250244140625, "mean_height": -5.7087388995569199e-05, "std_height": 0.0012960825115442276, "count_pixels": 43, "percent_cover": 0.457203615098352, "percent_above_0.1m": 0.0, "low_level_<0.5": 0.0, "mid_level_0.5-2": 0.0, "tall_2+": 0.0 }, "geometry": null },
{ "type": "Feature", "properties": { "max_height": 0.30450057983398438, "mean_height": 0.011913394555449486, "std_height": 0.052195459604263306, "count_pixels": 40, "percent_cover": 0.42530568846358324, "percent_above_0.1m": 5.0, "low_level_<0.5": 2.5, "mid_level_0.5-2": 0.0, "tall_2+": 0.0 }, "geometry": null },
{ "type": "Feature", "properties": { "max_height": 6.9665012359619141, "mean_height": 2.7264082431793213, "std_height": 2.8499472141265869, "count_pixels": 43, "percent_cover": 0.457203615098352, "percent_above_0.1m": 74.418604651162795, "low_level_<0.5": 16.279069767441861, "mid_level_0.5-2": 11.627906976744185, "tall_2+": 44.186046511627907 }, "geometry": null },
{ "type": "Feature", "properties": { "max_height": 0.37100028991699219, "mean_height": 0.019227759912610054, "std_height": 0.066919274628162384, "count_pixels": 43, "percent_cover": 0.457203615098352, "percent_above_0.1m": 9.3023255813953494, "low_level_<0.5": 4.6511627906976747, "mid_level_0.5-2": 0.0, "tall_2+": 0.0 }, "geometry": null },
{ "type": "Feature", "properties": { "max_height": 2.9617519378662109, "mean_height": 0.085941538214683533, "std_height": 0.46007749438285828, "count_pixels": 42, "percent_cover": 0.44657097288676234, "percent_above_0.1m": 4.7619047619047619, "low_level_<0.5": 0.0, "mid_level_0.5-2": 2.3809523809523809, "tall_2+": 2.3809523809523809 }, "geometry": null },
{ "type": "Feature", "properties": { "max_height": 0.0015010833740234375, "mean_height": -0.00029641104629263282, "std_height": 0.00097328645642846823, "count_pixels": 42, "percent_cover": 0.44657097288676234, "percent_above_0.1m": 0.0, "low_level_<0.5": 0.0, "mid_level_0.5-2": 0.0, "tall_2+": 0.0 }, "geometry": null },
{ "type": "Feature", "properties": { "max_height": 0.0025005340576171875, "mean_height": -0.00065761659061536193, "std_height": 0.0012779689859598875, "count_pixels": 41, "percent_cover": 0.43593833067517279, "percent_above_0.1m": 0.0, "low_level_<0.5": 0.0, "mid_level_0.5-2": 0.0, "tall_2+": 0.0 }, "geometry": null },
{ "type": "Feature", "properties": { "max_height": 0.2232513427734375, "mean_height": 0.0083855418488383293, "std_height": 0.039747349917888641, "count_pixels": 41, "percent_cover": 0.43593833067517279, "percent_above_0.1m": 4.8780487804878048, "low_level_<0.5": 2.4390243902439024, "mid_level_0.5-2": 0.0, "tall_2+": 0.0 }, "geometry": null },
{ "type": "Feature", "properties": { "max_height": 0.002002716064453125, "mean_height": -0.00043621062650345266, "std_height": 0.0012781515251845121, "count_pixels": 40, "percent_cover": 0.42530568846358324, "percent_above_0.1m": 0.0, "low_level_<0.5": 0.0, "mid_level_0.5-2": 0.0, "tall_2+": 0.0 }, "geometry": null },
{ "type": "Feature", "properties": { "max_height": 6.3105010986328125, "mean_height": 0.47814482450485229, "std_height": 1.3453651666641235, "count_pixels": 40, "percent_cover": 0.42530568846358324, "percent_above_0.1m": 25.0, "low_level_<0.5": 10.0, "mid_level_0.5-2": 2.5, "tall_2+": 10.0 }, "geometry": null },
{ "type": "Feature", "properties": { "max_height": 4.65875244140625, "mean_height": 0.37526383996009827, "std_height": 1.1017069816589355, "count_pixels": 40, "percent_cover": 0.42530568846358324, "percent_above_0.1m": 20.0, "low_level_<0.5": 5.0, "mid_level_0.5-2": 5.0, "tall_2+": 7.5 }, "geometry": null },
{ "type": "Feature", "properties": { "max_height": 9.7517509460449219, "mean_height": 0.83856230974197388, "std_height": 2.2427480220794678, "count_pixels": 41, "percent_cover": 0.43593833067517279, "percent_above_0.1m": 17.073170731707318, "low_level_<0.5": 0.0, "mid_level_0.5-2": 4.8780487804878048, "tall_2+": 12.195121951219512 }, "geometry": null },
{ "type": "Feature", "properties": { "max_height": 13.589252471923828, "mean_height": 6.3822226524353027, "std_height": 4.9387068748474121, "count_pixels": 42, "percent_cover": 0.44657097288676234, "percent_above_0.1m": 80.952380952380949, "low_level_<0.5": 4.7619047619047619, "mid_level_0.5-2": 7.1428571428571423, "tall_2+": 69.047619047619051 }, "geometry": null },
{ "type": "Feature", "properties": { "max_height": 0.79250144958496094, "mean_height": 0.046471640467643738, "std_height": 0.15578272938728333, "count_pixels": 42, "percent_cover": 0.44657097288676234, "percent_above_0.1m": 7.1428571428571423, "low_level_<0.5": 2.3809523809523809, "mid_level_0.5-2": 4.7619047619047619, "tall_2+": 0.0 }, "geometry": null },
{ "type": "Feature", "properties": { "max_height": 0.0020008087158203125, "mean_height": -0.00047555079800076783, "std_height": 0.00092708767624571919, "count_pixels": 43, "percent_cover": 0.457203615098352, "percent_above_0.1m": 0.0, "low_level_<0.5": 0.0, "mid_level_0.5-2": 0.0, "tall_2+": 0.0 }, "geometry": null },
{ "type": "Feature", "properties": { "max_height": 13.260499954223633, "mean_height": 3.4589080810546875, "std_height": 4.4078783988952637, "count_pixels": 43, "percent_cover": 0.457203615098352, "percent_above_0.1m": 55.813953488372093, "low_level_<0.5": 4.6511627906976747, "mid_level_0.5-2": 11.627906976744185, "tall_2+": 39.534883720930232 }, "geometry": null },
{ "type": "Feature", "properties": { "max_height": 14.144500732421875, "mean_height": 6.4333205223083496, "std_height": 4.7545318603515625, "count_pixels": 40, "percent_cover": 0.42530568846358324, "percent_above_0.1m": 82.5, "low_level_<0.5": 2.5, "mid_level_0.5-2": 5.0, "tall_2+": 75.0 }, "geometry": null },
{ "type": "Feature", "properties": { "max_height": 13.036001205444336, "mean_height": 3.7584953308105469, "std_height": 4.4274778366088867, "count_pixels": 43, "percent_cover": 0.457203615098352, "percent_above_0.1m": 76.744186046511629, "low_level_<0.5": 16.279069767441861, "mid_level_0.5-2": 16.279069767441861, "tall_2+": 41.860465116279073 }, "geometry": null },
{ "type": "Feature", "properties": { "max_height": 2.3060016632080078, "mean_height": 0.48213484883308411, "std_height": 0.58704441785812378, "count_pixels": 43, "percent_cover": 0.457203615098352, "percent_above_0.1m": 65.116279069767444, "low_level_<0.5": 27.906976744186046, "mid_level_0.5-2": 27.906976744186046, "tall_2+": 4.6511627906976747 }, "geometry": null },
{ "type": "Feature", "properties": { "max_height": 0.64175033569335938, "mean_height": 0.033977773040533066, "std_height": 0.12362688779830933, "count_pixels": 43, "percent_cover": 0.457203615098352, "percent_above_0.1m": 6.9767441860465116, "low_level_<0.5": 4.6511627906976747, "mid_level_0.5-2": 2.3255813953488373, "tall_2+": 0.0 }, "geometry": null },
{ "type": "Feature", "properties": { "max_height": 12.699750900268555, "mean_height": 4.2224836349487305, "std_height": 5.3354806900024414, "count_pixels": 42, "percent_cover": 0.44657097288676234, "percent_above_0.1m": 45.238095238095241, "low_level_<0.5": 0.0, "mid_level_0.5-2": 7.1428571428571423, "tall_2+": 38.095238095238095 }, "geometry": null },
{ "type": "Feature", "properties": { "max_height": 13.862003326416016, "mean_height": 3.2358050346374512, "std_height": 4.9160490036010742, "count_pixels": 42, "percent_cover": 0.44657097288676234, "percent_above_0.1m": 35.714285714285715, "low_level_<0.5": 0.0, "mid_level_0.5-2": 4.7619047619047619, "tall_2+": 30.952380952380953 }, "geometry": null },
{ "type": "Feature", "properties": { "max_height": 0.57950210571289062, "mean_height": 0.015507535077631474, "std_height": 0.090052954852581024, "count_pixels": 41, "percent_cover": 0.43593833067517279, "percent_above_0.1m": 2.4390243902439024, "low_level_<0.5": 0.0, "mid_level_0.5-2": 2.4390243902439024, "tall_2+": 0.0 }, "geometry": null },
{ "type": "Feature", "properties": { "max_height": 12.630002975463867, "mean_height": 4.0011477470397949, "std_height": 4.4460716247558594, "count_pixels": 41, "percent_cover": 0.43593833067517279, "percent_above_0.1m": 60.975609756097562, "low_level_<0.5": 7.3170731707317067, "mid_level_0.5-2": 7.3170731707317067, "tall_2+": 46.341463414634148 }, "geometry": null },
{ "type": "Feature", "properties": { "max_height": 12.91075325012207, "mean_height": 2.737607479095459, "std_height": 3.875748872756958, "count_pixels": 40, "percent_cover": 0.42530568846358324, "percent_above_0.1m": 42.5, "low_level_<0.5": 0.0, "mid_level_0.5-2": 2.5, "tall_2+": 40.0 }, "geometry": null },
{ "type": "Feature", "properties": { "max_height": 7.2457504272460938, "mean_height": 1.1220825910568237, "std_height": 2.262230396270752, "count_pixels": 40, "percent_cover": 0.42530568846358324, "percent_above_0.1m": 25.0, "low_level_<0.5": 0.0, "mid_level_0.5-2": 5.0, "tall_2+": 20.0 }, "geometry": null },
{ "type": "Feature", "properties": { "max_height": 14.294502258300781, "mean_height": 7.3215866088867188, "std_height": 4.3957867622375488, "count_pixels": 41, "percent_cover": 0.43593833067517279, "percent_above_0.1m": 90.243902439024396, "low_level_<0.5": 7.3170731707317067, "mid_level_0.5-2": 0.0, "tall_2+": 82.926829268292678 }, "geometry": null },
{ "type": "Feature", "properties": { "max_height": 2.4227504730224609, "mean_height": 0.70852535963058472, "std_height": 0.7276911735534668, "count_pixels": 41, "percent_cover": 0.43593833067517279, "percent_above_0.1m": 70.731707317073173, "low_level_<0.5": 14.634146341463413, "mid_level_0.5-2": 43.902439024390247, "tall_2+": 7.3170731707317067 }, "geometry": null },
{ "type": "Feature", "properties": { "max_height": 8.0869998931884766, "mean_height": 2.5139298439025879, "std_height": 2.2746613025665283, "count_pixels": 42, "percent_cover": 0.44657097288676234, "percent_above_0.1m": 85.714285714285708, "low_level_<0.5": 11.904761904761903, "mid_level_0.5-2": 21.428571428571427, "tall_2+": 52.380952380952387 }, "geometry": null },
{ "type": "Feature", "properties": { "max_height": 9.4952507019042969, "mean_height": 5.3926920890808105, "std_height": 2.6283993721008301, "count_pixels": 42, "percent_cover": 0.44657097288676234, "percent_above_0.1m": 92.857142857142861, "low_level_<0.5": 2.3809523809523809, "mid_level_0.5-2": 7.1428571428571423, "tall_2+": 83.333333333333343 }, "geometry": null },
{ "type": "Feature", "properties": { "max_height": 8.4790000915527344, "mean_height": 0.94666975736618042, "std_height": 2.2380599975585938, "count_pixels": 43, "percent_cover": 0.457203615098352, "percent_above_0.1m": 23.255813953488371, "low_level_<0.5": 2.3255813953488373, "mid_level_0.5-2": 2.3255813953488373, "tall_2+": 16.279069767441861 }, "geometry": null },
{ "type": "Feature", "properties": { "max_height": 7.1687507629394531, "mean_height": 0.39405125379562378, "std_height": 1.5328141450881958, "count_pixels": 40, "percent_cover": 0.42530568846358324, "percent_above_0.1m": 15.0, "low_level_<0.5": 5.0, "mid_level_0.5-2": 2.5, "tall_2+": 5.0 }, "geometry": null },
{ "type": "Feature", "properties": { "max_height": 0.002750396728515625, "mean_height": -0.00060872331960126758, "std_height": 0.0013537036720663309, "count_pixels": 41, "percent_cover": 0.43593833067517279, "percent_above_0.1m": 0.0, "low_level_<0.5": 0.0, "mid_level_0.5-2": 0.0, "tall_2+": 0.0 }, "geometry": null },
{ "type": "Feature", "properties": { "max_height": 2.2995014190673828, "mean_height": 0.068691529333591461, "std_height": 0.35387992858886719, "count_pixels": 42, "percent_cover": 0.44657097288676234, "percent_above_0.1m": 9.5238095238095237, "low_level_<0.5": 2.3809523809523809, "mid_level_0.5-2": 0.0, "tall_2+": 2.3809523809523809 }, "geometry": null },
{ "type": "Feature", "properties": { "max_height": 0.01525115966796875, "mean_height": -1.049041748046875e-05, "std_height": 0.0026625171303749084, "count_pixels": 42, "percent_cover": 0.44657097288676234, "percent_above_0.1m": 0.0, "low_level_<0.5": 0.0, "mid_level_0.5-2": 0.0, "tall_2+": 0.0 }, "geometry": null },
{ "type": "Feature", "properties": { "max_height": 12.367252349853516, "mean_height": 1.4656929969787598, "std_height": 3.2904562950134277, "count_pixels": 43, "percent_cover": 0.457203615098352, "percent_above_0.1m": 20.930232558139537, "low_level_<0.5": 0.0, "mid_level_0.5-2": 2.3255813953488373, "tall_2+": 18.604651162790699 }, "geometry": null },
{ "type": "Feature", "properties": { "max_height": 11.461753845214844, "mean_height": 3.5522692203521729, "std_height": 3.8917331695556641, "count_pixels": 43, "percent_cover": 0.457203615098352, "percent_above_0.1m": 55.813953488372093, "low_level_<0.5": 0.0, "mid_level_0.5-2": 6.9767441860465116, "tall_2+": 48.837209302325576 }, "geometry": null },
{ "type": "Feature", "properties": { "max_height": 0.075250625610351562, "mean_height": 0.0011572837829589844, "std_height": 0.011903940699994564, "count_pixels": 40, "percent_cover": 0.42530568846358324, "percent_above_0.1m": 0.0, "low_level_<0.5": 0.0, "mid_level_0.5-2": 0.0, "tall_2+": 0.0 }, "geometry": null },
{ "type": "Feature", "properties": { "max_height": 11.999502182006836, "mean_height": 2.2080478668212891, "std_height": 3.7385110855102539, "count_pixels": 43, "percent_cover": 0.457203615098352, "percent_above_0.1m": 32.558139534883722, "low_level_<0.5": 0.0, "mid_level_0.5-2": 2.3255813953488373, "tall_2+": 30.232558139534881 }, "geometry": null },
{ "type": "Feature", "properties": { "max_height": 13.582252502441406, "mean_height": 3.3061354160308838, "std_height": 4.3739891052246094, "count_pixels": 43, "percent_cover": 0.457203615098352, "percent_above_0.1m": 46.511627906976742, "low_level_<0.5": 2.3255813953488373, "mid_level_0.5-2": 0.0, "tall_2+": 44.186046511627907 }, "geometry": null },
{ "type": "Feature", "properties": { "max_height": 0.26675224304199219, "mean_height": 0.0060072853229939938, "std_height": 0.040739286690950394, "count_pixels": 42, "percent_cover": 0.44657097288676234, "percent_above_0.1m": 2.3809523809523809, "low_level_<0.5": 2.3809523809523809, "mid_level_0.5-2": 0.0, "tall_2+": 0.0 }, "geometry": null },
{ "type": "Feature", "properties": { "max_height": 9.2630043029785156, "mean_height": 2.1757457256317139, "std_height": 3.2969338893890381, "count_pixels": 42, "percent_cover": 0.44657097288676234, "percent_above_0.1m": 35.714285714285715, "low_level_<0.5": 0.0, "mid_level_0.5-2": 2.3809523809523809, "tall_2+": 33.333333333333329 }, "geometry": null },
{ "type": "Feature", "properties": { "max_height": 0.44900131225585938, "mean_height": 0.014763529412448406, "std_height": 0.074425943195819855, "count_pixels": 41, "percent_cover": 0.43593833067517279, "percent_above_0.1m": 4.8780487804878048, "low_level_<0.5": 4.8780487804878048, "mid_level_0.5-2": 0.0, "tall_2+": 0.0 }, "geometry": null },
{ "type": "Feature", "properties": { "max_height": 0.25225257873535156, "mean_height": 0.017701387405395508, "std_height": 0.056363590061664581, "count_pixels": 40, "percent_cover": 0.42530568846358324, "percent_above_0.1m": 10.0, "low_level_<0.5": 7.5, "mid_level_0.5-2": 0.0, "tall_2+": 0.0 }, "geometry": null },
{ "type": "Feature", "properties": { "max_height": 0.16175079345703125, "mean_height": 0.0029895249754190445, "std_height": 0.02451595850288868, "count_pixels": 43, "percent_cover": 0.457203615098352, "percent_above_0.1m": 2.3255813953488373, "low_level_<0.5": 2.3255813953488373, "mid_level_0.5-2": 0.0, "tall_2+": 0.0 }, "geometry": null },
{ "type": "Feature", "properties": { "max_height": 0.002002716064453125, "mean_height": -0.00026643843739293516, "std_height": 0.0010370002128183842, "count_pixels": 42, "percent_cover": 0.44657097288676234, "percent_above_0.1m": 0.0, "low_level_<0.5": 0.0, "mid_level_0.5-2": 0.0, "tall_2+": 0.0 }, "geometry": null },
{ "type": "Feature", "properties": { "max_height": 0.035001754760742188, "mean_height": 0.00088228500680997968, "std_height": 0.0058626886457204819, "count_pixels": 42, "percent_cover": 0.44657097288676234, "percent_above_0.1m": 0.0, "low_level_<0.5": 0.0, "mid_level_0.5-2": 0.0, "tall_2+": 0.0 }, "geometry": null },
{ "type": "Feature", "properties": { "max_height": 0.036500930786132812, "mean_height": 0.0001599381648702547, "std_height": 0.0059357136487960815, "count_pixels": 41, "percent_cover": 0.43593833067517279, "percent_above_0.1m": 0.0, "low_level_<0.5": 0.0, "mid_level_0.5-2": 0.0, "tall_2+": 0.0 }, "geometry": null },
{ "type": "Feature", "properties": { "max_height": 13.138751983642578, "mean_height": 2.2385928630828857, "std_height": 3.8910784721374512, "count_pixels": 41, "percent_cover": 0.43593833067517279, "percent_above_0.1m": 34.146341463414636, "low_level_<0.5": 0.0, "mid_level_0.5-2": 4.8780487804878048, "tall_2+": 29.268292682926827 }, "geometry": null },
{ "type": "Feature", "properties": { "max_height": 12.007503509521484, "mean_height": 4.2603826522827148, "std_height": 4.3247766494750977, "count_pixels": 40, "percent_cover": 0.42530568846358324, "percent_above_0.1m": 65.0, "low_level_<0.5": 2.5, "mid_level_0.5-2": 7.5, "tall_2+": 55.000000000000007 }, "geometry": null },
{ "type": "Feature", "properties": { "max_height": 11.697002410888672, "mean_height": 3.184476375579834, "std_height": 3.8802695274353027, "count_pixels": 40, "percent_cover": 0.42530568846358324, "percent_above_0.1m": 52.5, "low_level_<0.5": 0.0, "mid_level_0.5-2": 7.5, "tall_2+": 45.0 }, "geometry": null },
{ "type": "Feature", "properties": { "max_height": 14.506252288818359, "mean_height": 7.0292091369628906, "std_height": 4.4844002723693848, "count_pixels": 41, "percent_cover": 0.43593833067517279, "percent_above_0.1m": 87.804878048780495, "low_level_<0.5": 4.8780487804878048, "mid_level_0.5-2": 2.4390243902439024, "tall_2+": 80.487804878048792 }, "geometry": null },
{ "type": "Feature", "properties": { "max_height": 0.73050117492675781, "mean_height": 0.04274517297744751, "std_height": 0.13373903930187225, "count_pixels": 41, "percent_cover": 0.43593833067517279, "percent_above_0.1m": 12.195121951219512, "low_level_<0.5": 9.7560975609756095, "mid_level_0.5-2": 2.4390243902439024, "tall_2+": 0.0 }, "geometry": null },
{ "type": "Feature", "properties": { "max_height": 0.19500160217285156, "mean_height": 0.0043641501106321812, "std_height": 0.029873592779040337, "count_pixels": 42, "percent_cover": 0.44657097288676234, "percent_above_0.1m": 2.3809523809523809, "low_level_<0.5": 2.3809523809523809, "mid_level_0.5-2": 0.0, "tall_2+": 0.0 }, "geometry": null },
{ "type": "Feature", "properties": { "max_height": 0.0039997100830078125, "mean_height": -0.0003738857340067625, "std_height": 0.0015878475969657302, "count_pixels": 42, "percent_cover": 0.44657097288676234, "percent_above_0.1m": 0.0, "low_level_<0.5": 0.0, "mid_level_0.5-2": 0.0, "tall_2+": 0.0 }, "geometry": null },
{ "type": "Feature", "properties": { "max_height": 0.001750946044921875, "mean_height": -0.00068607332650572062, "std_height": 0.0013309045461937785, "count_pixels": 40, "percent_cover": 0.42530568846358324, "percent_above_0.1m": 0.0, "low_level_<0.5": 0.0, "mid_level_0.5-2": 0.0, "tall_2+": 0.0 }, "geometry": null },
{ "type": "Feature", "properties": { "max_height": 0.0020008087158203125, "mean_height": -0.00035853503504768014, "std_height": 0.001134208869189024, "count_pixels": 41, "percent_cover": 0.43593833067517279, "percent_above_0.1m": 0.0, "low_level_<0.5": 0.0, "mid_level_0.5-2": 0.0, "tall_2+": 0.0 }, "geometry": null },
{ "type": "Feature", "properties": { "max_height": 0.002750396728515625, "mean_height": -0.00045703706564381719, "std_height": 0.0012944935588166118, "count_pixels": 42, "percent_cover": 0.44657097288676234, "percent_above_0.1m": 0.0, "low_level_<0.5": 0.0, "mid_level_0.5-2": 0.0, "tall_2+": 0.0 }, "geometry": null },
{ "type": "Feature", "properties": { "max_height": 0.0020008087158203125, "mean_height": -0.00051066989544779062, "std_height": 0.0010774028487503529, "count_pixels": 42, "percent_cover": 0.44657097288676234, "percent_above_0.1m": 0.0, "low_level_<0.5": 0.0, "mid_level_0.5-2": 0.0, "tall_2+": 0.0 }, "geometry": null },
{ "type": "Feature", "properties": { "max_height": 0.0022525787353515625, "mean_height": -0.00048703924403525889, "std_height": 0.0012995647266507149, "count_pixels": 43, "percent_cover": 0.457203615098352, "percent_above_0.1m": 0.0, "low_level_<0.5": 0.0, "mid_level_0.5-2": 0.0, "tall_2+": 0.0 }, "geometry": null },
{ "type": "Feature", "properties": { "max_height": 8.7465019226074219, "mean_height": 0.94106560945510864, "std_height": 2.3367738723754883, "count_pixels": 43, "percent_cover": 0.457203615098352, "percent_above_0.1m": 18.604651162790699, "low_level_<0.5": 0.0, "mid_level_0.5-2": 4.6511627906976747, "tall_2+": 13.953488372093023 }, "geometry": null },
{ "type": "Feature", "properties": { "max_height": 10.790502548217773, "mean_height": 2.3764512538909912, "std_height": 3.7882118225097656, "count_pixels": 40, "percent_cover": 0.42530568846358324, "percent_above_0.1m": 37.5, "low_level_<0.5": 0.0, "mid_level_0.5-2": 5.0, "tall_2+": 32.5 }, "geometry": null },
{ "type": "Feature", "properties": { "max_height": 9.8412551879882812, "mean_height": 1.1325651407241821, "std_height": 2.6315195560455322, "count_pixels": 43, "percent_cover": 0.457203615098352, "percent_above_0.1m": 25.581395348837212, "low_level_<0.5": 2.3255813953488373, "mid_level_0.5-2": 4.6511627906976747, "tall_2+": 16.279069767441861 }, "geometry": null },
{ "type": "Feature", "properties": { "max_height": 0.28125, "mean_height": 0.021745370700955391, "std_height": 0.059420768171548843, "count_pixels": 43, "percent_cover": 0.457203615098352, "percent_above_0.1m": 6.9767441860465116, "low_level_<0.5": 6.9767441860465116, "mid_level_0.5-2": 0.0, "tall_2+": 0.0 }, "geometry": null },
{ "type": "Feature", "properties": { "max_height": 0.50200271606445312, "mean_height": 0.030436152592301369, "std_height": 0.10238605737686157, "count_pixels": 42, "percent_cover": 0.44657097288676234, "percent_above_0.1m": 9.5238095238095237, "low_level_<0.5": 4.7619047619047619, "mid_level_0.5-2": 2.3809523809523809, "tall_2+": 0.0 }, "geometry": null },
{ "type": "Feature", "properties": { "max_height": 0.0017528533935546875, "mean_height": -0.00051652814727276564, "std_height": 0.00098561937920749187, "count_pixels": 42, "percent_cover": 0.44657097288676234, "percent_above_0.1m": 0.0, "low_level_<0.5": 0.0, "mid_level_0.5-2": 0.0, "tall_2+": 0.0 }, "geometry": null },
{ "type": "Feature", "properties": { "max_height": 0.13325119018554688, "mean_height": 0.0077108782716095448, "std_height": 0.028952652588486671, "count_pixels": 43, "percent_cover": 0.457203615098352, "percent_above_0.1m": 4.6511627906976747, "low_level_<0.5": 0.0, "mid_level_0.5-2": 0.0, "tall_2+": 0.0 }, "geometry": null },
{ "type": "Feature", "properties": { "max_height": 3.2452507019042969, "mean_height": 0.65445375442504883, "std_height": 1.0457403659820557, "count_pixels": 42, "percent_cover": 0.44657097288676234, "percent_above_0.1m": 50.0, "low_level_<0.5": 11.904761904761903, "mid_level_0.5-2": 14.285714285714285, "tall_2+": 16.666666666666664 }, "geometry": null },
{ "type": "Feature", "properties": { "max_height": 11.218002319335938, "mean_height": 2.7469418048858643, "std_height": 3.4289748668670654, "count_pixels": 42, "percent_cover": 0.44657097288676234, "percent_above_0.1m": 64.285714285714292, "low_level_<0.5": 4.7619047619047619, "mid_level_0.5-2": 9.5238095238095237, "tall_2+": 45.238095238095241 }, "geometry": null },
{ "type": "Feature", "properties": { "max_height": 5.5632534027099609, "mean_height": 0.49412959814071655, "std_height": 1.0510619878768921, "count_pixels": 41, "percent_cover": 0.43593833067517279, "percent_above_0.1m": 31.707317073170731, "low_level_<0.5": 4.8780487804878048, "mid_level_0.5-2": 21.951219512195124, "tall_2+": 4.8780487804878048 }, "geometry": null },
{ "type": "Feature", "properties": { "max_height": 2.2895011901855469, "mean_height": 0.17190979421138763, "std_height": 0.40678492188453674, "count_pixels": 41, "percent_cover": 0.43593833067517279, "percent_above_0.1m": 21.951219512195124, "low_level_<0.5": 4.8780487804878048, "mid_level_0.5-2": 14.634146341463413, "tall_2+": 2.4390243902439024 }, "geometry": null },
{ "type": "Feature", "properties": { "max_height": 0.001251220703125, "mean_height": -0.00044889451237395406, "std_height": 0.00098776724189519882, "count_pixels": 40, "percent_cover": 0.42530568846358324, "percent_above_0.1m": 0.0, "low_level_<0.5": 0.0, "mid_level_0.5-2": 0.0, "tall_2+": 0.0 }, "geometry": null },
{ "type": "Feature", "properties": { "max_height": 0.0025005340576171875, "mean_height": -0.00028629304142668843, "std_height": 0.0013571579474955797, "count_pixels": 40, "percent_cover": 0.42530568846358324, "percent_above_0.1m": 0.0, "low_level_<0.5": 0.0, "mid_level_0.5-2": 0.0, "tall_2+": 0.0 }, "geometry": null },
{ "type": "Feature", "properties": { "max_height": 0.002002716064453125, "mean_height": -0.00059016159502789378, "std_height": 0.0011231346288695931, "count_pixels": 41, "percent_cover": 0.43593833067517279, "percent_above_0.1m": 0.0, "low_level_<0.5": 0.0, "mid_level_0.5-2": 0.0, "tall_2+": 0.0 }, "geometry": null },
{ "type": "Feature", "properties": { "max_height": 0.003749847412109375, "mean_height": -0.00055950443493202329, "std_height": 0.0013930124696344137, "count_pixels": 41, "percent_cover": 0.43593833067517279, "percent_above_0.1m": 0.0, "low_level_<0.5": 0.0, "mid_level_0.5-2": 0.0, "tall_2+": 0.0 }, "geometry": null },
{ "type": "Feature", "properties": { "max_height": 0.3535003662109375, "mean_height": 0.0088109057396650314, "std_height": 0.053951401263475418, "count_pixels": 42, "percent_cover": 0.44657097288676234, "percent_above_0.1m": 2.3809523809523809, "low_level_<0.5": 2.3809523809523809, "mid_level_0.5-2": 0.0, "tall_2+": 0.0 }, "geometry": null },
{ "type": "Feature", "properties": { "max_height": 5.7787513732910156, "mean_height": 0.35987907648086548, "std_height": 1.0529203414916992, "count_pixels": 43, "percent_cover": 0.457203615098352, "percent_above_0.1m": 23.255813953488371, "low_level_<0.5": 11.627906976744185, "mid_level_0.5-2": 2.3255813953488373, "tall_2+": 9.3023255813953494 }, "geometry": null },
{ "type": "Feature", "properties": { "max_height": 1.1052532196044922, "mean_height": 0.092945195734500885, "std_height": 0.21796625852584839, "count_pixels": 40, "percent_cover": 0.42530568846358324, "percent_above_0.1m": 17.5, "low_level_<0.5": 10.0, "mid_level_0.5-2": 7.5, "tall_2+": 0.0 }, "geometry": null },
{ "type": "Feature", "properties": { "max_height": 1.3182525634765625, "mean_height": 0.10629206150770187, "std_height": 0.26348939538002014, "count_pixels": 43, "percent_cover": 0.457203615098352, "percent_above_0.1m": 18.604651162790699, "low_level_<0.5": 4.6511627906976747, "mid_level_0.5-2": 9.3023255813953494, "tall_2+": 0.0 }, "geometry": null },
{ "type": "Feature", "properties": { "max_height": 0.66575241088867188, "mean_height": 0.024384874850511551, "std_height": 0.10263017565011978, "count_pixels": 43, "percent_cover": 0.457203615098352, "percent_above_0.1m": 4.6511627906976747, "low_level_<0.5": 0.0, "mid_level_0.5-2": 2.3255813953488373, "tall_2+": 0.0 }, "geometry": null },
{ "type": "Feature", "properties": { "max_height": 0.0020008087158203125, "mean_height": -0.00053446635138243437, "std_height": 0.0011757095344364643, "count_pixels": 42, "percent_cover": 0.44657097288676234, "percent_above_0.1m": 0.0, "low_level_<0.5": 0.0, "mid_level_0.5-2": 0.0, "tall_2+": 0.0 }, "geometry": null },
{ "type": "Feature", "properties": { "max_height": 0.68125152587890625, "mean_height": 0.10826952755451202, "std_height": 0.21060530841350555, "count_pixels": 41, "percent_cover": 0.43593833067517279, "percent_above_0.1m": 24.390243902439025, "low_level_<0.5": 14.634146341463413, "mid_level_0.5-2": 9.7560975609756095, "tall_2+": 0.0 }, "geometry": null },
{ "type": "Feature", "properties": { "max_height": 1.5044994354248047, "mean_height": 0.19136703014373779, "std_height": 0.36026263236999512, "count_pixels": 41, "percent_cover": 0.43593833067517279, "percent_above_0.1m": 34.146341463414636, "low_level_<0.5": 21.951219512195124, "mid_level_0.5-2": 9.7560975609756095, "tall_2+": 0.0 }, "geometry": null },
{ "type": "Feature", "properties": { "max_height": 6.4937534332275391, "mean_height": 0.34336471557617188, "std_height": 1.3134124279022217, "count_pixels": 42, "percent_cover": 0.44657097288676234, "percent_above_0.1m": 9.5238095238095237, "low_level_<0.5": 0.0, "mid_level_0.5-2": 2.3809523809523809, "tall_2+": 4.7619047619047619 }, "geometry": null }
]
}
