{
"type": "FeatureCollection",
"name": "WESFU_81_cycling",
"crs": { "type": "name", "properties": { "name": "urn:ogc:def:crs:OGC:1.3:CRS84" } },
"features": [
{"type":"Feature","properties":{"highway":"track","name":null,"category":"Track"},"geometry":{"type":"MultiLineString","coordinates":[[[-2.7749392,54.2626906],[-2.7750883,54.262778],[-2.7751294,54.2628028],[-2.7752839,54.2628944],[-2.7754384,54.2629666],[-2.7762282,54.2632529],[-2.7769915,54.2635492],[-2.7770599,54.2635529],[-2.7771283,54.2635394],[-2.7777074,54.2632449],[-2.7778123,54.2631692],[-2.7779539,54.263087],[-2.7780421,54.2630601],[-2.7781189,54.2630642],[-2.7781758,54.2630873],[-2.7782467,54.2631446]]]}},
{"type":"Feature","properties":{"highway":"track","name":null,"category":"Track"},"geometry":{"type":"MultiLineString","coordinates":[[[-2.7790255,54.263731],[-2.7790533,54.2637884],[-2.7791079,54.2639164],[-2.779133,54.2640082],[-2.7791655,54.264794],[-2.7792008,54.2663254],[-2.7792121,54.2664178],[-2.7792225,54.2665022],[-2.7792984,54.2667509],[-2.7801563,54.2690714],[-2.7801738,54.2691656],[-2.7801791,54.2692599],[-2.7798951,54.2696963],[-2.7800238,54.2700822],[-2.7821938,54.2724328],[-2.7822347,54.2725265],[-2.7822422,54.2726174],[-2.7821634,54.2728637]]]}},
{"type":"Feature","properties":{"highway":"path","name":null,"category":"Shared path"},"geometry":{"type":"MultiLineString","coordinates":[[[-2.7790255,54.263731],[-2.7790835,54.2637733],[-2.7801778,54.2646507],[-2.7805729,54.2651076],[-2.7840041,54.2658571],[-2.7841024,54.2658832]]]}},
{"type":"Feature","properties":{"highway":"track","name":null,"category":"Track"},"geometry":{"type":"MultiLineString","coordinates":[[[-2.7782467,54.2631446],[-2.7789283,54.2636421]]]}},
{"type":"Feature","properties":{"highway":"bridleway","name":"Grievegate Lane","category":"Bridleway"},"geometry":{"type":"MultiLineString","coordinates":[[[-2.7627906,54.2494072],[-2.7629193,54.2494381],[-2.7634802,54.249506],[-2.7639979,54.2496292],[-2.7641652,54.2497989],[-2.7641798,54.2498333],[-2.7642893,54.2499029],[-2.7643076,54.2499089],[-2.7644816,54.2499739],[-2.7646799,54.2500547],[-2.7649428,54.250209],[-2.765306,54.2504433],[-2.7656347,54.250647],[-2.7659474,54.2508601],[-2.7661716,54.2510349],[-2.7664021,54.2512655],[-2.7665919,54.2515269],[-2.766858,54.2516976],[-2.7671712,54.2518632],[-2.7673507,54.2519469],[-2.7676435,54.2520594],[-2.7680031,54.2521775],[-2.7685397,54.2524695],[-2.7687467,54.2525983],[-2.7689906,54.2528023],[-2.7690869,54.2528906],[-2.7691513,54.2529807],[-2.769192,54.2531066],[-2.7692008,54.2532008],[-2.7691686,54.2533478],[-2.7691973,54.2535624],[-2.7692481,54.2536763],[-2.7693355,54.2538299],[-2.7693985,54.2538881],[-2.769501,54.253935],[-2.7696343,54.2539536],[-2.7698242,54.2539661],[-2.7699567,54.2540019],[-2.7700443,54.2540399],[-2.770529,54.2543449],[-2.7710703,54.254704],[-2.7711715,54.254762],[-2.7715444,54.2548252],[-2.7716054,54.254869],[-2.7722054,54.255239]]]}},
{"type":"Feature","properties":{"highway":"track","name":null,"category":"Track"},"geometry":{"type":"MultiLineString","coordinates":[[[-2.7748727,54.2629131],[-2.7747875,54.2629123],[-2.7742053,54.2629189],[-2.7734945,54.2629173],[-2.773355,54.2629377],[-2.7728293,54.2630301],[-2.772714,54.2630787],[-2.7717833,54.263569],[-2.7717108,54.263627],[-2.7716572,54.2636991],[-2.7716009,54.2640421],[-2.7715714,54.2640813],[-2.771397,54.2642082],[-2.7713192,54.264238],[-2.7709813,54.2643539],[-2.7708472,54.2644181],[-2.7706111,54.2646609],[-2.7705709,54.2647831],[-2.7705977,54.2649664],[-2.7704609,54.2651011],[-2.7702169,54.265322],[-2.7701203,54.265557],[-2.7700613,54.2658029],[-2.7699808,54.266323],[-2.7698896,54.2664185],[-2.7692083,54.2670106],[-2.7689857,54.2672127],[-2.7678699,54.268198],[-2.7679397,54.2682262],[-2.7694444,54.268635],[-2.7710468,54.2690715],[-2.7714882,54.2691942],[-2.7715988,54.2692153],[-2.7716254,54.2692203],[-2.7718511,54.2692251]]]}},
{"type":"Feature","properties":{"highway":"track","name":null,"category":"Track"},"geometry":{"type":"MultiLineString","coordinates":[[[-2.7789283,54.2636421],[-2.7789896,54.2636861],[-2.7790255,54.263731]]]}},
{"type":"Feature","properties":{"highway":"track","name":null,"category":"Track"},"geometry":{"type":"MultiLineString","coordinates":[[[-2.7816385,54.2520558],[-2.7816155,54.2521659],[-2.7814895,54.2529314],[-2.7814492,54.253139],[-2.7814517,54.2531979],[-2.781487,54.2532612],[-2.7815399,54.2533422],[-2.7815475,54.2533569],[-2.7815374,54.2533745],[-2.7814845,54.2534172],[-2.7814618,54.2534496],[-2.7814417,54.2534982],[-2.7814265,54.2535483],[-2.7813635,54.2536366],[-2.7812879,54.2537279],[-2.7812627,54.2537676],[-2.7812375,54.2538398],[-2.7812023,54.2539472],[-2.7811468,54.25409],[-2.7811468,54.2541371],[-2.7812249,54.2543594],[-2.7812401,54.2543845],[-2.7813409,54.2544419]]]}},
{"type":"Feature","properties":{"highway":"track","name":null,"category":"Track"},"geometry":{"type":"MultiLineString","coordinates":[[[-2.7813409,54.2544419],[-2.7812006,54.2544955],[-2.7799929,54.2548886],[-2.779937,54.25491],[-2.7798793,54.2549396],[-2.7798129,54.2549478],[-2.778801,54.2549835],[-2.7787504,54.2549937],[-2.7787154,54.2550162],[-2.7782016,54.2555787],[-2.7778573,54.2559555],[-2.7777927,54.2560504]]]}},
{"type":"Feature","properties":{"highway":"track","name":null,"category":"Track"},"geometry":{"type":"MultiLineString","coordinates":[[[-2.7817638,54.2546421],[-2.7817489,54.2545698],[-2.7817399,54.2545244],[-2.7816724,54.2544833],[-2.7815221,54.2544506],[-2.7814383,54.2544302],[-2.7813806,54.2544332],[-2.7813409,54.2544419]]]}},
{"type":"Feature","properties":{"highway":"track","name":null,"category":"Track"},"geometry":{"type":"MultiLineString","coordinates":[[[-2.7815538,54.2549013],[-2.7816551,54.254927],[-2.7817611,54.2549417],[-2.7818923,54.2549476],[-2.782069,54.2549402],[-2.7822937,54.2549358],[-2.7823414,54.2549401],[-2.7824249,54.2549476],[-2.782695,54.2549771],[-2.7830585,54.2550258],[-2.7833336,54.2550833],[-2.7835229,54.255126],[-2.783788,54.2551762],[-2.7841035,54.2552263],[-2.7844569,54.2552868],[-2.7847421,54.2553369],[-2.7849163,54.2553605],[-2.7851207,54.2553782],[-2.7853454,54.2553752],[-2.7854766,54.2553708],[-2.7856483,54.2553649],[-2.7858048,54.2553752],[-2.7859764,54.2554136],[-2.7861127,54.2554888]]]}},
{"type":"Feature","properties":{"highway":"track","name":null,"category":"Track"},"geometry":{"type":"MultiLineString","coordinates":[[[-2.7823414,54.2549401],[-2.782351,54.2554568],[-2.7823573,54.255824],[-2.7823804,54.2564011],[-2.7823889,54.2569131],[-2.7823973,54.2572128],[-2.7824015,54.2573294],[-2.7824141,54.2574129],[-2.7824561,54.2575173],[-2.7825339,54.2577322],[-2.7825843,54.25785],[-2.7826495,54.2579802],[-2.7827147,54.2581005],[-2.7828576,54.2583645],[-2.7829669,54.2585831],[-2.783051,54.2587783],[-2.7831498,54.2589907]]]}},
{"type":"Feature","properties":{"highway":"track","name":"Grievegate Lane","category":"Track"},"geometry":{"type":"MultiLineString","coordinates":[[[-2.7722054,54.255239],[-2.7727848,54.2554834],[-2.7729135,54.2556589],[-2.7728357,54.2559431],[-2.7729564,54.2560976],[-2.7732005,54.2561938],[-2.7735868,54.2562314],[-2.7742365,54.2564677],[-2.774472,54.2565648],[-2.7745429,54.2566064],[-2.7745983,54.2566485],[-2.7746514,54.2567027],[-2.7746984,54.2567435],[-2.774729,54.25676],[-2.7747712,54.2567648],[-2.7748349,54.2567719],[-2.7749215,54.2567797]]]}},
{"type":"Feature","properties":{"highway":"track","name":null,"category":"Track"},"geometry":{"type":"MultiLineString","coordinates":[[[-2.7727462,54.2612881],[-2.7725256,54.2613574],[-2.7724492,54.2614035],[-2.7721,54.2616882],[-2.7716177,54.2619595],[-2.771312,54.2621113],[-2.7703925,54.2625157],[-2.7697112,54.2628337],[-2.7693674,54.2629792],[-2.769156,54.2631063],[-2.768869,54.263393],[-2.7686083,54.2636779],[-2.7683137,54.2639162],[-2.7681872,54.2640868],[-2.7679812,54.2645159],[-2.7677876,54.2648607],[-2.7676106,54.2652491]]]}}
]
}
