{
"type": "FeatureCollection",
"name": "STOC5_83_toilets",
"crs": { "type": "name", "properties": { "name": "urn:ogc:def:crs:OGC:1.3:CRS84" } },
"features": [
{ "type": "Feature", "properties": { "name": "Waitrose", "payment_info": "Free", "accessible": "False", "radar": "Unknown", "women": "True", "men": "True", "baby_change": "True", "Mon": "08:30-20:00", "Tue": "08:30-20:00", "Wed": "08:30-20:00", "Thu": "08:30-20:00", "Fri": "08:30-20:00", "Sat": "08:30-20:00", "Sun": "Closed", "index_right": 695, "park_offical_id": "STOC5_83" }, "geometry": { "type": "Point", "coordinates": [ -2.189723253, 53.376229347 ] } }
]
}
