{
"type": "FeatureCollection",
"name": "0116099855d8_foliage",
"crs": { "type": "name", "properties": { "name": "urn:ogc:def:crs:OGC:1.3:CRS84" } },
"features": [
{ "type": "Feature", "properties": { "max_height": 7.4740009307861328, "mean_height": 1.7340980768203735, "std_height": 2.3009216785430908, "count_pixels": 44, "percent_cover": 0.96491228070175439, "percent_above_0.1m": 50.0, "low_level_<0.5": 4.5454545454545459, "mid_level_0.5-2": 11.363636363636363, "tall_2+": 34.090909090909086 }, "geometry": null },
{ "type": "Feature", "properties": { "max_height": 9.3542499542236328, "mean_height": 6.1279511451721191, "std_height": 2.273512601852417, "count_pixels": 44, "percent_cover": 0.96491228070175439, "percent_above_0.1m": 100.0, "low_level_<0.5": 4.5454545454545459, "mid_level_0.5-2": 4.5454545454545459, "tall_2+": 90.909090909090907 }, "geometry": null },
{ "type": "Feature", "properties": { "max_height": 6.3404998779296875, "mean_height": 1.1223703622817993, "std_height": 1.9491682052612305, "count_pixels": 42, "percent_cover": 0.92105263157894723, "percent_above_0.1m": 33.333333333333329, "low_level_<0.5": 4.7619047619047619, "mid_level_0.5-2": 7.1428571428571423, "tall_2+": 21.428571428571427 }, "geometry": null },
{ "type": "Feature", "properties": { "max_height": 7.6632499694824219, "mean_height": 5.2080497741699219, "std_height": 2.3054392337799072, "count_pixels": 42, "percent_cover": 0.92105263157894723, "percent_above_0.1m": 95.238095238095227, "low_level_<0.5": 0.0, "mid_level_0.5-2": 4.7619047619047619, "tall_2+": 88.095238095238088 }, "geometry": null },
{ "type": "Feature", "properties": { "max_height": 4.7432518005371094, "mean_height": 0.38207888603210449, "std_height": 1.1070382595062256, "count_pixels": 42, "percent_cover": 0.92105263157894723, "percent_above_0.1m": 16.666666666666664, "low_level_<0.5": 0.0, "mid_level_0.5-2": 9.5238095238095237, "tall_2+": 7.1428571428571423 }, "geometry": null },
{ "type": "Feature", "properties": { "max_height": 9.5844993591308594, "mean_height": 2.2669832706451416, "std_height": 3.14882493019104, "count_pixels": 41, "percent_cover": 0.89912280701754388, "percent_above_0.1m": 46.341463414634148, "low_level_<0.5": 2.4390243902439024, "mid_level_0.5-2": 7.3170731707317067, "tall_2+": 36.585365853658537 }, "geometry": null },
{ "type": "Feature", "properties": { "max_height": 7.1175022125244141, "mean_height": 0.66743266582489014, "std_height": 1.6658909320831299, "count_pixels": 40, "percent_cover": 0.8771929824561403, "percent_above_0.1m": 27.5, "low_level_<0.5": 5.0, "mid_level_0.5-2": 12.5, "tall_2+": 10.0 }, "geometry": null },
{ "type": "Feature", "properties": { "max_height": 1.7035007476806641, "mean_height": 0.057209491729736328, "std_height": 0.28282299637794495, "count_pixels": 36, "percent_cover": 0.78947368421052633, "percent_above_0.1m": 5.5555555555555554, "low_level_<0.5": 2.7777777777777777, "mid_level_0.5-2": 2.7777777777777777, "tall_2+": 0.0 }, "geometry": null },
{ "type": "Feature", "properties": { "max_height": 10.337251663208008, "mean_height": 3.9244513511657715, "std_height": 3.5303843021392822, "count_pixels": 40, "percent_cover": 0.8771929824561403, "percent_above_0.1m": 70.0, "low_level_<0.5": 2.5, "mid_level_0.5-2": 5.0, "tall_2+": 62.5 }, "geometry": null },
{ "type": "Feature", "properties": { "max_height": 7.4937496185302734, "mean_height": 0.54591172933578491, "std_height": 1.6164969205856323, "count_pixels": 42, "percent_cover": 0.92105263157894723, "percent_above_0.1m": 19.047619047619047, "low_level_<0.5": 4.7619047619047619, "mid_level_0.5-2": 4.7619047619047619, "tall_2+": 9.5238095238095237 }, "geometry": null },
{ "type": "Feature", "properties": { "max_height": 8.1387500762939453, "mean_height": 1.0996378660202026, "std_height": 2.34476637840271, "count_pixels": 42, "percent_cover": 0.92105263157894723, "percent_above_0.1m": 26.190476190476193, "low_level_<0.5": 2.3809523809523809, "mid_level_0.5-2": 4.7619047619047619, "tall_2+": 19.047619047619047 }, "geometry": null },
{ "type": "Feature", "properties": { "max_height": 6.5447521209716797, "mean_height": 0.74654322862625122, "std_height": 1.6743854284286499, "count_pixels": 42, "percent_cover": 0.92105263157894723, "percent_above_0.1m": 21.428571428571427, "low_level_<0.5": 0.0, "mid_level_0.5-2": 4.7619047619047619, "tall_2+": 16.666666666666664 }, "geometry": null },
{ "type": "Feature", "properties": { "max_height": 5.2385025024414062, "mean_height": 0.44570377469062805, "std_height": 1.1961703300476074, "count_pixels": 42, "percent_cover": 0.92105263157894723, "percent_above_0.1m": 16.666666666666664, "low_level_<0.5": 0.0, "mid_level_0.5-2": 7.1428571428571423, "tall_2+": 9.5238095238095237 }, "geometry": null },
{ "type": "Feature", "properties": { "max_height": 0.020751953125, "mean_height": 0.0008079789113253355, "std_height": 0.0040259296074509621, "count_pixels": 44, "percent_cover": 0.96491228070175439, "percent_above_0.1m": 0.0, "low_level_<0.5": 0.0, "mid_level_0.5-2": 0.0, "tall_2+": 0.0 }, "geometry": null },
{ "type": "Feature", "properties": { "max_height": 0.0015010833740234375, "mean_height": -0.00013738208508584648, "std_height": 0.00083851907402276993, "count_pixels": 36, "percent_cover": 0.78947368421052633, "percent_above_0.1m": 0.0, "low_level_<0.5": 0.0, "mid_level_0.5-2": 0.0, "tall_2+": 0.0 }, "geometry": null },
{ "type": "Feature", "properties": { "max_height": 5.3330020904541016, "mean_height": 0.43235760927200317, "std_height": 1.2548567056655884, "count_pixels": 40, "percent_cover": 0.8771929824561403, "percent_above_0.1m": 17.5, "low_level_<0.5": 2.5, "mid_level_0.5-2": 0.0, "tall_2+": 10.0 }, "geometry": null },
{ "type": "Feature", "properties": { "max_height": 7.8155021667480469, "mean_height": 1.7424204349517822, "std_height": 2.3482584953308105, "count_pixels": 40, "percent_cover": 0.8771929824561403, "percent_above_0.1m": 60.0, "low_level_<0.5": 5.0, "mid_level_0.5-2": 22.5, "tall_2+": 30.0 }, "geometry": null },
{ "type": "Feature", "properties": { "max_height": 1.2802505493164062, "mean_height": 0.037066731601953506, "std_height": 0.19581937789916992, "count_pixels": 42, "percent_cover": 0.92105263157894723, "percent_above_0.1m": 4.7619047619047619, "low_level_<0.5": 0.0, "mid_level_0.5-2": 2.3809523809523809, "tall_2+": 0.0 }, "geometry": null },
{ "type": "Feature", "properties": { "max_height": 4.3014984130859375, "mean_height": 0.28053125739097595, "std_height": 0.85601645708084106, "count_pixels": 42, "percent_cover": 0.92105263157894723, "percent_above_0.1m": 14.285714285714285, "low_level_<0.5": 0.0, "mid_level_0.5-2": 9.5238095238095237, "tall_2+": 4.7619047619047619 }, "geometry": null },
{ "type": "Feature", "properties": { "max_height": 0.00550079345703125, "mean_height": -0.00047515687765553594, "std_height": 0.0036713837180286646, "count_pixels": 42, "percent_cover": 0.92105263157894723, "percent_above_0.1m": 0.0, "low_level_<0.5": 0.0, "mid_level_0.5-2": 0.0, "tall_2+": 0.0 }, "geometry": null },
{ "type": "Feature", "properties": { "max_height": 3.1230010986328125, "mean_height": 0.14095506072044373, "std_height": 0.55887991189956665, "count_pixels": 43, "percent_cover": 0.94298245614035081, "percent_above_0.1m": 6.9767441860465116, "low_level_<0.5": 0.0, "mid_level_0.5-2": 4.6511627906976747, "tall_2+": 2.3255813953488373 }, "geometry": null },
{ "type": "Feature", "properties": { "max_height": 0.011251449584960938, "mean_height": 0.00033105502370744944, "std_height": 0.002860259497538209, "count_pixels": 44, "percent_cover": 0.96491228070175439, "percent_above_0.1m": 0.0, "low_level_<0.5": 0.0, "mid_level_0.5-2": 0.0, "tall_2+": 0.0 }, "geometry": null },
{ "type": "Feature", "properties": { "max_height": 8.0877532958984375, "mean_height": 0.4498026967048645, "std_height": 1.4685754776000977, "count_pixels": 44, "percent_cover": 0.96491228070175439, "percent_above_0.1m": 13.636363636363635, "low_level_<0.5": 0.0, "mid_level_0.5-2": 6.8181818181818175, "tall_2+": 6.8181818181818175 }, "geometry": null },
{ "type": "Feature", "properties": { "max_height": 9.82025146484375, "mean_height": 1.175864577293396, "std_height": 2.5582561492919922, "count_pixels": 42, "percent_cover": 0.92105263157894723, "percent_above_0.1m": 23.809523809523807, "low_level_<0.5": 2.3809523809523809, "mid_level_0.5-2": 2.3809523809523809, "tall_2+": 19.047619047619047 }, "geometry": null },
{ "type": "Feature", "properties": { "max_height": 8.8507518768310547, "mean_height": 0.65928101539611816, "std_height": 1.8773497343063354, "count_pixels": 42, "percent_cover": 0.92105263157894723, "percent_above_0.1m": 16.666666666666664, "low_level_<0.5": 0.0, "mid_level_0.5-2": 7.1428571428571423, "tall_2+": 9.5238095238095237 }, "geometry": null },
{ "type": "Feature", "properties": { "max_height": 0.0162506103515625, "mean_height": 0.00077529181726276875, "std_height": 0.0032074972987174988, "count_pixels": 42, "percent_cover": 0.92105263157894723, "percent_above_0.1m": 0.0, "low_level_<0.5": 0.0, "mid_level_0.5-2": 0.0, "tall_2+": 0.0 }, "geometry": null },
{ "type": "Feature", "properties": { "max_height": 0.000751495361328125, "mean_height": -8.1925165432039648e-05, "std_height": 0.00034403245081193745, "count_pixels": 42, "percent_cover": 0.92105263157894723, "percent_above_0.1m": 0.0, "low_level_<0.5": 0.0, "mid_level_0.5-2": 0.0, "tall_2+": 0.0 }, "geometry": null },
{ "type": "Feature", "properties": { "max_height": 14.792001724243164, "mean_height": 1.155845046043396, "std_height": 3.3367660045623779, "count_pixels": 40, "percent_cover": 0.8771929824561403, "percent_above_0.1m": 15.0, "low_level_<0.5": 0.0, "mid_level_0.5-2": 2.5, "tall_2+": 12.5 }, "geometry": null },
{ "type": "Feature", "properties": { "max_height": 8.7017498016357422, "mean_height": 0.76279979944229126, "std_height": 1.9040539264678955, "count_pixels": 36, "percent_cover": 0.78947368421052633, "percent_above_0.1m": 25.0, "low_level_<0.5": 5.5555555555555554, "mid_level_0.5-2": 5.5555555555555554, "tall_2+": 13.888888888888889 }, "geometry": null },
{ "type": "Feature", "properties": { "max_height": 0.010501861572265625, "mean_height": 0.00037102264468558133, "std_height": 0.0021209677215665579, "count_pixels": 44, "percent_cover": 0.96491228070175439, "percent_above_0.1m": 0.0, "low_level_<0.5": 0.0, "mid_level_0.5-2": 0.0, "tall_2+": 0.0 }, "geometry": null },
{ "type": "Feature", "properties": { "max_height": 2.2510032653808594, "mean_height": 0.070438988506793976, "std_height": 0.3418407142162323, "count_pixels": 44, "percent_cover": 0.96491228070175439, "percent_above_0.1m": 6.8181818181818175, "low_level_<0.5": 4.5454545454545459, "mid_level_0.5-2": 0.0, "tall_2+": 2.2727272727272729 }, "geometry": null },
{ "type": "Feature", "properties": { "max_height": 0.019502639770507812, "mean_height": 7.3259525379398838e-06, "std_height": 0.003887133440002799, "count_pixels": 44, "percent_cover": 0.96491228070175439, "percent_above_0.1m": 0.0, "low_level_<0.5": 0.0, "mid_level_0.5-2": 0.0, "tall_2+": 0.0 }, "geometry": null },
{ "type": "Feature", "properties": { "max_height": 0.010751724243164062, "mean_height": -0.00028433118131943047, "std_height": 0.0027038401458412409, "count_pixels": 42, "percent_cover": 0.92105263157894723, "percent_above_0.1m": 0.0, "low_level_<0.5": 0.0, "mid_level_0.5-2": 0.0, "tall_2+": 0.0 }, "geometry": null },
{ "type": "Feature", "properties": { "max_height": 0.063001632690429688, "mean_height": 0.0037988934200257063, "std_height": 0.013915388844907284, "count_pixels": 42, "percent_cover": 0.92105263157894723, "percent_above_0.1m": 0.0, "low_level_<0.5": 0.0, "mid_level_0.5-2": 0.0, "tall_2+": 0.0 }, "geometry": null },
{ "type": "Feature", "properties": { "max_height": 0.00250244140625, "mean_height": -1.0354177902627271e-05, "std_height": 0.00094482960412278771, "count_pixels": 42, "percent_cover": 0.92105263157894723, "percent_above_0.1m": 0.0, "low_level_<0.5": 0.0, "mid_level_0.5-2": 0.0, "tall_2+": 0.0 }, "geometry": null },
{ "type": "Feature", "properties": { "max_height": 0.0032501220703125, "mean_height": -0.00028512536664493382, "std_height": 0.0021594604477286339, "count_pixels": 41, "percent_cover": 0.89912280701754388, "percent_above_0.1m": 0.0, "low_level_<0.5": 0.0, "mid_level_0.5-2": 0.0, "tall_2+": 0.0 }, "geometry": null },
{ "type": "Feature", "properties": { "max_height": 0.069002151489257812, "mean_height": 0.0043450356461107731, "std_height": 0.013416195288300514, "count_pixels": 40, "percent_cover": 0.8771929824561403, "percent_above_0.1m": 0.0, "low_level_<0.5": 0.0, "mid_level_0.5-2": 0.0, "tall_2+": 0.0 }, "geometry": null },
{ "type": "Feature", "properties": { "max_height": 0.001003265380859375, "mean_height": -0.00049850676441565156, "std_height": 0.0025029468815773726, "count_pixels": 36, "percent_cover": 0.78947368421052633, "percent_above_0.1m": 0.0, "low_level_<0.5": 0.0, "mid_level_0.5-2": 0.0, "tall_2+": 0.0 }, "geometry": null },
{ "type": "Feature", "properties": { "max_height": 0.0010013580322265625, "mean_height": 3.2329560781363398e-05, "std_height": 0.0003363161813467741, "count_pixels": 40, "percent_cover": 0.8771929824561403, "percent_above_0.1m": 0.0, "low_level_<0.5": 0.0, "mid_level_0.5-2": 0.0, "tall_2+": 0.0 }, "geometry": null },
{ "type": "Feature", "properties": { "max_height": 0.014501571655273438, "mean_height": 0.00067992438562214375, "std_height": 0.0028703254647552967, "count_pixels": 42, "percent_cover": 0.92105263157894723, "percent_above_0.1m": 0.0, "low_level_<0.5": 0.0, "mid_level_0.5-2": 0.0, "tall_2+": 0.0 }, "geometry": null },
{ "type": "Feature", "properties": { "max_height": 0.0070018768310546875, "mean_height": 0.00026929946034215391, "std_height": 0.0012410666095092893, "count_pixels": 42, "percent_cover": 0.92105263157894723, "percent_above_0.1m": 0.0, "low_level_<0.5": 0.0, "mid_level_0.5-2": 0.0, "tall_2+": 0.0 }, "geometry": null },
{ "type": "Feature", "properties": { "max_height": 1.7452507019042969, "mean_height": 0.1892692893743515, "std_height": 0.43015307188034058, "count_pixels": 42, "percent_cover": 0.92105263157894723, "percent_above_0.1m": 23.809523809523807, "low_level_<0.5": 7.1428571428571423, "mid_level_0.5-2": 14.285714285714285, "tall_2+": 0.0 }, "geometry": null },
{ "type": "Feature", "properties": { "max_height": 0.0017528533935546875, "mean_height": 9.6548174042254686e-05, "std_height": 0.00052042229799553752, "count_pixels": 42, "percent_cover": 0.92105263157894723, "percent_above_0.1m": 0.0, "low_level_<0.5": 0.0, "mid_level_0.5-2": 0.0, "tall_2+": 0.0 }, "geometry": null },
{ "type": "Feature", "properties": { "max_height": 13.445499420166016, "mean_height": 5.1138362884521484, "std_height": 4.9518065452575684, "count_pixels": 44, "percent_cover": 0.96491228070175439, "percent_above_0.1m": 65.909090909090907, "low_level_<0.5": 0.0, "mid_level_0.5-2": 13.636363636363635, "tall_2+": 52.272727272727273 }, "geometry": null },
{ "type": "Feature", "properties": { "max_height": 11.180751800537109, "mean_height": 1.1158994436264038, "std_height": 2.804542064666748, "count_pixels": 44, "percent_cover": 0.96491228070175439, "percent_above_0.1m": 20.454545454545457, "low_level_<0.5": 2.2727272727272729, "mid_level_0.5-2": 4.5454545454545459, "tall_2+": 13.636363636363635 }, "geometry": null },
{ "type": "Feature", "properties": { "max_height": 0.0015010833740234375, "mean_height": 1.9118899217573926e-05, "std_height": 0.00064190715784206986, "count_pixels": 42, "percent_cover": 0.92105263157894723, "percent_above_0.1m": 0.0, "low_level_<0.5": 0.0, "mid_level_0.5-2": 0.0, "tall_2+": 0.0 }, "geometry": null },
{ "type": "Feature", "properties": { "max_height": 0.002750396728515625, "mean_height": 5.7554243539925665e-05, "std_height": 0.00059802725445479155, "count_pixels": 40, "percent_cover": 0.8771929824561403, "percent_above_0.1m": 0.0, "low_level_<0.5": 0.0, "mid_level_0.5-2": 0.0, "tall_2+": 0.0 }, "geometry": null },
{ "type": "Feature", "properties": { "max_height": 7.7247505187988281, "mean_height": 0.43895286321640015, "std_height": 1.4072002172470093, "count_pixels": 36, "percent_cover": 0.78947368421052633, "percent_above_0.1m": 13.888888888888889, "low_level_<0.5": 0.0, "mid_level_0.5-2": 2.7777777777777777, "tall_2+": 11.111111111111111 }, "geometry": null }
]
}
