{
"type": "FeatureCollection",
"name": "5d01b69f003e_visibility",
"crs": { "type": "name", "properties": { "name": "urn:ogc:def:crs:OGC:1.3:CRS84" } },
"features": [
{ "type": "Feature", "properties": { "visible_points": 4, "total_points": 54, "visibility_pct": 7.4074074074074066 }, "geometry": null },
{ "type": "Feature", "properties": { "visible_points": 8, "total_points": 63, "visibility_pct": 12.698412698412698 }, "geometry": null },
{ "type": "Feature", "properties": { "visible_points": 0, "total_points": 71, "visibility_pct": 0.0 }, "geometry": null },
{ "type": "Feature", "properties": { "visible_points": 1, "total_points": 79, "visibility_pct": 1.2658227848101267 }, "geometry": null },
{ "type": "Feature", "properties": { "visible_points": 22, "total_points": 85, "visibility_pct": 25.882352941176475 }, "geometry": null },
{ "type": "Feature", "properties": { "visible_points": 29, "total_points": 85, "visibility_pct": 34.117647058823529 }, "geometry": null },
{ "type": "Feature", "properties": { "visible_points": 31, "total_points": 79, "visibility_pct": 39.24050632911392 }, "geometry": null },
{ "type": "Feature", "properties": { "visible_points": 5, "total_points": 71, "visibility_pct": 7.042253521126761 }, "geometry": null },
{ "type": "Feature", "properties": { "visible_points": 4, "total_points": 63, "visibility_pct": 6.3492063492063489 }, "geometry": null },
{ "type": "Feature", "properties": { "visible_points": 8, "total_points": 65, "visibility_pct": 12.307692307692308 }, "geometry": null },
{ "type": "Feature", "properties": { "visible_points": 8, "total_points": 75, "visibility_pct": 10.666666666666668 }, "geometry": null },
{ "type": "Feature", "properties": { "visible_points": 19, "total_points": 84, "visibility_pct": 22.61904761904762 }, "geometry": null },
{ "type": "Feature", "properties": { "visible_points": 39, "total_points": 92, "visibility_pct": 42.391304347826086 }, "geometry": null },
{ "type": "Feature", "properties": { "visible_points": 34, "total_points": 98, "visibility_pct": 34.693877551020407 }, "geometry": null },
{ "type": "Feature", "properties": { "visible_points": 33, "total_points": 92, "visibility_pct": 35.869565217391305 }, "geometry": null },
{ "type": "Feature", "properties": { "visible_points": 32, "total_points": 84, "visibility_pct": 38.095238095238095 }, "geometry": null },
{ "type": "Feature", "properties": { "visible_points": 29, "total_points": 75, "visibility_pct": 38.666666666666664 }, "geometry": null },
{ "type": "Feature", "properties": { "visible_points": 5, "total_points": 65, "visibility_pct": 7.6923076923076925 }, "geometry": null },
{ "type": "Feature", "properties": { "visible_points": 16, "total_points": 77, "visibility_pct": 20.779220779220779 }, "geometry": null },
{ "type": "Feature", "properties": { "visible_points": 15, "total_points": 87, "visibility_pct": 17.241379310344829 }, "geometry": null },
{ "type": "Feature", "properties": { "visible_points": 41, "total_points": 97, "visibility_pct": 42.268041237113401 }, "geometry": null },
{ "type": "Feature", "properties": { "visible_points": 48, "total_points": 105, "visibility_pct": 45.714285714285715 }, "geometry": null },
{ "type": "Feature", "properties": { "visible_points": 44, "total_points": 105, "visibility_pct": 41.904761904761905 }, "geometry": null },
{ "type": "Feature", "properties": { "visible_points": 36, "total_points": 97, "visibility_pct": 37.113402061855673 }, "geometry": null },
{ "type": "Feature", "properties": { "visible_points": 31, "total_points": 87, "visibility_pct": 35.632183908045981 }, "geometry": null },
{ "type": "Feature", "properties": { "visible_points": 19, "total_points": 77, "visibility_pct": 24.675324675324674 }, "geometry": null },
{ "type": "Feature", "properties": { "visible_points": 8, "total_points": 77, "visibility_pct": 10.38961038961039 }, "geometry": null },
{ "type": "Feature", "properties": { "visible_points": 32, "total_points": 89, "visibility_pct": 35.955056179775283 }, "geometry": null },
{ "type": "Feature", "properties": { "visible_points": 45, "total_points": 100, "visibility_pct": 45.0 }, "geometry": null },
{ "type": "Feature", "properties": { "visible_points": 53, "total_points": 110, "visibility_pct": 48.18181818181818 }, "geometry": null },
{ "type": "Feature", "properties": { "visible_points": 48, "total_points": 115, "visibility_pct": 41.739130434782609 }, "geometry": null },
{ "type": "Feature", "properties": { "visible_points": 42, "total_points": 110, "visibility_pct": 38.181818181818187 }, "geometry": null },
{ "type": "Feature", "properties": { "visible_points": 35, "total_points": 100, "visibility_pct": 35.0 }, "geometry": null },
{ "type": "Feature", "properties": { "visible_points": 35, "total_points": 89, "visibility_pct": 39.325842696629216 }, "geometry": null },
{ "type": "Feature", "properties": { "visible_points": 3, "total_points": 77, "visibility_pct": 3.8961038961038961 }, "geometry": null },
{ "type": "Feature", "properties": { "visible_points": 37, "total_points": 88, "visibility_pct": 42.045454545454547 }, "geometry": null },
{ "type": "Feature", "properties": { "visible_points": 44, "total_points": 100, "visibility_pct": 44.0 }, "geometry": null },
{ "type": "Feature", "properties": { "visible_points": 48, "total_points": 111, "visibility_pct": 43.243243243243242 }, "geometry": null },
{ "type": "Feature", "properties": { "visible_points": 50, "total_points": 118, "visibility_pct": 42.372881355932201 }, "geometry": null },
{ "type": "Feature", "properties": { "visible_points": 46, "total_points": 118, "visibility_pct": 38.983050847457626 }, "geometry": null },
{ "type": "Feature", "properties": { "visible_points": 41, "total_points": 111, "visibility_pct": 36.936936936936938 }, "geometry": null },
{ "type": "Feature", "properties": { "visible_points": 36, "total_points": 100, "visibility_pct": 36.0 }, "geometry": null },
{ "type": "Feature", "properties": { "visible_points": 29, "total_points": 88, "visibility_pct": 32.954545454545453 }, "geometry": null },
{ "type": "Feature", "properties": { "visible_points": 9, "total_points": 82, "visibility_pct": 10.975609756097562 }, "geometry": null },
{ "type": "Feature", "properties": { "visible_points": 42, "total_points": 95, "visibility_pct": 44.210526315789473 }, "geometry": null },
{ "type": "Feature", "properties": { "visible_points": 51, "total_points": 106, "visibility_pct": 48.113207547169814 }, "geometry": null },
{ "type": "Feature", "properties": { "visible_points": 52, "total_points": 115, "visibility_pct": 45.217391304347828 }, "geometry": null },
{ "type": "Feature", "properties": { "visible_points": 48, "total_points": 120, "visibility_pct": 40.0 }, "geometry": null },
{ "type": "Feature", "properties": { "visible_points": 48, "total_points": 115, "visibility_pct": 41.739130434782609 }, "geometry": null },
{ "type": "Feature", "properties": { "visible_points": 42, "total_points": 106, "visibility_pct": 39.622641509433961 }, "geometry": null },
{ "type": "Feature", "properties": { "visible_points": 41, "total_points": 95, "visibility_pct": 43.15789473684211 }, "geometry": null },
{ "type": "Feature", "properties": { "visible_points": 4, "total_points": 82, "visibility_pct": 4.8780487804878048 }, "geometry": null },
{ "type": "Feature", "properties": { "visible_points": 38, "total_points": 89, "visibility_pct": 42.696629213483142 }, "geometry": null },
{ "type": "Feature", "properties": { "visible_points": 48, "total_points": 100, "visibility_pct": 48.0 }, "geometry": null },
{ "type": "Feature", "properties": { "visible_points": 49, "total_points": 111, "visibility_pct": 44.144144144144143 }, "geometry": null },
{ "type": "Feature", "properties": { "visible_points": 59, "total_points": 118, "visibility_pct": 50.0 }, "geometry": null },
{ "type": "Feature", "properties": { "visible_points": 51, "total_points": 118, "visibility_pct": 43.220338983050851 }, "geometry": null },
{ "type": "Feature", "properties": { "visible_points": 48, "total_points": 111, "visibility_pct": 43.243243243243242 }, "geometry": null },
{ "type": "Feature", "properties": { "visible_points": 45, "total_points": 100, "visibility_pct": 45.0 }, "geometry": null },
{ "type": "Feature", "properties": { "visible_points": 38, "total_points": 89, "visibility_pct": 42.696629213483142 }, "geometry": null },
{ "type": "Feature", "properties": { "visible_points": 3, "total_points": 76, "visibility_pct": 3.9473684210526314 }, "geometry": null },
{ "type": "Feature", "properties": { "visible_points": 10, "total_points": 82, "visibility_pct": 12.195121951219512 }, "geometry": null },
{ "type": "Feature", "properties": { "visible_points": 42, "total_points": 95, "visibility_pct": 44.210526315789473 }, "geometry": null },
{ "type": "Feature", "properties": { "visible_points": 50, "total_points": 106, "visibility_pct": 47.169811320754718 }, "geometry": null },
{ "type": "Feature", "properties": { "visible_points": 56, "total_points": 115, "visibility_pct": 48.695652173913047 }, "geometry": null },
{ "type": "Feature", "properties": { "visible_points": 52, "total_points": 120, "visibility_pct": 43.333333333333336 }, "geometry": null },
{ "type": "Feature", "properties": { "visible_points": 53, "total_points": 115, "visibility_pct": 46.086956521739133 }, "geometry": null },
{ "type": "Feature", "properties": { "visible_points": 50, "total_points": 106, "visibility_pct": 47.169811320754718 }, "geometry": null },
{ "type": "Feature", "properties": { "visible_points": 43, "total_points": 95, "visibility_pct": 45.263157894736842 }, "geometry": null },
{ "type": "Feature", "properties": { "visible_points": 8, "total_points": 82, "visibility_pct": 9.7560975609756095 }, "geometry": null },
{ "type": "Feature", "properties": { "visible_points": 37, "total_points": 88, "visibility_pct": 42.045454545454547 }, "geometry": null },
{ "type": "Feature", "properties": { "visible_points": 43, "total_points": 100, "visibility_pct": 43.0 }, "geometry": null },
{ "type": "Feature", "properties": { "visible_points": 49, "total_points": 111, "visibility_pct": 44.144144144144143 }, "geometry": null },
{ "type": "Feature", "properties": { "visible_points": 54, "total_points": 118, "visibility_pct": 45.762711864406782 }, "geometry": null },
{ "type": "Feature", "properties": { "visible_points": 52, "total_points": 118, "visibility_pct": 44.067796610169488 }, "geometry": null },
{ "type": "Feature", "properties": { "visible_points": 50, "total_points": 111, "visibility_pct": 45.045045045045043 }, "geometry": null },
{ "type": "Feature", "properties": { "visible_points": 44, "total_points": 100, "visibility_pct": 44.0 }, "geometry": null },
{ "type": "Feature", "properties": { "visible_points": 40, "total_points": 89, "visibility_pct": 44.943820224719097 }, "geometry": null },
{ "type": "Feature", "properties": { "visible_points": 5, "total_points": 76, "visibility_pct": 6.5789473684210522 }, "geometry": null },
{ "type": "Feature", "properties": { "visible_points": 9, "total_points": 81, "visibility_pct": 11.111111111111111 }, "geometry": null },
{ "type": "Feature", "properties": { "visible_points": 35, "total_points": 94, "visibility_pct": 37.234042553191486 }, "geometry": null },
{ "type": "Feature", "properties": { "visible_points": 41, "total_points": 105, "visibility_pct": 39.047619047619051 }, "geometry": null },
{ "type": "Feature", "properties": { "visible_points": 47, "total_points": 115, "visibility_pct": 40.869565217391305 }, "geometry": null },
{ "type": "Feature", "properties": { "visible_points": 48, "total_points": 120, "visibility_pct": 40.0 }, "geometry": null },
{ "type": "Feature", "properties": { "visible_points": 31, "total_points": 115, "visibility_pct": 26.956521739130434 }, "geometry": null },
{ "type": "Feature", "properties": { "visible_points": 31, "total_points": 106, "visibility_pct": 29.245283018867923 }, "geometry": null },
{ "type": "Feature", "properties": { "visible_points": 25, "total_points": 95, "visibility_pct": 26.315789473684209 }, "geometry": null },
{ "type": "Feature", "properties": { "visible_points": 20, "total_points": 82, "visibility_pct": 24.390243902439025 }, "geometry": null },
{ "type": "Feature", "properties": { "visible_points": 5, "total_points": 87, "visibility_pct": 5.7471264367816088 }, "geometry": null },
{ "type": "Feature", "properties": { "visible_points": 25, "total_points": 99, "visibility_pct": 25.252525252525253 }, "geometry": null },
{ "type": "Feature", "properties": { "visible_points": 26, "total_points": 110, "visibility_pct": 23.636363636363637 }, "geometry": null },
{ "type": "Feature", "properties": { "visible_points": 32, "total_points": 118, "visibility_pct": 27.118644067796609 }, "geometry": null },
{ "type": "Feature", "properties": { "visible_points": 0, "total_points": 118, "visibility_pct": 0.0 }, "geometry": null },
{ "type": "Feature", "properties": { "visible_points": 3, "total_points": 111, "visibility_pct": 2.7027027027027026 }, "geometry": null },
{ "type": "Feature", "properties": { "visible_points": 25, "total_points": 100, "visibility_pct": 25.0 }, "geometry": null },
{ "type": "Feature", "properties": { "visible_points": 25, "total_points": 89, "visibility_pct": 28.08988764044944 }, "geometry": null },
{ "type": "Feature", "properties": { "visible_points": 4, "total_points": 76, "visibility_pct": 5.2631578947368416 }, "geometry": null },
{ "type": "Feature", "properties": { "visible_points": 5, "total_points": 80, "visibility_pct": 6.25 }, "geometry": null },
{ "type": "Feature", "properties": { "visible_points": 16, "total_points": 93, "visibility_pct": 17.20430107526882 }, "geometry": null },
{ "type": "Feature", "properties": { "visible_points": 19, "total_points": 104, "visibility_pct": 18.269230769230766 }, "geometry": null },
{ "type": "Feature", "properties": { "visible_points": 23, "total_points": 114, "visibility_pct": 20.175438596491226 }, "geometry": null },
{ "type": "Feature", "properties": { "visible_points": 20, "total_points": 120, "visibility_pct": 16.666666666666664 }, "geometry": null },
{ "type": "Feature", "properties": { "visible_points": 15, "total_points": 115, "visibility_pct": 13.043478260869565 }, "geometry": null },
{ "type": "Feature", "properties": { "visible_points": 18, "total_points": 106, "visibility_pct": 16.981132075471699 }, "geometry": null },
{ "type": "Feature", "properties": { "visible_points": 19, "total_points": 95, "visibility_pct": 20.0 }, "geometry": null },
{ "type": "Feature", "properties": { "visible_points": 13, "total_points": 82, "visibility_pct": 15.853658536585366 }, "geometry": null },
{ "type": "Feature", "properties": { "visible_points": 2, "total_points": 87, "visibility_pct": 2.2988505747126435 }, "geometry": null },
{ "type": "Feature", "properties": { "visible_points": 12, "total_points": 98, "visibility_pct": 12.244897959183673 }, "geometry": null },
{ "type": "Feature", "properties": { "visible_points": 9, "total_points": 109, "visibility_pct": 8.2568807339449553 }, "geometry": null },
{ "type": "Feature", "properties": { "visible_points": 13, "total_points": 117, "visibility_pct": 11.111111111111111 }, "geometry": null },
{ "type": "Feature", "properties": { "visible_points": 17, "total_points": 118, "visibility_pct": 14.40677966101695 }, "geometry": null },
{ "type": "Feature", "properties": { "visible_points": 23, "total_points": 111, "visibility_pct": 20.72072072072072 }, "geometry": null },
{ "type": "Feature", "properties": { "visible_points": 24, "total_points": 100, "visibility_pct": 24.0 }, "geometry": null },
{ "type": "Feature", "properties": { "visible_points": 21, "total_points": 89, "visibility_pct": 23.595505617977526 }, "geometry": null },
{ "type": "Feature", "properties": { "visible_points": 0, "total_points": 76, "visibility_pct": 0.0 }, "geometry": null },
{ "type": "Feature", "properties": { "visible_points": 7, "total_points": 82, "visibility_pct": 8.536585365853659 }, "geometry": null },
{ "type": "Feature", "properties": { "visible_points": 0, "total_points": 94, "visibility_pct": 0.0 }, "geometry": null },
{ "type": "Feature", "properties": { "visible_points": 0, "total_points": 104, "visibility_pct": 0.0 }, "geometry": null },
{ "type": "Feature", "properties": { "visible_points": 0, "total_points": 113, "visibility_pct": 0.0 }, "geometry": null },
{ "type": "Feature", "properties": { "visible_points": 3, "total_points": 119, "visibility_pct": 2.5210084033613445 }, "geometry": null },
{ "type": "Feature", "properties": { "visible_points": 0, "total_points": 115, "visibility_pct": 0.0 }, "geometry": null },
{ "type": "Feature", "properties": { "visible_points": 20, "total_points": 106, "visibility_pct": 18.867924528301888 }, "geometry": null },
{ "type": "Feature", "properties": { "visible_points": 27, "total_points": 95, "visibility_pct": 28.421052631578945 }, "geometry": null },
{ "type": "Feature", "properties": { "visible_points": 18, "total_points": 82, "visibility_pct": 21.951219512195124 }, "geometry": null },
{ "type": "Feature", "properties": { "visible_points": 0, "total_points": 90, "visibility_pct": 0.0 }, "geometry": null },
{ "type": "Feature", "properties": { "visible_points": 0, "total_points": 100, "visibility_pct": 0.0 }, "geometry": null },
{ "type": "Feature", "properties": { "visible_points": 0, "total_points": 109, "visibility_pct": 0.0 }, "geometry": null },
{ "type": "Feature", "properties": { "visible_points": 0, "total_points": 116, "visibility_pct": 0.0 }, "geometry": null },
{ "type": "Feature", "properties": { "visible_points": 2, "total_points": 118, "visibility_pct": 1.6949152542372881 }, "geometry": null },
{ "type": "Feature", "properties": { "visible_points": 10, "total_points": 111, "visibility_pct": 9.0090090090090094 }, "geometry": null },
{ "type": "Feature", "properties": { "visible_points": 19, "total_points": 99, "visibility_pct": 19.19191919191919 }, "geometry": null },
{ "type": "Feature", "properties": { "visible_points": 18, "total_points": 87, "visibility_pct": 20.689655172413794 }, "geometry": null },
{ "type": "Feature", "properties": { "visible_points": 0, "total_points": 74, "visibility_pct": 0.0 }, "geometry": null },
{ "type": "Feature", "properties": { "visible_points": 0, "total_points": 97, "visibility_pct": 0.0 }, "geometry": null },
{ "type": "Feature", "properties": { "visible_points": 0, "total_points": 106, "visibility_pct": 0.0 }, "geometry": null },
{ "type": "Feature", "properties": { "visible_points": 0, "total_points": 113, "visibility_pct": 0.0 }, "geometry": null },
{ "type": "Feature", "properties": { "visible_points": 7, "total_points": 118, "visibility_pct": 5.9322033898305087 }, "geometry": null },
{ "type": "Feature", "properties": { "visible_points": 0, "total_points": 113, "visibility_pct": 0.0 }, "geometry": null },
{ "type": "Feature", "properties": { "visible_points": 14, "total_points": 102, "visibility_pct": 13.725490196078432 }, "geometry": null },
{ "type": "Feature", "properties": { "visible_points": 18, "total_points": 90, "visibility_pct": 20.0 }, "geometry": null },
{ "type": "Feature", "properties": { "visible_points": 11, "total_points": 77, "visibility_pct": 14.285714285714285 }, "geometry": null },
{ "type": "Feature", "properties": { "visible_points": 3, "total_points": 95, "visibility_pct": 3.1578947368421053 }, "geometry": null },
{ "type": "Feature", "properties": { "visible_points": 10, "total_points": 102, "visibility_pct": 9.8039215686274517 }, "geometry": null },
{ "type": "Feature", "properties": { "visible_points": 12, "total_points": 109, "visibility_pct": 11.009174311926607 }, "geometry": null },
{ "type": "Feature", "properties": { "visible_points": 19, "total_points": 113, "visibility_pct": 16.814159292035399 }, "geometry": null },
{ "type": "Feature", "properties": { "visible_points": 16, "total_points": 112, "visibility_pct": 14.285714285714285 }, "geometry": null },
{ "type": "Feature", "properties": { "visible_points": 18, "total_points": 102, "visibility_pct": 17.647058823529413 }, "geometry": null },
{ "type": "Feature", "properties": { "visible_points": 18, "total_points": 91, "visibility_pct": 19.780219780219781 }, "geometry": null },
{ "type": "Feature", "properties": { "visible_points": 14, "total_points": 80, "visibility_pct": 17.5 }, "geometry": null },
{ "type": "Feature", "properties": { "visible_points": 0, "total_points": 67, "visibility_pct": 0.0 }, "geometry": null },
{ "type": "Feature", "properties": { "visible_points": 12, "total_points": 100, "visibility_pct": 12.0 }, "geometry": null },
{ "type": "Feature", "properties": { "visible_points": 11, "total_points": 106, "visibility_pct": 10.377358490566039 }, "geometry": null },
{ "type": "Feature", "properties": { "visible_points": 12, "total_points": 109, "visibility_pct": 11.009174311926607 }, "geometry": null },
{ "type": "Feature", "properties": { "visible_points": 15, "total_points": 109, "visibility_pct": 13.761467889908257 }, "geometry": null },
{ "type": "Feature", "properties": { "visible_points": 23, "total_points": 101, "visibility_pct": 22.772277227722775 }, "geometry": null },
{ "type": "Feature", "properties": { "visible_points": 16, "total_points": 90, "visibility_pct": 17.777777777777779 }, "geometry": null },
{ "type": "Feature", "properties": { "visible_points": 0, "total_points": 79, "visibility_pct": 0.0 }, "geometry": null },
{ "type": "Feature", "properties": { "visible_points": 0, "total_points": 68, "visibility_pct": 0.0 }, "geometry": null },
{ "type": "Feature", "properties": { "visible_points": 1, "total_points": 98, "visibility_pct": 1.0204081632653061 }, "geometry": null },
{ "type": "Feature", "properties": { "visible_points": 8, "total_points": 103, "visibility_pct": 7.7669902912621351 }, "geometry": null },
{ "type": "Feature", "properties": { "visible_points": 10, "total_points": 105, "visibility_pct": 9.5238095238095237 }, "geometry": null },
{ "type": "Feature", "properties": { "visible_points": 10, "total_points": 104, "visibility_pct": 9.6153846153846168 }, "geometry": null },
{ "type": "Feature", "properties": { "visible_points": 16, "total_points": 99, "visibility_pct": 16.161616161616163 }, "geometry": null },
{ "type": "Feature", "properties": { "visible_points": 15, "total_points": 89, "visibility_pct": 16.853932584269664 }, "geometry": null },
{ "type": "Feature", "properties": { "visible_points": 0, "total_points": 78, "visibility_pct": 0.0 }, "geometry": null },
{ "type": "Feature", "properties": { "visible_points": 26, "total_points": 92, "visibility_pct": 28.260869565217391 }, "geometry": null },
{ "type": "Feature", "properties": { "visible_points": 24, "total_points": 96, "visibility_pct": 25.0 }, "geometry": null },
{ "type": "Feature", "properties": { "visible_points": 5, "total_points": 100, "visibility_pct": 5.0 }, "geometry": null },
{ "type": "Feature", "properties": { "visible_points": 0, "total_points": 100, "visibility_pct": 0.0 }, "geometry": null },
{ "type": "Feature", "properties": { "visible_points": 0, "total_points": 99, "visibility_pct": 0.0 }, "geometry": null },
{ "type": "Feature", "properties": { "visible_points": 0, "total_points": 95, "visibility_pct": 0.0 }, "geometry": null },
{ "type": "Feature", "properties": { "visible_points": 7, "total_points": 87, "visibility_pct": 8.0459770114942533 }, "geometry": null },
{ "type": "Feature", "properties": { "visible_points": 0, "total_points": 77, "visibility_pct": 0.0 }, "geometry": null },
{ "type": "Feature", "properties": { "visible_points": 21, "total_points": 83, "visibility_pct": 25.301204819277107 }, "geometry": null },
{ "type": "Feature", "properties": { "visible_points": 13, "total_points": 90, "visibility_pct": 14.444444444444443 }, "geometry": null },
{ "type": "Feature", "properties": { "visible_points": 16, "total_points": 93, "visibility_pct": 17.20430107526882 }, "geometry": null },
{ "type": "Feature", "properties": { "visible_points": 16, "total_points": 95, "visibility_pct": 16.842105263157894 }, "geometry": null },
{ "type": "Feature", "properties": { "visible_points": 0, "total_points": 74, "visibility_pct": 0.0 }, "geometry": null },
{ "type": "Feature", "properties": { "visible_points": 12, "total_points": 71, "visibility_pct": 16.901408450704224 }, "geometry": null },
{ "type": "Feature", "properties": { "visible_points": 9, "total_points": 81, "visibility_pct": 11.111111111111111 }, "geometry": null },
{ "type": "Feature", "properties": { "visible_points": 14, "total_points": 88, "visibility_pct": 15.909090909090908 }, "geometry": null },
{ "type": "Feature", "properties": { "visible_points": 19, "total_points": 91, "visibility_pct": 20.87912087912088 }, "geometry": null },
{ "type": "Feature", "properties": { "visible_points": 9, "total_points": 92, "visibility_pct": 9.7826086956521738 }, "geometry": null },
{ "type": "Feature", "properties": { "visible_points": 9, "total_points": 91, "visibility_pct": 9.8901098901098905 }, "geometry": null },
{ "type": "Feature", "properties": { "visible_points": 6, "total_points": 56, "visibility_pct": 10.714285714285714 }, "geometry": null },
{ "type": "Feature", "properties": { "visible_points": 9, "total_points": 65, "visibility_pct": 13.846153846153847 }, "geometry": null },
{ "type": "Feature", "properties": { "visible_points": 15, "total_points": 74, "visibility_pct": 20.27027027027027 }, "geometry": null },
{ "type": "Feature", "properties": { "visible_points": 21, "total_points": 83, "visibility_pct": 25.301204819277107 }, "geometry": null },
{ "type": "Feature", "properties": { "visible_points": 17, "total_points": 87, "visibility_pct": 19.540229885057471 }, "geometry": null },
{ "type": "Feature", "properties": { "visible_points": 10, "total_points": 88, "visibility_pct": 11.363636363636363 }, "geometry": null },
{ "type": "Feature", "properties": { "visible_points": 7, "total_points": 87, "visibility_pct": 8.0459770114942533 }, "geometry": null },
{ "type": "Feature", "properties": { "visible_points": 6, "total_points": 83, "visibility_pct": 7.2289156626506017 }, "geometry": null },
{ "type": "Feature", "properties": { "visible_points": 6, "total_points": 59, "visibility_pct": 10.16949152542373 }, "geometry": null },
{ "type": "Feature", "properties": { "visible_points": 11, "total_points": 67, "visibility_pct": 16.417910447761194 }, "geometry": null },
{ "type": "Feature", "properties": { "visible_points": 16, "total_points": 75, "visibility_pct": 21.333333333333336 }, "geometry": null },
{ "type": "Feature", "properties": { "visible_points": 12, "total_points": 81, "visibility_pct": 14.814814814814813 }, "geometry": null },
{ "type": "Feature", "properties": { "visible_points": 17, "total_points": 84, "visibility_pct": 20.238095238095237 }, "geometry": null },
{ "type": "Feature", "properties": { "visible_points": 13, "total_points": 82, "visibility_pct": 15.853658536585366 }, "geometry": null },
{ "type": "Feature", "properties": { "visible_points": 4, "total_points": 78, "visibility_pct": 5.1282051282051277 }, "geometry": null },
{ "type": "Feature", "properties": { "visible_points": 9, "total_points": 60, "visibility_pct": 15.0 }, "geometry": null },
{ "type": "Feature", "properties": { "visible_points": 17, "total_points": 67, "visibility_pct": 25.373134328358208 }, "geometry": null },
{ "type": "Feature", "properties": { "visible_points": 5, "total_points": 74, "visibility_pct": 6.756756756756757 }, "geometry": null },
{ "type": "Feature", "properties": { "visible_points": 1, "total_points": 52, "visibility_pct": 1.9230769230769231 }, "geometry": null },
{ "type": "Feature", "properties": { "visible_points": 12, "total_points": 59, "visibility_pct": 20.33898305084746 }, "geometry": null },
{ "type": "Feature", "properties": { "visible_points": 10, "total_points": 65, "visibility_pct": 15.384615384615385 }, "geometry": null },
{ "type": "Feature", "properties": { "visible_points": 3, "total_points": 50, "visibility_pct": 6.0 }, "geometry": null },
{ "type": "Feature", "properties": { "visible_points": 0, "total_points": 55, "visibility_pct": 0.0 }, "geometry": null },
{ "type": "Feature", "properties": { "visible_points": 1, "total_points": 59, "visibility_pct": 1.6949152542372881 }, "geometry": null }
]
}
