{
"type": "FeatureCollection",
"name": "7a35f1a8dbcd_visibility",
"crs": { "type": "name", "properties": { "name": "urn:ogc:def:crs:OGC:1.3:CRS84" } },
"features": [
{ "type": "Feature", "properties": { "visible_points": 0, "total_points": 51, "visibility_pct": 0.0 }, "geometry": null },
{ "type": "Feature", "properties": { "visible_points": 2, "total_points": 46, "visibility_pct": 4.3478260869565215 }, "geometry": null },
{ "type": "Feature", "properties": { "visible_points": 2, "total_points": 64, "visibility_pct": 3.125 }, "geometry": null },
{ "type": "Feature", "properties": { "visible_points": 0, "total_points": 61, "visibility_pct": 0.0 }, "geometry": null },
{ "type": "Feature", "properties": { "visible_points": 0, "total_points": 56, "visibility_pct": 0.0 }, "geometry": null },
{ "type": "Feature", "properties": { "visible_points": 5, "total_points": 71, "visibility_pct": 7.042253521126761 }, "geometry": null },
{ "type": "Feature", "properties": { "visible_points": 8, "total_points": 72, "visibility_pct": 11.111111111111111 }, "geometry": null },
{ "type": "Feature", "properties": { "visible_points": 0, "total_points": 71, "visibility_pct": 0.0 }, "geometry": null },
{ "type": "Feature", "properties": { "visible_points": 0, "total_points": 67, "visibility_pct": 0.0 }, "geometry": null },
{ "type": "Feature", "properties": { "visible_points": 0, "total_points": 60, "visibility_pct": 0.0 }, "geometry": null },
{ "type": "Feature", "properties": { "visible_points": 17, "total_points": 68, "visibility_pct": 25.0 }, "geometry": null },
{ "type": "Feature", "properties": { "visible_points": 24, "total_points": 77, "visibility_pct": 31.168831168831169 }, "geometry": null },
{ "type": "Feature", "properties": { "visible_points": 0, "total_points": 81, "visibility_pct": 0.0 }, "geometry": null },
{ "type": "Feature", "properties": { "visible_points": 17, "total_points": 80, "visibility_pct": 21.25 }, "geometry": null },
{ "type": "Feature", "properties": { "visible_points": 15, "total_points": 78, "visibility_pct": 19.230769230769234 }, "geometry": null },
{ "type": "Feature", "properties": { "visible_points": 0, "total_points": 71, "visibility_pct": 0.0 }, "geometry": null },
{ "type": "Feature", "properties": { "visible_points": 32, "total_points": 81, "visibility_pct": 39.506172839506171 }, "geometry": null },
{ "type": "Feature", "properties": { "visible_points": 25, "total_points": 87, "visibility_pct": 28.735632183908045 }, "geometry": null },
{ "type": "Feature", "properties": { "visible_points": 24, "total_points": 89, "visibility_pct": 26.966292134831459 }, "geometry": null },
{ "type": "Feature", "properties": { "visible_points": 27, "total_points": 87, "visibility_pct": 31.03448275862069 }, "geometry": null },
{ "type": "Feature", "properties": { "visible_points": 17, "total_points": 83, "visibility_pct": 20.481927710843372 }, "geometry": null },
{ "type": "Feature", "properties": { "visible_points": 4, "total_points": 73, "visibility_pct": 5.4794520547945202 }, "geometry": null },
{ "type": "Feature", "properties": { "visible_points": 29, "total_points": 93, "visibility_pct": 31.182795698924732 }, "geometry": null },
{ "type": "Feature", "properties": { "visible_points": 29, "total_points": 96, "visibility_pct": 30.208333333333332 }, "geometry": null },
{ "type": "Feature", "properties": { "visible_points": 35, "total_points": 95, "visibility_pct": 36.84210526315789 }, "geometry": null },
{ "type": "Feature", "properties": { "visible_points": 27, "total_points": 92, "visibility_pct": 29.347826086956523 }, "geometry": null },
{ "type": "Feature", "properties": { "visible_points": 0, "total_points": 82, "visibility_pct": 0.0 }, "geometry": null },
{ "type": "Feature", "properties": { "visible_points": 34, "total_points": 102, "visibility_pct": 33.333333333333329 }, "geometry": null },
{ "type": "Feature", "properties": { "visible_points": 38, "total_points": 102, "visibility_pct": 37.254901960784316 }, "geometry": null },
{ "type": "Feature", "properties": { "visible_points": 39, "total_points": 98, "visibility_pct": 39.795918367346935 }, "geometry": null },
{ "type": "Feature", "properties": { "visible_points": 22, "total_points": 89, "visibility_pct": 24.719101123595504 }, "geometry": null },
{ "type": "Feature", "properties": { "visible_points": 3, "total_points": 76, "visibility_pct": 3.9473684210526314 }, "geometry": null },
{ "type": "Feature", "properties": { "visible_points": 36, "total_points": 107, "visibility_pct": 33.644859813084111 }, "geometry": null },
{ "type": "Feature", "properties": { "visible_points": 39, "total_points": 103, "visibility_pct": 37.864077669902912 }, "geometry": null },
{ "type": "Feature", "properties": { "visible_points": 34, "total_points": 94, "visibility_pct": 36.170212765957451 }, "geometry": null },
{ "type": "Feature", "properties": { "visible_points": 0, "total_points": 82, "visibility_pct": 0.0 }, "geometry": null },
{ "type": "Feature", "properties": { "visible_points": 38, "total_points": 108, "visibility_pct": 35.185185185185183 }, "geometry": null },
{ "type": "Feature", "properties": { "visible_points": 40, "total_points": 99, "visibility_pct": 40.404040404040401 }, "geometry": null },
{ "type": "Feature", "properties": { "visible_points": 24, "total_points": 88, "visibility_pct": 27.27272727272727 }, "geometry": null },
{ "type": "Feature", "properties": { "visible_points": 4, "total_points": 75, "visibility_pct": 5.3333333333333339 }, "geometry": null },
{ "type": "Feature", "properties": { "visible_points": 14, "total_points": 68, "visibility_pct": 20.588235294117645 }, "geometry": null },
{ "type": "Feature", "properties": { "visible_points": 34, "total_points": 81, "visibility_pct": 41.975308641975303 }, "geometry": null },
{ "type": "Feature", "properties": { "visible_points": 40, "total_points": 93, "visibility_pct": 43.01075268817204 }, "geometry": null },
{ "type": "Feature", "properties": { "visible_points": 40, "total_points": 111, "visibility_pct": 36.036036036036037 }, "geometry": null },
{ "type": "Feature", "properties": { "visible_points": 40, "total_points": 102, "visibility_pct": 39.215686274509807 }, "geometry": null },
{ "type": "Feature", "properties": { "visible_points": 35, "total_points": 91, "visibility_pct": 38.461538461538467 }, "geometry": null },
{ "type": "Feature", "properties": { "visible_points": 2, "total_points": 78, "visibility_pct": 2.5641025641025639 }, "geometry": null },
{ "type": "Feature", "properties": { "visible_points": 29, "total_points": 77, "visibility_pct": 37.662337662337663 }, "geometry": null },
{ "type": "Feature", "properties": { "visible_points": 38, "total_points": 90, "visibility_pct": 42.222222222222221 }, "geometry": null },
{ "type": "Feature", "properties": { "visible_points": 37, "total_points": 102, "visibility_pct": 36.274509803921568 }, "geometry": null },
{ "type": "Feature", "properties": { "visible_points": 41, "total_points": 111, "visibility_pct": 36.936936936936938 }, "geometry": null },
{ "type": "Feature", "properties": { "visible_points": 39, "total_points": 103, "visibility_pct": 37.864077669902912 }, "geometry": null },
{ "type": "Feature", "properties": { "visible_points": 41, "total_points": 92, "visibility_pct": 44.565217391304344 }, "geometry": null },
{ "type": "Feature", "properties": { "visible_points": 18, "total_points": 80, "visibility_pct": 22.5 }, "geometry": null },
{ "type": "Feature", "properties": { "visible_points": 13, "total_points": 72, "visibility_pct": 18.055555555555554 }, "geometry": null },
{ "type": "Feature", "properties": { "visible_points": 28, "total_points": 84, "visibility_pct": 33.333333333333329 }, "geometry": null },
{ "type": "Feature", "properties": { "visible_points": 35, "total_points": 95, "visibility_pct": 36.84210526315789 }, "geometry": null },
{ "type": "Feature", "properties": { "visible_points": 36, "total_points": 104, "visibility_pct": 34.615384615384613 }, "geometry": null },
{ "type": "Feature", "properties": { "visible_points": 38, "total_points": 108, "visibility_pct": 35.185185185185183 }, "geometry": null },
{ "type": "Feature", "properties": { "visible_points": 38, "total_points": 101, "visibility_pct": 37.623762376237622 }, "geometry": null },
{ "type": "Feature", "properties": { "visible_points": 34, "total_points": 92, "visibility_pct": 36.95652173913043 }, "geometry": null },
{ "type": "Feature", "properties": { "visible_points": 30, "total_points": 81, "visibility_pct": 37.037037037037038 }, "geometry": null },
{ "type": "Feature", "properties": { "visible_points": 0, "total_points": 69, "visibility_pct": 0.0 }, "geometry": null },
{ "type": "Feature", "properties": { "visible_points": 15, "total_points": 75, "visibility_pct": 20.0 }, "geometry": null },
{ "type": "Feature", "properties": { "visible_points": 28, "total_points": 85, "visibility_pct": 32.941176470588232 }, "geometry": null },
{ "type": "Feature", "properties": { "visible_points": 32, "total_points": 94, "visibility_pct": 34.042553191489361 }, "geometry": null },
{ "type": "Feature", "properties": { "visible_points": 31, "total_points": 101, "visibility_pct": 30.693069306930692 }, "geometry": null },
{ "type": "Feature", "properties": { "visible_points": 36, "total_points": 99, "visibility_pct": 36.363636363636367 }, "geometry": null },
{ "type": "Feature", "properties": { "visible_points": 35, "total_points": 90, "visibility_pct": 38.888888888888893 }, "geometry": null },
{ "type": "Feature", "properties": { "visible_points": 35, "total_points": 79, "visibility_pct": 44.303797468354425 }, "geometry": null },
{ "type": "Feature", "properties": { "visible_points": 0, "total_points": 69, "visibility_pct": 0.0 }, "geometry": null },
{ "type": "Feature", "properties": { "visible_points": 14, "total_points": 67, "visibility_pct": 20.8955223880597 }, "geometry": null },
{ "type": "Feature", "properties": { "visible_points": 23, "total_points": 76, "visibility_pct": 30.263157894736842 }, "geometry": null },
{ "type": "Feature", "properties": { "visible_points": 31, "total_points": 83, "visibility_pct": 37.349397590361441 }, "geometry": null },
{ "type": "Feature", "properties": { "visible_points": 30, "total_points": 89, "visibility_pct": 33.707865168539328 }, "geometry": null },
{ "type": "Feature", "properties": { "visible_points": 29, "total_points": 92, "visibility_pct": 31.521739130434785 }, "geometry": null },
{ "type": "Feature", "properties": { "visible_points": 32, "total_points": 86, "visibility_pct": 37.209302325581397 }, "geometry": null },
{ "type": "Feature", "properties": { "visible_points": 3, "total_points": 77, "visibility_pct": 3.8961038961038961 }, "geometry": null },
{ "type": "Feature", "properties": { "visible_points": 0, "total_points": 64, "visibility_pct": 0.0 }, "geometry": null },
{ "type": "Feature", "properties": { "visible_points": 24, "total_points": 70, "visibility_pct": 34.285714285714285 }, "geometry": null },
{ "type": "Feature", "properties": { "visible_points": 33, "total_points": 76, "visibility_pct": 43.421052631578952 }, "geometry": null },
{ "type": "Feature", "properties": { "visible_points": 29, "total_points": 80, "visibility_pct": 36.25 }, "geometry": null },
{ "type": "Feature", "properties": { "visible_points": 15, "total_points": 80, "visibility_pct": 18.75 }, "geometry": null },
{ "type": "Feature", "properties": { "visible_points": 0, "total_points": 59, "visibility_pct": 0.0 }, "geometry": null },
{ "type": "Feature", "properties": { "visible_points": 17, "total_points": 64, "visibility_pct": 26.5625 }, "geometry": null },
{ "type": "Feature", "properties": { "visible_points": 0, "total_points": 48, "visibility_pct": 0.0 }, "geometry": null }
]
}
