{
"type": "FeatureCollection",
"name": "900236623280_visibility",
"crs": { "type": "name", "properties": { "name": "urn:ogc:def:crs:OGC:1.3:CRS84" } },
"features": [
{ "type": "Feature", "properties": { "visible_points": 21, "total_points": 69, "visibility_pct": 30.434782608695656 }, "geometry": null },
{ "type": "Feature", "properties": { "visible_points": 28, "total_points": 71, "visibility_pct": 39.436619718309856 }, "geometry": null },
{ "type": "Feature", "properties": { "visible_points": 13, "total_points": 71, "visibility_pct": 18.30985915492958 }, "geometry": null },
{ "type": "Feature", "properties": { "visible_points": 0, "total_points": 70, "visibility_pct": 0.0 }, "geometry": null },
{ "type": "Feature", "properties": { "visible_points": 17, "total_points": 78, "visibility_pct": 21.794871794871796 }, "geometry": null },
{ "type": "Feature", "properties": { "visible_points": 30, "total_points": 81, "visibility_pct": 37.037037037037038 }, "geometry": null },
{ "type": "Feature", "properties": { "visible_points": 27, "total_points": 83, "visibility_pct": 32.53012048192771 }, "geometry": null },
{ "type": "Feature", "properties": { "visible_points": 0, "total_points": 82, "visibility_pct": 0.0 }, "geometry": null },
{ "type": "Feature", "properties": { "visible_points": 2, "total_points": 79, "visibility_pct": 2.5316455696202533 }, "geometry": null },
{ "type": "Feature", "properties": { "visible_points": 0, "total_points": 74, "visibility_pct": 0.0 }, "geometry": null },
{ "type": "Feature", "properties": { "visible_points": 19, "total_points": 78, "visibility_pct": 24.358974358974358 }, "geometry": null },
{ "type": "Feature", "properties": { "visible_points": 32, "total_points": 85, "visibility_pct": 37.647058823529413 }, "geometry": null },
{ "type": "Feature", "properties": { "visible_points": 37, "total_points": 91, "visibility_pct": 40.659340659340657 }, "geometry": null },
{ "type": "Feature", "properties": { "visible_points": 35, "total_points": 94, "visibility_pct": 37.234042553191486 }, "geometry": null },
{ "type": "Feature", "properties": { "visible_points": 35, "total_points": 94, "visibility_pct": 37.234042553191486 }, "geometry": null },
{ "type": "Feature", "properties": { "visible_points": 14, "total_points": 92, "visibility_pct": 15.217391304347828 }, "geometry": null },
{ "type": "Feature", "properties": { "visible_points": 6, "total_points": 87, "visibility_pct": 6.8965517241379306 }, "geometry": null },
{ "type": "Feature", "properties": { "visible_points": 0, "total_points": 80, "visibility_pct": 0.0 }, "geometry": null },
{ "type": "Feature", "properties": { "visible_points": 34, "total_points": 83, "visibility_pct": 40.963855421686745 }, "geometry": null },
{ "type": "Feature", "properties": { "visible_points": 40, "total_points": 91, "visibility_pct": 43.956043956043956 }, "geometry": null },
{ "type": "Feature", "properties": { "visible_points": 40, "total_points": 98, "visibility_pct": 40.816326530612244 }, "geometry": null },
{ "type": "Feature", "properties": { "visible_points": 36, "total_points": 104, "visibility_pct": 34.615384615384613 }, "geometry": null },
{ "type": "Feature", "properties": { "visible_points": 43, "total_points": 106, "visibility_pct": 40.566037735849058 }, "geometry": null },
{ "type": "Feature", "properties": { "visible_points": 45, "total_points": 105, "visibility_pct": 42.857142857142854 }, "geometry": null },
{ "type": "Feature", "properties": { "visible_points": 1, "total_points": 100, "visibility_pct": 1.0 }, "geometry": null },
{ "type": "Feature", "properties": { "visible_points": 29, "total_points": 93, "visibility_pct": 31.182795698924732 }, "geometry": null },
{ "type": "Feature", "properties": { "visible_points": 18, "total_points": 85, "visibility_pct": 21.176470588235293 }, "geometry": null },
{ "type": "Feature", "properties": { "visible_points": 42, "total_points": 86, "visibility_pct": 48.837209302325576 }, "geometry": null },
{ "type": "Feature", "properties": { "visible_points": 39, "total_points": 95, "visibility_pct": 41.05263157894737 }, "geometry": null },
{ "type": "Feature", "properties": { "visible_points": 43, "total_points": 103, "visibility_pct": 41.747572815533978 }, "geometry": null },
{ "type": "Feature", "properties": { "visible_points": 50, "total_points": 109, "visibility_pct": 45.871559633027523 }, "geometry": null },
{ "type": "Feature", "properties": { "visible_points": 53, "total_points": 115, "visibility_pct": 46.086956521739133 }, "geometry": null },
{ "type": "Feature", "properties": { "visible_points": 54, "total_points": 117, "visibility_pct": 46.153846153846153 }, "geometry": null },
{ "type": "Feature", "properties": { "visible_points": 57, "total_points": 112, "visibility_pct": 50.892857142857139 }, "geometry": null },
{ "type": "Feature", "properties": { "visible_points": 45, "total_points": 105, "visibility_pct": 42.857142857142854 }, "geometry": null },
{ "type": "Feature", "properties": { "visible_points": 36, "total_points": 97, "visibility_pct": 37.113402061855673 }, "geometry": null },
{ "type": "Feature", "properties": { "visible_points": 25, "total_points": 88, "visibility_pct": 28.40909090909091 }, "geometry": null },
{ "type": "Feature", "properties": { "visible_points": 21, "total_points": 82, "visibility_pct": 25.609756097560975 }, "geometry": null },
{ "type": "Feature", "properties": { "visible_points": 45, "total_points": 90, "visibility_pct": 50.0 }, "geometry": null },
{ "type": "Feature", "properties": { "visible_points": 51, "total_points": 98, "visibility_pct": 52.040816326530617 }, "geometry": null },
{ "type": "Feature", "properties": { "visible_points": 55, "total_points": 106, "visibility_pct": 51.886792452830186 }, "geometry": null },
{ "type": "Feature", "properties": { "visible_points": 57, "total_points": 112, "visibility_pct": 50.892857142857139 }, "geometry": null },
{ "type": "Feature", "properties": { "visible_points": 62, "total_points": 117, "visibility_pct": 52.991452991452995 }, "geometry": null },
{ "type": "Feature", "properties": { "visible_points": 61, "total_points": 120, "visibility_pct": 50.833333333333329 }, "geometry": null },
{ "type": "Feature", "properties": { "visible_points": 63, "total_points": 119, "visibility_pct": 52.941176470588239 }, "geometry": null },
{ "type": "Feature", "properties": { "visible_points": 56, "total_points": 113, "visibility_pct": 49.557522123893804 }, "geometry": null },
{ "type": "Feature", "properties": { "visible_points": 50, "total_points": 107, "visibility_pct": 46.728971962616825 }, "geometry": null },
{ "type": "Feature", "properties": { "visible_points": 33, "total_points": 99, "visibility_pct": 33.333333333333329 }, "geometry": null },
{ "type": "Feature", "properties": { "visible_points": 18, "total_points": 90, "visibility_pct": 20.0 }, "geometry": null },
{ "type": "Feature", "properties": { "visible_points": 2, "total_points": 81, "visibility_pct": 2.4691358024691357 }, "geometry": null },
{ "type": "Feature", "properties": { "visible_points": 21, "total_points": 85, "visibility_pct": 24.705882352941178 }, "geometry": null },
{ "type": "Feature", "properties": { "visible_points": 39, "total_points": 94, "visibility_pct": 41.48936170212766 }, "geometry": null },
{ "type": "Feature", "properties": { "visible_points": 59, "total_points": 102, "visibility_pct": 57.843137254901968 }, "geometry": null },
{ "type": "Feature", "properties": { "visible_points": 70, "total_points": 109, "visibility_pct": 64.22018348623854 }, "geometry": null },
{ "type": "Feature", "properties": { "visible_points": 69, "total_points": 115, "visibility_pct": 60.0 }, "geometry": null },
{ "type": "Feature", "properties": { "visible_points": 78, "total_points": 119, "visibility_pct": 65.546218487394952 }, "geometry": null },
{ "type": "Feature", "properties": { "visible_points": 75, "total_points": 120, "visibility_pct": 62.5 }, "geometry": null },
{ "type": "Feature", "properties": { "visible_points": 73, "total_points": 120, "visibility_pct": 60.833333333333329 }, "geometry": null },
{ "type": "Feature", "properties": { "visible_points": 67, "total_points": 120, "visibility_pct": 55.833333333333336 }, "geometry": null },
{ "type": "Feature", "properties": { "visible_points": 60, "total_points": 115, "visibility_pct": 52.173913043478258 }, "geometry": null },
{ "type": "Feature", "properties": { "visible_points": 50, "total_points": 109, "visibility_pct": 45.871559633027523 }, "geometry": null },
{ "type": "Feature", "properties": { "visible_points": 32, "total_points": 101, "visibility_pct": 31.683168316831683 }, "geometry": null },
{ "type": "Feature", "properties": { "visible_points": 30, "total_points": 93, "visibility_pct": 32.258064516129032 }, "geometry": null },
{ "type": "Feature", "properties": { "visible_points": 2, "total_points": 84, "visibility_pct": 2.3809523809523809 }, "geometry": null },
{ "type": "Feature", "properties": { "visible_points": 29, "total_points": 81, "visibility_pct": 35.802469135802468 }, "geometry": null },
{ "type": "Feature", "properties": { "visible_points": 35, "total_points": 89, "visibility_pct": 39.325842696629216 }, "geometry": null },
{ "type": "Feature", "properties": { "visible_points": 49, "total_points": 97, "visibility_pct": 50.515463917525771 }, "geometry": null },
{ "type": "Feature", "properties": { "visible_points": 59, "total_points": 105, "visibility_pct": 56.19047619047619 }, "geometry": null },
{ "type": "Feature", "properties": { "visible_points": 74, "total_points": 111, "visibility_pct": 66.666666666666657 }, "geometry": null },
{ "type": "Feature", "properties": { "visible_points": 76, "total_points": 117, "visibility_pct": 64.957264957264954 }, "geometry": null },
{ "type": "Feature", "properties": { "visible_points": 82, "total_points": 120, "visibility_pct": 68.333333333333329 }, "geometry": null },
{ "type": "Feature", "properties": { "visible_points": 84, "total_points": 120, "visibility_pct": 70.0 }, "geometry": null },
{ "type": "Feature", "properties": { "visible_points": 74, "total_points": 120, "visibility_pct": 61.666666666666671 }, "geometry": null },
{ "type": "Feature", "properties": { "visible_points": 79, "total_points": 120, "visibility_pct": 65.833333333333329 }, "geometry": null },
{ "type": "Feature", "properties": { "visible_points": 64, "total_points": 120, "visibility_pct": 53.333333333333336 }, "geometry": null },
{ "type": "Feature", "properties": { "visible_points": 53, "total_points": 117, "visibility_pct": 45.299145299145302 }, "geometry": null },
{ "type": "Feature", "properties": { "visible_points": 43, "total_points": 111, "visibility_pct": 38.738738738738739 }, "geometry": null },
{ "type": "Feature", "properties": { "visible_points": 30, "total_points": 104, "visibility_pct": 28.846153846153843 }, "geometry": null },
{ "type": "Feature", "properties": { "visible_points": 33, "total_points": 96, "visibility_pct": 34.375 }, "geometry": null },
{ "type": "Feature", "properties": { "visible_points": 3, "total_points": 87, "visibility_pct": 3.4482758620689653 }, "geometry": null },
{ "type": "Feature", "properties": { "visible_points": 0, "total_points": 84, "visibility_pct": 0.0 }, "geometry": null },
{ "type": "Feature", "properties": { "visible_points": 25, "total_points": 93, "visibility_pct": 26.881720430107524 }, "geometry": null },
{ "type": "Feature", "properties": { "visible_points": 39, "total_points": 101, "visibility_pct": 38.613861386138616 }, "geometry": null },
{ "type": "Feature", "properties": { "visible_points": 56, "total_points": 108, "visibility_pct": 51.851851851851848 }, "geometry": null },
{ "type": "Feature", "properties": { "visible_points": 60, "total_points": 114, "visibility_pct": 52.631578947368418 }, "geometry": null },
{ "type": "Feature", "properties": { "visible_points": 73, "total_points": 119, "visibility_pct": 61.344537815126053 }, "geometry": null },
{ "type": "Feature", "properties": { "visible_points": 84, "total_points": 120, "visibility_pct": 70.0 }, "geometry": null },
{ "type": "Feature", "properties": { "visible_points": 85, "total_points": 120, "visibility_pct": 70.833333333333343 }, "geometry": null },
{ "type": "Feature", "properties": { "visible_points": 86, "total_points": 120, "visibility_pct": 71.666666666666671 }, "geometry": null },
{ "type": "Feature", "properties": { "visible_points": 84, "total_points": 120, "visibility_pct": 70.0 }, "geometry": null },
{ "type": "Feature", "properties": { "visible_points": 73, "total_points": 120, "visibility_pct": 60.833333333333329 }, "geometry": null },
{ "type": "Feature", "properties": { "visible_points": 61, "total_points": 120, "visibility_pct": 50.833333333333329 }, "geometry": null },
{ "type": "Feature", "properties": { "visible_points": 53, "total_points": 118, "visibility_pct": 44.915254237288138 }, "geometry": null },
{ "type": "Feature", "properties": { "visible_points": 7, "total_points": 112, "visibility_pct": 6.25 }, "geometry": null },
{ "type": "Feature", "properties": { "visible_points": 35, "total_points": 106, "visibility_pct": 33.018867924528301 }, "geometry": null },
{ "type": "Feature", "properties": { "visible_points": 33, "total_points": 98, "visibility_pct": 33.673469387755098 }, "geometry": null },
{ "type": "Feature", "properties": { "visible_points": 26, "total_points": 88, "visibility_pct": 29.545454545454547 }, "geometry": null },
{ "type": "Feature", "properties": { "visible_points": 0, "total_points": 76, "visibility_pct": 0.0 }, "geometry": null },
{ "type": "Feature", "properties": { "visible_points": 13, "total_points": 80, "visibility_pct": 16.25 }, "geometry": null },
{ "type": "Feature", "properties": { "visible_points": 21, "total_points": 88, "visibility_pct": 23.863636363636363 }, "geometry": null },
{ "type": "Feature", "properties": { "visible_points": 32, "total_points": 96, "visibility_pct": 33.333333333333329 }, "geometry": null },
{ "type": "Feature", "properties": { "visible_points": 36, "total_points": 104, "visibility_pct": 34.615384615384613 }, "geometry": null },
{ "type": "Feature", "properties": { "visible_points": 47, "total_points": 110, "visibility_pct": 42.727272727272727 }, "geometry": null },
{ "type": "Feature", "properties": { "visible_points": 62, "total_points": 116, "visibility_pct": 53.448275862068961 }, "geometry": null },
{ "type": "Feature", "properties": { "visible_points": 68, "total_points": 120, "visibility_pct": 56.666666666666664 }, "geometry": null },
{ "type": "Feature", "properties": { "visible_points": 78, "total_points": 120, "visibility_pct": 65.0 }, "geometry": null },
{ "type": "Feature", "properties": { "visible_points": 75, "total_points": 120, "visibility_pct": 62.5 }, "geometry": null },
{ "type": "Feature", "properties": { "visible_points": 82, "total_points": 120, "visibility_pct": 68.333333333333329 }, "geometry": null },
{ "type": "Feature", "properties": { "visible_points": 77, "total_points": 120, "visibility_pct": 64.166666666666671 }, "geometry": null },
{ "type": "Feature", "properties": { "visible_points": 81, "total_points": 120, "visibility_pct": 67.5 }, "geometry": null },
{ "type": "Feature", "properties": { "visible_points": 71, "total_points": 120, "visibility_pct": 59.166666666666664 }, "geometry": null },
{ "type": "Feature", "properties": { "visible_points": 66, "total_points": 120, "visibility_pct": 55.000000000000007 }, "geometry": null },
{ "type": "Feature", "properties": { "visible_points": 62, "total_points": 119, "visibility_pct": 52.100840336134461 }, "geometry": null },
{ "type": "Feature", "properties": { "visible_points": 35, "total_points": 114, "visibility_pct": 30.701754385964914 }, "geometry": null },
{ "type": "Feature", "properties": { "visible_points": 27, "total_points": 108, "visibility_pct": 25.0 }, "geometry": null },
{ "type": "Feature", "properties": { "visible_points": 30, "total_points": 99, "visibility_pct": 30.303030303030305 }, "geometry": null },
{ "type": "Feature", "properties": { "visible_points": 22, "total_points": 86, "visibility_pct": 25.581395348837212 }, "geometry": null },
{ "type": "Feature", "properties": { "visible_points": 5, "total_points": 73, "visibility_pct": 6.8493150684931505 }, "geometry": null },
{ "type": "Feature", "properties": { "visible_points": 0, "total_points": 83, "visibility_pct": 0.0 }, "geometry": null },
{ "type": "Feature", "properties": { "visible_points": 20, "total_points": 92, "visibility_pct": 21.739130434782609 }, "geometry": null },
{ "type": "Feature", "properties": { "visible_points": 33, "total_points": 100, "visibility_pct": 33.0 }, "geometry": null },
{ "type": "Feature", "properties": { "visible_points": 35, "total_points": 107, "visibility_pct": 32.710280373831772 }, "geometry": null },
{ "type": "Feature", "properties": { "visible_points": 55, "total_points": 113, "visibility_pct": 48.672566371681413 }, "geometry": null },
{ "type": "Feature", "properties": { "visible_points": 54, "total_points": 118, "visibility_pct": 45.762711864406782 }, "geometry": null },
{ "type": "Feature", "properties": { "visible_points": 62, "total_points": 120, "visibility_pct": 51.666666666666671 }, "geometry": null },
{ "type": "Feature", "properties": { "visible_points": 73, "total_points": 120, "visibility_pct": 60.833333333333329 }, "geometry": null },
{ "type": "Feature", "properties": { "visible_points": 77, "total_points": 120, "visibility_pct": 64.166666666666671 }, "geometry": null },
{ "type": "Feature", "properties": { "visible_points": 73, "total_points": 120, "visibility_pct": 60.833333333333329 }, "geometry": null },
{ "type": "Feature", "properties": { "visible_points": 75, "total_points": 120, "visibility_pct": 62.5 }, "geometry": null },
{ "type": "Feature", "properties": { "visible_points": 74, "total_points": 120, "visibility_pct": 61.666666666666671 }, "geometry": null },
{ "type": "Feature", "properties": { "visible_points": 72, "total_points": 120, "visibility_pct": 60.0 }, "geometry": null },
{ "type": "Feature", "properties": { "visible_points": 68, "total_points": 120, "visibility_pct": 56.666666666666664 }, "geometry": null },
{ "type": "Feature", "properties": { "visible_points": 59, "total_points": 120, "visibility_pct": 49.166666666666664 }, "geometry": null },
{ "type": "Feature", "properties": { "visible_points": 47, "total_points": 120, "visibility_pct": 39.166666666666664 }, "geometry": null },
{ "type": "Feature", "properties": { "visible_points": 40, "total_points": 116, "visibility_pct": 34.482758620689658 }, "geometry": null },
{ "type": "Feature", "properties": { "visible_points": 34, "total_points": 108, "visibility_pct": 31.481481481481481 }, "geometry": null },
{ "type": "Feature", "properties": { "visible_points": 28, "total_points": 95, "visibility_pct": 29.473684210526311 }, "geometry": null },
{ "type": "Feature", "properties": { "visible_points": 13, "total_points": 82, "visibility_pct": 15.853658536585366 }, "geometry": null },
{ "type": "Feature", "properties": { "visible_points": 3, "total_points": 69, "visibility_pct": 4.3478260869565215 }, "geometry": null },
{ "type": "Feature", "properties": { "visible_points": 4, "total_points": 79, "visibility_pct": 5.0632911392405067 }, "geometry": null },
{ "type": "Feature", "properties": { "visible_points": 0, "total_points": 87, "visibility_pct": 0.0 }, "geometry": null },
{ "type": "Feature", "properties": { "visible_points": 0, "total_points": 95, "visibility_pct": 0.0 }, "geometry": null },
{ "type": "Feature", "properties": { "visible_points": 29, "total_points": 103, "visibility_pct": 28.155339805825243 }, "geometry": null },
{ "type": "Feature", "properties": { "visible_points": 35, "total_points": 109, "visibility_pct": 32.11009174311927 }, "geometry": null },
{ "type": "Feature", "properties": { "visible_points": 41, "total_points": 115, "visibility_pct": 35.652173913043477 }, "geometry": null },
{ "type": "Feature", "properties": { "visible_points": 46, "total_points": 119, "visibility_pct": 38.655462184873954 }, "geometry": null },
{ "type": "Feature", "properties": { "visible_points": 56, "total_points": 120, "visibility_pct": 46.666666666666664 }, "geometry": null },
{ "type": "Feature", "properties": { "visible_points": 53, "total_points": 120, "visibility_pct": 44.166666666666664 }, "geometry": null },
{ "type": "Feature", "properties": { "visible_points": 59, "total_points": 120, "visibility_pct": 49.166666666666664 }, "geometry": null },
{ "type": "Feature", "properties": { "visible_points": 61, "total_points": 120, "visibility_pct": 50.833333333333329 }, "geometry": null },
{ "type": "Feature", "properties": { "visible_points": 65, "total_points": 120, "visibility_pct": 54.166666666666664 }, "geometry": null },
{ "type": "Feature", "properties": { "visible_points": 66, "total_points": 120, "visibility_pct": 55.000000000000007 }, "geometry": null },
{ "type": "Feature", "properties": { "visible_points": 63, "total_points": 120, "visibility_pct": 52.5 }, "geometry": null },
{ "type": "Feature", "properties": { "visible_points": 61, "total_points": 120, "visibility_pct": 50.833333333333329 }, "geometry": null },
{ "type": "Feature", "properties": { "visible_points": 65, "total_points": 120, "visibility_pct": 54.166666666666664 }, "geometry": null },
{ "type": "Feature", "properties": { "visible_points": 57, "total_points": 120, "visibility_pct": 47.5 }, "geometry": null },
{ "type": "Feature", "properties": { "visible_points": 46, "total_points": 120, "visibility_pct": 38.333333333333336 }, "geometry": null },
{ "type": "Feature", "properties": { "visible_points": 41, "total_points": 115, "visibility_pct": 35.652173913043477 }, "geometry": null },
{ "type": "Feature", "properties": { "visible_points": 35, "total_points": 102, "visibility_pct": 34.313725490196077 }, "geometry": null },
{ "type": "Feature", "properties": { "visible_points": 18, "total_points": 89, "visibility_pct": 20.224719101123593 }, "geometry": null },
{ "type": "Feature", "properties": { "visible_points": 5, "total_points": 76, "visibility_pct": 6.5789473684210522 }, "geometry": null },
{ "type": "Feature", "properties": { "visible_points": 2, "total_points": 63, "visibility_pct": 3.1746031746031744 }, "geometry": null },
{ "type": "Feature", "properties": { "visible_points": 0, "total_points": 83, "visibility_pct": 0.0 }, "geometry": null },
{ "type": "Feature", "properties": { "visible_points": 0, "total_points": 91, "visibility_pct": 0.0 }, "geometry": null },
{ "type": "Feature", "properties": { "visible_points": 0, "total_points": 99, "visibility_pct": 0.0 }, "geometry": null },
{ "type": "Feature", "properties": { "visible_points": 23, "total_points": 106, "visibility_pct": 21.69811320754717 }, "geometry": null },
{ "type": "Feature", "properties": { "visible_points": 41, "total_points": 112, "visibility_pct": 36.607142857142854 }, "geometry": null },
{ "type": "Feature", "properties": { "visible_points": 38, "total_points": 117, "visibility_pct": 32.478632478632477 }, "geometry": null },
{ "type": "Feature", "properties": { "visible_points": 45, "total_points": 120, "visibility_pct": 37.5 }, "geometry": null },
{ "type": "Feature", "properties": { "visible_points": 44, "total_points": 120, "visibility_pct": 36.666666666666664 }, "geometry": null },
{ "type": "Feature", "properties": { "visible_points": 45, "total_points": 120, "visibility_pct": 37.5 }, "geometry": null },
{ "type": "Feature", "properties": { "visible_points": 23, "total_points": 120, "visibility_pct": 19.166666666666668 }, "geometry": null },
{ "type": "Feature", "properties": { "visible_points": 51, "total_points": 120, "visibility_pct": 42.5 }, "geometry": null },
{ "type": "Feature", "properties": { "visible_points": 56, "total_points": 120, "visibility_pct": 46.666666666666664 }, "geometry": null },
{ "type": "Feature", "properties": { "visible_points": 58, "total_points": 120, "visibility_pct": 48.333333333333336 }, "geometry": null },
{ "type": "Feature", "properties": { "visible_points": 54, "total_points": 120, "visibility_pct": 45.0 }, "geometry": null },
{ "type": "Feature", "properties": { "visible_points": 67, "total_points": 120, "visibility_pct": 55.833333333333336 }, "geometry": null },
{ "type": "Feature", "properties": { "visible_points": 54, "total_points": 120, "visibility_pct": 45.0 }, "geometry": null },
{ "type": "Feature", "properties": { "visible_points": 49, "total_points": 120, "visibility_pct": 40.833333333333336 }, "geometry": null },
{ "type": "Feature", "properties": { "visible_points": 49, "total_points": 118, "visibility_pct": 41.525423728813557 }, "geometry": null },
{ "type": "Feature", "properties": { "visible_points": 39, "total_points": 114, "visibility_pct": 34.210526315789473 }, "geometry": null },
{ "type": "Feature", "properties": { "visible_points": 33, "total_points": 106, "visibility_pct": 31.132075471698112 }, "geometry": null },
{ "type": "Feature", "properties": { "visible_points": 21, "total_points": 93, "visibility_pct": 22.58064516129032 }, "geometry": null },
{ "type": "Feature", "properties": { "visible_points": 14, "total_points": 80, "visibility_pct": 17.5 }, "geometry": null },
{ "type": "Feature", "properties": { "visible_points": 0, "total_points": 68, "visibility_pct": 0.0 }, "geometry": null },
{ "type": "Feature", "properties": { "visible_points": 0, "total_points": 86, "visibility_pct": 0.0 }, "geometry": null },
{ "type": "Feature", "properties": { "visible_points": 0, "total_points": 95, "visibility_pct": 0.0 }, "geometry": null },
{ "type": "Feature", "properties": { "visible_points": 0, "total_points": 103, "visibility_pct": 0.0 }, "geometry": null },
{ "type": "Feature", "properties": { "visible_points": 5, "total_points": 109, "visibility_pct": 4.5871559633027523 }, "geometry": null },
{ "type": "Feature", "properties": { "visible_points": 38, "total_points": 115, "visibility_pct": 33.043478260869563 }, "geometry": null },
{ "type": "Feature", "properties": { "visible_points": 38, "total_points": 119, "visibility_pct": 31.932773109243694 }, "geometry": null },
{ "type": "Feature", "properties": { "visible_points": 45, "total_points": 120, "visibility_pct": 37.5 }, "geometry": null },
{ "type": "Feature", "properties": { "visible_points": 46, "total_points": 120, "visibility_pct": 38.333333333333336 }, "geometry": null },
{ "type": "Feature", "properties": { "visible_points": 40, "total_points": 119, "visibility_pct": 33.613445378151262 }, "geometry": null },
{ "type": "Feature", "properties": { "visible_points": 0, "total_points": 118, "visibility_pct": 0.0 }, "geometry": null },
{ "type": "Feature", "properties": { "visible_points": 23, "total_points": 118, "visibility_pct": 19.491525423728813 }, "geometry": null },
{ "type": "Feature", "properties": { "visible_points": 46, "total_points": 118, "visibility_pct": 38.983050847457626 }, "geometry": null },
{ "type": "Feature", "properties": { "visible_points": 53, "total_points": 118, "visibility_pct": 44.915254237288138 }, "geometry": null },
{ "type": "Feature", "properties": { "visible_points": 48, "total_points": 119, "visibility_pct": 40.336134453781511 }, "geometry": null },
{ "type": "Feature", "properties": { "visible_points": 0, "total_points": 120, "visibility_pct": 0.0 }, "geometry": null },
{ "type": "Feature", "properties": { "visible_points": 27, "total_points": 120, "visibility_pct": 22.5 }, "geometry": null },
{ "type": "Feature", "properties": { "visible_points": 46, "total_points": 119, "visibility_pct": 38.655462184873954 }, "geometry": null },
{ "type": "Feature", "properties": { "visible_points": 51, "total_points": 116, "visibility_pct": 43.96551724137931 }, "geometry": null },
{ "type": "Feature", "properties": { "visible_points": 49, "total_points": 111, "visibility_pct": 44.144144144144143 }, "geometry": null },
{ "type": "Feature", "properties": { "visible_points": 30, "total_points": 105, "visibility_pct": 28.571428571428569 }, "geometry": null },
{ "type": "Feature", "properties": { "visible_points": 11, "total_points": 96, "visibility_pct": 11.458333333333332 }, "geometry": null },
{ "type": "Feature", "properties": { "visible_points": 11, "total_points": 83, "visibility_pct": 13.253012048192772 }, "geometry": null },
{ "type": "Feature", "properties": { "visible_points": 11, "total_points": 71, "visibility_pct": 15.492957746478872 }, "geometry": null },
{ "type": "Feature", "properties": { "visible_points": 0, "total_points": 82, "visibility_pct": 0.0 }, "geometry": null },
{ "type": "Feature", "properties": { "visible_points": 0, "total_points": 90, "visibility_pct": 0.0 }, "geometry": null },
{ "type": "Feature", "properties": { "visible_points": 0, "total_points": 98, "visibility_pct": 0.0 }, "geometry": null },
{ "type": "Feature", "properties": { "visible_points": 0, "total_points": 106, "visibility_pct": 0.0 }, "geometry": null },
{ "type": "Feature", "properties": { "visible_points": 0, "total_points": 112, "visibility_pct": 0.0 }, "geometry": null },
{ "type": "Feature", "properties": { "visible_points": 12, "total_points": 117, "visibility_pct": 10.256410256410255 }, "geometry": null },
{ "type": "Feature", "properties": { "visible_points": 36, "total_points": 120, "visibility_pct": 30.0 }, "geometry": null },
{ "type": "Feature", "properties": { "visible_points": 38, "total_points": 120, "visibility_pct": 31.666666666666664 }, "geometry": null },
{ "type": "Feature", "properties": { "visible_points": 40, "total_points": 119, "visibility_pct": 33.613445378151262 }, "geometry": null },
{ "type": "Feature", "properties": { "visible_points": 38, "total_points": 117, "visibility_pct": 32.478632478632477 }, "geometry": null },
{ "type": "Feature", "properties": { "visible_points": 20, "total_points": 116, "visibility_pct": 17.241379310344829 }, "geometry": null },
{ "type": "Feature", "properties": { "visible_points": 29, "total_points": 115, "visibility_pct": 25.217391304347824 }, "geometry": null },
{ "type": "Feature", "properties": { "visible_points": 39, "total_points": 114, "visibility_pct": 34.210526315789473 }, "geometry": null },
{ "type": "Feature", "properties": { "visible_points": 46, "total_points": 114, "visibility_pct": 40.350877192982452 }, "geometry": null },
{ "type": "Feature", "properties": { "visible_points": 47, "total_points": 114, "visibility_pct": 41.228070175438596 }, "geometry": null },
{ "type": "Feature", "properties": { "visible_points": 45, "total_points": 114, "visibility_pct": 39.473684210526315 }, "geometry": null },
{ "type": "Feature", "properties": { "visible_points": 37, "total_points": 115, "visibility_pct": 32.173913043478258 }, "geometry": null },
{ "type": "Feature", "properties": { "visible_points": 40, "total_points": 114, "visibility_pct": 35.087719298245609 }, "geometry": null },
{ "type": "Feature", "properties": { "visible_points": 46, "total_points": 110, "visibility_pct": 41.818181818181813 }, "geometry": null },
{ "type": "Feature", "properties": { "visible_points": 41, "total_points": 105, "visibility_pct": 39.047619047619051 }, "geometry": null },
{ "type": "Feature", "properties": { "visible_points": 38, "total_points": 100, "visibility_pct": 38.0 }, "geometry": null },
{ "type": "Feature", "properties": { "visible_points": 25, "total_points": 93, "visibility_pct": 26.881720430107524 }, "geometry": null },
{ "type": "Feature", "properties": { "visible_points": 7, "total_points": 84, "visibility_pct": 8.3333333333333321 }, "geometry": null },
{ "type": "Feature", "properties": { "visible_points": 1, "total_points": 73, "visibility_pct": 1.3698630136986301 }, "geometry": null },
{ "type": "Feature", "properties": { "visible_points": 0, "total_points": 85, "visibility_pct": 0.0 }, "geometry": null },
{ "type": "Feature", "properties": { "visible_points": 0, "total_points": 94, "visibility_pct": 0.0 }, "geometry": null },
{ "type": "Feature", "properties": { "visible_points": 0, "total_points": 102, "visibility_pct": 0.0 }, "geometry": null },
{ "type": "Feature", "properties": { "visible_points": 0, "total_points": 109, "visibility_pct": 0.0 }, "geometry": null },
{ "type": "Feature", "properties": { "visible_points": 0, "total_points": 115, "visibility_pct": 0.0 }, "geometry": null },
{ "type": "Feature", "properties": { "visible_points": 0, "total_points": 119, "visibility_pct": 0.0 }, "geometry": null },
{ "type": "Feature", "properties": { "visible_points": 28, "total_points": 120, "visibility_pct": 23.333333333333332 }, "geometry": null },
{ "type": "Feature", "properties": { "visible_points": 35, "total_points": 120, "visibility_pct": 29.166666666666668 }, "geometry": null },
{ "type": "Feature", "properties": { "visible_points": 32, "total_points": 118, "visibility_pct": 27.118644067796609 }, "geometry": null },
{ "type": "Feature", "properties": { "visible_points": 21, "total_points": 116, "visibility_pct": 18.103448275862068 }, "geometry": null },
{ "type": "Feature", "properties": { "visible_points": 30, "total_points": 114, "visibility_pct": 26.315789473684209 }, "geometry": null },
{ "type": "Feature", "properties": { "visible_points": 26, "total_points": 112, "visibility_pct": 23.214285714285715 }, "geometry": null },
{ "type": "Feature", "properties": { "visible_points": 31, "total_points": 111, "visibility_pct": 27.927927927927925 }, "geometry": null },
{ "type": "Feature", "properties": { "visible_points": 38, "total_points": 109, "visibility_pct": 34.862385321100916 }, "geometry": null },
{ "type": "Feature", "properties": { "visible_points": 44, "total_points": 107, "visibility_pct": 41.121495327102799 }, "geometry": null },
{ "type": "Feature", "properties": { "visible_points": 40, "total_points": 106, "visibility_pct": 37.735849056603776 }, "geometry": null },
{ "type": "Feature", "properties": { "visible_points": 38, "total_points": 106, "visibility_pct": 35.849056603773583 }, "geometry": null },
{ "type": "Feature", "properties": { "visible_points": 42, "total_points": 105, "visibility_pct": 40.0 }, "geometry": null },
{ "type": "Feature", "properties": { "visible_points": 42, "total_points": 103, "visibility_pct": 40.776699029126213 }, "geometry": null },
{ "type": "Feature", "properties": { "visible_points": 41, "total_points": 99, "visibility_pct": 41.414141414141412 }, "geometry": null },
{ "type": "Feature", "properties": { "visible_points": 37, "total_points": 93, "visibility_pct": 39.784946236559136 }, "geometry": null },
{ "type": "Feature", "properties": { "visible_points": 21, "total_points": 87, "visibility_pct": 24.137931034482758 }, "geometry": null },
{ "type": "Feature", "properties": { "visible_points": 21, "total_points": 80, "visibility_pct": 26.25 }, "geometry": null },
{ "type": "Feature", "properties": { "visible_points": 0, "total_points": 80, "visibility_pct": 0.0 }, "geometry": null },
{ "type": "Feature", "properties": { "visible_points": 0, "total_points": 89, "visibility_pct": 0.0 }, "geometry": null },
{ "type": "Feature", "properties": { "visible_points": 0, "total_points": 97, "visibility_pct": 0.0 }, "geometry": null },
{ "type": "Feature", "properties": { "visible_points": 0, "total_points": 105, "visibility_pct": 0.0 }, "geometry": null },
{ "type": "Feature", "properties": { "visible_points": 0, "total_points": 111, "visibility_pct": 0.0 }, "geometry": null },
{ "type": "Feature", "properties": { "visible_points": 0, "total_points": 117, "visibility_pct": 0.0 }, "geometry": null },
{ "type": "Feature", "properties": { "visible_points": 0, "total_points": 120, "visibility_pct": 0.0 }, "geometry": null },
{ "type": "Feature", "properties": { "visible_points": 0, "total_points": 120, "visibility_pct": 0.0 }, "geometry": null },
{ "type": "Feature", "properties": { "visible_points": 27, "total_points": 120, "visibility_pct": 22.5 }, "geometry": null },
{ "type": "Feature", "properties": { "visible_points": 26, "total_points": 118, "visibility_pct": 22.033898305084744 }, "geometry": null },
{ "type": "Feature", "properties": { "visible_points": 25, "total_points": 115, "visibility_pct": 21.739130434782609 }, "geometry": null },
{ "type": "Feature", "properties": { "visible_points": 27, "total_points": 112, "visibility_pct": 24.107142857142858 }, "geometry": null },
{ "type": "Feature", "properties": { "visible_points": 18, "total_points": 109, "visibility_pct": 16.513761467889911 }, "geometry": null },
{ "type": "Feature", "properties": { "visible_points": 13, "total_points": 107, "visibility_pct": 12.149532710280374 }, "geometry": null },
{ "type": "Feature", "properties": { "visible_points": 13, "total_points": 104, "visibility_pct": 12.5 }, "geometry": null },
{ "type": "Feature", "properties": { "visible_points": 17, "total_points": 101, "visibility_pct": 16.831683168316832 }, "geometry": null },
{ "type": "Feature", "properties": { "visible_points": 0, "total_points": 99, "visibility_pct": 0.0 }, "geometry": null },
{ "type": "Feature", "properties": { "visible_points": 0, "total_points": 97, "visibility_pct": 0.0 }, "geometry": null },
{ "type": "Feature", "properties": { "visible_points": 26, "total_points": 95, "visibility_pct": 27.368421052631582 }, "geometry": null },
{ "type": "Feature", "properties": { "visible_points": 32, "total_points": 93, "visibility_pct": 34.408602150537639 }, "geometry": null },
{ "type": "Feature", "properties": { "visible_points": 31, "total_points": 91, "visibility_pct": 34.065934065934066 }, "geometry": null },
{ "type": "Feature", "properties": { "visible_points": 33, "total_points": 86, "visibility_pct": 38.372093023255815 }, "geometry": null },
{ "type": "Feature", "properties": { "visible_points": 15, "total_points": 80, "visibility_pct": 18.75 }, "geometry": null },
{ "type": "Feature", "properties": { "visible_points": 0, "total_points": 81, "visibility_pct": 0.0 }, "geometry": null },
{ "type": "Feature", "properties": { "visible_points": 0, "total_points": 92, "visibility_pct": 0.0 }, "geometry": null },
{ "type": "Feature", "properties": { "visible_points": 0, "total_points": 101, "visibility_pct": 0.0 }, "geometry": null },
{ "type": "Feature", "properties": { "visible_points": 0, "total_points": 108, "visibility_pct": 0.0 }, "geometry": null },
{ "type": "Feature", "properties": { "visible_points": 0, "total_points": 114, "visibility_pct": 0.0 }, "geometry": null },
{ "type": "Feature", "properties": { "visible_points": 0, "total_points": 119, "visibility_pct": 0.0 }, "geometry": null },
{ "type": "Feature", "properties": { "visible_points": 0, "total_points": 120, "visibility_pct": 0.0 }, "geometry": null },
{ "type": "Feature", "properties": { "visible_points": 0, "total_points": 120, "visibility_pct": 0.0 }, "geometry": null },
{ "type": "Feature", "properties": { "visible_points": 24, "total_points": 120, "visibility_pct": 20.0 }, "geometry": null },
{ "type": "Feature", "properties": { "visible_points": 27, "total_points": 118, "visibility_pct": 22.881355932203391 }, "geometry": null },
{ "type": "Feature", "properties": { "visible_points": 20, "total_points": 114, "visibility_pct": 17.543859649122805 }, "geometry": null },
{ "type": "Feature", "properties": { "visible_points": 22, "total_points": 110, "visibility_pct": 20.0 }, "geometry": null },
{ "type": "Feature", "properties": { "visible_points": 18, "total_points": 106, "visibility_pct": 16.981132075471699 }, "geometry": null },
{ "type": "Feature", "properties": { "visible_points": 0, "total_points": 89, "visibility_pct": 0.0 }, "geometry": null },
{ "type": "Feature", "properties": { "visible_points": 0, "total_points": 85, "visibility_pct": 0.0 }, "geometry": null },
{ "type": "Feature", "properties": { "visible_points": 0, "total_points": 83, "visibility_pct": 0.0 }, "geometry": null },
{ "type": "Feature", "properties": { "visible_points": 13, "total_points": 81, "visibility_pct": 16.049382716049383 }, "geometry": null },
{ "type": "Feature", "properties": { "visible_points": 14, "total_points": 78, "visibility_pct": 17.948717948717949 }, "geometry": null },
{ "type": "Feature", "properties": { "visible_points": 9, "total_points": 73, "visibility_pct": 12.328767123287671 }, "geometry": null },
{ "type": "Feature", "properties": { "visible_points": 0, "total_points": 68, "visibility_pct": 0.0 }, "geometry": null },
{ "type": "Feature", "properties": { "visible_points": 0, "total_points": 80, "visibility_pct": 0.0 }, "geometry": null },
{ "type": "Feature", "properties": { "visible_points": 0, "total_points": 93, "visibility_pct": 0.0 }, "geometry": null },
{ "type": "Feature", "properties": { "visible_points": 0, "total_points": 103, "visibility_pct": 0.0 }, "geometry": null },
{ "type": "Feature", "properties": { "visible_points": 0, "total_points": 110, "visibility_pct": 0.0 }, "geometry": null },
{ "type": "Feature", "properties": { "visible_points": 0, "total_points": 116, "visibility_pct": 0.0 }, "geometry": null },
{ "type": "Feature", "properties": { "visible_points": 0, "total_points": 120, "visibility_pct": 0.0 }, "geometry": null },
{ "type": "Feature", "properties": { "visible_points": 0, "total_points": 120, "visibility_pct": 0.0 }, "geometry": null },
{ "type": "Feature", "properties": { "visible_points": 0, "total_points": 120, "visibility_pct": 0.0 }, "geometry": null },
{ "type": "Feature", "properties": { "visible_points": 0, "total_points": 120, "visibility_pct": 0.0 }, "geometry": null },
{ "type": "Feature", "properties": { "visible_points": 20, "total_points": 118, "visibility_pct": 16.949152542372879 }, "geometry": null },
{ "type": "Feature", "properties": { "visible_points": 21, "total_points": 113, "visibility_pct": 18.584070796460178 }, "geometry": null },
{ "type": "Feature", "properties": { "visible_points": 18, "total_points": 108, "visibility_pct": 16.666666666666664 }, "geometry": null },
{ "type": "Feature", "properties": { "visible_points": 10, "total_points": 103, "visibility_pct": 9.7087378640776691 }, "geometry": null },
{ "type": "Feature", "properties": { "visible_points": 0, "total_points": 77, "visibility_pct": 0.0 }, "geometry": null },
{ "type": "Feature", "properties": { "visible_points": 0, "total_points": 64, "visibility_pct": 0.0 }, "geometry": null },
{ "type": "Feature", "properties": { "visible_points": 0, "total_points": 77, "visibility_pct": 0.0 }, "geometry": null },
{ "type": "Feature", "properties": { "visible_points": 0, "total_points": 90, "visibility_pct": 0.0 }, "geometry": null },
{ "type": "Feature", "properties": { "visible_points": 0, "total_points": 103, "visibility_pct": 0.0 }, "geometry": null },
{ "type": "Feature", "properties": { "visible_points": 0, "total_points": 113, "visibility_pct": 0.0 }, "geometry": null },
{ "type": "Feature", "properties": { "visible_points": 0, "total_points": 118, "visibility_pct": 0.0 }, "geometry": null },
{ "type": "Feature", "properties": { "visible_points": 0, "total_points": 120, "visibility_pct": 0.0 }, "geometry": null },
{ "type": "Feature", "properties": { "visible_points": 0, "total_points": 120, "visibility_pct": 0.0 }, "geometry": null },
{ "type": "Feature", "properties": { "visible_points": 0, "total_points": 120, "visibility_pct": 0.0 }, "geometry": null },
{ "type": "Feature", "properties": { "visible_points": 0, "total_points": 120, "visibility_pct": 0.0 }, "geometry": null },
{ "type": "Feature", "properties": { "visible_points": 4, "total_points": 118, "visibility_pct": 3.3898305084745761 }, "geometry": null },
{ "type": "Feature", "properties": { "visible_points": 21, "total_points": 111, "visibility_pct": 18.918918918918919 }, "geometry": null },
{ "type": "Feature", "properties": { "visible_points": 13, "total_points": 104, "visibility_pct": 12.5 }, "geometry": null },
{ "type": "Feature", "properties": { "visible_points": 1, "total_points": 98, "visibility_pct": 1.0204081632653061 }, "geometry": null },
{ "type": "Feature", "properties": { "visible_points": 0, "total_points": 59, "visibility_pct": 0.0 }, "geometry": null },
{ "type": "Feature", "properties": { "visible_points": 0, "total_points": 72, "visibility_pct": 0.0 }, "geometry": null },
{ "type": "Feature", "properties": { "visible_points": 0, "total_points": 85, "visibility_pct": 0.0 }, "geometry": null },
{ "type": "Feature", "properties": { "visible_points": 0, "total_points": 98, "visibility_pct": 0.0 }, "geometry": null },
{ "type": "Feature", "properties": { "visible_points": 0, "total_points": 111, "visibility_pct": 0.0 }, "geometry": null },
{ "type": "Feature", "properties": { "visible_points": 0, "total_points": 119, "visibility_pct": 0.0 }, "geometry": null },
{ "type": "Feature", "properties": { "visible_points": 0, "total_points": 120, "visibility_pct": 0.0 }, "geometry": null },
{ "type": "Feature", "properties": { "visible_points": 0, "total_points": 120, "visibility_pct": 0.0 }, "geometry": null },
{ "type": "Feature", "properties": { "visible_points": 0, "total_points": 120, "visibility_pct": 0.0 }, "geometry": null },
{ "type": "Feature", "properties": { "visible_points": 0, "total_points": 119, "visibility_pct": 0.0 }, "geometry": null },
{ "type": "Feature", "properties": { "visible_points": 0, "total_points": 117, "visibility_pct": 0.0 }, "geometry": null },
{ "type": "Feature", "properties": { "visible_points": 12, "total_points": 109, "visibility_pct": 11.009174311926607 }, "geometry": null },
{ "type": "Feature", "properties": { "visible_points": 0, "total_points": 101, "visibility_pct": 0.0 }, "geometry": null },
{ "type": "Feature", "properties": { "visible_points": 0, "total_points": 66, "visibility_pct": 0.0 }, "geometry": null },
{ "type": "Feature", "properties": { "visible_points": 0, "total_points": 79, "visibility_pct": 0.0 }, "geometry": null },
{ "type": "Feature", "properties": { "visible_points": 0, "total_points": 92, "visibility_pct": 0.0 }, "geometry": null },
{ "type": "Feature", "properties": { "visible_points": 0, "total_points": 105, "visibility_pct": 0.0 }, "geometry": null },
{ "type": "Feature", "properties": { "visible_points": 0, "total_points": 117, "visibility_pct": 0.0 }, "geometry": null },
{ "type": "Feature", "properties": { "visible_points": 0, "total_points": 120, "visibility_pct": 0.0 }, "geometry": null },
{ "type": "Feature", "properties": { "visible_points": 0, "total_points": 120, "visibility_pct": 0.0 }, "geometry": null },
{ "type": "Feature", "properties": { "visible_points": 0, "total_points": 120, "visibility_pct": 0.0 }, "geometry": null },
{ "type": "Feature", "properties": { "visible_points": 0, "total_points": 117, "visibility_pct": 0.0 }, "geometry": null },
{ "type": "Feature", "properties": { "visible_points": 0, "total_points": 114, "visibility_pct": 0.0 }, "geometry": null },
{ "type": "Feature", "properties": { "visible_points": 0, "total_points": 107, "visibility_pct": 0.0 }, "geometry": null },
{ "type": "Feature", "properties": { "visible_points": 0, "total_points": 98, "visibility_pct": 0.0 }, "geometry": null },
{ "type": "Feature", "properties": { "visible_points": 0, "total_points": 89, "visibility_pct": 0.0 }, "geometry": null },
{ "type": "Feature", "properties": { "visible_points": 2, "total_points": 82, "visibility_pct": 2.4390243902439024 }, "geometry": null },
{ "type": "Feature", "properties": { "visible_points": 0, "total_points": 72, "visibility_pct": 0.0 }, "geometry": null },
{ "type": "Feature", "properties": { "visible_points": 0, "total_points": 85, "visibility_pct": 0.0 }, "geometry": null },
{ "type": "Feature", "properties": { "visible_points": 0, "total_points": 98, "visibility_pct": 0.0 }, "geometry": null },
{ "type": "Feature", "properties": { "visible_points": 0, "total_points": 109, "visibility_pct": 0.0 }, "geometry": null },
{ "type": "Feature", "properties": { "visible_points": 0, "total_points": 116, "visibility_pct": 0.0 }, "geometry": null },
{ "type": "Feature", "properties": { "visible_points": 0, "total_points": 120, "visibility_pct": 0.0 }, "geometry": null },
{ "type": "Feature", "properties": { "visible_points": 0, "total_points": 119, "visibility_pct": 0.0 }, "geometry": null },
{ "type": "Feature", "properties": { "visible_points": 0, "total_points": 115, "visibility_pct": 0.0 }, "geometry": null },
{ "type": "Feature", "properties": { "visible_points": 0, "total_points": 111, "visibility_pct": 0.0 }, "geometry": null },
{ "type": "Feature", "properties": { "visible_points": 0, "total_points": 105, "visibility_pct": 0.0 }, "geometry": null },
{ "type": "Feature", "properties": { "visible_points": 0, "total_points": 96, "visibility_pct": 0.0 }, "geometry": null },
{ "type": "Feature", "properties": { "visible_points": 0, "total_points": 86, "visibility_pct": 0.0 }, "geometry": null },
{ "type": "Feature", "properties": { "visible_points": 2, "total_points": 77, "visibility_pct": 2.5974025974025974 }, "geometry": null },
{ "type": "Feature", "properties": { "visible_points": 5, "total_points": 69, "visibility_pct": 7.2463768115942031 }, "geometry": null },
{ "type": "Feature", "properties": { "visible_points": 0, "total_points": 76, "visibility_pct": 0.0 }, "geometry": null },
{ "type": "Feature", "properties": { "visible_points": 0, "total_points": 89, "visibility_pct": 0.0 }, "geometry": null },
{ "type": "Feature", "properties": { "visible_points": 0, "total_points": 100, "visibility_pct": 0.0 }, "geometry": null },
{ "type": "Feature", "properties": { "visible_points": 0, "total_points": 109, "visibility_pct": 0.0 }, "geometry": null },
{ "type": "Feature", "properties": { "visible_points": 0, "total_points": 115, "visibility_pct": 0.0 }, "geometry": null },
{ "type": "Feature", "properties": { "visible_points": 0, "total_points": 117, "visibility_pct": 0.0 }, "geometry": null },
{ "type": "Feature", "properties": { "visible_points": 0, "total_points": 112, "visibility_pct": 0.0 }, "geometry": null },
{ "type": "Feature", "properties": { "visible_points": 0, "total_points": 107, "visibility_pct": 0.0 }, "geometry": null },
{ "type": "Feature", "properties": { "visible_points": 0, "total_points": 101, "visibility_pct": 0.0 }, "geometry": null },
{ "type": "Feature", "properties": { "visible_points": 0, "total_points": 93, "visibility_pct": 0.0 }, "geometry": null },
{ "type": "Feature", "properties": { "visible_points": 0, "total_points": 74, "visibility_pct": 0.0 }, "geometry": null },
{ "type": "Feature", "properties": { "visible_points": 0, "total_points": 78, "visibility_pct": 0.0 }, "geometry": null },
{ "type": "Feature", "properties": { "visible_points": 0, "total_points": 90, "visibility_pct": 0.0 }, "geometry": null },
{ "type": "Feature", "properties": { "visible_points": 0, "total_points": 100, "visibility_pct": 0.0 }, "geometry": null },
{ "type": "Feature", "properties": { "visible_points": 0, "total_points": 106, "visibility_pct": 0.0 }, "geometry": null },
{ "type": "Feature", "properties": { "visible_points": 0, "total_points": 109, "visibility_pct": 0.0 }, "geometry": null },
{ "type": "Feature", "properties": { "visible_points": 0, "total_points": 108, "visibility_pct": 0.0 }, "geometry": null },
{ "type": "Feature", "properties": { "visible_points": 0, "total_points": 102, "visibility_pct": 0.0 }, "geometry": null },
{ "type": "Feature", "properties": { "visible_points": 0, "total_points": 96, "visibility_pct": 0.0 }, "geometry": null },
{ "type": "Feature", "properties": { "visible_points": 0, "total_points": 89, "visibility_pct": 0.0 }, "geometry": null },
{ "type": "Feature", "properties": { "visible_points": 0, "total_points": 78, "visibility_pct": 0.0 }, "geometry": null },
{ "type": "Feature", "properties": { "visible_points": 0, "total_points": 87, "visibility_pct": 0.0 }, "geometry": null },
{ "type": "Feature", "properties": { "visible_points": 0, "total_points": 93, "visibility_pct": 0.0 }, "geometry": null },
{ "type": "Feature", "properties": { "visible_points": 0, "total_points": 96, "visibility_pct": 0.0 }, "geometry": null },
{ "type": "Feature", "properties": { "visible_points": 0, "total_points": 98, "visibility_pct": 0.0 }, "geometry": null },
{ "type": "Feature", "properties": { "visible_points": 0, "total_points": 97, "visibility_pct": 0.0 }, "geometry": null },
{ "type": "Feature", "properties": { "visible_points": 0, "total_points": 91, "visibility_pct": 0.0 }, "geometry": null },
{ "type": "Feature", "properties": { "visible_points": 0, "total_points": 84, "visibility_pct": 0.0 }, "geometry": null },
{ "type": "Feature", "properties": { "visible_points": 0, "total_points": 80, "visibility_pct": 0.0 }, "geometry": null },
{ "type": "Feature", "properties": { "visible_points": 0, "total_points": 83, "visibility_pct": 0.0 }, "geometry": null },
{ "type": "Feature", "properties": { "visible_points": 0, "total_points": 86, "visibility_pct": 0.0 }, "geometry": null },
{ "type": "Feature", "properties": { "visible_points": 0, "total_points": 86, "visibility_pct": 0.0 }, "geometry": null },
{ "type": "Feature", "properties": { "visible_points": 1, "total_points": 84, "visibility_pct": 1.1904761904761905 }, "geometry": null },
{ "type": "Feature", "properties": { "visible_points": 0, "total_points": 71, "visibility_pct": 0.0 }, "geometry": null },
{ "type": "Feature", "properties": { "visible_points": 0, "total_points": 74, "visibility_pct": 0.0 }, "geometry": null },
{ "type": "Feature", "properties": { "visible_points": 0, "total_points": 75, "visibility_pct": 0.0 }, "geometry": null },
{ "type": "Feature", "properties": { "visible_points": 0, "total_points": 74, "visibility_pct": 0.0 }, "geometry": null },
{ "type": "Feature", "properties": { "visible_points": 0, "total_points": 62, "visibility_pct": 0.0 }, "geometry": null },
{ "type": "Feature", "properties": { "visible_points": 1, "total_points": 64, "visibility_pct": 1.5625 }, "geometry": null }
]
}
