{
"type": "FeatureCollection",
"name": "904632343b61_foliage",
"crs": { "type": "name", "properties": { "name": "urn:ogc:def:crs:OGC:1.3:CRS84" } },
"features": [
{ "type": "Feature", "properties": { "max_height": 7.5917510986328125, "mean_height": 0.48967635631561279, "std_height": 1.5449774265289307, "count_pixels": 43, "percent_cover": 0.27595944037992554, "percent_above_0.1m": 16.279069767441861, "low_level_<0.5": 0.0, "mid_level_0.5-2": 9.3023255813953494, "tall_2+": 6.9767441860465116 }, "geometry": null },
{ "type": "Feature", "properties": { "max_height": 12.603248596191406, "mean_height": 4.760612964630127, "std_height": 3.9865550994873047, "count_pixels": 43, "percent_cover": 0.27595944037992554, "percent_above_0.1m": 81.395348837209298, "low_level_<0.5": 4.6511627906976747, "mid_level_0.5-2": 9.3023255813953494, "tall_2+": 67.441860465116278 }, "geometry": null },
{ "type": "Feature", "properties": { "max_height": 0.022502899169921875, "mean_height": 0.00073846179293468595, "std_height": 0.0048229275271296501, "count_pixels": 36, "percent_cover": 0.23103581055063535, "percent_above_0.1m": 0.0, "low_level_<0.5": 0.0, "mid_level_0.5-2": 0.0, "tall_2+": 0.0 }, "geometry": null },
{ "type": "Feature", "properties": { "max_height": 7.4632530212402344, "mean_height": 1.5733320713043213, "std_height": 2.1084945201873779, "count_pixels": 41, "percent_cover": 0.2631241175715569, "percent_above_0.1m": 58.536585365853654, "low_level_<0.5": 7.3170731707317067, "mid_level_0.5-2": 19.512195121951219, "tall_2+": 31.707317073170731 }, "geometry": null },
{ "type": "Feature", "properties": { "max_height": 7.985504150390625, "mean_height": 1.0592519044876099, "std_height": 1.9278286695480347, "count_pixels": 41, "percent_cover": 0.2631241175715569, "percent_above_0.1m": 65.853658536585371, "low_level_<0.5": 34.146341463414636, "mid_level_0.5-2": 12.195121951219512, "tall_2+": 17.073170731707318 }, "geometry": null },
{ "type": "Feature", "properties": { "max_height": 4.1650047302246094, "mean_height": 0.31907761096954346, "std_height": 0.95809578895568848, "count_pixels": 43, "percent_cover": 0.27595944037992554, "percent_above_0.1m": 16.279069767441861, "low_level_<0.5": 0.0, "mid_level_0.5-2": 6.9767441860465116, "tall_2+": 6.9767441860465116 }, "geometry": null },
{ "type": "Feature", "properties": { "max_height": 5.1000022888183594, "mean_height": 0.88591533899307251, "std_height": 1.3977744579315186, "count_pixels": 43, "percent_cover": 0.27595944037992554, "percent_above_0.1m": 48.837209302325576, "low_level_<0.5": 6.9767441860465116, "mid_level_0.5-2": 23.255813953488371, "tall_2+": 16.279069767441861 }, "geometry": null },
{ "type": "Feature", "properties": { "max_height": 2.8500022888183594, "mean_height": 0.35823142528533936, "std_height": 0.75892114639282227, "count_pixels": 36, "percent_cover": 0.23103581055063535, "percent_above_0.1m": 27.777777777777779, "low_level_<0.5": 5.5555555555555554, "mid_level_0.5-2": 11.111111111111111, "tall_2+": 8.3333333333333321 }, "geometry": null },
{ "type": "Feature", "properties": { "max_height": 8.037506103515625, "mean_height": 2.0788805484771729, "std_height": 2.6640734672546387, "count_pixels": 41, "percent_cover": 0.2631241175715569, "percent_above_0.1m": 73.170731707317074, "low_level_<0.5": 17.073170731707318, "mid_level_0.5-2": 21.951219512195124, "tall_2+": 31.707317073170731 }, "geometry": null },
{ "type": "Feature", "properties": { "max_height": 1.6265029907226562, "mean_height": 0.041798967868089676, "std_height": 0.24691075086593628, "count_pixels": 43, "percent_cover": 0.27595944037992554, "percent_above_0.1m": 4.6511627906976747, "low_level_<0.5": 2.3255813953488373, "mid_level_0.5-2": 2.3255813953488373, "tall_2+": 0.0 }, "geometry": null },
{ "type": "Feature", "properties": { "max_height": 6.8897514343261719, "mean_height": 2.3346245288848877, "std_height": 2.2843034267425537, "count_pixels": 43, "percent_cover": 0.27595944037992554, "percent_above_0.1m": 69.767441860465112, "low_level_<0.5": 2.3255813953488373, "mid_level_0.5-2": 23.255813953488371, "tall_2+": 44.186046511627907 }, "geometry": null },
{ "type": "Feature", "properties": { "max_height": 4.3142509460449219, "mean_height": 1.9336189031600952, "std_height": 1.5647870302200317, "count_pixels": 43, "percent_cover": 0.27595944037992554, "percent_above_0.1m": 83.720930232558146, "low_level_<0.5": 11.627906976744185, "mid_level_0.5-2": 23.255813953488371, "tall_2+": 46.511627906976742 }, "geometry": null },
{ "type": "Feature", "properties": { "max_height": 9.5307502746582031, "mean_height": 2.6642179489135742, "std_height": 3.48708176612854, "count_pixels": 36, "percent_cover": 0.23103581055063535, "percent_above_0.1m": 52.777777777777779, "low_level_<0.5": 8.3333333333333321, "mid_level_0.5-2": 5.5555555555555554, "tall_2+": 36.111111111111107 }, "geometry": null },
{ "type": "Feature", "properties": { "max_height": 7.4052505493164062, "mean_height": 1.9152829647064209, "std_height": 2.1358239650726318, "count_pixels": 41, "percent_cover": 0.2631241175715569, "percent_above_0.1m": 65.853658536585371, "low_level_<0.5": 7.3170731707317067, "mid_level_0.5-2": 19.512195121951219, "tall_2+": 39.024390243902438 }, "geometry": null },
{ "type": "Feature", "properties": { "max_height": 9.57275390625, "mean_height": 2.9037001132965088, "std_height": 3.1862285137176514, "count_pixels": 43, "percent_cover": 0.27595944037992554, "percent_above_0.1m": 58.139534883720934, "low_level_<0.5": 2.3255813953488373, "mid_level_0.5-2": 6.9767441860465116, "tall_2+": 48.837209302325576 }, "geometry": null },
{ "type": "Feature", "properties": { "max_height": 13.979503631591797, "mean_height": 7.4987998008728027, "std_height": 3.9633195400238037, "count_pixels": 43, "percent_cover": 0.27595944037992554, "percent_above_0.1m": 100.0, "low_level_<0.5": 2.3255813953488373, "mid_level_0.5-2": 6.9767441860465116, "tall_2+": 90.697674418604649 }, "geometry": null },
{ "type": "Feature", "properties": { "max_height": 5.7655029296875, "mean_height": 1.1824496984481812, "std_height": 1.3476607799530029, "count_pixels": 43, "percent_cover": 0.27595944037992554, "percent_above_0.1m": 79.069767441860463, "low_level_<0.5": 18.604651162790699, "mid_level_0.5-2": 41.860465116279073, "tall_2+": 18.604651162790699 }, "geometry": null },
{ "type": "Feature", "properties": { "max_height": 0.69000625610351562, "mean_height": 0.040941562503576279, "std_height": 0.14197409152984619, "count_pixels": 41, "percent_cover": 0.2631241175715569, "percent_above_0.1m": 9.7560975609756095, "low_level_<0.5": 2.4390243902439024, "mid_level_0.5-2": 4.8780487804878048, "tall_2+": 0.0 }, "geometry": null },
{ "type": "Feature", "properties": { "max_height": 12.616756439208984, "mean_height": 7.5127172470092773, "std_height": 4.0809392929077148, "count_pixels": 36, "percent_cover": 0.23103581055063535, "percent_above_0.1m": 94.444444444444443, "low_level_<0.5": 2.7777777777777777, "mid_level_0.5-2": 8.3333333333333321, "tall_2+": 80.555555555555557 }, "geometry": null },
{ "type": "Feature", "properties": { "max_height": 13.609752655029297, "mean_height": 6.5138134956359863, "std_height": 4.0193390846252441, "count_pixels": 41, "percent_cover": 0.2631241175715569, "percent_above_0.1m": 90.243902439024396, "low_level_<0.5": 2.4390243902439024, "mid_level_0.5-2": 7.3170731707317067, "tall_2+": 80.487804878048792 }, "geometry": null },
{ "type": "Feature", "properties": { "max_height": 5.095001220703125, "mean_height": 1.3622350692749023, "std_height": 1.6399573087692261, "count_pixels": 43, "percent_cover": 0.27595944037992554, "percent_above_0.1m": 58.139534883720934, "low_level_<0.5": 6.9767441860465116, "mid_level_0.5-2": 16.279069767441861, "tall_2+": 34.883720930232556 }, "geometry": null },
{ "type": "Feature", "properties": { "max_height": 7.8707542419433594, "mean_height": 0.86502546072006226, "std_height": 1.6791868209838867, "count_pixels": 43, "percent_cover": 0.27595944037992554, "percent_above_0.1m": 51.162790697674424, "low_level_<0.5": 18.604651162790699, "mid_level_0.5-2": 16.279069767441861, "tall_2+": 13.953488372093023 }, "geometry": null },
{ "type": "Feature", "properties": { "max_height": 15.950756072998047, "mean_height": 4.0385551452636719, "std_height": 4.2372574806213379, "count_pixels": 43, "percent_cover": 0.27595944037992554, "percent_above_0.1m": 88.372093023255815, "low_level_<0.5": 13.953488372093023, "mid_level_0.5-2": 18.604651162790699, "tall_2+": 53.488372093023251 }, "geometry": null },
{ "type": "Feature", "properties": { "max_height": 2.7140007019042969, "mean_height": 0.28272902965545654, "std_height": 0.58287137746810913, "count_pixels": 43, "percent_cover": 0.27595944037992554, "percent_above_0.1m": 37.209302325581397, "low_level_<0.5": 18.604651162790699, "mid_level_0.5-2": 13.953488372093023, "tall_2+": 2.3255813953488373 }, "geometry": null },
{ "type": "Feature", "properties": { "max_height": 9.1630020141601562, "mean_height": 2.2064352035522461, "std_height": 2.8499484062194824, "count_pixels": 37, "percent_cover": 0.23745347195481969, "percent_above_0.1m": 67.567567567567565, "low_level_<0.5": 13.513513513513514, "mid_level_0.5-2": 13.513513513513514, "tall_2+": 37.837837837837839 }, "geometry": null },
{ "type": "Feature", "properties": { "max_height": 6.5622520446777344, "mean_height": 1.3988378047943115, "std_height": 1.8495986461639404, "count_pixels": 41, "percent_cover": 0.2631241175715569, "percent_above_0.1m": 65.853658536585371, "low_level_<0.5": 17.073170731707318, "mid_level_0.5-2": 17.073170731707318, "tall_2+": 29.268292682926827 }, "geometry": null },
{ "type": "Feature", "properties": { "max_height": 5.8917503356933594, "mean_height": 0.92985129356384277, "std_height": 1.2059125900268555, "count_pixels": 43, "percent_cover": 0.27595944037992554, "percent_above_0.1m": 60.465116279069761, "low_level_<0.5": 6.9767441860465116, "mid_level_0.5-2": 46.511627906976742, "tall_2+": 6.9767441860465116 }, "geometry": null },
{ "type": "Feature", "properties": { "max_height": 2.4822540283203125, "mean_height": 0.20338030159473419, "std_height": 0.5627979040145874, "count_pixels": 41, "percent_cover": 0.2631241175715569, "percent_above_0.1m": 14.634146341463413, "low_level_<0.5": 2.4390243902439024, "mid_level_0.5-2": 7.3170731707317067, "tall_2+": 4.8780487804878048 }, "geometry": null },
{ "type": "Feature", "properties": { "max_height": 15.012001037597656, "mean_height": 6.9350452423095703, "std_height": 4.084047794342041, "count_pixels": 36, "percent_cover": 0.23103581055063535, "percent_above_0.1m": 94.444444444444443, "low_level_<0.5": 2.7777777777777777, "mid_level_0.5-2": 11.111111111111111, "tall_2+": 80.555555555555557 }, "geometry": null },
{ "type": "Feature", "properties": { "max_height": 11.318752288818359, "mean_height": 3.8823812007904053, "std_height": 3.0773215293884277, "count_pixels": 41, "percent_cover": 0.2631241175715569, "percent_above_0.1m": 75.609756097560975, "low_level_<0.5": 0.0, "mid_level_0.5-2": 9.7560975609756095, "tall_2+": 65.853658536585371 }, "geometry": null },
{ "type": "Feature", "properties": { "max_height": 10.391250610351562, "mean_height": 2.7185754776000977, "std_height": 2.8676316738128662, "count_pixels": 41, "percent_cover": 0.2631241175715569, "percent_above_0.1m": 75.609756097560975, "low_level_<0.5": 7.3170731707317067, "mid_level_0.5-2": 17.073170731707318, "tall_2+": 48.780487804878049 }, "geometry": null },
{ "type": "Feature", "properties": { "max_height": 4.4280014038085938, "mean_height": 0.21979504823684692, "std_height": 0.71871763467788696, "count_pixels": 41, "percent_cover": 0.2631241175715569, "percent_above_0.1m": 19.512195121951219, "low_level_<0.5": 4.8780487804878048, "mid_level_0.5-2": 12.195121951219512, "tall_2+": 2.4390243902439024 }, "geometry": null },
{ "type": "Feature", "properties": { "max_height": 9.4227523803710938, "mean_height": 4.3092408180236816, "std_height": 3.2066414356231689, "count_pixels": 42, "percent_cover": 0.26954177897574128, "percent_above_0.1m": 83.333333333333343, "low_level_<0.5": 4.7619047619047619, "mid_level_0.5-2": 7.1428571428571423, "tall_2+": 71.428571428571431 }, "geometry": null },
{ "type": "Feature", "properties": { "max_height": 9.2099990844726562, "mean_height": 1.3710662126541138, "std_height": 2.0435404777526855, "count_pixels": 43, "percent_cover": 0.27595944037992554, "percent_above_0.1m": 69.767441860465112, "low_level_<0.5": 16.279069767441861, "mid_level_0.5-2": 25.581395348837212, "tall_2+": 25.581395348837212 }, "geometry": null },
{ "type": "Feature", "properties": { "max_height": 12.083503723144531, "mean_height": 5.527677059173584, "std_height": 3.5667119026184082, "count_pixels": 43, "percent_cover": 0.27595944037992554, "percent_above_0.1m": 95.348837209302332, "low_level_<0.5": 6.9767441860465116, "mid_level_0.5-2": 4.6511627906976747, "tall_2+": 83.720930232558146 }, "geometry": null },
{ "type": "Feature", "properties": { "max_height": 7.0032539367675781, "mean_height": 0.85004371404647827, "std_height": 1.8681665658950806, "count_pixels": 42, "percent_cover": 0.26954177897574128, "percent_above_0.1m": 38.095238095238095, "low_level_<0.5": 11.904761904761903, "mid_level_0.5-2": 9.5238095238095237, "tall_2+": 11.904761904761903 }, "geometry": null },
{ "type": "Feature", "properties": { "max_height": 3.7804985046386719, "mean_height": 0.6152459979057312, "std_height": 1.0880258083343506, "count_pixels": 43, "percent_cover": 0.27595944037992554, "percent_above_0.1m": 41.860465116279073, "low_level_<0.5": 13.953488372093023, "mid_level_0.5-2": 13.953488372093023, "tall_2+": 13.953488372093023 }, "geometry": null },
{ "type": "Feature", "properties": { "max_height": 6.6982498168945312, "mean_height": 1.8768565654754639, "std_height": 2.2790346145629883, "count_pixels": 43, "percent_cover": 0.27595944037992554, "percent_above_0.1m": 55.813953488372093, "low_level_<0.5": 4.6511627906976747, "mid_level_0.5-2": 11.627906976744185, "tall_2+": 37.209302325581397 }, "geometry": null },
{ "type": "Feature", "properties": { "max_height": 8.7922554016113281, "mean_height": 2.4468538761138916, "std_height": 2.1581175327301025, "count_pixels": 42, "percent_cover": 0.26954177897574128, "percent_above_0.1m": 80.952380952380949, "low_level_<0.5": 4.7619047619047619, "mid_level_0.5-2": 28.571428571428569, "tall_2+": 47.619047619047613 }, "geometry": null },
{ "type": "Feature", "properties": { "max_height": 8.170501708984375, "mean_height": 1.2372277975082397, "std_height": 1.9044133424758911, "count_pixels": 41, "percent_cover": 0.2631241175715569, "percent_above_0.1m": 65.853658536585371, "low_level_<0.5": 14.634146341463413, "mid_level_0.5-2": 26.829268292682929, "tall_2+": 19.512195121951219 }, "geometry": null },
{ "type": "Feature", "properties": { "max_height": 1.6025009155273438, "mean_height": 0.24034909904003143, "std_height": 0.36972177028656006, "count_pixels": 41, "percent_cover": 0.2631241175715569, "percent_above_0.1m": 41.463414634146339, "low_level_<0.5": 19.512195121951219, "mid_level_0.5-2": 19.512195121951219, "tall_2+": 0.0 }, "geometry": null },
{ "type": "Feature", "properties": { "max_height": 6.7627525329589844, "mean_height": 1.7807663679122925, "std_height": 2.2482211589813232, "count_pixels": 36, "percent_cover": 0.23103581055063535, "percent_above_0.1m": 61.111111111111114, "low_level_<0.5": 5.5555555555555554, "mid_level_0.5-2": 25.0, "tall_2+": 30.555555555555557 }, "geometry": null },
{ "type": "Feature", "properties": { "max_height": 1.7847480773925781, "mean_height": 0.23172806203365326, "std_height": 0.5102582573890686, "count_pixels": 41, "percent_cover": 0.2631241175715569, "percent_above_0.1m": 21.951219512195124, "low_level_<0.5": 7.3170731707317067, "mid_level_0.5-2": 14.634146341463413, "tall_2+": 0.0 }, "geometry": null },
{ "type": "Feature", "properties": { "max_height": 6.8102531433105469, "mean_height": 1.4073984622955322, "std_height": 2.1903688907623291, "count_pixels": 41, "percent_cover": 0.2631241175715569, "percent_above_0.1m": 63.414634146341463, "low_level_<0.5": 17.073170731707318, "mid_level_0.5-2": 21.951219512195124, "tall_2+": 19.512195121951219 }, "geometry": null },
{ "type": "Feature", "properties": { "max_height": 4.4310035705566406, "mean_height": 0.28971144556999207, "std_height": 0.99007648229598999, "count_pixels": 43, "percent_cover": 0.27595944037992554, "percent_above_0.1m": 13.953488372093023, "low_level_<0.5": 0.0, "mid_level_0.5-2": 2.3255813953488373, "tall_2+": 6.9767441860465116 }, "geometry": null },
{ "type": "Feature", "properties": { "max_height": 5.3002510070800781, "mean_height": 0.71659529209136963, "std_height": 1.5583889484405518, "count_pixels": 43, "percent_cover": 0.27595944037992554, "percent_above_0.1m": 20.930232558139537, "low_level_<0.5": 2.3255813953488373, "mid_level_0.5-2": 2.3255813953488373, "tall_2+": 16.279069767441861 }, "geometry": null },
{ "type": "Feature", "properties": { "max_height": 1.9422531127929688, "mean_height": 0.17999622225761414, "std_height": 0.46131384372711182, "count_pixels": 43, "percent_cover": 0.27595944037992554, "percent_above_0.1m": 20.930232558139537, "low_level_<0.5": 9.3023255813953494, "mid_level_0.5-2": 11.627906976744185, "tall_2+": 0.0 }, "geometry": null },
{ "type": "Feature", "properties": { "max_height": 8.144500732421875, "mean_height": 2.7997875213623047, "std_height": 3.2825052738189697, "count_pixels": 42, "percent_cover": 0.26954177897574128, "percent_above_0.1m": 54.761904761904766, "low_level_<0.5": 7.1428571428571423, "mid_level_0.5-2": 7.1428571428571423, "tall_2+": 40.476190476190474 }, "geometry": null },
{ "type": "Feature", "properties": { "max_height": 8.0110015869140625, "mean_height": 1.3546122312545776, "std_height": 2.3970973491668701, "count_pixels": 41, "percent_cover": 0.2631241175715569, "percent_above_0.1m": 41.463414634146339, "low_level_<0.5": 7.3170731707317067, "mid_level_0.5-2": 17.073170731707318, "tall_2+": 17.073170731707318 }, "geometry": null },
{ "type": "Feature", "properties": { "max_height": 12.990753173828125, "mean_height": 5.3086857795715332, "std_height": 3.7575399875640869, "count_pixels": 41, "percent_cover": 0.2631241175715569, "percent_above_0.1m": 92.682926829268297, "low_level_<0.5": 2.4390243902439024, "mid_level_0.5-2": 12.195121951219512, "tall_2+": 78.048780487804876 }, "geometry": null },
{ "type": "Feature", "properties": { "max_height": 14.474754333496094, "mean_height": 7.8591361045837402, "std_height": 4.9076676368713379, "count_pixels": 41, "percent_cover": 0.2631241175715569, "percent_above_0.1m": 85.365853658536579, "low_level_<0.5": 2.4390243902439024, "mid_level_0.5-2": 2.4390243902439024, "tall_2+": 80.487804878048792 }, "geometry": null },
{ "type": "Feature", "properties": { "max_height": 6.0067520141601562, "mean_height": 0.34296169877052307, "std_height": 1.1312155723571777, "count_pixels": 37, "percent_cover": 0.23745347195481969, "percent_above_0.1m": 13.513513513513514, "low_level_<0.5": 2.7027027027027026, "mid_level_0.5-2": 2.7027027027027026, "tall_2+": 8.1081081081081088 }, "geometry": null },
{ "type": "Feature", "properties": { "max_height": 0.012752532958984375, "mean_height": 8.1411220890004188e-05, "std_height": 0.0030759067740291357, "count_pixels": 41, "percent_cover": 0.2631241175715569, "percent_above_0.1m": 0.0, "low_level_<0.5": 0.0, "mid_level_0.5-2": 0.0, "tall_2+": 0.0 }, "geometry": null },
{ "type": "Feature", "properties": { "max_height": 7.3517494201660156, "mean_height": 0.52856326103210449, "std_height": 1.518538236618042, "count_pixels": 41, "percent_cover": 0.2631241175715569, "percent_above_0.1m": 17.073170731707318, "low_level_<0.5": 2.4390243902439024, "mid_level_0.5-2": 4.8780487804878048, "tall_2+": 9.7560975609756095 }, "geometry": null },
{ "type": "Feature", "properties": { "max_height": 3.6717529296875, "mean_height": 0.42208018898963928, "std_height": 0.98802065849304199, "count_pixels": 42, "percent_cover": 0.26954177897574128, "percent_above_0.1m": 19.047619047619047, "low_level_<0.5": 0.0, "mid_level_0.5-2": 9.5238095238095237, "tall_2+": 9.5238095238095237 }, "geometry": null },
{ "type": "Feature", "properties": { "max_height": 3.6090049743652344, "mean_height": 0.45814797282218933, "std_height": 1.0316885709762573, "count_pixels": 43, "percent_cover": 0.27595944037992554, "percent_above_0.1m": 25.581395348837212, "low_level_<0.5": 6.9767441860465116, "mid_level_0.5-2": 2.3255813953488373, "tall_2+": 13.953488372093023 }, "geometry": null },
{ "type": "Feature", "properties": { "max_height": 11.690502166748047, "mean_height": 5.7908401489257812, "std_height": 3.475031852722168, "count_pixels": 43, "percent_cover": 0.27595944037992554, "percent_above_0.1m": 88.372093023255815, "low_level_<0.5": 2.3255813953488373, "mid_level_0.5-2": 11.627906976744185, "tall_2+": 74.418604651162795 }, "geometry": null },
{ "type": "Feature", "properties": { "max_height": 10.616752624511719, "mean_height": 1.2436883449554443, "std_height": 2.5985193252563477, "count_pixels": 43, "percent_cover": 0.27595944037992554, "percent_above_0.1m": 51.162790697674424, "low_level_<0.5": 16.279069767441861, "mid_level_0.5-2": 16.279069767441861, "tall_2+": 16.279069767441861 }, "geometry": null },
{ "type": "Feature", "properties": { "max_height": 6.2402496337890625, "mean_height": 1.0656472444534302, "std_height": 1.7981240749359131, "count_pixels": 43, "percent_cover": 0.27595944037992554, "percent_above_0.1m": 44.186046511627907, "low_level_<0.5": 6.9767441860465116, "mid_level_0.5-2": 13.953488372093023, "tall_2+": 20.930232558139537 }, "geometry": null },
{ "type": "Feature", "properties": { "max_height": 8.9907569885253906, "mean_height": 2.7369272708892822, "std_height": 3.1744604110717773, "count_pixels": 43, "percent_cover": 0.27595944037992554, "percent_above_0.1m": 58.139534883720934, "low_level_<0.5": 0.0, "mid_level_0.5-2": 16.279069767441861, "tall_2+": 39.534883720930232 }, "geometry": null },
{ "type": "Feature", "properties": { "max_height": 6.5377540588378906, "mean_height": 1.6219966411590576, "std_height": 2.0554511547088623, "count_pixels": 43, "percent_cover": 0.27595944037992554, "percent_above_0.1m": 81.395348837209298, "low_level_<0.5": 16.279069767441861, "mid_level_0.5-2": 34.883720930232556, "tall_2+": 23.255813953488371 }, "geometry": null },
{ "type": "Feature", "properties": { "max_height": 0.008754730224609375, "mean_height": 8.5376559582073241e-06, "std_height": 0.0027275604661554098, "count_pixels": 42, "percent_cover": 0.26954177897574128, "percent_above_0.1m": 0.0, "low_level_<0.5": 0.0, "mid_level_0.5-2": 0.0, "tall_2+": 0.0 }, "geometry": null },
{ "type": "Feature", "properties": { "max_height": 6.1912498474121094, "mean_height": 0.59931635856628418, "std_height": 1.5244705677032471, "count_pixels": 43, "percent_cover": 0.27595944037992554, "percent_above_0.1m": 18.604651162790699, "low_level_<0.5": 0.0, "mid_level_0.5-2": 6.9767441860465116, "tall_2+": 11.627906976744185 }, "geometry": null },
{ "type": "Feature", "properties": { "max_height": 13.433254241943359, "mean_height": 2.9086945056915283, "std_height": 4.1371712684631348, "count_pixels": 43, "percent_cover": 0.27595944037992554, "percent_above_0.1m": 46.511627906976742, "low_level_<0.5": 4.6511627906976747, "mid_level_0.5-2": 4.6511627906976747, "tall_2+": 37.209302325581397 }, "geometry": null },
{ "type": "Feature", "properties": { "max_height": 13.078750610351562, "mean_height": 5.340217113494873, "std_height": 4.7574396133422852, "count_pixels": 42, "percent_cover": 0.26954177897574128, "percent_above_0.1m": 73.80952380952381, "low_level_<0.5": 4.7619047619047619, "mid_level_0.5-2": 7.1428571428571423, "tall_2+": 61.904761904761905 }, "geometry": null },
{ "type": "Feature", "properties": { "max_height": 8.9825019836425781, "mean_height": 2.58109450340271, "std_height": 2.5046408176422119, "count_pixels": 43, "percent_cover": 0.27595944037992554, "percent_above_0.1m": 79.069767441860463, "low_level_<0.5": 11.627906976744185, "mid_level_0.5-2": 23.255813953488371, "tall_2+": 44.186046511627907 }, "geometry": null },
{ "type": "Feature", "properties": { "max_height": 7.6327552795410156, "mean_height": 2.3899736404418945, "std_height": 2.4750514030456543, "count_pixels": 43, "percent_cover": 0.27595944037992554, "percent_above_0.1m": 72.093023255813947, "low_level_<0.5": 4.6511627906976747, "mid_level_0.5-2": 25.581395348837212, "tall_2+": 41.860465116279073 }, "geometry": null },
{ "type": "Feature", "properties": { "max_height": 4.040252685546875, "mean_height": 0.79988914728164673, "std_height": 1.2196507453918457, "count_pixels": 42, "percent_cover": 0.26954177897574128, "percent_above_0.1m": 42.857142857142854, "low_level_<0.5": 4.7619047619047619, "mid_level_0.5-2": 19.047619047619047, "tall_2+": 16.666666666666664 }, "geometry": null },
{ "type": "Feature", "properties": { "max_height": 15.750007629394531, "mean_height": 4.3861126899719238, "std_height": 4.432960033416748, "count_pixels": 41, "percent_cover": 0.2631241175715569, "percent_above_0.1m": 65.853658536585371, "low_level_<0.5": 0.0, "mid_level_0.5-2": 7.3170731707317067, "tall_2+": 56.09756097560976 }, "geometry": null },
{ "type": "Feature", "properties": { "max_height": 12.271499633789062, "mean_height": 4.6799716949462891, "std_height": 4.0601530075073242, "count_pixels": 41, "percent_cover": 0.2631241175715569, "percent_above_0.1m": 75.609756097560975, "low_level_<0.5": 2.4390243902439024, "mid_level_0.5-2": 14.634146341463413, "tall_2+": 58.536585365853654 }, "geometry": null },
{ "type": "Feature", "properties": { "max_height": 13.042751312255859, "mean_height": 3.8830087184906006, "std_height": 4.1165647506713867, "count_pixels": 41, "percent_cover": 0.2631241175715569, "percent_above_0.1m": 68.292682926829272, "low_level_<0.5": 0.0, "mid_level_0.5-2": 17.073170731707318, "tall_2+": 51.219512195121951 }, "geometry": null },
{ "type": "Feature", "properties": { "max_height": 0.000751495361328125, "mean_height": -0.00096289318753406405, "std_height": 0.0031449345406144857, "count_pixels": 36, "percent_cover": 0.23103581055063535, "percent_above_0.1m": 0.0, "low_level_<0.5": 0.0, "mid_level_0.5-2": 0.0, "tall_2+": 0.0 }, "geometry": null },
{ "type": "Feature", "properties": { "max_height": 7.8235054016113281, "mean_height": 1.8955634832382202, "std_height": 2.6151382923126221, "count_pixels": 41, "percent_cover": 0.2631241175715569, "percent_above_0.1m": 46.341463414634148, "low_level_<0.5": 2.4390243902439024, "mid_level_0.5-2": 9.7560975609756095, "tall_2+": 34.146341463414636 }, "geometry": null },
{ "type": "Feature", "properties": { "max_height": 8.5697517395019531, "mean_height": 3.6537036895751953, "std_height": 3.0814487934112549, "count_pixels": 41, "percent_cover": 0.2631241175715569, "percent_above_0.1m": 70.731707317073173, "low_level_<0.5": 0.0, "mid_level_0.5-2": 7.3170731707317067, "tall_2+": 63.414634146341463 }, "geometry": null },
{ "type": "Feature", "properties": { "max_height": 2.3465042114257812, "mean_height": 0.35344129800796509, "std_height": 0.5576707124710083, "count_pixels": 41, "percent_cover": 0.2631241175715569, "percent_above_0.1m": 41.463414634146339, "low_level_<0.5": 14.634146341463413, "mid_level_0.5-2": 24.390243902439025, "tall_2+": 2.4390243902439024 }, "geometry": null },
{ "type": "Feature", "properties": { "max_height": 0.01275634765625, "mean_height": 0.00032651747460477054, "std_height": 0.0044416561722755432, "count_pixels": 37, "percent_cover": 0.23745347195481969, "percent_above_0.1m": 0.0, "low_level_<0.5": 0.0, "mid_level_0.5-2": 0.0, "tall_2+": 0.0 }, "geometry": null },
{ "type": "Feature", "properties": { "max_height": 6.4864997863769531, "mean_height": 0.8410143256187439, "std_height": 1.8201190233230591, "count_pixels": 41, "percent_cover": 0.2631241175715569, "percent_above_0.1m": 26.829268292682929, "low_level_<0.5": 7.3170731707317067, "mid_level_0.5-2": 2.4390243902439024, "tall_2+": 17.073170731707318 }, "geometry": null },
{ "type": "Feature", "properties": { "max_height": 3.766754150390625, "mean_height": 0.43138056993484497, "std_height": 0.90295422077178955, "count_pixels": 41, "percent_cover": 0.2631241175715569, "percent_above_0.1m": 21.951219512195124, "low_level_<0.5": 0.0, "mid_level_0.5-2": 9.7560975609756095, "tall_2+": 12.195121951219512 }, "geometry": null },
{ "type": "Feature", "properties": { "max_height": 4.1360015869140625, "mean_height": 0.500049889087677, "std_height": 1.0670849084854126, "count_pixels": 42, "percent_cover": 0.26954177897574128, "percent_above_0.1m": 28.571428571428569, "low_level_<0.5": 7.1428571428571423, "mid_level_0.5-2": 9.5238095238095237, "tall_2+": 11.904761904761903 }, "geometry": null },
{ "type": "Feature", "properties": { "max_height": 15.397003173828125, "mean_height": 2.9395723342895508, "std_height": 3.6874616146087646, "count_pixels": 43, "percent_cover": 0.27595944037992554, "percent_above_0.1m": 58.139534883720934, "low_level_<0.5": 0.0, "mid_level_0.5-2": 11.627906976744185, "tall_2+": 44.186046511627907 }, "geometry": null },
{ "type": "Feature", "properties": { "max_height": 11.277000427246094, "mean_height": 4.3100194931030273, "std_height": 3.5392067432403564, "count_pixels": 43, "percent_cover": 0.27595944037992554, "percent_above_0.1m": 79.069767441860463, "low_level_<0.5": 2.3255813953488373, "mid_level_0.5-2": 11.627906976744185, "tall_2+": 65.116279069767444 }, "geometry": null },
{ "type": "Feature", "properties": { "max_height": 6.6112518310546875, "mean_height": 1.7525081634521484, "std_height": 2.2887973785400391, "count_pixels": 43, "percent_cover": 0.27595944037992554, "percent_above_0.1m": 46.511627906976742, "low_level_<0.5": 0.0, "mid_level_0.5-2": 9.3023255813953494, "tall_2+": 37.209302325581397 }, "geometry": null },
{ "type": "Feature", "properties": { "max_height": 5.0190048217773438, "mean_height": 0.86624050140380859, "std_height": 1.5439320802688599, "count_pixels": 43, "percent_cover": 0.27595944037992554, "percent_above_0.1m": 34.883720930232556, "low_level_<0.5": 6.9767441860465116, "mid_level_0.5-2": 9.3023255813953494, "tall_2+": 18.604651162790699 }, "geometry": null },
{ "type": "Feature", "properties": { "max_height": 4.62750244140625, "mean_height": 0.40243849158287048, "std_height": 1.0103930234909058, "count_pixels": 43, "percent_cover": 0.27595944037992554, "percent_above_0.1m": 30.232558139534881, "low_level_<0.5": 11.627906976744185, "mid_level_0.5-2": 11.627906976744185, "tall_2+": 6.9767441860465116 }, "geometry": null },
{ "type": "Feature", "properties": { "max_height": 6.2875022888183594, "mean_height": 1.3032172918319702, "std_height": 1.7234385013580322, "count_pixels": 43, "percent_cover": 0.27595944037992554, "percent_above_0.1m": 65.116279069767444, "low_level_<0.5": 6.9767441860465116, "mid_level_0.5-2": 27.906976744186046, "tall_2+": 27.906976744186046 }, "geometry": null },
{ "type": "Feature", "properties": { "max_height": 8.2622489929199219, "mean_height": 1.4913984537124634, "std_height": 2.6177692413330078, "count_pixels": 41, "percent_cover": 0.2631241175715569, "percent_above_0.1m": 29.268292682926827, "low_level_<0.5": 0.0, "mid_level_0.5-2": 2.4390243902439024, "tall_2+": 26.829268292682929 }, "geometry": null },
{ "type": "Feature", "properties": { "max_height": 9.1217498779296875, "mean_height": 3.2443985939025879, "std_height": 3.323918342590332, "count_pixels": 41, "percent_cover": 0.2631241175715569, "percent_above_0.1m": 60.975609756097562, "low_level_<0.5": 4.8780487804878048, "mid_level_0.5-2": 2.4390243902439024, "tall_2+": 53.658536585365859 }, "geometry": null },
{ "type": "Feature", "properties": { "max_height": 7.7445030212402344, "mean_height": 3.5069460868835449, "std_height": 2.4078168869018555, "count_pixels": 36, "percent_cover": 0.23103581055063535, "percent_above_0.1m": 94.444444444444443, "low_level_<0.5": 0.0, "mid_level_0.5-2": 22.222222222222221, "tall_2+": 66.666666666666657 }, "geometry": null },
{ "type": "Feature", "properties": { "max_height": 6.3725013732910156, "mean_height": 2.8729660511016846, "std_height": 2.2057385444641113, "count_pixels": 41, "percent_cover": 0.2631241175715569, "percent_above_0.1m": 87.804878048780495, "low_level_<0.5": 9.7560975609756095, "mid_level_0.5-2": 26.829268292682929, "tall_2+": 51.219512195121951 }, "geometry": null },
{ "type": "Feature", "properties": { "max_height": 5.3135032653808594, "mean_height": 0.82038015127182007, "std_height": 1.4459325075149536, "count_pixels": 41, "percent_cover": 0.2631241175715569, "percent_above_0.1m": 41.463414634146339, "low_level_<0.5": 7.3170731707317067, "mid_level_0.5-2": 19.512195121951219, "tall_2+": 12.195121951219512 }, "geometry": null },
{ "type": "Feature", "properties": { "max_height": 8.2462539672851562, "mean_height": 1.7173501253128052, "std_height": 2.4145803451538086, "count_pixels": 41, "percent_cover": 0.2631241175715569, "percent_above_0.1m": 63.414634146341463, "low_level_<0.5": 2.4390243902439024, "mid_level_0.5-2": 26.829268292682929, "tall_2+": 29.268292682926827 }, "geometry": null },
{ "type": "Feature", "properties": { "max_height": 1.2802543640136719, "mean_height": 0.15112419426441193, "std_height": 0.35630500316619873, "count_pixels": 43, "percent_cover": 0.27595944037992554, "percent_above_0.1m": 18.604651162790699, "low_level_<0.5": 6.9767441860465116, "mid_level_0.5-2": 11.627906976744185, "tall_2+": 0.0 }, "geometry": null },
{ "type": "Feature", "properties": { "max_height": 4.305755615234375, "mean_height": 0.680763840675354, "std_height": 1.11676025390625, "count_pixels": 43, "percent_cover": 0.27595944037992554, "percent_above_0.1m": 37.209302325581397, "low_level_<0.5": 0.0, "mid_level_0.5-2": 18.604651162790699, "tall_2+": 18.604651162790699 }, "geometry": null }
]
}
