{
"type": "FeatureCollection",
"name": "3930ec5c0dbf_visibility",
"crs": { "type": "name", "properties": { "name": "urn:ogc:def:crs:OGC:1.3:CRS84" } },
"features": [
{ "type": "Feature", "properties": { "visible_points": 0, "total_points": 76, "visibility_pct": 0.0 }, "geometry": { "type": "Point", "coordinates": [ -2.127446747660836, 53.458614402561579 ] } },
{ "type": "Feature", "properties": { "visible_points": 0, "total_points": 80, "visibility_pct": 0.0 }, "geometry": { "type": "Point", "coordinates": [ -2.12723806810948, 53.458614625008494 ] } },
{ "type": "Feature", "properties": { "visible_points": 0, "total_points": 78, "visibility_pct": 0.0 }, "geometry": { "type": "Point", "coordinates": [ -2.127029388555345, 53.458614847090956 ] } },
{ "type": "Feature", "properties": { "visible_points": 10, "total_points": 75, "visibility_pct": 13.333333333333334 }, "geometry": { "type": "Point", "coordinates": [ -2.12682070899843, 53.458615068808975 ] } },
{ "type": "Feature", "properties": { "visible_points": 0, "total_points": 71, "visibility_pct": 0.0 }, "geometry": { "type": "Point", "coordinates": [ -2.126612029438738, 53.458615290162577 ] } },
{ "type": "Feature", "properties": { "visible_points": 1, "total_points": 66, "visibility_pct": 1.5151515151515151 }, "geometry": { "type": "Point", "coordinates": [ -2.126403349876273, 53.458615511151706 ] } },
{ "type": "Feature", "properties": { "visible_points": 2, "total_points": 81, "visibility_pct": 2.4691358024691357 }, "geometry": { "type": "Point", "coordinates": [ -2.127760094173136, 53.458721929244241 ] } },
{ "type": "Feature", "properties": { "visible_points": 28, "total_points": 85, "visibility_pct": 32.941176470588232 }, "geometry": { "type": "Point", "coordinates": [ -2.127551414090052, 53.458722152254786 ] } },
{ "type": "Feature", "properties": { "visible_points": 26, "total_points": 89, "visibility_pct": 29.213483146067414 }, "geometry": { "type": "Point", "coordinates": [ -2.127342734004192, 53.458722374900894 ] } },
{ "type": "Feature", "properties": { "visible_points": 22, "total_points": 90, "visibility_pct": 24.444444444444443 }, "geometry": { "type": "Point", "coordinates": [ -2.127134053915549, 53.458722597182593 ] } },
{ "type": "Feature", "properties": { "visible_points": 16, "total_points": 88, "visibility_pct": 18.181818181818183 }, "geometry": { "type": "Point", "coordinates": [ -2.126925373824136, 53.458722819099847 ] } },
{ "type": "Feature", "properties": { "visible_points": 12, "total_points": 84, "visibility_pct": 14.285714285714285 }, "geometry": { "type": "Point", "coordinates": [ -2.126716693729953, 53.458723040652664 ] } },
{ "type": "Feature", "properties": { "visible_points": 4, "total_points": 79, "visibility_pct": 5.0632911392405067 }, "geometry": { "type": "Point", "coordinates": [ -2.126508013633008, 53.458723261841065 ] } },
{ "type": "Feature", "properties": { "visible_points": 7, "total_points": 83, "visibility_pct": 8.4337349397590362 }, "geometry": { "type": "Point", "coordinates": [ -2.128073441576899, 53.45882945506257 ] } },
{ "type": "Feature", "properties": { "visible_points": 35, "total_points": 89, "visibility_pct": 39.325842696629216 }, "geometry": { "type": "Point", "coordinates": [ -2.127864760967613, 53.458829678637876 ] } },
{ "type": "Feature", "properties": { "visible_points": 41, "total_points": 93, "visibility_pct": 44.086021505376344 }, "geometry": { "type": "Point", "coordinates": [ -2.127656080355532, 53.458829901848745 ] } },
{ "type": "Feature", "properties": { "visible_points": 44, "total_points": 97, "visibility_pct": 45.360824742268044 }, "geometry": { "type": "Point", "coordinates": [ -2.127447399740673, 53.458830124695197 ] } },
{ "type": "Feature", "properties": { "visible_points": 39, "total_points": 101, "visibility_pct": 38.613861386138616 }, "geometry": { "type": "Point", "coordinates": [ -2.127238719123037, 53.458830347177212 ] } },
{ "type": "Feature", "properties": { "visible_points": 32, "total_points": 101, "visibility_pct": 31.683168316831683 }, "geometry": { "type": "Point", "coordinates": [ -2.127030038502619, 53.458830569294797 ] } },
{ "type": "Feature", "properties": { "visible_points": 28, "total_points": 97, "visibility_pct": 28.865979381443296 }, "geometry": { "type": "Point", "coordinates": [ -2.126821357879429, 53.458830791047951 ] } },
{ "type": "Feature", "properties": { "visible_points": 17, "total_points": 92, "visibility_pct": 18.478260869565215 }, "geometry": { "type": "Point", "coordinates": [ -2.126612677253481, 53.458831012436676 ] } },
{ "type": "Feature", "properties": { "visible_points": 13, "total_points": 85, "visibility_pct": 15.294117647058824 }, "geometry": { "type": "Point", "coordinates": [ -2.126403996624767, 53.458831233460963 ] } },
{ "type": "Feature", "properties": { "visible_points": 0, "total_points": 65, "visibility_pct": 0.0 }, "geometry": { "type": "Point", "coordinates": [ -2.128595471700313, 53.458936755500048 ] } },
{ "type": "Feature", "properties": { "visible_points": 33, "total_points": 76, "visibility_pct": 43.421052631578952 }, "geometry": { "type": "Point", "coordinates": [ -2.128386790567625, 53.458936980004545 ] } },
{ "type": "Feature", "properties": { "visible_points": 41, "total_points": 87, "visibility_pct": 47.126436781609193 }, "geometry": { "type": "Point", "coordinates": [ -2.12817810943214, 53.458937204144618 ] } },
{ "type": "Feature", "properties": { "visible_points": 46, "total_points": 96, "visibility_pct": 47.916666666666671 }, "geometry": { "type": "Point", "coordinates": [ -2.127969428293857, 53.458937427920262 ] } },
{ "type": "Feature", "properties": { "visible_points": 51, "total_points": 101, "visibility_pct": 50.495049504950494 }, "geometry": { "type": "Point", "coordinates": [ -2.127760747152783, 53.458937651331482 ] } },
{ "type": "Feature", "properties": { "visible_points": 51, "total_points": 105, "visibility_pct": 48.571428571428569 }, "geometry": { "type": "Point", "coordinates": [ -2.127552066008923, 53.458937874378258 ] } },
{ "type": "Feature", "properties": { "visible_points": 53, "total_points": 109, "visibility_pct": 48.623853211009177 }, "geometry": { "type": "Point", "coordinates": [ -2.127343384862279, 53.45893809706061 ] } },
{ "type": "Feature", "properties": { "visible_points": 44, "total_points": 111, "visibility_pct": 39.63963963963964 }, "geometry": { "type": "Point", "coordinates": [ -2.127134703712859, 53.458938319378532 ] } },
{ "type": "Feature", "properties": { "visible_points": 44, "total_points": 110, "visibility_pct": 40.0 }, "geometry": { "type": "Point", "coordinates": [ -2.126926022560668, 53.458938541331989 ] } },
{ "type": "Feature", "properties": { "visible_points": 38, "total_points": 105, "visibility_pct": 36.19047619047619 }, "geometry": { "type": "Point", "coordinates": [ -2.126717341405706, 53.458938762921058 ] } },
{ "type": "Feature", "properties": { "visible_points": 26, "total_points": 98, "visibility_pct": 26.530612244897959 }, "geometry": { "type": "Point", "coordinates": [ -2.126508660247981, 53.458938984145682 ] } },
{ "type": "Feature", "properties": { "visible_points": 2, "total_points": 53, "visibility_pct": 3.7735849056603774 }, "geometry": { "type": "Point", "coordinates": [ -2.128908822804186, 53.459044279000906 ] } },
{ "type": "Feature", "properties": { "visible_points": 27, "total_points": 64, "visibility_pct": 42.1875 }, "geometry": { "type": "Point", "coordinates": [ -2.128700141145317, 53.459044504070192 ] } },
{ "type": "Feature", "properties": { "visible_points": 35, "total_points": 76, "visibility_pct": 46.05263157894737 }, "geometry": { "type": "Point", "coordinates": [ -2.128491459483634, 53.459044728775034 ] } },
{ "type": "Feature", "properties": { "visible_points": 40, "total_points": 88, "visibility_pct": 45.454545454545453 }, "geometry": { "type": "Point", "coordinates": [ -2.128282777819153, 53.459044953115445 ] } },
{ "type": "Feature", "properties": { "visible_points": 47, "total_points": 99, "visibility_pct": 47.474747474747474 }, "geometry": { "type": "Point", "coordinates": [ -2.128074096151875, 53.459045177091426 ] } },
{ "type": "Feature", "properties": { "visible_points": 57, "total_points": 107, "visibility_pct": 53.271028037383175 }, "geometry": { "type": "Point", "coordinates": [ -2.127865414481801, 53.459045400702983 ] } },
{ "type": "Feature", "properties": { "visible_points": 61, "total_points": 111, "visibility_pct": 54.954954954954957 }, "geometry": { "type": "Point", "coordinates": [ -2.127656732808936, 53.459045623950097 ] } },
{ "type": "Feature", "properties": { "visible_points": 60, "total_points": 115, "visibility_pct": 52.173913043478258 }, "geometry": { "type": "Point", "coordinates": [ -2.12744805113329, 53.459045846832765 ] } },
{ "type": "Feature", "properties": { "visible_points": 54, "total_points": 118, "visibility_pct": 45.762711864406782 }, "geometry": { "type": "Point", "coordinates": [ -2.127239369454863, 53.459046069351018 ] } },
{ "type": "Feature", "properties": { "visible_points": 51, "total_points": 119, "visibility_pct": 42.857142857142854 }, "geometry": { "type": "Point", "coordinates": [ -2.127030687773662, 53.459046291504826 ] } },
{ "type": "Feature", "properties": { "visible_points": 54, "total_points": 115, "visibility_pct": 46.956521739130437 }, "geometry": { "type": "Point", "coordinates": [ -2.126822006089692, 53.459046513294211 ] } },
{ "type": "Feature", "properties": { "visible_points": 50, "total_points": 110, "visibility_pct": 45.454545454545453 }, "geometry": { "type": "Point", "coordinates": [ -2.126613324402948, 53.459046734719166 ] } },
{ "type": "Feature", "properties": { "visible_points": 42, "total_points": 101, "visibility_pct": 41.584158415841586 }, "geometry": { "type": "Point", "coordinates": [ -2.12640464271345, 53.459046955779669 ] } },
{ "type": "Feature", "properties": { "visible_points": 5, "total_points": 90, "visibility_pct": 5.5555555555555554 }, "geometry": { "type": "Point", "coordinates": [ -2.126195961021195, 53.459047176475757 ] } },
{ "type": "Feature", "properties": { "visible_points": 0, "total_points": 62, "visibility_pct": 0.0 }, "geometry": { "type": "Point", "coordinates": [ -2.128804811122104, 53.459152252529087 ] } },
{ "type": "Feature", "properties": { "visible_points": 35, "total_points": 74, "visibility_pct": 47.297297297297298 }, "geometry": { "type": "Point", "coordinates": [ -2.128596128931422, 53.459152477434273 ] } },
{ "type": "Feature", "properties": { "visible_points": 40, "total_points": 86, "visibility_pct": 46.511627906976742 }, "geometry": { "type": "Point", "coordinates": [ -2.12838744673795, 53.459152701975029 ] } },
{ "type": "Feature", "properties": { "visible_points": 48, "total_points": 99, "visibility_pct": 48.484848484848484 }, "geometry": { "type": "Point", "coordinates": [ -2.128178764541668, 53.459152926151354 ] } },
{ "type": "Feature", "properties": { "visible_points": 51, "total_points": 111, "visibility_pct": 45.945945945945951 }, "geometry": { "type": "Point", "coordinates": [ -2.127970082342593, 53.459153149963242 ] } },
{ "type": "Feature", "properties": { "visible_points": 64, "total_points": 115, "visibility_pct": 55.652173913043477 }, "geometry": { "type": "Point", "coordinates": [ -2.127761400140725, 53.459153373410686 ] } },
{ "type": "Feature", "properties": { "visible_points": 68, "total_points": 118, "visibility_pct": 57.627118644067799 }, "geometry": { "type": "Point", "coordinates": [ -2.127552717936071, 53.459153596493707 ] } },
{ "type": "Feature", "properties": { "visible_points": 64, "total_points": 120, "visibility_pct": 53.333333333333336 }, "geometry": { "type": "Point", "coordinates": [ -2.127344035728635, 53.459153819212283 ] } },
{ "type": "Feature", "properties": { "visible_points": 64, "total_points": 120, "visibility_pct": 53.333333333333336 }, "geometry": { "type": "Point", "coordinates": [ -2.127135353518427, 53.459154041566435 ] } },
{ "type": "Feature", "properties": { "visible_points": 65, "total_points": 119, "visibility_pct": 54.621848739495796 }, "geometry": { "type": "Point", "coordinates": [ -2.126926671305434, 53.459154263556151 ] } },
{ "type": "Feature", "properties": { "visible_points": 69, "total_points": 115, "visibility_pct": 60.0 }, "geometry": { "type": "Point", "coordinates": [ -2.126717989089683, 53.459154485181422 ] } },
{ "type": "Feature", "properties": { "visible_points": 59, "total_points": 109, "visibility_pct": 54.128440366972477 }, "geometry": { "type": "Point", "coordinates": [ -2.126509306871163, 53.45915470644227 ] } },
{ "type": "Feature", "properties": { "visible_points": 38, "total_points": 99, "visibility_pct": 38.383838383838381 }, "geometry": { "type": "Point", "coordinates": [ -2.126300624649891, 53.459154927338673 ] } },
{ "type": "Feature", "properties": { "visible_points": 19, "total_points": 87, "visibility_pct": 21.839080459770116 }, "geometry": { "type": "Point", "coordinates": [ -2.126091942425854, 53.459155147870632 ] } },
{ "type": "Feature", "properties": { "visible_points": 0, "total_points": 70, "visibility_pct": 0.0 }, "geometry": { "type": "Point", "coordinates": [ -2.128700798911003, 53.459260225982277 ] } },
{ "type": "Feature", "properties": { "visible_points": 37, "total_points": 83, "visibility_pct": 44.578313253012048 }, "geometry": { "type": "Point", "coordinates": [ -2.128492116188525, 53.459260450723384 ] } },
{ "type": "Feature", "properties": { "visible_points": 45, "total_points": 96, "visibility_pct": 46.875 }, "geometry": { "type": "Point", "coordinates": [ -2.128283433463242, 53.45926067510004 ] } },
{ "type": "Feature", "properties": { "visible_points": 52, "total_points": 109, "visibility_pct": 47.706422018348626 }, "geometry": { "type": "Point", "coordinates": [ -2.128074750735162, 53.459260899112266 ] } },
{ "type": "Feature", "properties": { "visible_points": 57, "total_points": 118, "visibility_pct": 48.305084745762713 }, "geometry": { "type": "Point", "coordinates": [ -2.127866068004292, 53.459261122760068 ] } },
{ "type": "Feature", "properties": { "visible_points": 69, "total_points": 120, "visibility_pct": 57.5 }, "geometry": { "type": "Point", "coordinates": [ -2.127657385270628, 53.459261346043405 ] } },
{ "type": "Feature", "properties": { "visible_points": 75, "total_points": 120, "visibility_pct": 62.5 }, "geometry": { "type": "Point", "coordinates": [ -2.12744870253418, 53.459261568962319 ] } },
{ "type": "Feature", "properties": { "visible_points": 75, "total_points": 120, "visibility_pct": 62.5 }, "geometry": { "type": "Point", "coordinates": [ -2.127240019794955, 53.459261791516809 ] } },
{ "type": "Feature", "properties": { "visible_points": 84, "total_points": 120, "visibility_pct": 70.0 }, "geometry": { "type": "Point", "coordinates": [ -2.127031337052951, 53.459262013706841 ] } },
{ "type": "Feature", "properties": { "visible_points": 78, "total_points": 119, "visibility_pct": 65.546218487394952 }, "geometry": { "type": "Point", "coordinates": [ -2.126822654308181, 53.459262235532449 ] } },
{ "type": "Feature", "properties": { "visible_points": 68, "total_points": 116, "visibility_pct": 58.620689655172406 }, "geometry": { "type": "Point", "coordinates": [ -2.126613971560642, 53.459262456993635 ] } },
{ "type": "Feature", "properties": { "visible_points": 53, "total_points": 107, "visibility_pct": 49.532710280373834 }, "geometry": { "type": "Point", "coordinates": [ -2.126405288810341, 53.459262678090361 ] } },
{ "type": "Feature", "properties": { "visible_points": 38, "total_points": 96, "visibility_pct": 39.583333333333329 }, "geometry": { "type": "Point", "coordinates": [ -2.126196606057284, 53.459262898822672 ] } },
{ "type": "Feature", "properties": { "visible_points": 26, "total_points": 84, "visibility_pct": 30.952380952380953 }, "geometry": { "type": "Point", "coordinates": [ -2.125987923301476, 53.45926311919051 ] } },
{ "type": "Feature", "properties": { "visible_points": 13, "total_points": 71, "visibility_pct": 18.30985915492958 }, "geometry": { "type": "Point", "coordinates": [ -2.125779240542917, 53.459263339193939 ] } },
{ "type": "Feature", "properties": { "visible_points": 0, "total_points": 78, "visibility_pct": 0.0 }, "geometry": { "type": "Point", "coordinates": [ -2.128596786170887, 53.459368199360497 ] } },
{ "type": "Feature", "properties": { "visible_points": 40, "total_points": 91, "visibility_pct": 43.956043956043956 }, "geometry": { "type": "Point", "coordinates": [ -2.128388102916604, 53.459368423937491 ] } },
{ "type": "Feature", "properties": { "visible_points": 50, "total_points": 104, "visibility_pct": 48.07692307692308 }, "geometry": { "type": "Point", "coordinates": [ -2.128179419659519, 53.459368648150068 ] } },
{ "type": "Feature", "properties": { "visible_points": 51, "total_points": 114, "visibility_pct": 44.736842105263158 }, "geometry": { "type": "Point", "coordinates": [ -2.127970736399637, 53.459368871998194 ] } },
{ "type": "Feature", "properties": { "visible_points": 62, "total_points": 120, "visibility_pct": 51.666666666666671 }, "geometry": { "type": "Point", "coordinates": [ -2.127762053136962, 53.459369095481868 ] } },
{ "type": "Feature", "properties": { "visible_points": 74, "total_points": 120, "visibility_pct": 61.666666666666671 }, "geometry": { "type": "Point", "coordinates": [ -2.127553369871501, 53.459369318601127 ] } },
{ "type": "Feature", "properties": { "visible_points": 84, "total_points": 120, "visibility_pct": 70.0 }, "geometry": { "type": "Point", "coordinates": [ -2.127344686603261, 53.459369541355954 ] } },
{ "type": "Feature", "properties": { "visible_points": 85, "total_points": 120, "visibility_pct": 70.833333333333343 }, "geometry": { "type": "Point", "coordinates": [ -2.12713600333224, 53.459369763746317 ] } },
{ "type": "Feature", "properties": { "visible_points": 86, "total_points": 120, "visibility_pct": 71.666666666666671 }, "geometry": { "type": "Point", "coordinates": [ -2.126927320058448, 53.45936998577227 ] } },
{ "type": "Feature", "properties": { "visible_points": 73, "total_points": 119, "visibility_pct": 61.344537815126053 }, "geometry": { "type": "Point", "coordinates": [ -2.126718636781885, 53.459370207433764 ] } },
{ "type": "Feature", "properties": { "visible_points": 59, "total_points": 115, "visibility_pct": 51.304347826086961 }, "geometry": { "type": "Point", "coordinates": [ -2.12650995350256, 53.459370428730821 ] } },
{ "type": "Feature", "properties": { "visible_points": 51, "total_points": 105, "visibility_pct": 48.571428571428569 }, "geometry": { "type": "Point", "coordinates": [ -2.126301270220478, 53.459370649663455 ] } },
{ "type": "Feature", "properties": { "visible_points": 38, "total_points": 93, "visibility_pct": 40.86021505376344 }, "geometry": { "type": "Point", "coordinates": [ -2.126092586935638, 53.459370870231631 ] } },
{ "type": "Feature", "properties": { "visible_points": 31, "total_points": 80, "visibility_pct": 38.75 }, "geometry": { "type": "Point", "coordinates": [ -2.12588390364805, 53.45937109043539 ] } },
{ "type": "Feature", "properties": { "visible_points": 0, "total_points": 84, "visibility_pct": 0.0 }, "geometry": { "type": "Point", "coordinates": [ -2.128492772901759, 53.459476172663706 ] } },
{ "type": "Feature", "properties": { "visible_points": 45, "total_points": 96, "visibility_pct": 46.875 }, "geometry": { "type": "Point", "coordinates": [ -2.128284089115659, 53.459476397076607 ] } },
{ "type": "Feature", "properties": { "visible_points": 55, "total_points": 106, "visibility_pct": 51.886792452830186 }, "geometry": { "type": "Point", "coordinates": [ -2.128075405326769, 53.459476621125084 ] } },
{ "type": "Feature", "properties": { "visible_points": 63, "total_points": 115, "visibility_pct": 54.782608695652172 }, "geometry": { "type": "Point", "coordinates": [ -2.12786672153508, 53.459476844809103 ] } },
{ "type": "Feature", "properties": { "visible_points": 67, "total_points": 120, "visibility_pct": 55.833333333333336 }, "geometry": { "type": "Point", "coordinates": [ -2.127658037740604, 53.459477068128706 ] } },
{ "type": "Feature", "properties": { "visible_points": 80, "total_points": 120, "visibility_pct": 66.666666666666657 }, "geometry": { "type": "Point", "coordinates": [ -2.127449353943346, 53.45947729108385 ] } },
{ "type": "Feature", "properties": { "visible_points": 85, "total_points": 120, "visibility_pct": 70.833333333333343 }, "geometry": { "type": "Point", "coordinates": [ -2.127240670143304, 53.45947751367455 ] } },
{ "type": "Feature", "properties": { "visible_points": 87, "total_points": 120, "visibility_pct": 72.5 }, "geometry": { "type": "Point", "coordinates": [ -2.127031986340489, 53.459477735900848 ] } },
{ "type": "Feature", "properties": { "visible_points": 79, "total_points": 120, "visibility_pct": 65.833333333333329 }, "geometry": { "type": "Point", "coordinates": [ -2.126823302534905, 53.459477957762665 ] } },
{ "type": "Feature", "properties": { "visible_points": 65, "total_points": 119, "visibility_pct": 54.621848739495796 }, "geometry": { "type": "Point", "coordinates": [ -2.12661461872655, 53.459478179260067 ] } },
{ "type": "Feature", "properties": { "visible_points": 56, "total_points": 111, "visibility_pct": 50.450450450450447 }, "geometry": { "type": "Point", "coordinates": [ -2.126405934915437, 53.459478400393017 ] } },
{ "type": "Feature", "properties": { "visible_points": 49, "total_points": 98, "visibility_pct": 50.0 }, "geometry": { "type": "Point", "coordinates": [ -2.126197251101564, 53.459478621161544 ] } },
{ "type": "Feature", "properties": { "visible_points": 40, "total_points": 85, "visibility_pct": 47.058823529411761 }, "geometry": { "type": "Point", "coordinates": [ -2.125988567284943, 53.459478841565605 ] } },
{ "type": "Feature", "properties": { "visible_points": 0, "total_points": 72, "visibility_pct": 0.0 }, "geometry": { "type": "Point", "coordinates": [ -2.125779883465572, 53.459479061605244 ] } },
{ "type": "Feature", "properties": { "visible_points": 29, "total_points": 86, "visibility_pct": 33.720930232558139 }, "geometry": { "type": "Point", "coordinates": [ -2.128388759103596, 53.45958414589191 ] } },
{ "type": "Feature", "properties": { "visible_points": 52, "total_points": 97, "visibility_pct": 53.608247422680414 }, "geometry": { "type": "Point", "coordinates": [ -2.12818007478569, 53.459584370140732 ] } },
{ "type": "Feature", "properties": { "visible_points": 65, "total_points": 107, "visibility_pct": 60.747663551401864 }, "geometry": { "type": "Point", "coordinates": [ -2.12797139046499, 53.45958459402511 ] } },
{ "type": "Feature", "properties": { "visible_points": 62, "total_points": 115, "visibility_pct": 53.913043478260867 }, "geometry": { "type": "Point", "coordinates": [ -2.127762706141494, 53.459584817545036 ] } },
{ "type": "Feature", "properties": { "visible_points": 67, "total_points": 120, "visibility_pct": 55.833333333333336 }, "geometry": { "type": "Point", "coordinates": [ -2.127554021815214, 53.459585040700532 ] } },
{ "type": "Feature", "properties": { "visible_points": 76, "total_points": 119, "visibility_pct": 63.865546218487388 }, "geometry": { "type": "Point", "coordinates": [ -2.127345337486152, 53.459585263491569 ] } },
{ "type": "Feature", "properties": { "visible_points": 80, "total_points": 118, "visibility_pct": 67.796610169491515 }, "geometry": { "type": "Point", "coordinates": [ -2.12713665315431, 53.459585485918176 ] } },
{ "type": "Feature", "properties": { "visible_points": 76, "total_points": 116, "visibility_pct": 65.517241379310349 }, "geometry": { "type": "Point", "coordinates": [ -2.126927968819698, 53.459585707980352 ] } },
{ "type": "Feature", "properties": { "visible_points": 68, "total_points": 114, "visibility_pct": 59.649122807017541 }, "geometry": { "type": "Point", "coordinates": [ -2.126719284482315, 53.459585929678084 ] } },
{ "type": "Feature", "properties": { "visible_points": 57, "total_points": 110, "visibility_pct": 51.81818181818182 }, "geometry": { "type": "Point", "coordinates": [ -2.126510600142171, 53.459586151011351 ] } },
{ "type": "Feature", "properties": { "visible_points": 49, "total_points": 101, "visibility_pct": 48.514851485148512 }, "geometry": { "type": "Point", "coordinates": [ -2.126301915799266, 53.459586371980222 ] } },
{ "type": "Feature", "properties": { "visible_points": 42, "total_points": 89, "visibility_pct": 47.191011235955052 }, "geometry": { "type": "Point", "coordinates": [ -2.126093231453605, 53.459586592584614 ] } },
{ "type": "Feature", "properties": { "visible_points": 36, "total_points": 77, "visibility_pct": 46.753246753246749 }, "geometry": { "type": "Point", "coordinates": [ -2.125884547105196, 53.459586812824575 ] } },
{ "type": "Feature", "properties": { "visible_points": 0, "total_points": 85, "visibility_pct": 0.0 }, "geometry": { "type": "Point", "coordinates": [ -2.128284744776408, 53.459692119045151 ] } },
{ "type": "Feature", "properties": { "visible_points": 55, "total_points": 95, "visibility_pct": 57.894736842105267 }, "geometry": { "type": "Point", "coordinates": [ -2.128076059926688, 53.459692343129866 ] } },
{ "type": "Feature", "properties": { "visible_points": 60, "total_points": 103, "visibility_pct": 58.252427184466015 }, "geometry": { "type": "Point", "coordinates": [ -2.127867375074173, 53.459692566850137 ] } },
{ "type": "Feature", "properties": { "visible_points": 64, "total_points": 109, "visibility_pct": 58.715596330275233 }, "geometry": { "type": "Point", "coordinates": [ -2.127658690218873, 53.459692790205949 ] } },
{ "type": "Feature", "properties": { "visible_points": 67, "total_points": 113, "visibility_pct": 59.292035398230091 }, "geometry": { "type": "Point", "coordinates": [ -2.12745000536078, 53.459693013197352 ] } },
{ "type": "Feature", "properties": { "visible_points": 71, "total_points": 112, "visibility_pct": 63.392857142857139 }, "geometry": { "type": "Point", "coordinates": [ -2.127241320499917, 53.459693235824304 ] } },
{ "type": "Feature", "properties": { "visible_points": 65, "total_points": 110, "visibility_pct": 59.090909090909093 }, "geometry": { "type": "Point", "coordinates": [ -2.127032635636273, 53.459693458086811 ] } },
{ "type": "Feature", "properties": { "visible_points": 65, "total_points": 108, "visibility_pct": 60.185185185185183 }, "geometry": { "type": "Point", "coordinates": [ -2.126823950769861, 53.459693679984866 ] } },
{ "type": "Feature", "properties": { "visible_points": 56, "total_points": 106, "visibility_pct": 52.830188679245282 }, "geometry": { "type": "Point", "coordinates": [ -2.126615265900679, 53.459693901518484 ] } },
{ "type": "Feature", "properties": { "visible_points": 46, "total_points": 98, "visibility_pct": 46.938775510204081 }, "geometry": { "type": "Point", "coordinates": [ -2.12640658102874, 53.459694122687658 ] } },
{ "type": "Feature", "properties": { "visible_points": 44, "total_points": 88, "visibility_pct": 50.0 }, "geometry": { "type": "Point", "coordinates": [ -2.126197896154039, 53.459694343492394 ] } },
{ "type": "Feature", "properties": { "visible_points": 38, "total_points": 78, "visibility_pct": 48.717948717948715 }, "geometry": { "type": "Point", "coordinates": [ -2.125989211276589, 53.459694563932693 ] } },
{ "type": "Feature", "properties": { "visible_points": 32, "total_points": 67, "visibility_pct": 47.761194029850742 }, "geometry": { "type": "Point", "coordinates": [ -2.125780526396394, 53.459694784008541 ] } },
{ "type": "Feature", "properties": { "visible_points": 0, "total_points": 82, "visibility_pct": 0.0 }, "geometry": { "type": "Point", "coordinates": [ -2.128180729920187, 53.45980009212338 ] } },
{ "type": "Feature", "properties": { "visible_points": 50, "total_points": 90, "visibility_pct": 55.555555555555557 }, "geometry": { "type": "Point", "coordinates": [ -2.127972044538648, 53.459800316043996 ] } },
{ "type": "Feature", "properties": { "visible_points": 54, "total_points": 96, "visibility_pct": 56.25 }, "geometry": { "type": "Point", "coordinates": [ -2.127763359154319, 53.459800539600181 ] } },
{ "type": "Feature", "properties": { "visible_points": 57, "total_points": 101, "visibility_pct": 56.435643564356432 }, "geometry": { "type": "Point", "coordinates": [ -2.127554673767207, 53.459800762791893 ] } },
{ "type": "Feature", "properties": { "visible_points": 60, "total_points": 104, "visibility_pct": 57.692307692307686 }, "geometry": { "type": "Point", "coordinates": [ -2.127345988377311, 53.459800985619168 ] } },
{ "type": "Feature", "properties": { "visible_points": 65, "total_points": 102, "visibility_pct": 63.725490196078425 }, "geometry": { "type": "Point", "coordinates": [ -2.127137302984635, 53.45980120808202 ] } },
{ "type": "Feature", "properties": { "visible_points": 56, "total_points": 100, "visibility_pct": 56.000000000000007 }, "geometry": { "type": "Point", "coordinates": [ -2.126928617589189, 53.45980143018042 ] } },
{ "type": "Feature", "properties": { "visible_points": 49, "total_points": 98, "visibility_pct": 50.0 }, "geometry": { "type": "Point", "coordinates": [ -2.126719932190972, 53.459801651914368 ] } },
{ "type": "Feature", "properties": { "visible_points": 46, "total_points": 93, "visibility_pct": 49.462365591397848 }, "geometry": { "type": "Point", "coordinates": [ -2.12651124678999, 53.459801873283872 ] } },
{ "type": "Feature", "properties": { "visible_points": 42, "total_points": 85, "visibility_pct": 49.411764705882355 }, "geometry": { "type": "Point", "coordinates": [ -2.126302561386253, 53.459802094288939 ] } },
{ "type": "Feature", "properties": { "visible_points": 41, "total_points": 75, "visibility_pct": 54.666666666666664 }, "geometry": { "type": "Point", "coordinates": [ -2.126093875979762, 53.459802314929568 ] } },
{ "type": "Feature", "properties": { "visible_points": 31, "total_points": 66, "visibility_pct": 46.969696969696969 }, "geometry": { "type": "Point", "coordinates": [ -2.125885190570511, 53.459802535205739 ] } },
{ "type": "Feature", "properties": { "visible_points": 0, "total_points": 56, "visibility_pct": 0.0 }, "geometry": { "type": "Point", "coordinates": [ -2.125676505158525, 53.459802755117465 ] } },
{ "type": "Feature", "properties": { "visible_points": 0, "total_points": 77, "visibility_pct": 0.0 }, "geometry": { "type": "Point", "coordinates": [ -2.128076714534923, 53.459908065126612 ] } },
{ "type": "Feature", "properties": { "visible_points": 43, "total_points": 83, "visibility_pct": 51.807228915662648 }, "geometry": { "type": "Point", "coordinates": [ -2.127868028621569, 53.459908288883121 ] } },
{ "type": "Feature", "properties": { "visible_points": 48, "total_points": 88, "visibility_pct": 54.54545454545454 }, "geometry": { "type": "Point", "coordinates": [ -2.127659342705422, 53.459908512275199 ] } },
{ "type": "Feature", "properties": { "visible_points": 52, "total_points": 92, "visibility_pct": 56.521739130434781 }, "geometry": { "type": "Point", "coordinates": [ -2.127450656786495, 53.459908735302825 ] } },
{ "type": "Feature", "properties": { "visible_points": 54, "total_points": 93, "visibility_pct": 58.064516129032263 }, "geometry": { "type": "Point", "coordinates": [ -2.127241970864791, 53.459908957966 ] } },
{ "type": "Feature", "properties": { "visible_points": 53, "total_points": 91, "visibility_pct": 58.241758241758248 }, "geometry": { "type": "Point", "coordinates": [ -2.127033284940302, 53.459909180264731 ] } },
{ "type": "Feature", "properties": { "visible_points": 51, "total_points": 89, "visibility_pct": 57.303370786516851 }, "geometry": { "type": "Point", "coordinates": [ -2.126824599013051, 53.459909402199024 ] } },
{ "type": "Feature", "properties": { "visible_points": 45, "total_points": 86, "visibility_pct": 52.325581395348841 }, "geometry": { "type": "Point", "coordinates": [ -2.126615913083029, 53.459909623768866 ] } },
{ "type": "Feature", "properties": { "visible_points": 33, "total_points": 80, "visibility_pct": 41.25 }, "geometry": { "type": "Point", "coordinates": [ -2.126407227150245, 53.459909844974263 ] } },
{ "type": "Feature", "properties": { "visible_points": 30, "total_points": 72, "visibility_pct": 41.666666666666671 }, "geometry": { "type": "Point", "coordinates": [ -2.126198541214707, 53.459910065815222 ] } },
{ "type": "Feature", "properties": { "visible_points": 13, "total_points": 70, "visibility_pct": 18.571428571428573 }, "geometry": { "type": "Point", "coordinates": [ -2.127972698620617, 53.460016038054846 ] } },
{ "type": "Feature", "properties": { "visible_points": 38, "total_points": 75, "visibility_pct": 50.666666666666671 }, "geometry": { "type": "Point", "coordinates": [ -2.127764012175443, 53.460016261647276 ] } },
{ "type": "Feature", "properties": { "visible_points": 42, "total_points": 79, "visibility_pct": 53.164556962025308 }, "geometry": { "type": "Point", "coordinates": [ -2.127555325727482, 53.460016484875233 ] } },
{ "type": "Feature", "properties": { "visible_points": 44, "total_points": 81, "visibility_pct": 54.320987654320987 }, "geometry": { "type": "Point", "coordinates": [ -2.127346639276736, 53.460016707738752 ] } },
{ "type": "Feature", "properties": { "visible_points": 38, "total_points": 81, "visibility_pct": 46.913580246913575 }, "geometry": { "type": "Point", "coordinates": [ -2.127137952823212, 53.460016930237828 ] } },
{ "type": "Feature", "properties": { "visible_points": 35, "total_points": 79, "visibility_pct": 44.303797468354425 }, "geometry": { "type": "Point", "coordinates": [ -2.126929266366919, 53.460017152372444 ] } },
{ "type": "Feature", "properties": { "visible_points": 13, "total_points": 62, "visibility_pct": 20.967741935483872 }, "geometry": { "type": "Point", "coordinates": [ -2.127868682177264, 53.460124010908096 ] } },
{ "type": "Feature", "properties": { "visible_points": 33, "total_points": 66, "visibility_pct": 50.0 }, "geometry": { "type": "Point", "coordinates": [ -2.127659995200267, 53.460124234336405 ] } }
]
}
