{
"type": "FeatureCollection",
"name": "STOC5_60_cycling",
"crs": { "type": "name", "properties": { "name": "urn:ogc:def:crs:OGC:1.3:CRS84" } },
"features": [
{"type":"Feature","properties":{"highway":"cycleway","name":null,"category":"Dedicated cycleway"},"geometry":{"type":"MultiLineString","coordinates":[[[-2.1672337,53.3711776],[-2.1671924,53.3712563],[-2.1671409,53.3713638],[-2.1670894,53.3715328],[-2.1670808,53.3717018],[-2.1671151,53.3718913],[-2.167201,53.3721422],[-2.1672474,53.3722214],[-2.1673211,53.372347],[-2.167407,53.372475],[-2.1674327,53.3725416],[-2.1674327,53.3726286],[-2.1673898,53.3727925],[-2.1673726,53.3730229]]]}},
{"type":"Feature","properties":{"highway":"path","name":null,"category":"Shared path"},"geometry":{"type":"MultiLineString","coordinates":[[[-2.1527775,53.3694388],[-2.152706,53.3692346],[-2.1527113,53.3691037],[-2.1526834,53.3689807],[-2.1526182,53.3688772],[-2.1526036,53.3688135],[-2.1525377,53.3686758]]]}},
{"type":"Feature","properties":{"highway":"path","name":null,"category":"Shared path"},"geometry":{"type":"MultiLineString","coordinates":[[[-2.1519259,53.3700287],[-2.1519975,53.3699796]]]}},
{"type":"Feature","properties":{"highway":"cycleway","name":null,"category":"Dedicated cycleway"},"geometry":{"type":"MultiLineString","coordinates":[[[-2.1527849,53.3698311],[-2.1527552,53.3697228],[-2.1527089,53.3696479]]]}},
{"type":"Feature","properties":{"highway":"cycleway","name":null,"category":"Dedicated cycleway"},"geometry":{"type":"MultiLineString","coordinates":[[[-2.1527849,53.3698311],[-2.1526742,53.3698305],[-2.1525833,53.3698152]]]}},
{"type":"Feature","properties":{"highway":"bridleway","name":null,"category":"Bridleway"},"geometry":{"type":"MultiLineString","coordinates":[[[-2.1530381,53.3698165],[-2.1529314,53.3698214]]]}},
{"type":"Feature","properties":{"highway":"path","name":null,"category":"Shared path"},"geometry":{"type":"MultiLineString","coordinates":[[[-2.1580181,53.3814383],[-2.1579586,53.3813416],[-2.1575554,53.3812152],[-2.1574622,53.3812156],[-2.1569728,53.38107]]]}},
{"type":"Feature","properties":{"highway":"path","name":null,"category":"Shared path"},"geometry":{"type":"MultiLineString","coordinates":[[[-2.1755069,53.3780779],[-2.1755379,53.3779754]]]}},
{"type":"Feature","properties":{"highway":"cycleway","name":null,"category":"Dedicated cycleway"},"geometry":{"type":"MultiLineString","coordinates":[[[-2.1704878,53.3746984],[-2.1705074,53.3746766],[-2.1705829,53.3744588],[-2.1704193,53.3741359],[-2.1703163,53.3739503],[-2.1701839,53.3737117],[-2.170084,53.3735072]]]}},
{"type":"Feature","properties":{"highway":"path","name":null,"category":"Shared path"},"geometry":{"type":"MultiLineString","coordinates":[[[-2.1602275,53.3742556],[-2.1603529,53.3742012],[-2.1604135,53.374185]]]}},
{"type":"Feature","properties":{"highway":"cycleway","name":null,"category":"Dedicated cycleway"},"geometry":{"type":"MultiLineString","coordinates":[[[-2.1558881,53.3733051],[-2.1557325,53.3732502],[-2.1556078,53.3731526],[-2.1554208,53.372969],[-2.1552533,53.3728063],[-2.1550858,53.372632],[-2.1550334,53.3724747],[-2.1549985,53.3723197],[-2.1549613,53.3722202],[-2.1549422,53.372151],[-2.1549245,53.3720352],[-2.1549061,53.3719107],[-2.1549078,53.3717637],[-2.1549373,53.3716133],[-2.1549396,53.371484],[-2.1549105,53.3713629],[-2.1548931,53.3712342],[-2.1548754,53.371148],[-2.1548968,53.3710665],[-2.1549473,53.3709456],[-2.1549758,53.3708395],[-2.1549569,53.3707276],[-2.1549084,53.3706378],[-2.1547703,53.3704961],[-2.1547157,53.3704659],[-2.1545911,53.3704427],[-2.1545405,53.3704357],[-2.1545054,53.3704078],[-2.1544898,53.3703427],[-2.1544509,53.3703079],[-2.1543457,53.370273],[-2.1542872,53.3702451],[-2.154186,53.3701661],[-2.1541042,53.3701359],[-2.1539561,53.3701196],[-2.1538237,53.370101],[-2.1537107,53.3700615],[-2.1535741,53.369991],[-2.1533851,53.3699038],[-2.1532191,53.3698465],[-2.1531094,53.3698231],[-2.1530381,53.3698165]]]}},
{"type":"Feature","properties":{"highway":"cycleway","name":null,"category":"Dedicated cycleway"},"geometry":{"type":"MultiLineString","coordinates":[[[-2.1599064,53.3741123],[-2.1599946,53.3740115],[-2.1600157,53.3739989],[-2.1600406,53.3739895],[-2.1600736,53.3739783],[-2.1601294,53.373963],[-2.1601653,53.3739527],[-2.1602389,53.3739328]]]}},
{"type":"Feature","properties":{"highway":"cycleway","name":null,"category":"Dedicated cycleway"},"geometry":{"type":"MultiLineString","coordinates":[[[-2.1589938,53.3737478],[-2.1590352,53.3737807],[-2.1590432,53.3737877],[-2.1590468,53.3737949],[-2.1590452,53.3738052],[-2.1590374,53.3738146],[-2.1590224,53.3738234],[-2.1589955,53.373836],[-2.1589382,53.3738564],[-2.1589038,53.3738735],[-2.1588844,53.3738857],[-2.1588711,53.3739172]]]}},
{"type":"Feature","properties":{"highway":"cycleway","name":null,"category":"Dedicated cycleway"},"geometry":{"type":"MultiLineString","coordinates":[[[-2.1597384,53.37332],[-2.1596855,53.3732963],[-2.1596127,53.3732539]]]}},
{"type":"Feature","properties":{"highway":"cycleway","name":null,"category":"Dedicated cycleway"},"geometry":{"type":"MultiLineString","coordinates":[[[-2.1589938,53.3737478],[-2.1589434,53.3737117],[-2.1589337,53.3736959],[-2.1589332,53.3736835],[-2.1589425,53.3736727],[-2.1590086,53.3736306],[-2.1590145,53.3736269],[-2.159095,53.3735708],[-2.159154,53.3734732],[-2.1593713,53.3733419],[-2.1596127,53.3732539],[-2.1597397,53.3731295]]]}},
{"type":"Feature","properties":{"highway":"cycleway","name":null,"category":"Dedicated cycleway"},"geometry":{"type":"MultiLineString","coordinates":[[[-2.1561283,53.3735856],[-2.1561372,53.3735432],[-2.1561313,53.3735097],[-2.1560882,53.3734649]]]}},
{"type":"Feature","properties":{"highway":"cycleway","name":null,"category":"Dedicated cycleway"},"geometry":{"type":"MultiLineString","coordinates":[[[-2.1562179,53.3734922],[-2.1562479,53.3734794],[-2.1562652,53.3734637],[-2.1563134,53.3733557],[-2.1563387,53.3732797]]]}},
{"type":"Feature","properties":{"highway":"cycleway","name":null,"category":"Dedicated cycleway"},"geometry":{"type":"MultiLineString","coordinates":[[[-2.1527089,53.3696479],[-2.1527451,53.3695297],[-2.1527775,53.3694388]]]}},
{"type":"Feature","properties":{"highway":"path","name":null,"category":"Shared path"},"geometry":{"type":"MultiLineString","coordinates":[[[-2.1749081,53.3769223],[-2.1748679,53.3771367],[-2.1747177,53.3772999],[-2.1746211,53.3774631],[-2.1748062,53.3775159],[-2.1751012,53.3776151],[-2.1751329,53.3777597]]]}},
{"type":"Feature","properties":{"highway":"path","name":null,"category":"Shared path"},"geometry":{"type":"MultiLineString","coordinates":[[[-2.1689253,53.3741246],[-2.1689215,53.3740737],[-2.1690146,53.3737703]]]}},
{"type":"Feature","properties":{"highway":"cycleway","name":null,"category":"Dedicated cycleway"},"geometry":{"type":"MultiLineString","coordinates":[[[-2.170084,53.3735072],[-2.1701243,53.3732623]]]}},
{"type":"Feature","properties":{"highway":"path","name":null,"category":"Shared path"},"geometry":{"type":"MultiLineString","coordinates":[[[-2.1696833,53.37348],[-2.1696878,53.3735838],[-2.1696509,53.3736246],[-2.1695756,53.3736887],[-2.1694618,53.3737435],[-2.1692764,53.3737406],[-2.1691058,53.3737526],[-2.1690146,53.3737703]]]}},
{"type":"Feature","properties":{"highway":"cycleway","name":null,"category":"Dedicated cycleway"},"geometry":{"type":"MultiLineString","coordinates":[[[-2.1599919,53.3729917],[-2.1600626,53.3730151],[-2.1600307,53.3731988],[-2.1600521,53.3733323],[-2.1600602,53.3734054],[-2.1600727,53.373466],[-2.1600965,53.373531],[-2.1601561,53.373598],[-2.1602154,53.3736614],[-2.1602289,53.3737573],[-2.1601917,53.3738027],[-2.1602389,53.3739328],[-2.1603318,53.3740918],[-2.1604135,53.374185],[-2.1605316,53.3743291]]]}},
{"type":"Feature","properties":{"highway":"path","name":null,"category":"Shared path"},"geometry":{"type":"MultiLineString","coordinates":[[[-2.158983,53.3736148],[-2.1590086,53.3736306]]]}},
{"type":"Feature","properties":{"highway":"cycleway","name":null,"category":"Dedicated cycleway"},"geometry":{"type":"MultiLineString","coordinates":[[[-2.1600521,53.3733323],[-2.1599498,53.373336],[-2.1598969,53.3733375]]]}},
{"type":"Feature","properties":{"highway":"cycleway","name":null,"category":"Dedicated cycleway"},"geometry":{"type":"MultiLineString","coordinates":[[[-2.1598969,53.3733375],[-2.1598499,53.3733379],[-2.1598161,53.3733364],[-2.1597756,53.3733309],[-2.1597384,53.37332]]]}},
{"type":"Feature","properties":{"highway":"cycleway","name":null,"category":"Dedicated cycleway"},"geometry":{"type":"MultiLineString","coordinates":[[[-2.1621902,53.3738734],[-2.16189,53.3738931],[-2.1613777,53.3737827],[-2.1610853,53.3738051],[-2.1608868,53.3737763],[-2.1602154,53.3736614]]]}},
{"type":"Feature","properties":{"highway":"path","name":null,"category":"Shared path"},"geometry":{"type":"MultiLineString","coordinates":[[[-2.1525833,53.3698152],[-2.1527089,53.3696479]]]}},
{"type":"Feature","properties":{"highway":"cycleway","name":null,"category":"Dedicated cycleway"},"geometry":{"type":"MultiLineString","coordinates":[[[-2.1527775,53.3694388],[-2.1529703,53.3690458],[-2.1529916,53.3690111],[-2.1530188,53.3689868],[-2.1530771,53.3689543],[-2.1531955,53.3689068],[-2.1532305,53.368886],[-2.1532693,53.3688408],[-2.153347,53.3687041],[-2.15338,53.3686612],[-2.1534518,53.3685917],[-2.1535629,53.3685044],[-2.1536421,53.3684422],[-2.1539102,53.3682408]]]}},
{"type":"Feature","properties":{"highway":"path","name":null,"category":"Shared path"},"geometry":{"type":"MultiLineString","coordinates":[[[-2.1722685,53.3780399],[-2.172324,53.3779876],[-2.1723843,53.3779524],[-2.17245,53.3779284]]]}},
{"type":"Feature","properties":{"highway":"path","name":null,"category":"Shared path"},"geometry":{"type":"MultiLineString","coordinates":[[[-2.1752919,53.3781366],[-2.175211,53.3781202],[-2.1751709,53.3781307],[-2.1751511,53.3781453],[-2.1751248,53.3781638],[-2.1750875,53.3781792],[-2.1750227,53.3781913],[-2.1749156,53.3782003]]]}},
{"type":"Feature","properties":{"highway":"path","name":null,"category":"Shared path"},"geometry":{"type":"MultiLineString","coordinates":[[[-2.1768468,53.3776687],[-2.1768317,53.3776909],[-2.1768193,53.3777341],[-2.1768228,53.37777],[-2.1768334,53.3778112],[-2.1768582,53.377845],[-2.1768972,53.3778819],[-2.1769644,53.377922],[-2.177136,53.3780044]]]}},
{"type":"Feature","properties":{"highway":"cycleway","name":"A6 - Bramhall Park Cycle Path","category":"Dedicated cycleway"},"geometry":{"type":"MultiLineString","coordinates":[[[-2.1469488,53.3724904],[-2.1472657,53.3725377],[-2.1486219,53.3726915]]]}},
{"type":"Feature","properties":{"highway":"cycleway","name":"A6 - Bramhall Park Cycle Path","category":"Dedicated cycleway"},"geometry":{"type":"MultiLineString","coordinates":[[[-2.1486219,53.3726915],[-2.1516908,53.3730978]]]}},
{"type":"Feature","properties":{"highway":"cycleway","name":"A6 - Bramhall Park Cycle Path","category":"Dedicated cycleway"},"geometry":{"type":"MultiLineString","coordinates":[[[-2.1516908,53.3730978],[-2.1523967,53.3731853],[-2.1527876,53.3732217],[-2.1536998,53.3733067],[-2.1538894,53.3733127],[-2.154079,53.3733474],[-2.1546481,53.3734099],[-2.1553689,53.3734721]]]}},
{"type":"Feature","properties":{"highway":"cycleway","name":"A6 - Bramhall Park Cycle Path","category":"Dedicated cycleway"},"geometry":{"type":"MultiLineString","coordinates":[[[-2.1564177,53.3734859],[-2.1564592,53.3734982],[-2.1565269,53.3735334],[-2.1566023,53.3735703],[-2.1567137,53.3735921],[-2.1574855,53.3736985],[-2.158443,53.3738137]]]}},
{"type":"Feature","properties":{"highway":"cycleway","name":"A6 - Bramhall Park Cycle Path","category":"Dedicated cycleway"},"geometry":{"type":"MultiLineString","coordinates":[[[-2.158443,53.3738137],[-2.158568,53.373804],[-2.1587482,53.3737711],[-2.1588446,53.3737442],[-2.1589332,53.3736835]]]}},
{"type":"Feature","properties":{"highway":"cycleway","name":"A6 - Bramhall Park Cycle Path","category":"Dedicated cycleway"},"geometry":{"type":"MultiLineString","coordinates":[[[-2.1553689,53.3734721],[-2.1557375,53.3734975]]]}},
{"type":"Feature","properties":{"highway":"cycleway","name":"A6 - Bramhall Park Cycle Path","category":"Dedicated cycleway"},"geometry":{"type":"MultiLineString","coordinates":[[[-2.1557375,53.3734975],[-2.1560524,53.3735232]]]}},
{"type":"Feature","properties":{"highway":"cycleway","name":null,"category":"Dedicated cycleway"},"geometry":{"type":"MultiLineString","coordinates":[[[-2.1558881,53.3733051],[-2.1560882,53.3734649]]]}},
{"type":"Feature","properties":{"highway":"cycleway","name":null,"category":"Dedicated cycleway"},"geometry":{"type":"MultiLineString","coordinates":[[[-2.1529314,53.3698214],[-2.1528581,53.3698288],[-2.1527849,53.3698311]]]}},
{"type":"Feature","properties":{"highway":"path","name":null,"category":"Shared path"},"geometry":{"type":"MultiLineString","coordinates":[[[-2.1763579,53.377748],[-2.1764758,53.377535],[-2.1764919,53.3772934],[-2.1767601,53.3769782],[-2.1769184,53.376791],[-2.176795,53.3764022],[-2.1765804,53.3760645],[-2.1766743,53.3759429],[-2.1769801,53.3757285],[-2.1773449,53.3754565],[-2.1773947,53.3754346]]]}},
{"type":"Feature","properties":{"highway":"cycleway","name":"A6 - Bramhall Park Cycle Path","category":"Dedicated cycleway"},"geometry":{"type":"MultiLineString","coordinates":[[[-2.1560524,53.3735232],[-2.1561313,53.3735097],[-2.1562179,53.3734922],[-2.1563065,53.3734812]]]}},
{"type":"Feature","properties":{"highway":"cycleway","name":"A6 - Bramhall Park Cycle Path","category":"Dedicated cycleway"},"geometry":{"type":"MultiLineString","coordinates":[[[-2.1563065,53.3734812],[-2.1563613,53.3734816],[-2.1564177,53.3734859]]]}},
{"type":"Feature","properties":{"highway":"cycleway","name":null,"category":"Dedicated cycleway"},"geometry":{"type":"MultiLineString","coordinates":[[[-2.1469338,53.3724882],[-2.1469113,53.3725314],[-2.1469376,53.3725852]]]}},
{"type":"Feature","properties":{"highway":"cycleway","name":"A6 - Bramhall Park Cycle Path","category":"Dedicated cycleway"},"geometry":{"type":"MultiLineString","coordinates":[[[-2.1454615,53.3722869],[-2.1467745,53.3724396],[-2.1469338,53.3724882],[-2.1469488,53.3724904]]]}}
]
}
