{
"type": "FeatureCollection",
"name": "462d9dd8ca21_visibility",
"crs": { "type": "name", "properties": { "name": "urn:ogc:def:crs:OGC:1.3:CRS84" } },
"features": [
{ "type": "Feature", "properties": { "visible_points": 5, "total_points": 53, "visibility_pct": 9.433962264150944 }, "geometry": { "type": "Point", "coordinates": [ -2.252324128532839, 53.458575088108113 ] } },
{ "type": "Feature", "properties": { "visible_points": 12, "total_points": 62, "visibility_pct": 19.35483870967742 }, "geometry": { "type": "Point", "coordinates": [ -2.252115441317757, 53.458575527511051 ] } },
{ "type": "Feature", "properties": { "visible_points": 21, "total_points": 71, "visibility_pct": 29.577464788732392 }, "geometry": { "type": "Point", "coordinates": [ -2.251906754097176, 53.458575966549482 ] } },
{ "type": "Feature", "properties": { "visible_points": 23, "total_points": 79, "visibility_pct": 29.11392405063291 }, "geometry": { "type": "Point", "coordinates": [ -2.251698066871102, 53.458576405223425 ] } },
{ "type": "Feature", "properties": { "visible_points": 24, "total_points": 82, "visibility_pct": 29.268292682926827 }, "geometry": { "type": "Point", "coordinates": [ -2.25148937966821, 53.458576843516909 ] } },
{ "type": "Feature", "properties": { "visible_points": 20, "total_points": 79, "visibility_pct": 25.316455696202532 }, "geometry": { "type": "Point", "coordinates": [ -2.251280692597886, 53.458577281259466 ] } },
{ "type": "Feature", "properties": { "visible_points": 17, "total_points": 71, "visibility_pct": 23.943661971830984 }, "geometry": { "type": "Point", "coordinates": [ -2.251072005616567, 53.458577718547225 ] } },
{ "type": "Feature", "properties": { "visible_points": 4, "total_points": 62, "visibility_pct": 6.4516129032258061 }, "geometry": { "type": "Point", "coordinates": [ -2.250863318629811, 53.458578155470413 ] } },
{ "type": "Feature", "properties": { "visible_points": 5, "total_points": 53, "visibility_pct": 9.433962264150944 }, "geometry": { "type": "Point", "coordinates": [ -2.250654631637602, 53.458578592029035 ] } },
{ "type": "Feature", "properties": { "visible_points": 0, "total_points": 60, "visibility_pct": 0.0 }, "geometry": { "type": "Point", "coordinates": [ -2.252220421140587, 53.458683169316458 ] } },
{ "type": "Feature", "properties": { "visible_points": 18, "total_points": 69, "visibility_pct": 26.086956521739129 }, "geometry": { "type": "Point", "coordinates": [ -2.252011733388589, 53.458683608536909 ] } },
{ "type": "Feature", "properties": { "visible_points": 22, "total_points": 78, "visibility_pct": 28.205128205128204 }, "geometry": { "type": "Point", "coordinates": [ -2.251803045631064, 53.45868404739285 ] } },
{ "type": "Feature", "properties": { "visible_points": 25, "total_points": 87, "visibility_pct": 28.735632183908045 }, "geometry": { "type": "Point", "coordinates": [ -2.251594357868015, 53.458684485884255 ] } },
{ "type": "Feature", "properties": { "visible_points": 23, "total_points": 87, "visibility_pct": 26.436781609195403 }, "geometry": { "type": "Point", "coordinates": [ -2.251385670196019, 53.45868492392021 ] } },
{ "type": "Feature", "properties": { "visible_points": 18, "total_points": 78, "visibility_pct": 23.076923076923077 }, "geometry": { "type": "Point", "coordinates": [ -2.251176982659166, 53.458685361397656 ] } },
{ "type": "Feature", "properties": { "visible_points": 17, "total_points": 69, "visibility_pct": 24.637681159420293 }, "geometry": { "type": "Point", "coordinates": [ -2.250968295147035, 53.458685798493349 ] } },
{ "type": "Feature", "properties": { "visible_points": 3, "total_points": 60, "visibility_pct": 5.0 }, "geometry": { "type": "Point", "coordinates": [ -2.250759607629478, 53.458686235224413 ] } },
{ "type": "Feature", "properties": { "visible_points": 7, "total_points": 56, "visibility_pct": 12.5 }, "geometry": { "type": "Point", "coordinates": [ -2.252325401351921, 53.458790810894321 ] } },
{ "type": "Feature", "properties": { "visible_points": 0, "total_points": 65, "visibility_pct": 0.0 }, "geometry": { "type": "Point", "coordinates": [ -2.252116713067274, 53.458791250295377 ] } },
{ "type": "Feature", "properties": { "visible_points": 3, "total_points": 74, "visibility_pct": 4.0540540540540544 }, "geometry": { "type": "Point", "coordinates": [ -2.251908024777102, 53.458791689331896 ] } },
{ "type": "Feature", "properties": { "visible_points": 20, "total_points": 83, "visibility_pct": 24.096385542168676 }, "geometry": { "type": "Point", "coordinates": [ -2.251699336481399, 53.458792128003935 ] } },
{ "type": "Feature", "properties": { "visible_points": 21, "total_points": 90, "visibility_pct": 23.333333333333332 }, "geometry": { "type": "Point", "coordinates": [ -2.251490648210078, 53.458792566294505 ] } },
{ "type": "Feature", "properties": { "visible_points": 19, "total_points": 83, "visibility_pct": 22.891566265060241 }, "geometry": { "type": "Point", "coordinates": [ -2.251281960079941, 53.458793004020748 ] } },
{ "type": "Feature", "properties": { "visible_points": 11, "total_points": 74, "visibility_pct": 14.864864864864865 }, "geometry": { "type": "Point", "coordinates": [ -2.251073272044863, 53.458793441283923 ] } },
{ "type": "Feature", "properties": { "visible_points": 14, "total_points": 65, "visibility_pct": 21.53846153846154 }, "geometry": { "type": "Point", "coordinates": [ -2.250864584004356, 53.458793878182483 ] } },
{ "type": "Feature", "properties": { "visible_points": 4, "total_points": 56, "visibility_pct": 7.1428571428571423 }, "geometry": { "type": "Point", "coordinates": [ -2.250655895958421, 53.458794314716407 ] } },
{ "type": "Feature", "properties": { "visible_points": 0, "total_points": 60, "visibility_pct": 0.0 }, "geometry": { "type": "Point", "coordinates": [ -2.252221693284141, 53.458898891962399 ] } },
{ "type": "Feature", "properties": { "visible_points": 0, "total_points": 69, "visibility_pct": 0.0 }, "geometry": { "type": "Point", "coordinates": [ -2.252013004461313, 53.458899331179552 ] } },
{ "type": "Feature", "properties": { "visible_points": 13, "total_points": 78, "visibility_pct": 16.666666666666664 }, "geometry": { "type": "Point", "coordinates": [ -2.251804315632961, 53.458899770032168 ] } },
{ "type": "Feature", "properties": { "visible_points": 18, "total_points": 87, "visibility_pct": 20.689655172413794 }, "geometry": { "type": "Point", "coordinates": [ -2.251595626799078, 53.458900208520269 ] } },
{ "type": "Feature", "properties": { "visible_points": 0, "total_points": 87, "visibility_pct": 0.0 }, "geometry": { "type": "Point", "coordinates": [ -2.251386938062248, 53.458900646546553 ] } },
{ "type": "Feature", "properties": { "visible_points": 14, "total_points": 78, "visibility_pct": 17.948717948717949 }, "geometry": { "type": "Point", "coordinates": [ -2.251178249471071, 53.458901083996302 ] } },
{ "type": "Feature", "properties": { "visible_points": 10, "total_points": 69, "visibility_pct": 14.492753623188406 }, "geometry": { "type": "Point", "coordinates": [ -2.250969560907607, 53.458901521062351 ] } },
{ "type": "Feature", "properties": { "visible_points": 3, "total_points": 60, "visibility_pct": 5.0 }, "geometry": { "type": "Point", "coordinates": [ -2.250760872338718, 53.458901957763764 ] } },
{ "type": "Feature", "properties": { "visible_points": 4, "total_points": 53, "visibility_pct": 7.5471698113207548 }, "geometry": { "type": "Point", "coordinates": [ -2.25232667403919, 53.459006533538052 ] } },
{ "type": "Feature", "properties": { "visible_points": 0, "total_points": 62, "visibility_pct": 0.0 }, "geometry": { "type": "Point", "coordinates": [ -2.252117984683708, 53.459006972935782 ] } },
{ "type": "Feature", "properties": { "visible_points": 6, "total_points": 71, "visibility_pct": 8.4507042253521121 }, "geometry": { "type": "Point", "coordinates": [ -2.251909295322694, 53.459007411969012 ] } },
{ "type": "Feature", "properties": { "visible_points": 16, "total_points": 79, "visibility_pct": 20.253164556962027 }, "geometry": { "type": "Point", "coordinates": [ -2.251700605956161, 53.459007850637711 ] } },
{ "type": "Feature", "properties": { "visible_points": 13, "total_points": 82, "visibility_pct": 15.853658536585366 }, "geometry": { "type": "Point", "coordinates": [ -2.25149191661527, 53.459008288924039 ] } },
{ "type": "Feature", "properties": { "visible_points": 3, "total_points": 79, "visibility_pct": 3.79746835443038 }, "geometry": { "type": "Point", "coordinates": [ -2.251283227425657, 53.459008726630508 ] } },
{ "type": "Feature", "properties": { "visible_points": 10, "total_points": 71, "visibility_pct": 14.084507042253522 }, "geometry": { "type": "Point", "coordinates": [ -2.251074538339239, 53.459009163864017 ] } },
{ "type": "Feature", "properties": { "visible_points": 3, "total_points": 62, "visibility_pct": 4.838709677419355 }, "geometry": { "type": "Point", "coordinates": [ -2.250865849247394, 53.459009600732941 ] } },
{ "type": "Feature", "properties": { "visible_points": 7, "total_points": 53, "visibility_pct": 13.20754716981132 }, "geometry": { "type": "Point", "coordinates": [ -2.250657160150124, 53.459010037237206 ] } },
{ "type": "Feature", "properties": { "visible_points": 0, "total_points": 51, "visibility_pct": 0.0 }, "geometry": { "type": "Point", "coordinates": [ -2.252222965444289, 53.459114614600608 ] } },
{ "type": "Feature", "properties": { "visible_points": 0, "total_points": 59, "visibility_pct": 0.0 }, "geometry": { "type": "Point", "coordinates": [ -2.252014275550616, 53.459115053814457 ] } },
{ "type": "Feature", "properties": { "visible_points": 5, "total_points": 66, "visibility_pct": 7.5757575757575761 }, "geometry": { "type": "Point", "coordinates": [ -2.251805585651418, 53.459115492663749 ] } },
{ "type": "Feature", "properties": { "visible_points": 0, "total_points": 71, "visibility_pct": 0.0 }, "geometry": { "type": "Point", "coordinates": [ -2.251596895746698, 53.459115931148538 ] } }
]
}
