{
"type": "FeatureCollection",
"name": "8992bfece03e_foliage",
"crs": { "type": "name", "properties": { "name": "urn:ogc:def:crs:OGC:1.3:CRS84" } },
"features": [
{ "type": "Feature", "properties": { "max_height": 1.9527511596679688, "mean_height": 0.21271958947181702, "std_height": 0.42651474475860596, "count_pixels": 43, "percent_cover": 1.3337468982630272, "percent_above_0.1m": 30.232558139534881, "low_level_<0.5": 9.3023255813953494, "mid_level_0.5-2": 16.279069767441861, "tall_2+": 0.0 }, "geometry": { "type": "Point", "coordinates": [ -2.230279457374742, 53.514611773733797 ] } },
{ "type": "Feature", "properties": { "max_height": 2.89849853515625, "mean_height": 0.34911611676216125, "std_height": 0.73478782176971436, "count_pixels": 43, "percent_cover": 1.3337468982630272, "percent_above_0.1m": 27.906976744186046, "low_level_<0.5": 9.3023255813953494, "mid_level_0.5-2": 13.953488372093023, "tall_2+": 4.6511627906976747 }, "geometry": { "type": "Point", "coordinates": [ -2.230070501299198, 53.514612176379728 ] } },
{ "type": "Feature", "properties": { "max_height": 4.376495361328125, "mean_height": 0.55269318819046021, "std_height": 1.1961098909378052, "count_pixels": 43, "percent_cover": 1.3337468982630272, "percent_above_0.1m": 27.906976744186046, "low_level_<0.5": 2.3255813953488373, "mid_level_0.5-2": 11.627906976744185, "tall_2+": 9.3023255813953494 }, "geometry": { "type": "Point", "coordinates": [ -2.229861545218524, 53.514612578660419 ] } },
{ "type": "Feature", "properties": { "max_height": 7.3977508544921875, "mean_height": 0.49883803725242615, "std_height": 1.2274800539016724, "count_pixels": 43, "percent_cover": 1.3337468982630272, "percent_above_0.1m": 34.883720930232556, "low_level_<0.5": 9.3023255813953494, "mid_level_0.5-2": 18.604651162790699, "tall_2+": 4.6511627906976747 }, "geometry": { "type": "Point", "coordinates": [ -2.229652589132717, 53.514612980575855 ] } },
{ "type": "Feature", "properties": { "max_height": 9.0817413330078125, "mean_height": 1.8327189683914185, "std_height": 2.7561659812927246, "count_pixels": 41, "percent_cover": 1.2717121588089331, "percent_above_0.1m": 46.341463414634148, "low_level_<0.5": 4.8780487804878048, "mid_level_0.5-2": 9.7560975609756095, "tall_2+": 31.707317073170731 }, "geometry": { "type": "Point", "coordinates": [ -2.230384522517959, 53.514719432792525 ] } },
{ "type": "Feature", "properties": { "max_height": 14.34625244140625, "mean_height": 3.4490630626678467, "std_height": 4.2051200866699219, "count_pixels": 36, "percent_cover": 1.1166253101736971, "percent_above_0.1m": 61.111111111111114, "low_level_<0.5": 0.0, "mid_level_0.5-2": 19.444444444444446, "tall_2+": 41.666666666666671 }, "geometry": { "type": "Point", "coordinates": [ -2.230175565900152, 53.514719835620816 ] } },
{ "type": "Feature", "properties": { "max_height": 13.951248168945312, "mean_height": 1.9515857696533203, "std_height": 3.381901741027832, "count_pixels": 41, "percent_cover": 1.2717121588089331, "percent_above_0.1m": 39.024390243902438, "low_level_<0.5": 2.4390243902439024, "mid_level_0.5-2": 4.8780487804878048, "tall_2+": 31.707317073170731 }, "geometry": { "type": "Point", "coordinates": [ -2.229966609277213, 53.514720238083846 ] } },
{ "type": "Feature", "properties": { "max_height": 12.991752624511719, "mean_height": 4.5828781127929688, "std_height": 3.8544967174530029, "count_pixels": 41, "percent_cover": 1.2717121588089331, "percent_above_0.1m": 90.243902439024396, "low_level_<0.5": 9.7560975609756095, "mid_level_0.5-2": 14.634146341463413, "tall_2+": 65.853658536585371 }, "geometry": { "type": "Point", "coordinates": [ -2.229757652649142, 53.514720640181636 ] } },
{ "type": "Feature", "properties": { "max_height": 13.650245666503906, "mean_height": 2.3686161041259766, "std_height": 3.72066330909729, "count_pixels": 41, "percent_cover": 1.2717121588089331, "percent_above_0.1m": 48.780487804878049, "low_level_<0.5": 4.8780487804878048, "mid_level_0.5-2": 9.7560975609756095, "tall_2+": 34.146341463414636 }, "geometry": { "type": "Point", "coordinates": [ -2.229548696015948, 53.514721041914164 ] } },
{ "type": "Feature", "properties": { "max_height": 4.4760055541992188, "mean_height": 0.7163124680519104, "std_height": 1.3450597524642944, "count_pixels": 43, "percent_cover": 1.3337468982630272, "percent_above_0.1m": 37.209302325581397, "low_level_<0.5": 11.627906976744185, "mid_level_0.5-2": 9.3023255813953494, "tall_2+": 16.279069767441861 }, "geometry": { "type": "Point", "coordinates": [ -2.23048958820856, 53.514827091758264 ] } },
{ "type": "Feature", "properties": { "max_height": 15.624496459960938, "mean_height": 6.8154597282409668, "std_height": 4.4582910537719727, "count_pixels": 43, "percent_cover": 1.3337468982630272, "percent_above_0.1m": 97.674418604651152, "low_level_<0.5": 0.0, "mid_level_0.5-2": 9.3023255813953494, "tall_2+": 88.372093023255815 }, "geometry": { "type": "Point", "coordinates": [ -2.230280631048492, 53.514827494768895 ] } },
{ "type": "Feature", "properties": { "max_height": 16.298500061035156, "mean_height": 6.9811229705810547, "std_height": 3.4394559860229492, "count_pixels": 43, "percent_cover": 1.3337468982630272, "percent_above_0.1m": 97.674418604651152, "low_level_<0.5": 0.0, "mid_level_0.5-2": 4.6511627906976747, "tall_2+": 93.023255813953483 }, "geometry": { "type": "Point", "coordinates": [ -2.230071673883288, 53.514827897414285 ] } },
{ "type": "Feature", "properties": { "max_height": 16.240249633789062, "mean_height": 6.9754366874694824, "std_height": 4.2408332824707031, "count_pixels": 43, "percent_cover": 1.3337468982630272, "percent_above_0.1m": 93.023255813953483, "low_level_<0.5": 0.0, "mid_level_0.5-2": 6.9767441860465116, "tall_2+": 86.04651162790698 }, "geometry": { "type": "Point", "coordinates": [ -2.229862716712949, 53.514828299694422 ] } },
{ "type": "Feature", "properties": { "max_height": 15.526748657226562, "mean_height": 6.4882040023803711, "std_height": 4.0143294334411621, "count_pixels": 43, "percent_cover": 1.3337468982630272, "percent_above_0.1m": 97.674418604651152, "low_level_<0.5": 0.0, "mid_level_0.5-2": 11.627906976744185, "tall_2+": 83.720930232558146 }, "geometry": { "type": "Point", "coordinates": [ -2.229653759537478, 53.514828701609297 ] } },
{ "type": "Feature", "properties": { "max_height": 13.025993347167969, "mean_height": 2.5604043006896973, "std_height": 3.2757234573364258, "count_pixels": 42, "percent_cover": 1.3027295285359801, "percent_above_0.1m": 66.666666666666657, "low_level_<0.5": 0.0, "mid_level_0.5-2": 26.190476190476193, "tall_2+": 40.476190476190474 }, "geometry": { "type": "Point", "coordinates": [ -2.229444802356883, 53.51482910315891 ] } },
{ "type": "Feature", "properties": { "max_height": 16.178749084472656, "mean_height": 5.5944533348083496, "std_height": 4.4318904876708984, "count_pixels": 41, "percent_cover": 1.2717121588089331, "percent_above_0.1m": 78.048780487804876, "low_level_<0.5": 4.8780487804878048, "mid_level_0.5-2": 2.4390243902439024, "tall_2+": 70.731707317073173 }, "geometry": { "type": "Point", "coordinates": [ -2.230385696744224, 53.51493515382402 ] } },
{ "type": "Feature", "properties": { "max_height": 16.659004211425781, "mean_height": 10.16193675994873, "std_height": 4.1847691535949707, "count_pixels": 36, "percent_cover": 1.1166253101736971, "percent_above_0.1m": 100.0, "low_level_<0.5": 2.7777777777777777, "mid_level_0.5-2": 0.0, "tall_2+": 97.222222222222214 }, "geometry": { "type": "Point", "coordinates": [ -2.230176739036749, 53.514935556651743 ] } },
{ "type": "Feature", "properties": { "max_height": 9.777008056640625, "mean_height": 0.58709198236465454, "std_height": 2.0821754932403564, "count_pixels": 41, "percent_cover": 1.2717121588089331, "percent_above_0.1m": 9.7560975609756095, "low_level_<0.5": 0.0, "mid_level_0.5-2": 2.4390243902439024, "tall_2+": 7.3170731707317067 }, "geometry": { "type": "Point", "coordinates": [ -2.229967781324141, 53.514935959114247 ] } },
{ "type": "Feature", "properties": { "max_height": 15.363502502441406, "mean_height": 2.5105605125427246, "std_height": 4.2365241050720215, "count_pixels": 41, "percent_cover": 1.2717121588089331, "percent_above_0.1m": 39.024390243902438, "low_level_<0.5": 2.4390243902439024, "mid_level_0.5-2": 7.3170731707317067, "tall_2+": 29.268292682926827 }, "geometry": { "type": "Point", "coordinates": [ -2.229758823606396, 53.514936361211454 ] } },
{ "type": "Feature", "properties": { "max_height": 19.917999267578125, "mean_height": 11.462871551513672, "std_height": 5.1714224815368652, "count_pixels": 43, "percent_cover": 1.3337468982630272, "percent_above_0.1m": 100.0, "low_level_<0.5": 0.0, "mid_level_0.5-2": 2.3255813953488373, "tall_2+": 97.674418604651152 }, "geometry": { "type": "Point", "coordinates": [ -2.230281804737604, 53.515043215796226 ] } },
{ "type": "Feature", "properties": { "max_height": 15.767005920410156, "mean_height": 8.5123720169067383, "std_height": 4.8263034820556641, "count_pixels": 43, "percent_cover": 1.3337468982630272, "percent_above_0.1m": 88.372093023255815, "low_level_<0.5": 0.0, "mid_level_0.5-2": 2.3255813953488373, "tall_2+": 83.720930232558146 }, "geometry": { "type": "Point", "coordinates": [ -2.230072846482722, 53.515043618441055 ] } },
{ "type": "Feature", "properties": { "max_height": 2.9264984130859375, "mean_height": 0.2173256129026413, "std_height": 0.52248412370681763, "count_pixels": 43, "percent_cover": 1.3337468982630272, "percent_above_0.1m": 25.581395348837212, "low_level_<0.5": 11.627906976744185, "mid_level_0.5-2": 11.627906976744185, "tall_2+": 2.3255813953488373 }, "geometry": { "type": "Point", "coordinates": [ -2.229863888222702, 53.515044020720623 ] } },
{ "type": "Feature", "properties": { "max_height": 19.135246276855469, "mean_height": 2.4729018211364746, "std_height": 4.9931135177612305, "count_pixels": 41, "percent_cover": 1.2717121588089331, "percent_above_0.1m": 43.902439024390247, "low_level_<0.5": 7.3170731707317067, "mid_level_0.5-2": 14.634146341463413, "tall_2+": 21.951219512195124 }, "geometry": { "type": "Point", "coordinates": [ -2.230386870985857, 53.515150874847727 ] } },
{ "type": "Feature", "properties": { "max_height": 22.989006042480469, "mean_height": 11.851299285888672, "std_height": 6.0893898010253906, "count_pixels": 36, "percent_cover": 1.1166253101736971, "percent_above_0.1m": 94.444444444444443, "low_level_<0.5": 0.0, "mid_level_0.5-2": 2.7777777777777777, "tall_2+": 91.666666666666657 }, "geometry": { "type": "Point", "coordinates": [ -2.230177912188698, 53.51515127767491 ] } },
{ "type": "Feature", "properties": { "max_height": 10.963249206542969, "mean_height": 1.4263417720794678, "std_height": 2.5536196231842041, "count_pixels": 41, "percent_cover": 1.2717121588089331, "percent_above_0.1m": 41.463414634146339, "low_level_<0.5": 7.3170731707317067, "mid_level_0.5-2": 9.7560975609756095, "tall_2+": 21.951219512195124 }, "geometry": { "type": "Point", "coordinates": [ -2.229968953386404, 53.515151680136825 ] } },
{ "type": "Feature", "properties": { "max_height": 0.71375274658203125, "mean_height": 0.062774300575256348, "std_height": 0.14301575720310211, "count_pixels": 43, "percent_cover": 1.3337468982630272, "percent_above_0.1m": 13.953488372093023, "low_level_<0.5": 9.3023255813953494, "mid_level_0.5-2": 2.3255813953488373, "tall_2+": 0.0 }, "geometry": { "type": "Point", "coordinates": [ -2.230282978442074, 53.515258936815776 ] } },
{ "type": "Feature", "properties": { "max_height": 19.246498107910156, "mean_height": 6.8463091850280762, "std_height": 5.1155462265014648, "count_pixels": 43, "percent_cover": 1.3337468982630272, "percent_above_0.1m": 90.697674418604649, "low_level_<0.5": 2.3255813953488373, "mid_level_0.5-2": 11.627906976744185, "tall_2+": 76.744186046511629 }, "geometry": { "type": "Point", "coordinates": [ -2.2300740190975, 53.515259339460059 ] } },
{ "type": "Feature", "properties": { "max_height": 1.6097488403320312, "mean_height": 0.1807691752910614, "std_height": 0.37585276365280151, "count_pixels": 36, "percent_cover": 1.1166253101736971, "percent_above_0.1m": 25.0, "low_level_<0.5": 13.888888888888889, "mid_level_0.5-2": 11.111111111111111, "tall_2+": 0.0 }, "geometry": { "type": "Point", "coordinates": [ -2.230179085355999, 53.51536699869029 ] } }
]
}
