{
"type": "FeatureCollection",
"name": "7b162b1cf6cd_foliage",
"crs": { "type": "name", "properties": { "name": "urn:ogc:def:crs:OGC:1.3:CRS84" } },
"features": [
{ "type": "Feature", "properties": { "max_height": 7.6852493286132812, "mean_height": 1.0827070474624634, "std_height": 1.7994731664657593, "count_pixels": 41, "percent_cover": 0.90109890109890101, "percent_above_0.1m": 56.09756097560976, "low_level_<0.5": 12.195121951219512, "mid_level_0.5-2": 17.073170731707318, "tall_2+": 21.951219512195124 }, "geometry": { "type": "Point", "coordinates": [ -2.270301486772108, 53.531462646854827 ] } },
{ "type": "Feature", "properties": { "max_height": 12.456253051757812, "mean_height": 3.780372142791748, "std_height": 4.0833344459533691, "count_pixels": 41, "percent_cover": 0.90109890109890101, "percent_above_0.1m": 63.414634146341463, "low_level_<0.5": 0.0, "mid_level_0.5-2": 17.073170731707318, "tall_2+": 46.341463414634148 }, "geometry": { "type": "Point", "coordinates": [ -2.270092442617277, 53.531463115463445 ] } },
{ "type": "Feature", "properties": { "max_height": 9.7914962768554688, "mean_height": 2.5969715118408203, "std_height": 3.4087226390838623, "count_pixels": 43, "percent_cover": 0.94505494505494514, "percent_above_0.1m": 62.790697674418603, "low_level_<0.5": 9.3023255813953494, "mid_level_0.5-2": 11.627906976744185, "tall_2+": 34.883720930232556 }, "geometry": { "type": "Point", "coordinates": [ -2.270406696807673, 53.531570271445233 ] } },
{ "type": "Feature", "properties": { "max_height": 5.6785049438476562, "mean_height": 0.39359939098358154, "std_height": 1.2864698171615601, "count_pixels": 43, "percent_cover": 0.94505494505494514, "percent_above_0.1m": 16.279069767441861, "low_level_<0.5": 4.6511627906976747, "mid_level_0.5-2": 2.3255813953488373, "tall_2+": 6.9767441860465116 }, "geometry": { "type": "Point", "coordinates": [ -2.270197652161734, 53.531570740258118 ] } },
{ "type": "Feature", "properties": { "max_height": 12.532997131347656, "mean_height": 2.1482036113739014, "std_height": 3.6331658363342285, "count_pixels": 43, "percent_cover": 0.94505494505494514, "percent_above_0.1m": 32.558139534883722, "low_level_<0.5": 0.0, "mid_level_0.5-2": 4.6511627906976747, "tall_2+": 27.906976744186046 }, "geometry": { "type": "Point", "coordinates": [ -2.269988607510209, 53.531571208705728 ] } },
{ "type": "Feature", "properties": { "max_height": 16.627243041992188, "mean_height": 5.009552001953125, "std_height": 5.3538651466369629, "count_pixels": 43, "percent_cover": 0.94505494505494514, "percent_above_0.1m": 76.744186046511629, "low_level_<0.5": 2.3255813953488373, "mid_level_0.5-2": 20.930232558139537, "tall_2+": 51.162790697674424 }, "geometry": { "type": "Point", "coordinates": [ -2.269779562853109, 53.531571676788062 ] } },
{ "type": "Feature", "properties": { "max_height": 13.663253784179688, "mean_height": 7.7713475227355957, "std_height": 3.6610302925109863, "count_pixels": 41, "percent_cover": 0.90109890109890101, "percent_above_0.1m": 97.560975609756099, "low_level_<0.5": 0.0, "mid_level_0.5-2": 9.7560975609756095, "tall_2+": 87.804878048780495 }, "geometry": { "type": "Point", "coordinates": [ -2.27051190733992, 53.531677895920581 ] } },
{ "type": "Feature", "properties": { "max_height": 0.2194976806640625, "mean_height": 0.021237628534436226, "std_height": 0.050631385296583176, "count_pixels": 41, "percent_cover": 0.90109890109890101, "percent_above_0.1m": 4.8780487804878048, "low_level_<0.5": 4.8780487804878048, "mid_level_0.5-2": 0.0, "tall_2+": 0.0 }, "geometry": { "type": "Point", "coordinates": [ -2.27030286220287, 53.531678364937754 ] } },
{ "type": "Feature", "properties": { "max_height": 0.02175140380859375, "mean_height": 0.00051842664834111929, "std_height": 0.0033721765503287315, "count_pixels": 41, "percent_cover": 0.90109890109890101, "percent_above_0.1m": 0.0, "low_level_<0.5": 0.0, "mid_level_0.5-2": 0.0, "tall_2+": 0.0 }, "geometry": { "type": "Point", "coordinates": [ -2.270093817060236, 53.531678833589631 ] } },
{ "type": "Feature", "properties": { "max_height": 3.1307525634765625, "mean_height": 0.70986771583557129, "std_height": 1.0170646905899048, "count_pixels": 36, "percent_cover": 0.79120879120879117, "percent_above_0.1m": 38.888888888888893, "low_level_<0.5": 0.0, "mid_level_0.5-2": 25.0, "tall_2+": 13.888888888888889 }, "geometry": { "type": "Point", "coordinates": [ -2.269884771912015, 53.531679301876252 ] } },
{ "type": "Feature", "properties": { "max_height": 12.522003173828125, "mean_height": 2.4774572849273682, "std_height": 3.644402027130127, "count_pixels": 41, "percent_cover": 0.90109890109890101, "percent_above_0.1m": 53.658536585365859, "low_level_<0.5": 7.3170731707317067, "mid_level_0.5-2": 9.7560975609756095, "tall_2+": 36.585365853658537 }, "geometry": { "type": "Point", "coordinates": [ -2.269675726758221, 53.53167976979757 ] } },
{ "type": "Feature", "properties": { "max_height": 14.511001586914062, "mean_height": 5.4149456024169922, "std_height": 4.6405229568481445, "count_pixels": 41, "percent_cover": 0.90109890109890101, "percent_above_0.1m": 78.048780487804876, "low_level_<0.5": 0.0, "mid_level_0.5-2": 14.634146341463413, "tall_2+": 63.414634146341463 }, "geometry": { "type": "Point", "coordinates": [ -2.269466681598843, 53.531680237353598 ] } },
{ "type": "Feature", "properties": { "max_height": 12.927001953125, "mean_height": 1.5479822158813477, "std_height": 3.1368091106414795, "count_pixels": 41, "percent_cover": 0.90109890109890101, "percent_above_0.1m": 39.024390243902438, "low_level_<0.5": 7.3170731707317067, "mid_level_0.5-2": 9.7560975609756095, "tall_2+": 21.951219512195124 }, "geometry": { "type": "Point", "coordinates": [ -2.270617118368863, 53.531785520280877 ] } },
{ "type": "Feature", "properties": { "max_height": 12.938751220703125, "mean_height": 1.7814419269561768, "std_height": 3.622532844543457, "count_pixels": 43, "percent_cover": 0.94505494505494514, "percent_above_0.1m": 27.906976744186046, "low_level_<0.5": 0.0, "mid_level_0.5-2": 4.6511627906976747, "tall_2+": 20.930232558139537 }, "geometry": { "type": "Point", "coordinates": [ -2.270408072740694, 53.531785989502332 ] } },
{ "type": "Feature", "properties": { "max_height": 0.43499755859375, "mean_height": 0.010662345215678215, "std_height": 0.065507441759109497, "count_pixels": 43, "percent_cover": 0.94505494505494514, "percent_above_0.1m": 2.3255813953488373, "low_level_<0.5": 2.3255813953488373, "mid_level_0.5-2": 0.0, "tall_2+": 0.0 }, "geometry": { "type": "Point", "coordinates": [ -2.270199027106949, 53.531786458358525 ] } },
{ "type": "Feature", "properties": { "max_height": 3.1127548217773438, "mean_height": 0.81807494163513184, "std_height": 1.0911881923675537, "count_pixels": 43, "percent_cover": 0.94505494505494514, "percent_above_0.1m": 51.162790697674424, "low_level_<0.5": 13.953488372093023, "mid_level_0.5-2": 11.627906976744185, "tall_2+": 25.581395348837212 }, "geometry": { "type": "Point", "coordinates": [ -2.26998998146761, 53.531786926849414 ] } },
{ "type": "Feature", "properties": { "max_height": 0.02649688720703125, "mean_height": 0.00059899617917835712, "std_height": 0.0040386011824011803, "count_pixels": 43, "percent_cover": 0.94505494505494514, "percent_above_0.1m": 0.0, "low_level_<0.5": 0.0, "mid_level_0.5-2": 0.0, "tall_2+": 0.0 }, "geometry": { "type": "Point", "coordinates": [ -2.269780935822693, 53.531787394974998 ] } },
{ "type": "Feature", "properties": { "max_height": 10.863502502441406, "mean_height": 1.432762622833252, "std_height": 3.2416443824768066, "count_pixels": 43, "percent_cover": 0.94505494505494514, "percent_above_0.1m": 18.604651162790699, "low_level_<0.5": 0.0, "mid_level_0.5-2": 0.0, "tall_2+": 18.604651162790699 }, "geometry": { "type": "Point", "coordinates": [ -2.2695718901722, 53.531787862735314 ] } },
{ "type": "Feature", "properties": { "max_height": 13.63775634765625, "mean_height": 5.0621752738952637, "std_height": 4.2271389961242676, "count_pixels": 43, "percent_cover": 0.94505494505494514, "percent_above_0.1m": 72.093023255813947, "low_level_<0.5": 2.3255813953488373, "mid_level_0.5-2": 2.3255813953488373, "tall_2+": 67.441860465116278 }, "geometry": { "type": "Point", "coordinates": [ -2.26936284451613, 53.531788330130333 ] } },
{ "type": "Feature", "properties": { "max_height": 12.9842529296875, "mean_height": 4.4811158180236816, "std_height": 3.906141996383667, "count_pixels": 41, "percent_cover": 0.90109890109890101, "percent_above_0.1m": 85.365853658536579, "low_level_<0.5": 2.4390243902439024, "mid_level_0.5-2": 17.073170731707318, "tall_2+": 63.414634146341463 }, "geometry": { "type": "Point", "coordinates": [ -2.269153798854496, 53.531788797160068 ] } },
{ "type": "Feature", "properties": { "max_height": 13.280998229980469, "mean_height": 3.0056221485137939, "std_height": 4.3028550148010254, "count_pixels": 41, "percent_cover": 0.90109890109890101, "percent_above_0.1m": 65.853658536585371, "low_level_<0.5": 17.073170731707318, "mid_level_0.5-2": 7.3170731707317067, "tall_2+": 36.585365853658537 }, "geometry": { "type": "Point", "coordinates": [ -2.270513283775218, 53.531893613951873 ] } },
{ "type": "Feature", "properties": { "max_height": 6.6022567749023438, "mean_height": 0.47095769643783569, "std_height": 1.3591247797012329, "count_pixels": 41, "percent_cover": 0.90109890109890101, "percent_above_0.1m": 26.829268292682929, "low_level_<0.5": 17.073170731707318, "mid_level_0.5-2": 2.4390243902439024, "tall_2+": 7.3170731707317067 }, "geometry": { "type": "Point", "coordinates": [ -2.270304237650354, 53.531894083012332 ] } },
{ "type": "Feature", "properties": { "max_height": 6.666748046875, "mean_height": 0.83881044387817383, "std_height": 1.3390085697174072, "count_pixels": 41, "percent_cover": 0.90109890109890101, "percent_above_0.1m": 46.341463414634148, "low_level_<0.5": 7.3170731707317067, "mid_level_0.5-2": 21.951219512195124, "tall_2+": 17.073170731707318 }, "geometry": { "type": "Point", "coordinates": [ -2.270095191519895, 53.531894551707502 ] } },
{ "type": "Feature", "properties": { "max_height": 0.001495361328125, "mean_height": 7.6082018495071679e-05, "std_height": 0.00034252821933478117, "count_pixels": 36, "percent_cover": 0.79120879120879117, "percent_above_0.1m": 0.0, "low_level_<0.5": 0.0, "mid_level_0.5-2": 0.0, "tall_2+": 0.0 }, "geometry": { "type": "Point", "coordinates": [ -2.269886145383852, 53.531895020037375 ] } },
{ "type": "Feature", "properties": { "max_height": 0.0005035400390625, "mean_height": 2.4562928956584074e-05, "std_height": 0.00032085744896903634, "count_pixels": 41, "percent_cover": 0.90109890109890101, "percent_above_0.1m": 0.0, "low_level_<0.5": 0.0, "mid_level_0.5-2": 0.0, "tall_2+": 0.0 }, "geometry": { "type": "Point", "coordinates": [ -2.269677099242238, 53.531895488001972 ] } },
{ "type": "Feature", "properties": { "max_height": 0.00174713134765625, "mean_height": -8.6528496467508376e-05, "std_height": 0.00073519739089533687, "count_pixels": 41, "percent_cover": 0.90109890109890101, "percent_above_0.1m": 0.0, "low_level_<0.5": 0.0, "mid_level_0.5-2": 0.0, "tall_2+": 0.0 }, "geometry": { "type": "Point", "coordinates": [ -2.269468053095039, 53.53189595560125 ] } },
{ "type": "Feature", "properties": { "max_height": 11.923500061035156, "mean_height": 3.1056218147277832, "std_height": 3.4497342109680176, "count_pixels": 41, "percent_cover": 0.90109890109890101, "percent_above_0.1m": 68.292682926829272, "low_level_<0.5": 2.4390243902439024, "mid_level_0.5-2": 19.512195121951219, "tall_2+": 46.341463414634148 }, "geometry": { "type": "Point", "coordinates": [ -2.269259006942275, 53.531896422835274 ] } },
{ "type": "Feature", "properties": { "max_height": 13.780754089355469, "mean_height": 5.1002154350280762, "std_height": 4.6286725997924805, "count_pixels": 43, "percent_cover": 0.94505494505494514, "percent_above_0.1m": 90.697674418604649, "low_level_<0.5": 2.3255813953488373, "mid_level_0.5-2": 32.558139534883722, "tall_2+": 55.813953488372093 }, "geometry": { "type": "Point", "coordinates": [ -2.270200402068872, 53.532002176450561 ] } },
{ "type": "Feature", "properties": { "max_height": 2.02349853515625, "mean_height": 0.13490100204944611, "std_height": 0.37451538443565369, "count_pixels": 43, "percent_cover": 0.94505494505494514, "percent_above_0.1m": 20.930232558139537, "low_level_<0.5": 11.627906976744185, "mid_level_0.5-2": 4.6511627906976747, "tall_2+": 2.3255813953488373 }, "geometry": { "type": "Point", "coordinates": [ -2.269991355441706, 53.532002644984722 ] } },
{ "type": "Feature", "properties": { "max_height": 0.00225067138671875, "mean_height": 3.5840410419041291e-05, "std_height": 0.00044653532677330077, "count_pixels": 43, "percent_cover": 0.94505494505494514, "percent_above_0.1m": 0.0, "low_level_<0.5": 0.0, "mid_level_0.5-2": 0.0, "tall_2+": 0.0 }, "geometry": { "type": "Point", "coordinates": [ -2.269782308808963, 53.532003113153579 ] } },
{ "type": "Feature", "properties": { "max_height": 0.18724822998046875, "mean_height": 0.0061107901856303215, "std_height": 0.030297067016363144, "count_pixels": 43, "percent_cover": 0.94505494505494514, "percent_above_0.1m": 2.3255813953488373, "low_level_<0.5": 2.3255813953488373, "mid_level_0.5-2": 0.0, "tall_2+": 0.0 }, "geometry": { "type": "Point", "coordinates": [ -2.269573262170638, 53.532003580957145 ] } },
{ "type": "Feature", "properties": { "max_height": 9.4482498168945312, "mean_height": 0.97215729951858521, "std_height": 1.905996561050415, "count_pixels": 43, "percent_cover": 0.94505494505494514, "percent_above_0.1m": 41.860465116279073, "low_level_<0.5": 11.627906976744185, "mid_level_0.5-2": 13.953488372093023, "tall_2+": 16.279069767441861 }, "geometry": { "type": "Point", "coordinates": [ -2.269364215526745, 53.532004048395443 ] } },
{ "type": "Feature", "properties": { "max_height": 9.32525634765625, "mean_height": 1.3190305233001709, "std_height": 2.0417919158935547, "count_pixels": 41, "percent_cover": 0.90109890109890101, "percent_above_0.1m": 82.926829268292678, "low_level_<0.5": 24.390243902439025, "mid_level_0.5-2": 31.707317073170731, "tall_2+": 19.512195121951219 }, "geometry": { "type": "Point", "coordinates": [ -2.270096565996254, 53.532110269817011 ] } },
{ "type": "Feature", "properties": { "max_height": 13.350753784179688, "mean_height": 3.4791598320007324, "std_height": 4.2153592109680176, "count_pixels": 36, "percent_cover": 0.79120879120879117, "percent_above_0.1m": 61.111111111111114, "low_level_<0.5": 2.7777777777777777, "mid_level_0.5-2": 13.888888888888889, "tall_2+": 44.444444444444443 }, "geometry": { "type": "Point", "coordinates": [ -2.269887518872385, 53.532110738190156 ] } },
{ "type": "Feature", "properties": { "max_height": 3.3382492065429688, "mean_height": 0.80811047554016113, "std_height": 1.1241737604141235, "count_pixels": 41, "percent_cover": 0.90109890109890101, "percent_above_0.1m": 41.463414634146339, "low_level_<0.5": 0.0, "mid_level_0.5-2": 17.073170731707318, "tall_2+": 24.390243902439025 }, "geometry": { "type": "Point", "coordinates": [ -2.269678471742928, 53.532111206197996 ] } },
{ "type": "Feature", "properties": { "max_height": 10.957252502441406, "mean_height": 2.295823335647583, "std_height": 2.8955512046813965, "count_pixels": 41, "percent_cover": 0.90109890109890101, "percent_above_0.1m": 65.853658536585371, "low_level_<0.5": 4.8780487804878048, "mid_level_0.5-2": 17.073170731707318, "tall_2+": 39.024390243902438 }, "geometry": { "type": "Point", "coordinates": [ -2.269469424607902, 53.532111673840568 ] } },
{ "type": "Feature", "properties": { "max_height": 3.318756103515625, "mean_height": 0.88884347677230835, "std_height": 0.97577762603759766, "count_pixels": 43, "percent_cover": 0.94505494505494514, "percent_above_0.1m": 67.441860465116278, "low_level_<0.5": 13.953488372093023, "mid_level_0.5-2": 34.883720930232556, "tall_2+": 18.604651162790699 }, "geometry": { "type": "Point", "coordinates": [ -2.269783681811915, 53.532218831323824 ] } },
{ "type": "Feature", "properties": { "max_height": 11.0517578125, "mean_height": 3.0415048599243164, "std_height": 3.490882396697998, "count_pixels": 43, "percent_cover": 0.94505494505494514, "percent_above_0.1m": 69.767441860465112, "low_level_<0.5": 11.627906976744185, "mid_level_0.5-2": 9.3023255813953494, "tall_2+": 48.837209302325576 }, "geometry": { "type": "Point", "coordinates": [ -2.269574634185753, 53.532219299170656 ] } }
]
}
