{
"type": "FeatureCollection",
"name": "fc2449d077f7_visibility",
"crs": { "type": "name", "properties": { "name": "urn:ogc:def:crs:OGC:1.3:CRS84" } },
"features": [
{ "type": "Feature", "properties": { "visible_points": 10, "total_points": 62, "visibility_pct": 16.129032258064516 }, "geometry": { "type": "Point", "coordinates": [ -2.329558466460404, 53.561694098269093 ] } },
{ "type": "Feature", "properties": { "visible_points": 1, "total_points": 65, "visibility_pct": 1.5384615384615385 }, "geometry": { "type": "Point", "coordinates": [ -2.32934927963702, 53.561694675994424 ] } },
{ "type": "Feature", "properties": { "visible_points": 0, "total_points": 63, "visibility_pct": 0.0 }, "geometry": { "type": "Point", "coordinates": [ -2.329140092806218, 53.561695253354102 ] } },
{ "type": "Feature", "properties": { "visible_points": 0, "total_points": 64, "visibility_pct": 0.0 }, "geometry": { "type": "Point", "coordinates": [ -2.329663906183789, 53.561801666269957 ] } },
{ "type": "Feature", "properties": { "visible_points": 9, "total_points": 70, "visibility_pct": 12.857142857142856 }, "geometry": { "type": "Point", "coordinates": [ -2.329454718815115, 53.561802244195889 ] } },
{ "type": "Feature", "properties": { "visible_points": 13, "total_points": 71, "visibility_pct": 18.30985915492958 }, "geometry": { "type": "Point", "coordinates": [ -2.329245531439019, 53.561802821756139 ] } },
{ "type": "Feature", "properties": { "visible_points": 7, "total_points": 68, "visibility_pct": 10.294117647058822 }, "geometry": { "type": "Point", "coordinates": [ -2.329036344055499, 53.561803398950701 ] } },
{ "type": "Feature", "properties": { "visible_points": 0, "total_points": 61, "visibility_pct": 0.0 }, "geometry": { "type": "Point", "coordinates": [ -2.328827156664567, 53.561803975779569 ] } },
{ "type": "Feature", "properties": { "visible_points": 0, "total_points": 63, "visibility_pct": 0.0 }, "geometry": { "type": "Point", "coordinates": [ -2.329769346459868, 53.561909234159579 ] } },
{ "type": "Feature", "properties": { "visible_points": 9, "total_points": 71, "visibility_pct": 12.676056338028168 }, "geometry": { "type": "Point", "coordinates": [ -2.329560158545901, 53.561909812286082 ] } },
{ "type": "Feature", "properties": { "visible_points": 12, "total_points": 71, "visibility_pct": 16.901408450704224 }, "geometry": { "type": "Point", "coordinates": [ -2.329350970624505, 53.561910390046911 ] } },
{ "type": "Feature", "properties": { "visible_points": 13, "total_points": 71, "visibility_pct": 18.30985915492958 }, "geometry": { "type": "Point", "coordinates": [ -2.329141782695686, 53.561910967442053 ] } },
{ "type": "Feature", "properties": { "visible_points": 11, "total_points": 67, "visibility_pct": 16.417910447761194 }, "geometry": { "type": "Point", "coordinates": [ -2.328932594759448, 53.561911544471499 ] } },
{ "type": "Feature", "properties": { "visible_points": 8, "total_points": 58, "visibility_pct": 13.793103448275861 }, "geometry": { "type": "Point", "coordinates": [ -2.328723406815801, 53.561912121135265 ] } },
{ "type": "Feature", "properties": { "visible_points": 0, "total_points": 59, "visibility_pct": 0.0 }, "geometry": { "type": "Point", "coordinates": [ -2.329874787288651, 53.562016801937958 ] } },
{ "type": "Feature", "properties": { "visible_points": 9, "total_points": 68, "visibility_pct": 13.23529411764706 }, "geometry": { "type": "Point", "coordinates": [ -2.329665598829385, 53.562017380265068 ] } },
{ "type": "Feature", "properties": { "visible_points": 12, "total_points": 71, "visibility_pct": 16.901408450704224 }, "geometry": { "type": "Point", "coordinates": [ -2.329456410362688, 53.562017958226463 ] } },
{ "type": "Feature", "properties": { "visible_points": 13, "total_points": 71, "visibility_pct": 18.30985915492958 }, "geometry": { "type": "Point", "coordinates": [ -2.329247221888564, 53.562018535822176 ] } },
{ "type": "Feature", "properties": { "visible_points": 12, "total_points": 71, "visibility_pct": 16.901408450704224 }, "geometry": { "type": "Point", "coordinates": [ -2.329038033407022, 53.562019113052195 ] } },
{ "type": "Feature", "properties": { "visible_points": 11, "total_points": 62, "visibility_pct": 17.741935483870968 }, "geometry": { "type": "Point", "coordinates": [ -2.328828844918065, 53.562019689916546 ] } },
{ "type": "Feature", "properties": { "visible_points": 0, "total_points": 53, "visibility_pct": 0.0 }, "geometry": { "type": "Point", "coordinates": [ -2.329980228670132, 53.562124369605108 ] } },
{ "type": "Feature", "properties": { "visible_points": 0, "total_points": 63, "visibility_pct": 0.0 }, "geometry": { "type": "Point", "coordinates": [ -2.329771039665567, 53.562124948132777 ] } },
{ "type": "Feature", "properties": { "visible_points": 0, "total_points": 69, "visibility_pct": 0.0 }, "geometry": { "type": "Point", "coordinates": [ -2.329561850653567, 53.562125526294771 ] } },
{ "type": "Feature", "properties": { "visible_points": 10, "total_points": 71, "visibility_pct": 14.084507042253522 }, "geometry": { "type": "Point", "coordinates": [ -2.32935266163414, 53.56212610409105 ] } },
{ "type": "Feature", "properties": { "visible_points": 10, "total_points": 70, "visibility_pct": 14.285714285714285 }, "geometry": { "type": "Point", "coordinates": [ -2.329143472607288, 53.562126681521661 ] } },
{ "type": "Feature", "properties": { "visible_points": 11, "total_points": 64, "visibility_pct": 17.1875 }, "geometry": { "type": "Point", "coordinates": [ -2.328934283573021, 53.562127258586585 ] } },
{ "type": "Feature", "properties": { "visible_points": 0, "total_points": 60, "visibility_pct": 0.0 }, "geometry": { "type": "Point", "coordinates": [ -2.329667291497154, 53.562233094251837 ] } },
{ "type": "Feature", "properties": { "visible_points": 2, "total_points": 65, "visibility_pct": 3.0769230769230771 }, "geometry": { "type": "Point", "coordinates": [ -2.329458101932415, 53.562233672248709 ] } },
{ "type": "Feature", "properties": { "visible_points": 0, "total_points": 67, "visibility_pct": 0.0 }, "geometry": { "type": "Point", "coordinates": [ -2.329248912360259, 53.562234249879893 ] } },
{ "type": "Feature", "properties": { "visible_points": 2, "total_points": 63, "visibility_pct": 3.1746031746031744 }, "geometry": { "type": "Point", "coordinates": [ -2.329039722780672, 53.562234827145382 ] } },
{ "type": "Feature", "properties": { "visible_points": 0, "total_points": 56, "visibility_pct": 0.0 }, "geometry": { "type": "Point", "coordinates": [ -2.32883053319368, 53.562235404045182 ] } },
{ "type": "Feature", "properties": { "visible_points": 0, "total_points": 57, "visibility_pct": 0.0 }, "geometry": { "type": "Point", "coordinates": [ -2.329145162541032, 53.562342395592957 ] } },
{ "type": "Feature", "properties": { "visible_points": 2, "total_points": 53, "visibility_pct": 3.7735849056603774 }, "geometry": { "type": "Point", "coordinates": [ -2.328935972408714, 53.562342972693322 ] } }
]
}
