{
"type": "FeatureCollection",
"name": "BOLTO_20_toilets",
"crs": { "type": "name", "properties": { "name": "urn:ogc:def:crs:OGC:1.3:CRS84" } },
"features": [
{ "type": "Feature", "properties": { "name": "Upper ground floor market place", "payment_info": "Cost unknown", "accessible": "True", "radar": "True", "women": "True", "men": "True", "baby_change": "True", "Mon": "09:00-17:00", "Tue": "09:00-17:00", "Wed": "09:00-17:00", "Thu": "09:00-17:00", "Fri": "09:00-17:00", "Sat": "09:00-17:00", "Sun": "09:00-17:00", "index_right": 22, "park_offical_id": "BOLTO_20" }, "geometry": { "type": "Point", "coordinates": [ -2.430026827, 53.580509843 ] } },
{ "type": "Feature", "properties": { "name": "Bolton", "payment_info": "Free", "accessible": "False", "radar": "False", "women": "Unknown", "men": "Unknown", "baby_change": "False", "Mon": "Unknown", "Tue": "Unknown", "Wed": "Unknown", "Thu": "Unknown", "Fri": "Unknown", "Sat": "Unknown", "Sun": "Unknown", "index_right": 22, "park_offical_id": "BOLTO_20" }, "geometry": { "type": "Point", "coordinates": [ -2.42582971, 53.574157486 ] } },
{ "type": "Feature", "properties": { "name": "The Vaults ", "payment_info": "Free", "accessible": "True", "radar": "Unknown", "women": "True", "men": "True", "baby_change": "Unknown", "Mon": "Unknown", "Tue": "Unknown", "Wed": "Unknown", "Thu": "Unknown", "Fri": "Unknown", "Sat": "Unknown", "Sun": "Unknown", "index_right": 22, "park_offical_id": "BOLTO_20" }, "geometry": { "type": "Point", "coordinates": [ -2.429233789, 53.581031443 ] } },
{ "type": "Feature", "properties": { "name": "Bolton Interchange Bus Station", "payment_info": "Free", "accessible": "True", "radar": "True", "women": "True", "men": "True", "baby_change": "Unknown", "Mon": "Unknown", "Tue": "Unknown", "Wed": "Unknown", "Thu": "Unknown", "Fri": "Unknown", "Sat": "Unknown", "Sun": "Unknown", "index_right": 22, "park_offical_id": "BOLTO_20" }, "geometry": { "type": "Point", "coordinates": [ -2.427999973, 53.575998379 ] } },
{ "type": "Feature", "properties": { "name": "Bolton Museum", "payment_info": "Free", "accessible": "False", "radar": "Unknown", "women": "True", "men": "True", "baby_change": "True", "Mon": "09:00-17:00", "Tue": "09:00-17:00", "Wed": "09:00-17:00", "Thu": "09:00-17:00", "Fri": "09:00-17:00", "Sat": "09:00-17:00", "Sun": "09:00-17:00", "index_right": 22, "park_offical_id": "BOLTO_20" }, "geometry": { "type": "Point", "coordinates": [ -2.431380697, 53.577261205 ] } },
{ "type": "Feature", "properties": { "name": "Sainsburys Supermarket", "payment_info": "Free", "accessible": "True", "radar": "Unknown", "women": "True", "men": "True", "baby_change": "True", "Mon": "Unknown", "Tue": "Unknown", "Wed": "Unknown", "Thu": "Unknown", "Fri": "Unknown", "Sat": "Unknown", "Sun": "Unknown", "index_right": 22, "park_offical_id": "BOLTO_20" }, "geometry": { "type": "Point", "coordinates": [ -2.42913723, 53.572998786 ] } }
]
}
